01/02/2021 00:00:00Z	 SAID32 WIOO 010000	METAR WIOO 010000Z 00000KT 9000 BKN009 24/24 Q1011 NOSIG=
01/02/2021 00:30:00Z	 SAID32 WIOO 010030	METAR WIOO 010030Z 03003KT 9999 BKN009 25/24 Q1011 NOSIG=
01/02/2021 01:00:00Z	 SAID32 WIOO 010100	METAR WIOO 010100Z 08003KT 9999 SCT009 25/24 Q1011 NOSIG=
01/02/2021 01:30:00Z	 SAID32 WIOO 010130	METAR WIOO 010130Z 03003KT 9999 SCT011 26/24 Q1012 NOSIG=
01/02/2021 02:00:00Z	 SAID32 WIOO 010200	METAR WIOO 010200Z 04004KT 9999 BKN011 27/24 Q1012 NOSIG=
01/02/2021 02:30:00Z	 SAID32 WIOO 010230	METAR WIOO 010230Z 06005KT 9999 BKN012 28/24 Q1012 NOSIG=
01/02/2021 03:00:00Z	 SAID32 WIOO 010300	METAR WIOO 010300Z 03006KT 9999 BKN012 29/24 Q1012 NOSIG=
01/02/2021 03:30:00Z	 SAID32 WIOO 010330	METAR WIOO 010330Z 04004KT 9999 FEW011CB SCT012 29/24 Q1011 NOSIG=
01/02/2021 04:00:00Z	 SAID32 WIOO 010400	METAR WIOO 010400Z 08004KT 9999 FEW011CB BKN012 30/23 Q1011 NOSIG=
01/02/2021 04:30:00Z	 SAID32 WIOO 010430	METAR WIOO 010420Z 05011KT 5000 -RA FEW011CB BKN012 28/24 Q1011 TEMPO FM0445 35010KT 2000 RA=
01/02/2021 04:30:00Z	 SAID32 WIOO 010430 CCA	METAR COR WIOO 010430Z 05011KT 5000 -RA FEW011CB BKN012 28/24 Q1011 TEMPO FM0445 35010KT 2000 RA=
01/02/2021 05:00:00Z	 SAID32 WIOO 010500	METAR WIOO 010500Z 05003KT 9000 FEW011CB BKN012 28/24 Q1010 RERA=
01/02/2021 05:30:00Z	 SAID32 WIOO 010530	METAR WIOO 010530Z 02004KT 9000 TS FEW011CB BKN012 31/25 Q1010 TEMPO FM0600 33015KT 1000 TSRA=
01/02/2021 06:00:00Z	 SAID32 WIOO 010600	METAR WIOO 010600Z 25006KT 9000 TS FEW011CB BKN012 31/24 Q1009 TEMPO FM0610 27015KT 1000 TSRA=
01/02/2021 06:30:00Z	 SAID32 WIOO 010630	METAR WIOO 010630Z 33011KT 6000 TS FEW010CB BKN011 28/24 Q1009 TEMPO FM0640 30022KT 1000 TSRA =
01/02/2021 07:00:00Z	 SAID32 WIOO 010700	METAR WIOO 010700Z 05005KT 0600 TSRA FEW008CB BKN009 25/24 Q1009 TEMPO FM0715 4000 RA=
01/02/2021 07:30:00Z	 SAID32 WIOO 010730	METAR WIOO 010730Z 08005KT 4000 -TSRA FEW009CB BKN010 24/23 Q1009 BECMG FM0830 8000 NSW=
01/02/2021 08:00:00Z	 SAID32 WIOO 010800	METAR WIOO 010800Z 00000KT 5000 -RA FEW009CB BKN010 24/23 Q1008 BECMG FM0830 8000 NSW=
01/02/2021 08:30:00Z	 SAID32 WIOO 010830	METAR WIOO 010830Z VRB02KT 9999 NCD 25/25 Q1008=
01/02/2021 09:00:00Z	 SAID32 WIOO 010900	METAR WIOO 010900Z 00000KT 8000 BKN012 25/24 Q1008 NOSIG=
01/02/2021 09:30:00Z	 SAID32 WIOO 010930	METAR WIOO 010930Z 00000KT 8000 SCT012 26/24 Q1008 NOSIG=
01/02/2021 10:00:00Z	 SAID32 WIOO 011000	METAR WIOO 011000Z 00000KT 9000 SCT012 26/24 Q1008 NOSIG=
01/02/2021 10:30:00Z	 SAID32 WIOO 011030	METAR WIOO 011030Z 23003KT 8000 SCT012 26/24 Q1009 NOSIG=
01/02/2021 11:00:00Z	 SAID32 WIOO 011100	METAR WIOO 011100Z 00000KT 7000 SCT012 26/24 Q1009 NOSIG=
01/02/2021 11:30:00Z	 SAID32 WIOO 011130	METAR WIOO 011130Z 00000KT 6000 SCT012 26/24 Q1010 NOSIG=
01/02/2021 12:00:00Z	 SAID32 WIOO 011200	METAR WIOO 011200Z 08003KT 6000 FEW011CB SCT012 26/24 Q1010 NOSIG=
01/02/2021 12:30:00Z	 SAID32 WIOO 011230	METAR WIOO 011230Z 00000KT 6000 SCT011 26/24 Q1010 NOSIG=
01/02/2021 13:00:00Z	 SAID32 WIOO 011300	METAR WIOO 011300Z 06003KT 6000 SCT011 25/23 Q1010 NOSIG=
01/02/2021 13:30:00Z	 SAID32 WIOO 011330	METAR WIOO 011330Z 03003KT 6000 SCT011 25/24 Q1011 NOSIG=
01/02/2021 14:00:00Z	 SAID32 WIOO 011400	METAR WIOO 011400Z 00000KT 6000 SCT011 25/24 Q1011 NOSIG=
01/02/2021 14:30:00Z	 SAID32 WIOO 011430	METAR WIOO 011430Z 00000KT 6000 SCT011 25/24 Q1011 NOSIG=
01/02/2021 15:00:00Z	 SAID32 WIOO 011500	METAR WIOO 011500Z 00000KT 6000 SCT011 25/24 Q1011 NOSIG=
01/02/2021 15:30:00Z	 SAID32 WIOO 011530	METAR WIOO 011530Z 00000KT 6000 FEW011 24/24 Q1011 NOSIG=
01/02/2021 16:00:00Z	 SAID32 WIOO 011600	METAR WIOO 011600Z 00000KT 6000 FEW011 24/24 Q1011 NOSIG=
01/02/2021 16:30:00Z	 SAID32 WIOO 011630	METAR WIOO 011630Z AUTO 05001KT 9999 BKN046 24/23 Q1011=
01/02/2021 17:00:00Z	 SAID32 WIOO 011700	METAR WIOO 011700Z AUTO 18001KT 9999 BKN041 BKN042 BKN160 24/24 Q1011=
01/02/2021 17:30:00Z	 SAID32 WIOO 011730	METAR WIOO 011730Z AUTO 22001KT 9999 OVC038 OVC039 24/24 Q1011=
01/02/2021 18:00:00Z	 SAID32 WIOO 011800	METAR WIOO 011800Z AUTO 26001KT 9999 FEW039 OVC160 24/23 Q1010=
01/02/2021 18:30:00Z	 SAID32 WIOO 011830	METAR WIOO 011830Z AUTO 12001KT 9999 BKN130 OVC160 24/24 Q1010=
01/02/2021 19:00:00Z	 SAID32 WIOO 011900	METAR WIOO 011900Z AUTO 00000KT 9999 FEW032 BKN130 OVC160 24/24 Q1010=
01/02/2021 19:30:00Z	 SAID32 WIOO 011930	METAR WIOO 011930Z AUTO 04002KT 9999 OVC170 24/24 Q1010=
01/02/2021 20:00:00Z	 SAID32 WIOO 012000	METAR WIOO 012000Z AUTO 09001KT 9999 OVC170 24/24 Q1010=
01/02/2021 20:30:00Z	 SAID32 WIOO 012030	METAR WIOO 012030Z AUTO 01001KT 9999 OVC170 24/23 Q1010=
01/02/2021 21:00:00Z	 SAID32 WIOO 012100	METAR WIOO 012100Z AUTO 04001KT 9999 OVC170 24/24 Q1010=
01/02/2021 21:30:00Z	 SAID32 WIOO 012130	METAR WIOO 012130Z AUTO 08003KT 9999 OVC180 24/23 Q1010=
01/02/2021 22:00:00Z	 SAID32 WIOO 012200	METAR WIOO 012200Z 00000KT 6000 FEW012 24/23 Q1010 NOSIG=
01/02/2021 22:30:00Z	 SAID32 WIOO 012230	METAR WIOO 012230Z 00000KT 6000 FEW012 24/23 Q1010 NOSIG=
01/02/2021 23:00:00Z	 SAID32 WIOO 012300	METAR WIOO 012300Z 00000KT 6000 FEW012 23/23 Q1010 NOSIG=
01/02/2021 23:30:00Z	 SAID32 WIOO 012330	METAR WIOO 012330Z 00000KT 6000 FEW012 23/23 Q1010 NOSIG=
02/02/2021 00:00:00Z	 SAID32 WIOO 020000	METAR WIOO 020000Z 00000KT 9999 FEW012 24/24 Q1011 NOSIG=
02/02/2021 00:30:00Z	 SAID32 WIOO 020030	METAR WIOO 020030Z 00000KT 9999 FEW012 25/23 Q1011=
02/02/2021 01:00:00Z	 SAID32 WIOO 020100	METAR WIOO 020100Z 29003KT 9999 SCT012 26/24 Q1011=
02/02/2021 01:30:00Z	 SAID32 WIOO 020130	METAR WIOO 020130Z 26003KT 9999 SCT012 27/24 Q1011=
02/02/2021 02:00:00Z	 SAID32 WIOO 020200	METAR WIOO 020200Z 05004KT 9999 SCT012 28/24 Q1011=
02/02/2021 02:30:00Z	 SAID32 WIOO 020230	METAR WIOO 020230Z 33003KT 9999 SCT012 29/24 Q1011=
02/02/2021 03:00:00Z	 SAID32 WIOO 020300	METAR WIOO 020300Z 01007KT 9999 SCT012 30/24 Q1011=
02/02/2021 03:30:00Z	 SAID32 WIOO 020330	METAR WIOO 020330Z 36008KT 9999 SCT012 30/25 Q1010 NOSIG=
02/02/2021 04:00:00Z	 SAID32 WIOO 020400	METAR WIOO 020400Z 36009KT 9999 BKN012 30/23 Q1010 NOSIG=
02/02/2021 04:30:00Z	 SAID32 WIOO 020430	METAR WIOO 020430Z 01009KT 9999 BKN011 31/23 Q1010=
02/02/2021 05:00:00Z	 SAID32 WIOO 020500	METAR WIOO 020500Z 03010KT 9999 BKN010 31/23 Q1009=
02/02/2021 05:30:00Z	 SAID32 WIOO 020530	METAR WIOO 020530Z 02004KT 9999 BKN010 32/24 Q1009=
02/02/2021 06:00:00Z	 SAID32 WIOO 020600	METAR WIOO 020600Z 31006KT 9999 BKN011 31/23 Q1009=
02/02/2021 06:30:00Z	 SAID32 WIOO 020630	METAR WIOO 020630Z 34010KT 9999 BKN011 31/23 Q1008 NOSIG=
02/02/2021 07:00:00Z	 SAID32 WIOO 020700	METAR WIOO 020700Z 35009KT 9999 BKN011 31/23 Q1007 TEMPO FM0730 FEW010CB BKN011=
02/02/2021 07:30:00Z	 SAID32 WIOO 020730	METAR WIOO 020730Z 36006KT 9999 BKN011 32/23 Q1007 TEMPO FM0800 FEW010CB BKN011=
02/02/2021 08:00:00Z	 SAID32 WIOO 020800	METAR WIOO 020800Z 35005KT 9999 FEW011CB SCT012 32/23 Q1007 NOSIG=
02/02/2021 08:30:00Z	 SAID32 WIOO 020830	METAR WIOO 020830Z 36008KT 9999 FEW011CB SCT012 31/23 Q1007 NOSIG=
02/02/2021 09:00:00Z	 SAID32 WIOO 020900	METAR WIOO 020900Z 01005KT 9999 SCT012 31/23 Q1007 NOSIG=
02/02/2021 09:30:00Z	 SAID32 WIOO 020930	METAR WIOO 020930Z 34003KT 9999 SCT012 31/23 Q1007 NOSIG=
02/02/2021 10:00:00Z	 SAID32 WIOO 021000	METAR WIOO 021000Z 29008KT 9999 SCT012 30/25 Q1007 NOSIG=
02/02/2021 10:30:00Z	 SAID32 WIOO 021030	METAR WIOO 021030Z 28008KT 8000 SCT012 29/25 Q1008 NOSIG=
02/02/2021 11:00:00Z	 SAID32 WIOO 021100	METAR WIOO 021100Z 28008KT 8000 FEW011CB BKN012 28/25 Q1008 NOSIG=
02/02/2021 11:30:00Z	 SAID32 WIOO 021130	METAR WIOO 021130Z 28005KT 7000 FEW011CB BKN012 28/25 Q1008 NOSIG=
02/02/2021 12:00:00Z	 SAID32 WIOO 021200	METAR WIOO 021200Z 28004KT 6000 FEW011CB BKN012 28/25 Q1009 NOSIG=
02/02/2021 12:30:00Z	 SAID32 WIOO 021230	METAR WIOO 021230Z 31006KT 6000 FEW011CB BKN012 27/24 Q1009 NOSIG=
02/02/2021 13:00:00Z	 SAID32 WIOO 021300	METAR WIOO 021300Z 35004KT 6000 FEW011CB BKN012 27/24 Q1010 NOSIG=
02/02/2021 13:30:00Z	 SAID32 WIOO 021330	METAR WIOO 021330Z 01006KT 6000 FEW010 BKN011 26/24 Q1010 NOSIG=
02/02/2021 14:00:00Z	 SAID32 WIOO 021400	METAR WIOO 021400Z 00000KT 6000 -RA FEW010CB BKN011 26/24 Q1010 NOSIG=
02/02/2021 14:30:00Z	 SAID32 WIOO 021430	METAR WIOO 021430Z AUTO 34003KT 310V010 9999 FEW036 BKN050 BKN050 26/25 Q1010=
02/02/2021 15:00:00Z	 SAID32 WIOO 021500	METAR WIOO 021500Z AUTO VRB02KT 9999 BKN036 BKN037 BKN045 25/25 Q1010=
02/02/2021 15:30:00Z	 SAID32 WIOO 021530	METAR WIOO 021530Z AUTO 31002KT 9999 -RA FEW024 SCT047 OVC060 25/25 Q1010=
02/02/2021 16:00:00Z	 SAID32 WIOO 021600	METAR WIOO 021600Z AUTO 28002KT 9999 BKN065 OVC070 OVC075 25/25 Q1010=
02/02/2021 16:30:00Z	 SAID32 WIOO 021630	METAR WIOO 021630Z AUTO 30004KT 9999 FEW039 SCT040 BKN047 25/25 Q1010=
02/02/2021 17:00:00Z	 SAID32 WIOO 021700	METAR WIOO 021700Z AUTO 31004KT 9999 SCT046 BKN055 OVC070 25/25 Q1010=
02/02/2021 17:30:00Z	 SAID32 WIOO 021730	METAR WIOO 021730Z AUTO 32004KT 9999 FEW060 OVC070 OVC075 25/25 Q1009=
02/02/2021 18:00:00Z	 SAID32 WIOO 021800	METAR WIOO 021800Z AUTO 33004KT 9999 OVC075 OVC080 25/24 Q1009=
02/02/2021 18:30:00Z	 SAID32 WIOO 021830	METAR WIOO 021830Z AUTO 33003KT 9999 FEW080 24/24 Q1009=
02/02/2021 19:00:00Z	 SAID32 WIOO 021900	METAR WIOO 021900Z AUTO 31003KT 9999 FEW060 24/24 Q1009=
02/02/2021 19:30:00Z	 SAID32 WIOO 021930	METAR WIOO 021930Z AUTO 34003KT 9999 BKN033 BKN060 24/24 Q1009=
02/02/2021 20:00:00Z	 SAID32 WIOO 022000	METAR WIOO 022000Z AUTO 32003KT 9999 SCT035 BKN037 24/24 Q1009=
02/02/2021 20:30:00Z	 SAID32 WIOO 022030	METAR WIOO 022030Z AUTO 34004KT 9999 FEW010 SCT035 BKN055 24/24 Q1009=
02/02/2021 21:00:00Z	 SAID32 WIOO 022100	METAR WIOO 022100Z AUTO 32005KT 9999 BKN036 BKN042 BKN044 24/24 Q1009=
02/02/2021 21:30:00Z	 SAID32 WIOO 022130	METAR WIOO 022130Z AUTO 32004KT 9999 OVC060 24/24 Q1009=
02/02/2021 22:00:00Z	 SAID32 WIOO 022200	METAR WIOO 022200Z AUTO 35003KT 9999 OVC065 24/24 Q1010=
02/02/2021 22:30:00Z	 SAID32 WIOO 022230	METAR WIOO 022230Z AUTO 33003KT 9999 OVC065 24/24 Q1010=
02/02/2021 23:00:00Z	 SAID32 WIOO 022300	METAR WIOO 022300Z 30004KT 6000 SCT012 24/22 Q1011 NOSIG=
02/02/2021 23:30:00Z	 SAID32 WIOO 022330	METAR WIOO 022330Z 34007KT 9000 SCT012 24/23 Q1011 NOSIG=
03/02/2021 00:00:00Z	 SAID32 WIOO 030000	METAR WIOO 030000Z 34008KT 9999 SCT012 25/22 Q1011 NOSIG=
03/02/2021 00:30:00Z	 SAID32 WIOO 030030	METAR WIOO 030030Z 33006KT 9999 SCT012 25/23 Q1012 NOSIG=
03/02/2021 01:00:00Z	 SAID32 WIOO 030100	METAR WIOO 030100Z 33007KT 9999 SCT011 25/23 Q1012 NOSIG=
03/02/2021 01:30:00Z	 SAID32 WIOO 030130	METAR WIOO 030130Z 34008KT 9999 SCT011 26/24 Q1012 NOSIG=
03/02/2021 02:00:00Z	 SAID32 WIOO 030200	METAR WIOO 030200Z 34007KT 8000 BKN011 26/23 Q1012 NOSIG=
03/02/2021 02:30:00Z	 SAID32 WIOO 030230	METAR WIOO 030230Z 32007KT 9999 FEW010CB BKN011 26/23 Q1012 NOSIG=
03/02/2021 03:00:00Z	 SAID32 WIOO 030300	METAR WIOO 030300Z 33008KT 3000 -RA BKN011 26/23 Q1012 NOSIG=
03/02/2021 03:30:00Z	 SAID32 WIOO 030330	METAR WIOO 030330Z 31005KT 9000 BKN011 26/24 Q1012 RERA NOSIG=
03/02/2021 04:00:00Z	 SAID32 WIOO 030400	METAR WIOO 030400Z 34011KT 5000 -RA FEW010CB BKN011 25/23 Q1012 TEMPO FM0500 6000 NSW=
03/02/2021 04:30:00Z	 SAID32 WIOO 030430	METAR WIOO 030430Z 33010KT 8000 FEW010CB BKN011 26/24 Q1011 RERA NOSIG=
03/02/2021 05:00:00Z	 SAID32 WIOO 030500	METAR WIOO 030500Z 32011KT 9000 FEW010CB BKN011 26/23 Q1011 NOSIG=
03/02/2021 05:30:00Z	 SAID32 WIOO 030530	METAR WIOO 030530Z 32007KT 9999 FEW010CB BKN011 27/24 Q1010 NOSIG=
03/02/2021 06:00:00Z	 SAID32 WIOO 030600	METAR WIOO 030600Z 33010KT 9999 FEW010CB BKN011 27/23 Q1010 NOSIG=
03/02/2021 06:30:00Z	 SAID32 WIOO 030630	METAR WIOO 030630Z 33010KT 8000 FEW010CB BKN011 27/24 Q1009 NOSIG=
03/02/2021 07:00:00Z	 SAID32 WIOO 030700	METAR WIOO 030700Z 32007KT 9999 FEW010CB BKN011 28/23 Q1009=
03/02/2021 07:30:00Z	 SAID32 WIOO 030730	METAR WIOO 030730Z 30012KT 9999 BKN011 28/24 Q1008=
03/02/2021 08:00:00Z	 SAID32 WIOO 030800	METAR WIOO 030800Z 30009KT 9999 BKN012 28/23 Q1008=
03/02/2021 08:30:00Z	 SAID32 WIOO 030830	METAR WIOO 030830Z 33007KT 9999 BKN012 28/24 Q1009=
03/02/2021 09:00:00Z	 SAID32 WIOO 030900	METAR WIOO 030900Z 33007KT 9999 BKN011 28/23 Q1009=
03/02/2021 09:30:00Z	 SAID32 WIOO 030930	METAR WIOO 030930Z 36004KT 9999 BKN012 28/24 Q1009=
03/02/2021 10:00:00Z	 SAID32 WIOO 031000	METAR WIOO 031000Z 33007KT 9999 FEW009CB BKN010 28/24 Q1009 TEMPO FM1030 4000 RA=
03/02/2021 10:30:00Z	 SAID32 WIOO 031030	METAR WIOO 031030Z 01005KT 9999 FEW009CB BKN011 27/24 Q1010=
03/02/2021 11:00:00Z	 SAID32 WIOO 031100	METAR WIOO 031100Z 33004KT 7000 -RA FEW010CB BKN011 26/23 Q1010=
03/02/2021 11:30:00Z	 SAID32 WIOO 031130	METAR WIOO 031130Z 34005KT 6000 -RA FEW010CB BKN011 25/23 Q1010 NOSIG=
03/02/2021 12:00:00Z	 SAID32 WIOO 031200	METAR WIOO 031200Z 30004KT 6000 BKN011 25/23 Q1010 RERA=
03/02/2021 12:30:00Z	 SAID32 WIOO 031230	METAR WIOO 031230Z 34004KT 6000 BKN011 24/24 Q1010 NOSIG=
03/02/2021 13:00:00Z	 SAID32 WIOO 031300	METAR WIOO 031300Z 00000KT 6000 BKN013 25/23 Q1011=
03/02/2021 13:30:00Z	 SAID32 WIOO 031330	METAR WIOO 031330Z 00000KT 6000 -RA BKN011 25/24 Q1011 NOSIG=
03/02/2021 14:00:00Z	 SAID32 WIOO 031400	METAR WIOO 031400Z 04003KT 6000 -RA BKN011 25/23 Q1012 NOSIG=
03/02/2021 14:30:00Z	 SAID32 WIOO 031430	METAR WIOO 031430Z 00000KT 6000 BKN011 25/23 Q1012 RERA NOSIG=
03/02/2021 15:00:00Z	 SAID32 WIOO 031500	METAR WIOO 031500Z 00000KT 6000 BKN011 25/23 Q1012 NOSIG=
03/02/2021 15:30:00Z	 SAID32 WIOO 031530	METAR WIOO 031530Z 00000KT 6000 BKN011 25/23 Q1012 NOSIG=
03/02/2021 16:00:00Z	 SAID32 WIOO 031600	METAR WIOO 031600Z 00000KT 6000 BKN011 24/23 Q1012 NOSIG=
03/02/2021 16:30:00Z	 SAID32 WIOO 031630	METAR WIOO 031630Z 00000KT 6000 SCT011 24/23 Q1012 NOSIG=
03/02/2021 17:00:00Z	 SAID32 WIOO 031700	METAR WIOO 031700Z 00000KT 5000 BR SCT011 24/23 Q1011 NOSIG=
03/02/2021 17:30:00Z	 SAID32 WIOO 031730	METAR WIOO 031730Z 00000KT 4000 BR SCT010 24/23 Q1011 NOSIG=
03/02/2021 18:00:00Z	 SAID32 WIOO 031800	METAR WIOO 031800Z 00000KT 5000 BR SCT010 24/23 Q1011 NOSIG=
03/02/2021 18:30:00Z	 SAID32 WIOO 031830	METAR WIOO 031830Z AUTO 35002KT 7000 OVC043 OVC044 24/24 Q1011=
03/02/2021 19:00:00Z	 SAID32 WIOO 031900	METAR WIOO 031900Z AUTO 36002KT 9000 OVC043 OVC044 24/24 Q1010=
03/02/2021 19:30:00Z	 SAID32 WIOO 031930	METAR WIOO 031930Z AUTO 33003KT 9999 FEW044 OVC050 BKN085 24/24 Q1010=
03/02/2021 20:00:00Z	 SAID32 WIOO 032000	METAR WIOO 032000Z AUTO 34003KT 9999 FEW050 OVC210 OVC220 24/24 Q1010=
03/02/2021 20:30:00Z	 SAID32 WIOO 032030	METAR WIOO 032030Z AUTO 33004KT 9999 BKN080 OVC220 24/23 Q1010=
03/02/2021 21:00:00Z	 SAID32 WIOO 032100	METAR WIOO 032100Z AUTO 32003KT 9999 SCT085 OVC220 24/23 Q1010=
03/02/2021 21:30:00Z	 SAID32 WIOO 032130	METAR WIOO 032130Z AUTO 27004KT 9999 BKN080 BKN090 OVC220 24/23 Q1010=
03/02/2021 22:00:00Z	 SAID32 WIOO 032200	METAR WIOO 032200Z 00000KT 6000 SCT011 24/23 Q1011 NOSIG=
03/02/2021 22:30:00Z	 SAID32 WIOO 032230	METAR WIOO 032230Z 00000KT 6000 SCT011 24/23 Q1011 NOSIG=
03/02/2021 23:00:00Z	 SAID32 WIOO 032300	METAR WIOO 032300Z 00000KT 6000 SCT011 24/23 Q1011 NOSIG=
03/02/2021 23:30:00Z	 SAID32 WIOO 032330	METAR WIOO 032330Z 03003KT 7000 FEW011 24/23 Q1011 NOSIG=
04/02/2021 00:00:00Z	 SAID32 WIOO 040000	METAR WIOO 040000Z 36004KT 8000 FEW012 25/24 Q1012 NOSIG=
04/02/2021 00:30:00Z	 SAID32 WIOO 040030	METAR WIOO 040030Z 36006KT 9999 FEW012 26/24 Q1012 NOSIG=
04/02/2021 01:00:00Z	 SAID32 WIOO 040100	METAR WIOO 040100Z 35009KT 9999 FEW012 26/24 Q1012 NOSIG=
04/02/2021 01:30:00Z	 SAID32 WIOO 040130	METAR WIOO 040130Z 34008KT 9999 FEW011 27/24 Q1012 NOSIG=
04/02/2021 02:00:00Z	 SAID32 WIOO 040200	METAR WIOO 040200Z 33010KT 9999 BKN011 28/24 Q1012 NOSIG=
04/02/2021 02:30:00Z	 SAID32 WIOO 040230	METAR WIOO 040230Z 35012KT 9999 BKN011 29/24 Q1012 NOSIG=
04/02/2021 03:00:00Z	 SAID32 WIOO 040300	METAR WIOO 040300Z 36010KT 9999 BKN011 29/24 Q1011 NOSIG=
04/02/2021 03:30:00Z	 SAID32 WIOO 040330	METAR WIOO 040330Z 32010KT 9999 SCT011 29/24 Q1011 NOSIG=
04/02/2021 04:00:00Z	 SAID32 WIOO 040400	METAR WIOO 040400Z 31007KT 9999 BKN011 30/24 Q1011 NOSIG=
04/02/2021 04:30:00Z	 SAID32 WIOO 040430	METAR WIOO 040430Z 33008KT 9999 BKN011 29/24 Q1010 NOSIG=
04/02/2021 05:00:00Z	 SAID32 WIOO 040500	METAR WIOO 040500Z 36010KT 9000 FEW011TCU BKN012 31/24 Q1010 NOREP=
04/02/2021 05:10:00Z	 SAID32 WIOO 040510 CCA	METAR COR WIOO 040500Z 36010KT 9000 FEW011TCU BKN012 31/24 Q1010 NOSIG=
04/02/2021 05:30:00Z	 SAID32 WIOO 040530	METAR WIOO 040530Z 36008KT 8000 -RA FEW010TCU BKN011 28/25 Q1009 TEMPO FM0600 3000 RA=
04/02/2021 06:00:00Z	 SAID32 WIOO 040600	METAR WIOO 040600Z 35014KT 9999 FEW010TCU BKN011 30/24 Q1009 NOSIG=
04/02/2021 06:30:00Z	 SAID32 WIOO 040630	METAR WIOO 040630Z 36012KT 9999 FEW010TCU BKN011 31/24 Q1009 NOSIG=
04/02/2021 07:00:00Z	 SAID32 WIOO 040700	METAR WIOO 040700Z 35012KT 9999 BKN011 30/23 Q1009 NOSIG=
04/02/2021 07:30:00Z	 SAID32 WIOO 040730	METAR WIOO 040730Z 34011KT 9999 BKN011 30/23 Q1008 NOSIG=
04/02/2021 08:00:00Z	 SAID32 WIOO 040800	METAR WIOO 040800Z 32010KT 9999 SCT011 30/23 Q1008 NOSIG=
04/02/2021 08:30:00Z	 SAID32 WIOO 040830	METAR WIOO 040830Z 35011KT 9999 SCT012 29/23 Q1008 NOSIG=
04/02/2021 09:00:00Z	 SAID32 WIOO 040900	METAR WIOO 040900Z 34010KT 9999 SCT012 29/23 Q1008 NOSIG=
04/02/2021 09:30:00Z	 SAID32 WIOO 040930	METAR WIOO 040930Z 32009KT 9999 SCT012 28/24 Q1008 NOSIG=
04/02/2021 10:00:00Z	 SAID32 WIOO 041000	METAR WIOO 041000Z 34009KT 9999 SCT012 28/23 Q1008 NOSIG=
04/02/2021 10:30:00Z	 SAID32 WIOO 041030	METAR WIOO 041030Z 35006KT 9999 FEW012 27/23 Q1008 NOSIG=
04/02/2021 11:00:00Z	 SAID32 WIOO 041100	METAR WIOO 041100Z 31005KT 8000 FEW012 27/23 Q1009 NOSIG=
04/02/2021 11:30:00Z	 SAID32 WIOO 041130	METAR WIOO 041130Z 32005KT 6000 FEW012 27/23 Q1009 NOSIG=
04/02/2021 12:00:00Z	 SAID32 WIOO 041200	METAR WIOO 041200Z 33005KT 6000 FEW012 26/23 Q1009 NOSIG=
04/02/2021 12:30:00Z	 SAID32 WIOO 041230	METAR WIOO 041230Z 33005KT 6000 FEW012 26/23 Q1010 NOSIG=
04/02/2021 13:00:00Z	 SAID32 WIOO 041300	METAR WIOO 041300Z 32004KT 6000 FEW012 25/24 Q1010 NOSIG=
04/02/2021 13:30:00Z	 SAID32 WIOO 041330	METAR WIOO 041330Z 30003KT 6000 FEW012 25/24 Q1011=
04/02/2021 14:00:00Z	 SAID32 WIOO 041400	METAR WIOO 041400Z 00000KT 6000 SCT012 25/23 Q1011=
04/02/2021 14:30:00Z	 SAID32 WIOO 041430	METAR WIOO 041430Z 00000KT 6000 SCT012 25/23 Q1011=
04/02/2021 15:00:00Z	 SAID32 WIOO 041500	METAR WIOO 041500Z 00000KT 6000 SCT012 25/23 Q1011=
04/02/2021 15:30:00Z	 SAID32 WIOO 041530	METAR WIOO 041530Z 00000KT 6000 SCT012 25/23 Q1011 NOSIG=
04/02/2021 16:00:00Z	 SAID32 WIOO 041600	METAR WIOO 041600Z 00000KT 6000 SCT012 25/23 Q1011=
04/02/2021 16:30:00Z	 SAID32 WIOO 041630	METAR WIOO 041630Z 00000KT 6000 SCT012 25/23 Q1011 NOSIG=
04/02/2021 17:30:00Z	 SAID32 WIOO 041730	METAR WIOO 041730Z 00000KT 6000 SCT012 25/23 Q1010=
04/02/2021 18:00:00Z	 SAID32 WIOO 041800	METAR WIOO 041800Z 00000KT 6000 SCT012 25/23 Q1010=
04/02/2021 18:30:00Z	 SAID32 WIOO 041830	METAR WIOO 041830Z AUTO 17003KT 7000 BR FEW050 BKN055 24/24 Q1010=
04/02/2021 19:00:00Z	 SAID32 WIOO 041900	METAR WIOO 041900Z AUTO 18002KT 6000 BR BKN050 OVC055 OVC060 24/24 Q1010=
04/02/2021 19:30:00Z	 SAID32 WIOO 041930	METAR WIOO 041930Z AUTO 30001KT 6000 BR FEW050 BKN065 OVC110 24/24 Q1010=
04/02/2021 20:00:00Z	 SAID32 WIOO 042000	METAR WIOO 042000Z AUTO 27002KT 7000 SCT046 BKN110 OVC240 24/24 Q1010=
04/02/2021 20:30:00Z	 SAID32 WIOO 042030	METAR WIOO 042030Z AUTO 21004KT 8000 BKN049 BKN050 OVC055 24/23 Q1010=
04/02/2021 21:00:00Z	 SAID32 WIOO 042100	METAR WIOO 042100Z AUTO 25005KT 9999 SCT022 BKN045 OVC060 24/24 Q1010=
04/02/2021 21:30:00Z	 SAID32 WIOO 042130	METAR WIOO 042130Z AUTO 24005KT 9999 FEW003 OVC060 24/24 Q1009=
04/02/2021 23:00:00Z	 SAID32 WIOO 042300	METAR WIOO 042300Z 30003KT 8000 FEW011CB SCT012 24/23 Q1010=
04/02/2021 23:30:00Z	 SAID32 WIOO 042330	METAR WIOO 042330Z 28003KT 6000 BR FEW011 BKN012 24/24 Q1010 NOSIG=
04/02/2021 23:32:00Z	 SAID32 WIOO 042332 CCA	METAR COR WIOO 042330Z 28003KT 5000 BR FEW011 BKN012 24/24 Q1010 NOSIG=
05/02/2021 00:00:00Z	 SAID32 WIOO 050000	METAR WIOO 050000Z 31004KT 9000 FEW011CB BKN012 25/24 Q1011 NOSIG=
05/02/2021 00:30:00Z	 SAID32 WIOO 050030	METAR WIOO 050030Z 28005KT 8000 FEW010CB BKN011 25/24 Q1011 TEMPO FM0115 3000 RA=
05/02/2021 01:00:00Z	 SAID32 WIOO 050100	METAR WIOO 050100Z 32005KT 8000 -RA FEW009CB BKN010 26/25 Q1011 TEMPO FM0115 3000 RA=
05/02/2021 01:30:00Z	 SAID32 WIOO 050130	METAR WIOO 050130Z 31006KT 9000 -RA BKN011 26/25 Q1011 NOSIG=
05/02/2021 02:00:00Z	 SAID32 WIOO 050200	METAR WIOO 050200Z 31005KT 9999 SCT010 26/25 Q1011 NOSIG=
05/02/2021 02:30:00Z	 SAID32 WIOO 050230	METAR WIOO 050230Z 32005KT 9999 SCT011 27/25 Q1012 NOSIG=
05/02/2021 03:00:00Z	 SAID32 WIOO 050300	METAR WIOO 050300Z 31008KT 9999 BKN010 27/25 Q1011 NOSIG=
05/02/2021 03:30:00Z	 SAID32 WIOO 050330	METAR WIOO 050330Z 33007KT 9999 BKN011 28/25 Q1011 NOSIG=
05/02/2021 04:00:00Z	 SAID32 WIOO 050400	METAR WIOO 050400Z 30008KT 9999 -RA FEW010CB BKN011 28/25 Q1011 NOSIG=
05/02/2021 04:30:00Z	 SAID32 WIOO 050430	METAR WIOO 050430Z 30005KT 8000 -RA FEW010CB BKN011 28/25 Q1010 NOSIG=
05/02/2021 05:00:00Z	 SAID32 WIOO 050500	METAR WIOO 050500Z 27007KT 8000 -RA FEW010CB BKN011 28/24 Q1010 NOSIG=
05/02/2021 05:30:00Z	 SAID32 WIOO 050530	METAR WIOO 050530Z 27005KT 8000 -RA FEW010CB BKN011 28/24 Q1009 NOSIG=
05/02/2021 06:00:00Z	 SAID32 WIOO 050600	METAR WIOO 050600Z 30005KT 8000 -RA FEW010CB BKN011 28/25 Q1008 NOSIG=
05/02/2021 06:30:00Z	 SAID32 WIOO 050630	METAR WIOO 050630Z 35007KT 9999 BKN011 29/25 Q1008 RERA NOSIG=
05/02/2021 07:00:00Z	 SAID32 WIOO 050700	METAR WIOO 050700Z 31007KT 9999 BKN011 29/25 Q1007 NOSIG=
05/02/2021 07:30:00Z	 SAID32 WIOO 050730	METAR WIOO 050730Z 31008KT 9999 BKN011 29/25 Q1007 NOSIG=
05/02/2021 08:00:00Z	 SAID32 WIOO 050800	METAR WIOO 050800Z 31006KT 9999 FEW010CB BKN011 29/24 Q1007 NOSIG=
05/02/2021 08:30:00Z	 SAID32 WIOO 050830	METAR WIOO 050830Z 27009KT 9999 TS FEW010CB BKN011 28/25 Q1007 TEMPO FM0845 27015KT 3000 TSRA=
05/02/2021 09:00:00Z	 SAID32 WIOO 050900	METAR WIOO 050900Z 08005KT 9000 TS FEW009CB BKN010 28/25 Q1007 TEMPO FM0915 VRB15KT 3000 TSRA=
05/02/2021 09:30:00Z	 SAID32 WIOO 050930	METAR WIOO 050930Z 13003KT 6000 -TSRA FEW008CB BKN009 26/23 Q1007 TEMPO TL1030 3000 TSRA=
05/02/2021 09:32:00Z	 SAID32 WIOO 050932	METAR WIOO 050932Z 10003KT 3000 TSRA FEW008CB BKN009 26/23 Q1007 TEMPO TL1030 3000 TSRA=
05/02/2021 10:00:00Z	 SAID32 WIOO 051000	METAR WIOO 051000Z 26003KT 7000 -RA FEW010CB BKN011 26/24 Q1007 RETS NOSIG=
05/02/2021 10:30:00Z	 SAID32 WIOO 051030	METAR WIOO 051030Z 00000KT 9999 SCT011 26/24 Q1007 RERA NOSIG=
05/02/2021 11:00:00Z	 SAID32 WIOO 051100	METAR WIOO 051100Z 00000KT 7000 SCT012 26/24 Q1008 NOSIG=
05/02/2021 11:30:00Z	 SAID32 WIOO 051130	METAR WIOO 051130Z 00000KT 6000 SCT012 25/24 Q1009 NOSIG=
05/02/2021 12:00:00Z	 SAID32 WIOO 051200	METAR WIOO 051200Z 00000KT 6000 SCT012 25/23 Q1009 NOSIG=
05/02/2021 12:30:00Z	 SAID32 WIOO 051230	METAR WIOO 051230Z 00000KT 6000 SCT012 25/23 Q1009 NOSIG=
05/02/2021 13:00:00Z	 SAID32 WIOO 051300	METAR WIOO 051300Z 01004KT 9999 SCT012 25/24 Q1009 NOSIG=
05/02/2021 13:30:00Z	 SAID32 WIOO 051330	METAR WIOO 051330Z 00000KT 6000 SCT012 25/24 Q1010 NOSIG=
05/02/2021 14:00:00Z	 SAID32 WIOO 051400	METAR WIOO 051400Z 00000KT 6000 SCT012 25/24 Q1010 NOSIG=
05/02/2021 14:30:00Z	 SAID32 WIOO 051430	METAR WIOO 051430Z 00000KT 6000 SCT012 25/24 Q1010 NOSIG=
05/02/2021 15:00:00Z	 SAID32 WIOO 051500	METAR WIOO 051500Z 00000KT 6000 FEW012 24/23 Q1011 NOSIG=
05/02/2021 15:30:00Z	 SAID32 WIOO 051530	METAR WIOO 051530Z 16003KT 6000 FEW012 24/24 Q1011 NOSIG=
05/02/2021 16:00:00Z	 SAID32 WIOO 051600	METAR WIOO 051600Z 17003KT 6000 FEW012 24/23 Q1011 NOSIG=
05/02/2021 16:30:00Z	 SAID32 WIOO 051630	METAR WIOO 051630Z 19003KT 6000 FEW012 24/23 Q1011 NOSIG=
05/02/2021 17:00:00Z	 SAID32 WIOO 051700	METAR WIOO 051700Z 00000KT 4000 BR FEW012 24/23 Q1010 NOSIG=
05/02/2021 17:30:00Z	 SAID32 WIOO 051730	METAR WIOO 051730Z 00000KT 1500 BR SCT012 23/23 Q1010 NOSIG=
05/02/2021 18:00:00Z	 SAID32 WIOO 051800	METAR WIOO 051800Z 33003KT 3000 BR SCT012 23/22 Q1009 NOSIG=
05/02/2021 18:30:00Z	 SAID32 WIOO 051830	METAR WIOO 051830Z AUTO 25001KT 8000 3200 BR SCT300 23/23 Q1009=
05/02/2021 19:00:00Z	 SAID32 WIOO 051900	METAR WIOO 051900Z AUTO 33002KT 7000 BR NCD 23/23 Q1009=
05/02/2021 19:30:00Z	 SAID32 WIOO 051930	METAR WIOO 051930Z AUTO 28002KT 6000 BR FEW320 23/23 Q1009=
05/02/2021 20:00:00Z	 SAID32 WIOO 052000	METAR WIOO 052000Z AUTO 31002KT 6000 NCD 23/23 Q1009=
05/02/2021 20:30:00Z	 SAID32 WIOO 052030	METAR WIOO 052030Z AUTO 34002KT 9000 SCT170 23/23 Q1008=
05/02/2021 21:00:00Z	 SAID32 WIOO 052100	METAR WIOO 052100Z AUTO 23001KT 9999 BKN160 BKN170 BKN190 23/23 Q1009=
05/02/2021 21:30:00Z	 SAID32 WIOO 052130	METAR WIOO 052130Z AUTO 00000KT 9000 4000 BR BKN160 23/23 Q1009=
05/02/2021 22:00:00Z	 SAID32 WIOO 052200	METAR WIOO 052200Z 00000KT 4000 BR SCT012 23/23 Q1009 NOSIG=
05/02/2021 22:30:00Z	 SAID32 WIOO 052230	METAR WIOO 052230Z 00000KT 3000 BR SCT012 23/23 Q1009 NOSIG=
05/02/2021 23:00:00Z	 SAID32 WIOO 052300	METAR WIOO 052300Z 00000KT 1000 BR FEW012 23/23 Q1009 TEMPO AT0000 7000 NSW=
05/02/2021 23:30:00Z	 SAID32 WIOO 052330	METAR WIOO 052330Z 00000KT 2000 BR SCT010 23/23 Q1010 BECMG FM0030 8000 NSW=
06/02/2021 00:00:00Z	 SAID32 WIOO 060000	METAR WIOO 060000Z 00000KT 4000 BR SCT010 24/23 Q1010 BECMG FM0030 8000 NSW=
06/02/2021 00:30:00Z	 SAID32 WIOO 060030	METAR WIOO 060030Z 35003KT 6000 SCT010 24/23 Q1011 NOSIG=
06/02/2021 01:00:00Z	 SAID32 WIOO 060100	METAR WIOO 060100Z 32003KT 8000 SCT011 25/24 Q1011 NOSIG=
06/02/2021 01:30:00Z	 SAID32 WIOO 060130	METAR WIOO 060130Z 35006KT 9999 FEW011 27/24 Q1011 NOSIG=
06/02/2021 02:00:00Z	 SAID32 WIOO 060200	METAR WIOO 060200Z 34006KT 9999 FEW011 27/24 Q1011 NOSIG=
06/02/2021 02:30:00Z	 SAID32 WIOO 060230	METAR WIOO 060230Z 36006KT 9999 SCT011 28/23 Q1011 NOSIG=
06/02/2021 03:00:00Z	 SAID32 WIOO 060300	METAR WIOO 060300Z 32007KT 9999 BKN011 29/24 Q1011 NOSIG=
06/02/2021 03:30:00Z	 SAID32 WIOO 060330	METAR WIOO 060330Z 35005KT 9999 BKN012 29/23 Q1010 NOSIG=
06/02/2021 04:00:00Z	 SAID32 WIOO 060400	METAR WIOO 060400Z 34005KT 9999 BKN012 29/23 Q1010 NOSIG=
06/02/2021 04:30:00Z	 SAID32 WIOO 060430	METAR WIOO 060430Z 36006KT 9999 BKN012 30/23 Q1009 NOSIG=
06/02/2021 05:00:00Z	 SAID32 WIOO 060500	METAR WIOO 060500Z 30007KT 9999 BKN012 30/24 Q1009 NOSIG=
06/02/2021 05:30:00Z	 SAID32 WIOO 060530	METAR WIOO 060530Z 22008KT 8000 FEW010CB BKN011 30/23 Q1008 NOSIG=
06/02/2021 06:00:00Z	 SAID32 WIOO 060600	METAR WIOO 060600Z 24008KT 8000 FEW010CB BKN011 31/25 Q1007 NOSIG=
06/02/2021 06:30:00Z	 SAID32 WIOO 060630	METAR WIOO 060630Z 28008KT 9999 FEW010CB BKN011 30/26 Q1007 NOSIG=
06/02/2021 07:00:00Z	 SAID32 WIOO 060700	METAR WIOO 060700Z 28010KT 9999 FEW010CB BKN011 31/26 Q1006 NOSIG=
06/02/2021 07:30:00Z	 SAID32 WIOO 060730	METAR WIOO 060730Z 28010KT 9999 FEW010CB BKN011 31/26 Q1006 NOSIG=
06/02/2021 08:00:00Z	 SAID32 WIOO 060800	METAR WIOO 060800Z 29010KT 9999 FEW010CB BKN011 30/26 Q1005 NOSIG=
06/02/2021 08:30:00Z	 SAID32 WIOO 060830	METAR WIOO 060830Z 29010KT 9999 FEW011CB BKN012 31/25 Q1005 NOSIG=
06/02/2021 09:00:00Z	 SAID32 WIOO 060900	METAR WIOO 060900Z 30011KT 9999 FEW010CB BKN011 31/25 Q1005 NOSIG=
06/02/2021 09:30:00Z	 SAID32 WIOO 060930	METAR WIOO 060930Z 27008KT 9999 FEW011CB SCT012 29/25 Q1005 NOSIG=
06/02/2021 10:30:00Z	 SAID32 WIOO 061030	METAR WIOO 061030Z 27007KT 9999 SCT012 29/24 Q1006=
06/02/2021 11:00:00Z	 SAID32 WIOO 061100	METAR WIOO 061100Z 27005KT 9999 SCT012 28/24 Q1006=
06/02/2021 11:30:00Z	 SAID32 WIOO 061130	METAR WIOO 061130Z 30003KT 6000 FEW011CB BKN12 28/25 Q1007=
06/02/2021 12:30:00Z	 SAID32 WIOO 061230	METAR WIOO 061230Z 27004KT 6000 BKN012 27/25 Q1008=
06/02/2021 13:00:00Z	 SAID32 WIOO 061300	METAR WIOO 061300Z 00000KT 6000 BKN012 27/24 Q1008=
06/02/2021 13:30:00Z	 SAID32 WIOO 061330	METAR WIOO 061330Z 32004KT 6000 BKN012 27/24 Q1008 NOSIG=
06/02/2021 14:00:00Z	 SAID32 WIOO 061400	METAR WIOO 061400Z 27003KT 6000 BKN012 27/24 Q1009 NOSIG=
06/02/2021 14:30:00Z	 SAID32 WIOO 061430	METAR WIOO 061430Z AUTO 28004KT 9999 OVC190 26/25 Q1009 NOSIG=
06/02/2021 15:00:00Z	 SAID32 WIOO 061500	METAR WIOO 061500Z AUTO 32003KT 9000 BKN050 OVC190 25/25 Q1009 NOSIG=
06/02/2021 15:30:00Z	 SAID32 WIOO 061530	METAR WIOO 061530Z AUTO 31003KT 9000 OVC046 26/25 Q1009 NOSIG=
06/02/2021 16:00:00Z	 SAID32 WIOO 061600	METAR WIOO 061600Z AUTO 28003KT 9999 OVC047 OVC048 26/25 Q1009 NOSIG=
06/02/2021 16:30:00Z	 SAID32 WIOO 061630	METAR WIOO 061630Z AUTO 27004KT 9999 FEW039 OVC047 OVC050 25/25 Q1009=
06/02/2021 17:00:00Z	 SAID32 WIOO 061700	METAR WIOO 061700Z AUTO 29004KT 9999 OVC049 OVC050 25/25 Q1009=
06/02/2021 17:30:00Z	 SAID32 WIOO 061730	METAR WIOO 061730Z AUTO 31005KT 9999 OVC050 25/24 Q1009=
06/02/2021 18:00:00Z	 SAID32 WIOO 061800	METAR WIOO 061800Z AUTO 32003KT 9999 BKN050 BKN060 BKN095 25/24 Q1008=
06/02/2021 18:30:00Z	 SAID32 WIOO 061830	METAR WIOO 061830Z AUTO 32003KT 9999 OVC050 BKN110 OVC190 25/24 Q1008=
06/02/2021 19:00:00Z	 SAID32 WIOO 061900	METAR WIOO 061900Z AUTO 32004KT 9999 FEW041 SCT042 OVC060 25/24 Q1008=
06/02/2021 19:30:00Z	 SAID32 WIOO 061930	METAR WIOO 061930Z AUTO 31004KT 9999 BKN044 OVC060 OVC190 25/24 Q1008=
06/02/2021 20:00:00Z	 SAID32 WIOO 062000	METAR WIOO 062000Z AUTO 32003KT 9999 OVC041 BKN042 BKN060 24/24 Q1008=
06/02/2021 20:30:00Z	 SAID32 WIOO 062030	METAR WIOO 062030Z AUTO 30003KT 9999 OVC046 25/24 Q1008=
06/02/2021 21:00:00Z	 SAID32 WIOO 062100	METAR WIOO 062100Z AUTO 33002KT 9999 OVC046 25/24 Q1008=
06/02/2021 21:30:00Z	 SAID32 WIOO 062130	METAR WIOO 062130Z AUTO 31003KT 9999 SCT047 SCT048 BKN055 25/24 Q1008=
06/02/2021 22:00:00Z	 SAID32 WIOO 062200	METAR WIOO 062200Z AUTO 31002KT 9999 SCT050 BKN065 OVC190 24/24 Q1008=
06/02/2021 22:30:00Z	 SAID32 WIOO 062230	METAR WIOO 062230Z AUTO 31002KT 9999 FEW036 BKN046 OVC050 24/24 Q1008=
06/02/2021 23:00:00Z	 SAID32 WIOO 062300	METAR WIOO 062300Z AUTO 33002KT 9000 FEW031 OVC039 BKN039 24/24 Q1009=
06/02/2021 23:30:00Z	 SAID32 WIOO 062330	METAR WIOO 062330Z 00000KT 8000 BKN011 25/24 Q1009 NOSIG=
07/02/2021 00:00:00Z	 SAID32 WIOO 070000	METAR WIOO 070000Z 35003KT 8000 BKN012 25/24 Q1009 NOSIG=
07/02/2021 00:30:00Z	 SAID32 WIOO 070030	METAR WIOO 070030Z 35004KT 9999 BKN012 26/24 Q1010 NOSIG=
07/02/2021 01:00:00Z	 SAID32 WIOO 070100	METAR WIOO 070100Z 32005KT 9999 BKN012 26/24 Q1010 NOSIG=
07/02/2021 01:30:00Z	 SAID32 WIOO 070130	METAR WIOO 070130Z 33008KT 9999 BKN012 27/24 Q1011 NOSIG=
07/02/2021 02:00:00Z	 SAID32 WIOO 070200	METAR WIOO 070200Z 33008KT 9999 BKN012 28/24 Q1011 NOSIG=
07/02/2021 02:30:00Z	 SAID32 WIOO 070230	METAR WIOO 070230Z 33010KT 9999 BKN012 28/24 Q1011 NOSIG=
07/02/2021 03:00:00Z	 SAID32 WIOO 070300	METAR WIOO 070300Z 32010KT 9999 BKN012 28/24 Q1011 NOSIG=
07/02/2021 03:30:00Z	 SAID32 WIOO 070330	METAR WIOO 070330Z 33011KT 9999 BKN012 30/24 Q1010 NOSIG=
07/02/2021 04:00:00Z	 SAID32 WIOO 070400	METAR WIOO 070400Z 35009KT 9999 BKN012 30/24 Q1010 NOSIG=
07/02/2021 04:30:00Z	 SAID32 WIOO 070430	METAR WIOO 070430Z 34008KT 9999 FEW011CB BKN012 30/24 Q1010 TEMPO FM0445 4000 RA=
07/02/2021 05:00:00Z	 SAID32 WIOO 070500	METAR WIOO 070500Z 29010KT 8000 FEW011CB BKN012 31/24 Q1009 NOSIG=
07/02/2021 05:30:00Z	 SAID32 WIOO 070530	METAR WIOO 070530Z 31006KT 9999 FEW011CB BKN012 30/23 Q1008 NOSIG=
07/02/2021 06:00:00Z	 SAID32 WIOO 070600	METAR WIOO 070600Z 32008KT 9999 BKN012 31/25 Q1008 NOSIG=
07/02/2021 06:30:00Z	 SAID32 WIOO 070630	METAR WIOO 070630Z 31012KT 9999 BKN012 31/24 Q1007 NOSIG=
07/02/2021 07:00:00Z	 SAID32 WIOO 070700	METAR WIOO 070700Z 30010KT 9999 BKN012 31/24 Q1007 NOSIG=
07/02/2021 07:30:00Z	 SAID32 WIOO 070730	METAR WIOO 070730Z 28010KT 9999 BKN012 30/24 Q1006 NOSIG=
07/02/2021 08:00:00Z	 SAID32 WIOO 070800	METAR WIOO 070800Z 30010KT 9999 BKN012 30/24 Q1006 NOSIG=
07/02/2021 08:30:00Z	 SAID32 WIOO 070830	METAR WIOO 070830Z 28010KT 9999 BKN012 30/24 Q1006 BOSIG=
07/02/2021 09:00:00Z	 SAID32 WIOO 070900	METAR WIOO 070900Z 28010KT 9999 BKN012 30/25 Q1006 NOSIG=
07/02/2021 09:30:00Z	 SAID32 WIOO 070930	METAR WIOO 070930Z 28005KT 9999 BKN012 30/24 Q1006 NOSIG=
07/02/2021 10:00:00Z	 SAID32 WIOO 071000	METAR WIOO 071000Z 31010KT 9999 BKN012 30/24 Q1007 NOSIG=
07/02/2021 10:30:00Z	 SAID32 WIOO 071030	METAR WIOO 071030Z 28007KT 9999 BKN012 29/24 Q1007 NOSIG=
07/02/2021 11:00:00Z	 SAID32 WIOO 071100	METAR WIOO 071100Z 28005KT 8000 BKN012 28/24 Q1008 NOSIG=
07/02/2021 11:30:00Z	 SAID32 WIOO 071130	METAR WIOO 071130Z 30005KT 8000 BKN012 28/24 Q1008 NOSIG=
07/02/2021 12:00:00Z	 SAID32 WIOO 071200	METAR WIOO 071200Z 31005KT 8000 BKN012 27/23 Q1008 NOSIG=
07/02/2021 12:30:00Z	 SAID32 WIOO 071230	METAR WIOO 071230Z 29003KT 8000 BKN012 27/24 Q1009 NOSIG=
07/02/2021 13:00:00Z	 SAID32 WIOO 071300	METAR WIOO 071300Z 30004KT 8000 BKN012 26/23 Q1009 NOSIG=
07/02/2021 13:30:00Z	 SAID32 WIOO 071330	METAR WIOO 071330Z 32003KT 8000 BKN012 25/24 Q1009 NOSIG=
07/02/2021 14:00:00Z	 SAID32 WIOO 071400	METAR WIOO 071400Z 00000KT 8000 SCT012 25/24 Q1009 NOSIG=
07/02/2021 14:30:00Z	 SAID32 WIOO 071430	METAR WIOO 071430Z 28003KT 8000 SCT012 25/24 Q1010 NOSIG=
07/02/2021 15:00:00Z	 SAID32 WIOO 071500	METAR WIOO 071500Z 00000KT 7000 SCT012 25/23 Q1007 NOSIG=
07/02/2021 15:30:00Z	 SAID32 WIOO 071530	METAR WIOO 071530Z 00000KT 7000 SCT012 25/24 Q1010 NOSIG=
07/02/2021 16:00:00Z	 SAID32 WIOO 071600	METAR WIOO 071600Z AUTO 22002KT 9999 NCD 24/24 Q1010 NOSIG=
07/02/2021 16:30:00Z	 SAID32 WIOO 071630	METAR WIOO 071630Z AUTO 21002KT 6000 NCD 24/24 Q1009=
07/02/2021 17:00:00Z	 SAID32 WIOO 071700	METAR WIOO 071700Z AUTO 21001KT 6000 NCD 24/23 Q1009=
07/02/2021 17:30:00Z	 SAID32 WIOO 071730	METAR WIOO 071730Z AUTO 26002KT 6000 NCD 24/23 Q1009=
07/02/2021 18:00:00Z	 SAID32 WIOO 071800	METAR WIOO 071800Z AUTO 31002KT 5000 BR NCD 23/23 Q1008=
07/02/2021 18:30:00Z	 SAID32 WIOO 071830	METAR WIOO 071830Z AUTO 32003KT 6000 BR NCD 23/23 Q1008=
07/02/2021 19:00:00Z	 SAID32 WIOO 071900	METAR WIOO 071900Z AUTO 28002KT 5000 BKN180 BKN190 24/23 Q1008=
07/02/2021 19:30:00Z	 SAID32 WIOO 071930	METAR WIOO 071930Z AUTO VRB02KT 5000 BR FEW180 23/23 Q1008=
07/02/2021 20:00:00Z	 SAID32 WIOO 072000	METAR WIOO 072000Z AUTO 22001KT 6000 BR BKN190 23/23 Q1008=
07/02/2021 20:30:00Z	 SAID32 WIOO 072030	METAR WIOO 072030Z AUTO 25002KT 5000 BR NCD 23/23 Q1008=
07/02/2021 21:00:00Z	 SAID32 WIOO 072100	METAR WIOO 072100Z AUTO 30002KT 7000 SCT038 23/23 Q1008=
07/02/2021 21:30:00Z	 SAID32 WIOO 072130	METAR WIOO 072130Z AUTO 34002KT 7000 BKN036 SCT037 BKN042 23/23 Q1008=
07/02/2021 22:00:00Z	 SAID32 WIOO 072200	METAR WIOO 072200Z 00000KT 6000 FEW012 23/23 Q1008 NOSIG=
07/02/2021 22:30:00Z	 SAID32 WIOO 072230	METAR WIOO 072230Z 00000KT 6000 FEW012 23/23 Q1008 NOSIG=
07/02/2021 23:00:00Z	 SAID32 WIOO 072300	METAR WIOO 072300Z 00000KT 4000 BR FEW012 23/23 Q1009 NOSIG=
07/02/2021 23:30:00Z	 SAID32 WIOO 072330	METAR WIOO 072330Z 00000KT 3000 BR FEW012 23/22 Q1009 NOSIG=
08/02/2021 00:00:00Z	 SAID32 WIOO 080000	METAR WIOO 080000Z 00000KT 6000 FEW012 24/23 Q1009 NOSIG=
08/02/2021 00:30:00Z	 SAID32 WIOO 080030	METAR WIOO 080030Z 05003KT 6000 SCT012 24/23 Q1010 NOSIG=
08/02/2021 01:00:00Z	 SAID32 WIOO 080100	METAR WIOO 080100Z 06004KT 9999 SCT012 25/23 Q1010 NOSIG=
08/02/2021 01:30:00Z	 SAID32 WIOO 080130	METAR WIOO 080130Z 03006KT 9999 SCT012 26/24 Q1010 NOSIG=
08/02/2021 02:00:00Z	 SAID32 WIOO 080200	METAR WIOO 080200Z 04004KT 9999 SCT012 27/24 Q1011 NOSIG=
08/02/2021 02:30:00Z	 SAID32 WIOO 080230	METAR WIOO 080230Z 01006KT 9999 SCT012 28/24 Q1011 NOSIG=
08/02/2021 03:00:00Z	 SAID32 WIOO 080300	METAR WIOO 080300Z 03007KT 9999 BKN012 29/23 Q1010=
08/02/2021 03:30:00Z	 SAID32 WIOO 080330	METAR WIOO 080330Z 35006KT 9999 BKN012 29/23 Q1010 NOSIG=
08/02/2021 04:00:00Z	 SAID32 WIOO 080400	METAR WIOO 080400Z 34004KT 9999 BKN012 31/24 Q1009 NOSIG=
08/02/2021 04:30:00Z	 SAID32 WIOO 080430	METAR WIOO 080430Z 34007KT 9999 BKN012 30/23 Q1009 NOSIG=
08/02/2021 05:00:00Z	 SAID32 WIOO 080500	METAR WIOO 080500Z 33009KT 8000 FEW011CB BKN012 32/24 Q1008 TEMPO FM0530 3000 -RA=
08/02/2021 05:30:00Z	 SAID32 WIOO 080530	METAR WIOO 080530Z 36007KT 8000 FEW011CB BKN012 30/25 Q1008 TEMPO FM0630 3000 RA=
08/02/2021 06:00:00Z	 SAID32 WIOO 080600	METAR WIOO 080600Z 36007KT 9999 BKN012 31/24 Q1007 TEMPO FM0630 3000 RA=
08/02/2021 06:30:00Z	 SAID32 WIOO 080630	METAR WIOO 080630Z 31005KT 9999 BKN012 31/24 Q1007 TEMPO FM0645 30010KT FEW010CB BKN011=
08/02/2021 07:00:00Z	 SAID32 WIOO 080700	METAR WIOO 080700Z 30007KT 9999 BKN012 32/24 Q1006 TEMPO TL0830 30010KT=
08/02/2021 07:30:00Z	 SAID32 WIOO 080730	METAR WIOO 080730Z 28009KT 9999 BKN012 32/24 Q1006 TEMPO TL0830 30010KT=
08/02/2021 08:00:00Z	 SAID32 WIOO 080800	METAR WIOO 080800Z 27011KT 9999 BKN012 32/25 Q1006 TEMPO TL0830 30010KT=
08/02/2021 08:30:00Z	 SAID32 WIOO 080830	METAR WIOO 080830Z 29012KT 9999 BKN012 31/25 Q1006 TEMPO FM0900 FEW011CB BKN012=
08/02/2021 09:00:00Z	 SAID32 WIOO 080900	METAR WIOO 080900Z 29013KT 9999 BKN012 31/25 Q1006 TEMPO TL1030 FEW011CB BKN012=
08/02/2021 09:30:00Z	 SAID32 WIOO 080930	METAR WIOO 080930Z 27012KT 9999 BKN012 30/25 Q1006 NOSIG=
08/02/2021 10:00:00Z	 SAID32 WIOO 081000	METAR WIOO 081000Z 29010KT 9999 BKN012 30/25 Q1006 NOSIG=
08/02/2021 10:30:00Z	 SAID32 WIOO 081030	METAR WIOO 081030Z 28011KT 8000 BKN012 29/24 Q1007 NOSIG=
08/02/2021 11:00:00Z	 SAID32 WIOO 081100	METAR WIOO 081100Z 29008KT 8000 BKN012 28/24 Q1007 NOSIG=
08/02/2021 11:30:00Z	 SAID32 WIOO 081130	METAR WIOO 081130Z 28005KT 7000 BKN012 27/25 Q1008 NOSIG=
08/02/2021 12:00:00Z	 SAID32 WIOO 081200	METAR WIOO 081200Z 28005KT 6000 SCT012 27/25 Q1008 NOSIG=
08/02/2021 12:30:00Z	 SAID32 WIOO 081230	METAR WIOO 081230Z 28004KT 6000 SCT012 27/25 Q1008 NOSIG=
08/02/2021 13:00:00Z	 SAID32 WIOO 081300	METAR WIOO 081300Z 29003KT 6000 SCT012 27/24 Q1009 NOSIG=
08/02/2021 13:30:00Z	 SAID32 WIOO 081330	METAR WIOO 081330Z 29004KT 6000 SCT012 27/25 Q1009 NOSIG=
08/02/2021 14:00:00Z	 SAID32 WIOO 081400	METAR WIOO 081400Z AUTO 29003KT 9999 FEW023 SCT033 BKN039 26/25 Q1009=
08/02/2021 14:30:00Z	 SAID32 WIOO 081430	METAR WIOO 081430Z AUTO 31004KT 9999 BKN045 BKN048 OVC050 26/25 Q1010=
08/02/2021 15:00:00Z	 SAID32 WIOO 081500	METAR WIOO 081500Z AUTO 32003KT 9999 SCT044 SCT050 26/25 Q1010=
08/02/2021 15:30:00Z	 SAID32 WIOO 081530	METAR WIOO 081530Z AUTO 32003KT 9999 NCD 26/25 Q1010=
08/02/2021 16:00:00Z	 SAID32 WIOO 081600	METAR WIOO 081600Z AUTO VRB02KT 9999 FEW080 25/25 Q1010=
08/02/2021 16:30:00Z	 SAID32 WIOO 081630	METAR WIOO 081630Z AUTO 25001KT 8000 3800 BR FEW002 25/25 Q1010=
08/02/2021 17:00:00Z	 SAID32 WIOO 081700	METAR WIOO 081700Z AUTO 36002KT 5000 BR NCD 25/25 Q1009=
08/02/2021 17:30:00Z	 SAID32 WIOO 081730	METAR WIOO 081730Z AUTO 35002KT 9999 NCD 25/25 Q1009=
08/02/2021 18:00:00Z	 SAID32 WIOO 081800	METAR WIOO 081800Z AUTO 34003KT 9999 NCD 25/24 Q1009=
08/02/2021 18:30:00Z	 SAID32 WIOO 081830	METAR WIOO 081830Z AUTO 31003KT 9999 NCD 25/24 Q1009=
08/02/2021 19:00:00Z	 SAID32 WIOO 081900	METAR WIOO 081900Z AUTO 34003KT 9999 NCD 25/24 Q1008=
08/02/2021 19:30:00Z	 SAID32 WIOO 081930	METAR WIOO 081930Z AUTO 31002KT 9999 NCD 24/24 Q1008=
08/02/2021 20:00:00Z	 SAID32 WIOO 082000	METAR WIOO 082000Z AUTO 27002KT 9999 NCD 24/24 Q1008=
08/02/2021 20:30:00Z	 SAID32 WIOO 082030	METAR WIOO 082030Z AUTO 33002KT 9999 NCD 24/24 Q1008=
08/02/2021 21:00:00Z	 SAID32 WIOO 082100	METAR WIOO 082100Z AUTO 23001KT 7000 NCD 24/24 Q1008=
08/02/2021 21:30:00Z	 SAID32 WIOO 082130	METAR WIOO 082130Z AUTO 28001KT 7000 BR NCD 23/23 Q1008=
08/02/2021 22:00:00Z	 SAID32 WIOO 082200	METAR WIOO 082200Z 00000KT 6000 SCT012 24/23 Q1009 NOSIG=
08/02/2021 22:30:00Z	 SAID32 WIOO 082230	METAR WIOO 082230Z 00000KT 6000 SCT012 24/23 Q1009 NOSIG=
08/02/2021 23:00:00Z	 SAID32 WIOO 082300	METAR WIOO 082300Z 00000KT 6000 SCT012 24/23 Q1009 NOSIG=
08/02/2021 23:30:00Z	 SAID32 WIOO 082330	METAR WIOO 082330Z 02004KT 8000 FEW012 24/23 Q1009 NOSIG=
09/02/2021 00:00:00Z	 SAID32 WIOO 090000	METAR WIOO 090000Z 02005KT 9999 FEW012 24/23 Q1009 NOSIG=
09/02/2021 00:30:00Z	 SAID32 WIOO 090030	METAR WIOO 090030Z 02004KT 9999 FEW012 25/24 Q1009 NOSIG=
09/02/2021 01:00:00Z	 SAID32 WIOO 090100	METAR WIOO 090100Z 02006KT 9999 FEW012 26/24 Q1009 NOSIG=
09/02/2021 01:30:00Z	 SAID32 WIOO 090130	METAR WIOO 090130Z 03006KT 9999 FEW012 27/24 Q1009 NOSIG=
09/02/2021 02:00:00Z	 SAID32 WIOO 090200	METAR WIOO 090200Z 02004KT 9999 FEW012 28/24 Q1010 NOSIG=
09/02/2021 02:30:00Z	 SAID32 WIOO 090230	METAR WIOO 090230Z 04003KT 9999 FEW012 29/24 Q1010 NOSIG=
09/02/2021 03:00:00Z	 SAID32 WIOO 090300	METAR WIOO 090300Z 06006KT 9999 FEW012 30/24 Q1009 NOSIG=
09/02/2021 03:30:00Z	 SAID32 WIOO 090330	METAR WIOO 090330Z 05005KT 9999 SCT012 30/23 Q1009 NOSIG=
09/02/2021 04:00:00Z	 SAID32 WIOO 090400	METAR WIOO 090400Z 06005KT 9999 SCT012 30/23 Q1009 NOSIG=
09/02/2021 04:30:00Z	 SAID32 WIOO 090430	METAR WIOO 090430Z 07005KT 9999 BKN012 31/24 Q1008 NOSIG=
09/02/2021 05:00:00Z	 SAID32 WIOO 090500	METAR WIOO 090500Z 03003KT 9999 BKN012 31/23 Q1007 NOSIG=
09/02/2021 05:30:00Z	 SAID32 WIOO 090530	METAR WIOO 090530Z 31004KT 9999 BKN012 32/23 Q1007 NOSIG=
09/02/2021 06:00:00Z	 SAID32 WIOO 090600	METAR WIOO 090600Z 36003KT 9999 BKN012 32/23 Q1007 NOSIG=
09/02/2021 06:30:00Z	 SAID32 WIOO 090630	METAR WIOO 090630Z 00000KT 9999 BKN011 32/23 Q1006=
09/02/2021 07:00:00Z	 SAID32 WIOO 090700	METAR WIOO 090700Z 26003KT 9999 BKN012 32/23 Q1006=
09/02/2021 07:30:00Z	 SAID32 WIOO 090730	METAR WIOO 090730Z 23005KT 23005 9999 BKN012 32/23 Q1005=
09/02/2021 08:00:00Z	 SAID32 WIOO 090800	METAR WIOO 090800Z 26007KT 9999 BKN012 31/25 Q1005=
09/02/2021 08:30:00Z	 SAID32 WIOO 090830	METAR WIOO 090830Z 25005KT 9999 BKN012 31/25 Q1005=
09/02/2021 09:00:00Z	 SAID32 WIOO 090900	METAR WIOO 090900Z 23008KT 9999 SCT012 30/25 Q1005=
09/02/2021 09:30:00Z	 SAID32 WIOO 090930	METAR WIOO 090930Z 24009KT 9999 SCT012 29/25 Q1006=
09/02/2021 10:00:00Z	 SAID32 WIOO 091000	METAR WIOO 091000Z 24007KT 9999 SCT013 29/25 Q1006=
09/02/2021 10:30:00Z	 SAID32 WIOO 091030	METAR WIOO 091030Z 26005KT 9999 SCT012 28/25 Q1007=
09/02/2021 11:00:00Z	 SAID32 WIOO 091100	METAR WIOO 091100Z 25004KT 9999 SCT012 27/25 Q1007=
09/02/2021 11:30:00Z	 SAID32 WIOO 091130	METAR WIOO 091130Z 26003KT 7000 BKN012 27/25 Q1007=
09/02/2021 12:00:00Z	 SAID32 WIOO 091200	METAR WIOO 091200Z 25006KT 6000 FEW011CB BKN012 27/24 Q1007=
09/02/2021 12:30:00Z	 SAID32 WIOO 091230	METAR WIOO 091230Z 28005KT 6000 FEW011CB BKN012 26/24 Q1008=
09/02/2021 13:00:00Z	 SAID32 WIOO 091300	METAR WIOO 091300Z 25003KT 6000 BKN012 26/24 Q1008=
09/02/2021 13:30:00Z	 SAID32 WIOO 091330	METAR WIOO 091330Z 27003KT 6000 SCT012 26/24 Q1009 NOSIG=
09/02/2021 14:00:00Z	 SAID32 WIOO 091400	METAR WIOO 091400Z 00000KT 6000 SCT012 26/24 Q1009 NOSIG=
09/02/2021 14:30:00Z	 SAID32 WIOO 091430	METAR WIOO 091430Z 36003KT 6000 BKN012 26/24 Q1009 NOSIG=
09/02/2021 15:00:00Z	 SAID32 WIOO 091500	METAR WIOO 091500Z 30003KT 6000 SCT012 26/24 Q1009 NOSIG=
09/02/2021 15:30:00Z	 SAID32 WIOO 091530	METAR WIOO 091530Z 00000KT 6000 SCT012 26/24 Q1009 NOSIG=
09/02/2021 16:00:00Z	 SAID32 WIOO 091600	METAR WIOO 091600Z 31004KT 5000 HZ SCT012 25/24 Q1009 NOSIG=
09/02/2021 16:30:00Z	 SAID32 WIOO 091630	METAR WIOO 091630Z 26003KT 4000 HZ SCT012 25/24 Q1009 NOSIG=
09/02/2021 17:00:00Z	 SAID32 WIOO 091700	METAR WIOO 091700Z 00000KT 4000 BR BKN011 25/24 Q1009 NOSIG=
09/02/2021 17:30:00Z	 SAID32 WIOO 091730	METAR WIOO 091730Z 29004KT 5000 BR BKN011 25/24 Q1008 NOSIG=
09/02/2021 18:00:00Z	 SAID32 WIOO 091800	METAR WIOO 091800Z 33004KT 6000 BKN011 25/24 Q1008 NOSIG=
09/02/2021 18:30:00Z	 SAID32 WIOO 091830	METAR WIOO 091830Z AUTO 31003KT 9000 BKN038 25/25 Q1008=
09/02/2021 19:00:00Z	 SAID32 WIOO 091900	METAR WIOO 091900Z AUTO 33004KT 8000 OVC036 25/25 Q1007=
09/02/2021 19:30:00Z	 SAID32 WIOO 091930	METAR WIOO 091930Z AUTO 34003KT 9000 FEW022 BKN036 BKN038 25/25 Q1007=
09/02/2021 20:00:00Z	 SAID32 WIOO 092000	METAR WIOO 092000Z AUTO 34004KT 9999 NCD 25/25 Q1007=
09/02/2021 20:30:00Z	 SAID32 WIOO 092030	METAR WIOO 092030Z AUTO 36004KT 9999 NCD 25/25 Q1007=
09/02/2021 21:00:00Z	 SAID32 WIOO 092100	METAR WIOO 092100Z AUTO 36004KT 9999 FEW009 25/25 Q1007=
09/02/2021 21:30:00Z	 SAID32 WIOO 092130	METAR WIOO 092130Z AUTO 01003KT 9999 FEW006 BKN310 25/24 Q1008=
09/02/2021 22:00:00Z	 SAID32 WIOO 092200	METAR WIOO 092200Z 02003KT 6000 SCT011 25/24 Q1008 TEMPO FM2230 3000 BR=
09/02/2021 22:30:00Z	 SAID32 WIOO 092230	METAR WIOO 092230Z 01003KT 6000 SCT010 24/24 Q1008 NOSIG=
09/02/2021 23:00:00Z	 SAID32 WIOO 092300	METAR WIOO 092300Z 04004KT 6000 BKN011 25/24 Q1009 NOSIG=
09/02/2021 23:30:00Z	 SAID32 WIOO 092330	METAR WIOO 092330Z 02003KT 6000 SCT010 24/24 Q1009 NOSIG=
10/02/2021 00:00:00Z	 SAID32 WIOO 100000	METAR WIOO 100000Z 02003KT 8000 SCT011 25/24 Q1009 NOSIG=
10/02/2021 00:30:00Z	 SAID32 WIOO 100030	METAR WIOO 100030Z 01003KT 8000 FEW011 25/25 Q1010 NOSIG=
10/02/2021 01:00:00Z	 SAID32 WIOO 100100	METAR WIOO 100100Z 02004KT 9000 FEW011 25/25 Q1010 NOSIG=
10/02/2021 01:30:00Z	 SAID32 WIOO 100130	METAR WIOO 100130Z 01003KT 9999 SCT011 26/25 Q1010 NOSIG=
10/02/2021 02:00:00Z	 SAID32 WIOO 100200	METAR WIOO 100200Z 02003KT 9999 FEW009 27/25 Q1010 NOSIG=
10/02/2021 02:30:00Z	 SAID32 WIOO 100230	METAR WIOO 100230Z 06003KT 9999 SCT011 28/25 Q1011 NOSIG=
10/02/2021 03:00:00Z	 SAID32 WIOO 100300	METAR WIOO 100300Z 33003KT 9999 SCT011 29/25 Q1010 NOSIG=
10/02/2021 03:30:00Z	 SAID32 WIOO 100330	METAR WIOO 100330Z 35004KT 9999 SCT012 30/25 Q1010 NOSIG=
10/02/2021 04:00:00Z	 SAID32 WIOO 100400	METAR WIOO 100400Z 02005KT 9999 SCT012 31/24 Q1010 NOSIG=
10/02/2021 04:30:00Z	 SAID32 WIOO 100430	METAR WIOO 100430Z 34005KT 9999 BKN012 31/24 Q1009 NOSIG=
10/02/2021 05:00:00Z	 SAID32 WIOO 100500	METAR WIOO 100500Z 33007KT 9999 BKN012 32/24 Q1009 NOSIG=
10/02/2021 05:30:00Z	 SAID32 WIOO 100530	METAR WIOO 100530Z 02008KT 9999 SCT012 32/24 Q1008 NOSIG=
10/02/2021 06:00:00Z	 SAID32 WIOO 100600	METAR WIOO 100600Z 30005KT 9999 BKN012 33/23 Q1008 NOSIG=
10/02/2021 06:30:00Z	 SAID32 WIOO 100630	METAR WIOO 100630Z 30004KT 9999 BKN012 33/23 Q1007 NOSIG=
10/02/2021 07:00:00Z	 SAID32 WIOO 100700	METAR WIOO 100700Z 35005KT 9999 BKN012 33/23 Q1007 NOSIG=
10/02/2021 07:30:00Z	 SAID32 WIOO 100730	METAR WIOO 100730Z 34006KT 9999 BKN012 33/22 Q1006 NOSIG=
10/02/2021 08:00:00Z	 SAID32 WIOO 100800	METAR WIOO 100800Z 31007KT 9999 SCT012 33/21 Q1006 NOSIG=
10/02/2021 08:30:00Z	 SAID32 WIOO 100830	METAR WIOO 100830Z 29009KT 9999 FEW012 33/23 Q1006 NOSIG=
10/02/2021 09:00:00Z	 SAID32 WIOO 100900	METAR WIOO 100900Z 29008KT 9999 FEW012 33/25 Q1006 NOSIG=
10/02/2021 09:30:00Z	 SAID32 WIOO 100930	METAR WIOO 100930Z 30008KT 9000 FEW012 31/25 Q1006 NOSIG=
10/02/2021 10:00:00Z	 SAID32 WIOO 101000	METAR WIOO 101000Z 28008KT 7000 FEW012 31/25 Q1006 NOSIG=
10/02/2021 10:30:00Z	 SAID32 WIOO 101030	METAR WIOO 101030Z 27009KT 8000 FEW012 30/25 Q1007 NOSIG=
10/02/2021 11:00:00Z	 SAID32 WIOO 101100	METAR WIOO 101100Z 27008KT 7000 FEW012 29/25 Q1007 NOSIG=
10/02/2021 11:30:00Z	 SAID32 WIOO 101130	METAR WIOO 101130Z 27005KT 6000 FEW012 28/24 Q1008 NOSIG=
10/02/2021 12:00:00Z	 SAID32 WIOO 101200	METAR WIOO 101200Z 28005KT 6000 FEW012 27/24 Q1008 NOSIG=
10/02/2021 12:30:00Z	 SAID32 WIOO 101230	METAR WIOO 101230Z 27004KT 6000 FEW012 27/24 Q1008 NOSIG=
10/02/2021 13:00:00Z	 SAID32 WIOO 101300	METAR WIOO 101300Z 26005KT 6000 FEW012 26/24 Q1008 NOSIG=
10/02/2021 13:30:00Z	 SAID32 WIOO 101330	METAR WIOO 101330Z 00000KT 6000 FEW012 26/24 Q1008=
10/02/2021 14:00:00Z	 SAID32 WIOO 101400	METAR WIOO 101400Z 00000KT 6000 FEW012 26/24 Q1009=
10/02/2021 14:30:00Z	 SAID32 WIOO 101430	METAR WIOO 101430Z 00000KT 3000 BR SCT012 26/24 Q1009=
10/02/2021 15:00:00Z	 SAID32 WIOO 101500	METAR WIOO 101500Z 00000KT 3000 BR FEW012 25/24 Q1010=
10/02/2021 15:30:00Z	 SAID32 WIOO 101530	METAR WIOO 101530Z 00000KT 3000 BR FEW012 25/24 Q1010=
10/02/2021 16:00:00Z	 SAID32 WIOO 101600	METAR WIOO 101600Z 00000KT 3000 BR SCT012 25/24 Q1010=
10/02/2021 16:30:00Z	 SAID32 WIOO 101630	METAR WIOO 101630Z 32002KT 2000 BR FEW012 25/24 Q1010=
10/02/2021 17:00:00Z	 SAID32 WIOO 101700	METAR WIOO 101700Z 00000KT 3000 BR FEW012 25/24 Q1010=
10/02/2021 17:30:00Z	 SAID32 WIOO 101730	METAR WIOO 101730Z 33004KT 3000 BR FEW012 25/24 Q1009=
10/02/2021 18:00:00Z	 SAID32 WIOO 101800	METAR WIOO 101800Z 00000KT 6000 SCT012 25/24 Q1009=
10/02/2021 18:30:00Z	 SAID32 WIOO 101830	METAR WIOO 101830Z AUTO 32004KT 9000 NCD 24/24 Q1009=
10/02/2021 19:00:00Z	 SAID32 WIOO 101900	METAR WIOO 101900Z AUTO 32002KT 8000 NCD 24/24 Q1008=
10/02/2021 19:30:00Z	 SAID32 WIOO 101930	METAR WIOO 101930Z AUTO 33003KT 9999 NCD 24/24 Q1008=
10/02/2021 20:00:00Z	 SAID32 WIOO 102000	METAR WIOO 102000Z AUTO 35004KT 9999 NCD 24/24 Q1008=
10/02/2021 20:30:00Z	 SAID32 WIOO 102030	METAR WIOO 102030Z AUTO 34003KT 9999 NCD 24/24 Q1008=
10/02/2021 21:00:00Z	 SAID32 WIOO 102100	METAR WIOO 102100Z AUTO 34003KT 9999 SCT012 BKN013 24/23 Q1008=
10/02/2021 21:30:00Z	 SAID32 WIOO 102130	METAR WIOO 102130Z AUTO 36003KT 9999 FEW014 24/24 Q1008=
10/02/2021 22:00:00Z	 SAID32 WIOO 102200	METAR WIOO 102200Z 00000KT 6000 FEW012 24/23 Q1008=
10/02/2021 22:30:00Z	 SAID32 WIOO 102230	METAR WIOO 102230Z 00000KT 6000 FEW012 24/23 Q1009=
10/02/2021 23:00:00Z	 SAID32 WIOO 102300	METAR WIOO 102300Z 00000KT 7000 FEW012 24/23 Q1009=
10/02/2021 23:30:00Z	 SAID32 WIOO 102330	METAR WIOO 102330Z 04003KT 3000 BR FEW013 24/23 Q1009 NOSIG=
11/02/2021 00:00:00Z	 SAID32 WIOO 110000	METAR WIOO 110000Z 03006KT 7000 FEW009 24/23 Q1009 NOSIG=
11/02/2021 00:30:00Z	 SAID32 WIOO 110030	METAR WIOO 110030Z 02006KT 9999 FEW009 25/23 Q1010 NOSIG=
11/02/2021 01:00:00Z	 SAID32 WIOO 110100	METAR WIOO 110100Z 04007KT 9999 FEW010 26/24 Q1010 NOSIG=
11/02/2021 01:30:00Z	 SAID32 WIOO 110130	METAR WIOO 110130Z 04006KT 9999 FEW011 27/24 Q1010 NOSIG=
11/02/2021 02:00:00Z	 SAID32 WIOO 110200	METAR WIOO 110200Z 05007KT 9999 FEW012 28/24 Q1010 NOSIG=
11/02/2021 02:30:00Z	 SAID32 WIOO 110230	METAR WIOO 110230Z 36006KT 9999 FEW012 29/24 Q1010 NOSIG=
11/02/2021 03:00:00Z	 SAID32 WIOO 110300	METAR WIOO 110300Z 03004KT 9999 FEW013 30/24 Q1010 NOSIG=
11/02/2021 03:30:00Z	 SAID32 WIOO 110330	METAR WIOO 110330Z 02005KT 9999 FEW013 31/23 Q1010 NOSIG=
11/02/2021 04:00:00Z	 SAID32 WIOO 110400	METAR WIOO 110400Z 36004KT 9999 FEW013 31/23 Q1010 NOSIG=
11/02/2021 04:30:00Z	 SAID32 WIOO 110430	METAR WIOO 110430Z 04004KT 9999 SCT012 32/23 Q1009 NOSIG=
11/02/2021 05:00:00Z	 SAID32 WIOO 110500	METAR WIOO 110500Z 16003KT 9999 SCT012 32/22 Q1009 NOSIG=
11/02/2021 05:30:00Z	 SAID32 WIOO 110530	METAR WIOO 110530Z 00000KT 9999 SCT012 33/23 Q1008 NOSIG=
11/02/2021 06:00:00Z	 SAID32 WIOO 110600	METAR WIOO 110600Z 35004KT 9999 BKN012 33/22 Q1008 NOSIG=
11/02/2021 06:30:00Z	 SAID32 WIOO 110630	METAR WIOO 110630Z 06003KT 9999 BKN012 33/23 Q1007 NOSIG=
11/02/2021 07:00:00Z	 SAID32 WIOO 110700	METAR WIOO 110700Z 00000KT 9999 BKN012 33/22 Q1007 NOSIG=
11/02/2021 07:30:00Z	 SAID32 WIOO 110730	METAR WIOO 110730Z 25003KT 8000 FEW011CB BKN012 32/24 Q1007 NOSIG=
11/02/2021 08:00:00Z	 SAID32 WIOO 110800	METAR WIOO 110800Z 28010KT 8000 FEW011CB BKN012 32/25 Q1006 TEMPO FM0815 VRB15KT TS=
11/02/2021 08:30:00Z	 SAID32 WIOO 110830	METAR WIOO 110830Z 28011KT 8000 TS FEW011CB SCT012 30/26 Q1006 TEMPO TL0930 29015KT TS=
11/02/2021 09:00:00Z	 SAID32 WIOO 110900	METAR WIOO 110900Z 30008KT 9000 FEW011CB SCT012 29/25 Q1007 RETS TEMPO TL0930 29015KT TS=
11/02/2021 09:30:00Z	 SAID32 WIOO 110930	METAR WIOO 110930Z 29009KT 8000 FEW011CB SCT012 29/25 Q1007 TEMPO TL1000 29010KT=
11/02/2021 10:00:00Z	 SAID32 WIOO 111000	METAR WIOO 111000Z 27008KT 9000 SCT012 28/25 Q1007 NOSIG=
11/02/2021 10:30:00Z	 SAID32 WIOO 111030	METAR WIOO 111030Z 26005KT 8000 SCT012 28/25 Q1007 NOSIG=
11/02/2021 11:00:00Z	 SAID32 WIOO 111100	METAR WIOO 111100Z 28006KT 6000 SCT012 27/25 Q1007 NOSIG=
11/02/2021 11:30:00Z	 SAID32 WIOO 111130	METAR WIOO 111130Z 29005KT 6000 FEW012 27/25 Q1008 NOSIG=
11/02/2021 12:00:00Z	 SAID32 WIOO 111200	METAR WIOO 111200Z 31004KT 5000 FU FEW012 26/25 Q1008 NOSIG=
11/02/2021 12:30:00Z	 SAID32 WIOO 111230	METAR WIOO 111230Z 32004KT 5000 FU FEW012 26/25 Q1009 NOSIG=
11/02/2021 13:00:00Z	 SAID32 WIOO 111300	METAR WIOO 111300Z 33003KT 6000 FEW012 26/25 Q1009 NOSIG=
11/02/2021 13:30:00Z	 SAID32 WIOO 111330	METAR WIOO 111330Z 31003KT 6000 FEW012 26/24 Q1009 NOSIG=
11/02/2021 14:00:00Z	 SAID32 WIOO 111400	METAR WIOO 111400Z 28003KT 6000 FEW012 26/24 Q1010 NOSIG=
11/02/2021 14:30:00Z	 SAID32 WIOO 111430	METAR WIOO 111430Z 29004KT 6000 FEW012 26/24 Q1010 NOSIG=
11/02/2021 15:00:00Z	 SAID32 WIOO 111500	METAR WIOO 111500Z 28003KT 4000 HZ FEW012 26/24 Q1010 NOSIG=
11/02/2021 15:30:00Z	 SAID32 WIOO 111530	METAR WIOO 111530Z 27004KT 3000 HZ FEW012 26/24 Q1010 NOSIG=
11/02/2021 16:00:00Z	 SAID32 WIOO 111600	METAR WIOO 111600Z 26003KT 4000 HZ FEW012 25/24 Q1010 NOSIG=
11/02/2021 16:30:00Z	 SAID32 WIOO 111630	METAR WIOO 111630Z AUTO 27002KT 4000 BR OVC022 OVC035 25/25 Q1010=
11/02/2021 17:00:00Z	 SAID32 WIOO 111700	METAR WIOO 111700Z AUTO 27002KT 4500 BR OVC021 25/25 Q1010=
11/02/2021 17:30:00Z	 SAID32 WIOO 111730	METAR WIOO 111730Z AUTO 31002KT 3500 BR OVC022 25/25 Q1009=
11/02/2021 18:00:00Z	 SAID32 WIOO 111800	METAR WIOO 111800Z AUTO 32003KT 3100 BR OVC024 BKN025 OVC034 25/24 Q1009=
11/02/2021 18:30:00Z	 SAID32 WIOO 111830	METAR WIOO 111830Z AUTO 30003KT 3600 BR FEW024 SCT030 BKN034 25/24 Q1009=
11/02/2021 19:00:00Z	 SAID32 WIOO 111900	METAR WIOO 111900Z AUTO 35003KT 3900 BR NCD 25/24 Q1008=
11/02/2021 19:30:00Z	 SAID32 WIOO 111930	METAR WIOO 111930Z AUTO 34005KT 8000 NCD 24/24 Q1008=
11/02/2021 20:00:00Z	 SAID32 WIOO 112000	METAR WIOO 112000Z AUTO 32004KT 9000 NCD 24/24 Q1008=
11/02/2021 20:30:00Z	 SAID32 WIOO 112030	METAR WIOO 112030Z AUTO 35003KT 8000 NCD 24/24 Q1008=
11/02/2021 21:00:00Z	 SAID32 WIOO 112100	METAR WIOO 112100Z AUTO 33004KT 9999 NCD 24/24 Q1008=
11/02/2021 21:30:00Z	 SAID32 WIOO 112130	METAR WIOO 112130Z AUTO 31003KT 9999 NCD 24/24 Q1008=
11/02/2021 22:00:00Z	 SAID32 WIOO 112200	METAR WIOO 112200Z 00000KT 6000 FEW012 24/23 Q1009 NOSIG=
11/02/2021 22:30:00Z	 SAID32 WIOO 112230	METAR WIOO 112230Z 00000KT 6000 FEW012 24/23 Q1009 NOSIG=
11/02/2021 23:00:00Z	 SAID32 WIOO 112300	METAR WIOO 112300Z 00000KT 3000 BR FEW012 24/23 Q1009 TEMPO AT0000 6000=
11/02/2021 23:30:00Z	 SAID32 WIOO 112330	METAR WIOO 112330Z 00000KT 4000 BR FEW012 24/23 Q1010 TEMPO AT0000 6000=
12/02/2021 00:00:00Z	 SAID32 WIOO 120000	METAR WIOO 120000Z 00000KT 8000 FEW012 25/24 Q1010 NOSIG=
12/02/2021 00:30:00Z	 SAID32 WIOO 120030	METAR WIOO 120030Z 33004KT 9999 FEW012 26/24 Q1011 NOSIG=
12/02/2021 01:00:00Z	 SAID32 WIOO 120100	METAR WIOO 120100Z 35007KT 9999 FEW011 27/23 Q1011 NOSIG=
12/02/2021 01:30:00Z	 SAID32 WIOO 120130	METAR WIOO 120130Z 35005KT 9999 FEW011 28/23 Q1011 NOSIG=
12/02/2021 02:00:00Z	 SAID32 WIOO 120200	METAR WIOO 120200Z 36008KT 9999 FEW011 29/23 Q1011 NOSIG=
12/02/2021 02:30:00Z	 SAID32 WIOO 120230	METAR WIOO 120230Z 36006KT 9999 SCT012 29/23 Q1011 NOSIG=
12/02/2021 03:00:00Z	 SAID32 WIOO 120300	METAR WIOO 120300Z 34009KT 9999 SCT012 30/24 Q1011 NOSIG=
12/02/2021 03:30:00Z	 SAID32 WIOO 120330	METAR WIOO 120330Z 36008KT 9999 SCT012 31/23 Q1011 NOSIG=
12/02/2021 04:00:00Z	 SAID32 WIOO 120400	METAR WIOO 120400Z 01008KT 9999 BKN012 31/23 Q1011 NOSIG=
12/02/2021 04:30:00Z	 SAID32 WIOO 120430	METAR WIOO 120430Z 31010KT 9999 BKN012 32/25 Q1011 NOSIG=
12/02/2021 05:00:00Z	 SAID32 WIOO 120500	METAR WIOO 120500Z 10007KT 9999 BKN012 32/22 Q1010 NOSIG=
12/02/2021 05:30:00Z	 SAID32 WIOO 120530	METAR WIOO 120530Z 13007KT 9999 BKN012 32/23 Q1010 NOSIG=
12/02/2021 06:00:00Z	 SAID32 WIOO 120600	METAR WIOO 120600Z 02005KT 9999 BKN012 33/22 Q1009 NOSIG=
12/02/2021 06:30:00Z	 SAID32 WIOO 120630	METAR WIOO 120630Z 36006KT 9999 BKN012 33/23 Q1008 NOSIG=
12/02/2021 07:00:00Z	 SAID32 WIOO 120700	METAR WIOO 120700Z 31008KT 9999 BKN012 33/23 Q1008 NOSIG=
12/02/2021 07:30:00Z	 SAID32 WIOO 120730	METAR WIOO 120730Z 28009KT 5000 FU SCT011 34/24 Q1008 TEMPO TL0830 3000=
12/02/2021 08:00:00Z	 SAID32 WIOO 120800	METAR WIOO 120800Z 28011KT 4000 FU SCT011 32/26 Q1007 TEMPO TL0830 3000=
12/02/2021 08:30:00Z	 SAID32 WIOO 120830	METAR WIOO 120830Z 29011KT 6000 FEW01132/26 Q1007 NOSIG=
12/02/2021 08:30:00Z	 SAID32 WIOO 120830 CCA	METAR COR WIOO 120830Z 29011KT 6000 FEW011 32/26 Q1007 NOSIG=
12/02/2021 09:00:00Z	 SAID32 WIOO 120900	METAR WIOO 120900Z 28010KT 6000 FEW012 31/26 Q1007 NOSIG=
12/02/2021 09:30:00Z	 SAID32 WIOO 120930	METAR WIOO 120930Z 28009KT 7000 FEW012 31/26 Q1007 NOSIG=
12/02/2021 10:00:00Z	 SAID32 WIOO 121000	METAR WIOO 121000Z 27009KT 7000 FEW012 30/26 Q1007 NOSIG=
12/02/2021 10:30:00Z	 SAID32 WIOO 121030	METAR WIOO 121030Z 27008KT 4000 FU FEW011CB SCT012 30/26 Q1008 NOSIG=
12/02/2021 11:00:00Z	 SAID32 WIOO 121100	METAR WIOO 121100Z 27007KT 5000 FEW011CB SCT012 29/25 Q1008 NOSIG=
12/02/2021 11:00:00Z	 SAID32 WIOO 121100 CCA	METAR COR WIOO 121100Z 27007KT 5000 TS FEW011CB SCT012 29/25 Q1008 NOSIG=
12/02/2021 11:30:00Z	 SAID32 WIOO 121130	METAR WIOO 121130Z 34004KT 5000 FU FEW011CB SCT012 28/26 Q1009 RETS NOSIG=
12/02/2021 12:00:00Z	 SAID32 WIOO 121200	METAR WIOO 121200Z 27004KT 5000 FU SCT012 28/26 Q1009 TEMPO TL1300 3000 FU=
12/02/2021 12:30:00Z	 SAID32 WIOO 121230	METAR WIOO 121230Z 29003KT 4000 FU SCT012 28/26 Q1010 TEMPO TL1300 3000 FU=
12/02/2021 13:00:00Z	 SAID32 WIOO 121300	METAR WIOO 121300Z 00000KT 3000 FU SCT012 28/26 Q1010 NOSIG =
12/02/2021 13:05:00Z	 SAID32 WIOO 121305	METAR WIOO 121300Z 00000KT 3000 FU SCT012 28/26 Q1010 NOSIG=
12/02/2021 13:30:00Z	 SAID32 WIOO 121330	METAR WIOO 121330Z 00000KT 3000 FU SCT012 28/25 Q1011 NOSIG=
12/02/2021 14:00:00Z	 SAID32 WIOO 121400	METAR WIOO 121400Z 00000KT 6000 SCT012 28/24 Q1011 NOSIG=
12/02/2021 14:30:00Z	 SAID32 WIOO 121430	METAR WIOO 121430Z 30003KT 6000 SCT012 27/24 Q1011 NOSIG=
12/02/2021 15:00:00Z	 SAID32 WIOO 121500	METAR WIOO 121500Z AUTO 33003KT 6000 FEW002 SCT021 BKN220 26/25 Q1012=
12/02/2021 15:30:00Z	 SAID32 WIOO 121530	METAR WIOO 121530Z AUTO 29002KT 8000 4000 BR BKN022 BKN023 OVC028 26/25 Q1012=
12/02/2021 16:00:00Z	 SAID32 WIOO 121600	METAR WIOO 121600Z AUTO 30005KT 6000 BR SCT002 SCT025 OVC100 26/25 Q1012=
12/02/2021 16:30:00Z	 SAID32 WIOO 121630	METAR WIOO 121630Z AUTO 32004KT 3900 BR BKN002 BKN027 OVC100 25/25 Q1012=
12/02/2021 17:00:00Z	 SAID32 WIOO 121700	METAR WIOO 121700Z AUTO 33003KT 9000 NCD 25/24 Q1011=
12/02/2021 17:30:00Z	 SAID32 WIOO 121730	METAR WIOO 121730Z AUTO 34003KT 9999 NCD 25/24 Q1011=
12/02/2021 18:00:00Z	 SAID32 WIOO 121800	METAR WIOO 121800Z AUTO 33004KT 9999 NCD 24/24 Q1011=
12/02/2021 18:30:00Z	 SAID32 WIOO 121830	METAR WIOO 121830Z AUTO VRB02KT 9000 NCD 24/24 Q1010=
12/02/2021 19:00:00Z	 SAID32 WIOO 121900	METAR WIOO 121900Z AUTO 32003KT 9999 NCD 24/24 Q1010=
12/02/2021 19:30:00Z	 SAID32 WIOO 121930	METAR WIOO 121930Z AUTO 36004KT 9999 NCD 24/24 Q1010=
12/02/2021 20:00:00Z	 SAID32 WIOO 122000	METAR WIOO 122000Z AUTO 01003KT 9999 NCD 24/24 Q1010=
12/02/2021 20:30:00Z	 SAID32 WIOO 122030	METAR WIOO 122030Z AUTO 36003KT 9999 NCD 24/24 Q1010=
12/02/2021 21:00:00Z	 SAID32 WIOO 122100	METAR WIOO 122100Z AUTO 01003KT 9999 NCD 24/24 Q1009=
12/02/2021 21:30:00Z	 SAID32 WIOO 122130	METAR WIOO 122130Z AUTO 25001KT 9999 NCD 24/23 Q1010=
12/02/2021 22:00:00Z	 SAID32 WIOO 122200	METAR WIOO 122200Z 22003KT 6000 FEW012 24/22 Q1010 NOSIG=
12/02/2021 22:30:00Z	 SAID32 WIOO 122230	METAR WIOO 122230Z 00000KT 2000 FU BKN005 24/23 Q1010 NOSIG=
12/02/2021 23:00:00Z	 SAID32 WIOO 122300	METAR WIOO 122300Z 00000KT 0700 FU SCT005 24/23 Q1010 TEMPO TL2400 0800=
12/02/2021 23:30:00Z	 SAID32 WIOO 122330	METAR WIOO 122330Z 00000KT 0700 FU SCT005 24/23 Q1011 TEMPO TL2400 0800 FU=
13/02/2021 00:00:00Z	 SAID32 WIOO 130000	METAR WIOO 130000Z 00000KT 0700 FU SCT006 24/23 Q1011 BECMG AT0030 1000 FU=
13/02/2021 00:30:00Z	 SAID32 WIOO 130030	METAR WIOO 130030Z 00000KT 1500 FU SCT008 25/24 Q1012 BECMG AT0100 3000 FU=
13/02/2021 01:00:00Z	 SAID32 WIOO 130100	METAR WIOO 130100Z 33004KT 4000 FU SCT009 26/24 Q1012 BECMG AT0130 8000 NSW=
13/02/2021 01:30:00Z	 SAID32 WIOO 130130	METAR WIOO 130130Z 31003KT 7000 SCT010 27/24 Q1012 NOSIG=
13/02/2021 02:00:00Z	 SAID32 WIOO 130200	METAR WIOO 130200Z 35007KT 9999 SCT011 28/24 Q1012 NOSIG=
13/02/2021 02:30:00Z	 SAID32 WIOO 130230	METAR WIOO 130230Z 01008KT 9999 BKN012 29/24 Q1012 NOSIG=
13/02/2021 03:00:00Z	 SAID32 WIOO 130300	METAR WIOO 130300Z 34008KT 9999 BKN012 30/24 Q1012 NOSIG=
13/02/2021 03:30:00Z	 SAID32 WIOO 130330	METAR WIOO 130330Z 35008KT 9999 BKN012 30/24 Q1012 NOSIG=
13/02/2021 04:00:00Z	 SAID32 WIOO 130400	METAR WIOO 130400Z 36008KT 9999 BKN012 31/23 Q1012 NOSIG=
13/02/2021 04:30:00Z	 SAID32 WIOO 130430	METAR WIOO 130430Z 35006KT 9999 BKN011 31/23 Q1011=
13/02/2021 05:00:00Z	 SAID32 WIOO 130500	METAR WIOO 130500Z 32005KT 9999 BKN011 32/22 Q1011=
13/02/2021 05:30:00Z	 SAID32 WIOO 130530	METAR WIOO 130530Z 02006KT 9999 BKN011 33/22 Q1010=
13/02/2021 06:00:00Z	 SAID32 WIOO 130600	METAR WIOO 130600Z 33007KT 9999 BKN011 33/22 Q1010=
13/02/2021 06:30:00Z	 SAID32 WIOO 130630	METAR WIOO 130630Z 29008KT 9999 SCT012 33/22 Q1009 NOSIG=
13/02/2021 07:00:00Z	 SAID32 WIOO 130700	METAR WIOO 130700Z 31008KT 5000 FU SCT012 33/22 Q1008 NOSIG=
13/02/2021 07:30:00Z	 SAID32 WIOO 130730	METAR WIOO 130730Z 29008KT 6000 SCT012 33/23 Q1008 NOSIG=
13/02/2021 08:00:00Z	 SAID32 WIOO 130800	METAR WIOO 130800Z 28010KT 9999 SCT012 32/24 Q1008 NOSIG=
13/02/2021 08:30:00Z	 SAID32 WIOO 130830	METAR WIOO 130830Z 26010KT 9999 32/24 Q1008 NOSIG=
13/02/2021 09:00:00Z	 SAID32 WIOO 130900	METAR WIOO 130900Z 26010KT 9999 SCT012 31/25 Q1008 NOSIG=
13/02/2021 09:30:00Z	 SAID32 WIOO 130930	METAR WIOO 130930Z 26010KT 8000 SCT012 30/25 Q1008 NOSIG=
13/02/2021 10:00:00Z	 SAID32 WIOO 131000	METAR WIOO 131000Z 28005KT 9999 SCT012 30/25 Q1008 NOSIG=
13/02/2021 10:30:00Z	 SAID32 WIOO 131030	METAR WIOO 131030Z 26005KT 8000 SCT012 29/25 Q1009 NOSIG=
13/02/2021 11:00:00Z	 SAID32 WIOO 131100	METAR WIOO 131100Z 26005KT 6000 SCT012 29/25 Q1009 NOSIG=
13/02/2021 11:30:00Z	 SAID32 WIOO 131130	METAR WIOO 131130Z 25007KT 6000 SCT012 28/25 Q1010 NOSIG=
13/02/2021 12:00:00Z	 SAID32 WIOO 131200	METAR WIOO 131200Z 24005KT 4000 FU SCT012 27/25 Q1010 NOSIG=
13/02/2021 12:30:00Z	 SAID32 WIOO 131230	METAR WIOO 131230Z 24003KT 4000 FU SCT012 27/25 Q1010 NOSIG=
13/02/2021 13:00:00Z	 SAID32 WIOO 131300	METAR WIOO 131300Z 23003KT 4000 FU SCT001 27/25 Q1011 NOSIG=
13/02/2021 13:30:00Z	 SAID32 WIOO 131330	METAR WIOO 131330Z 29005KT 4000 FU SCT012 26/25 Q1011 NOSIG=
13/02/2021 14:00:00Z	 SAID32 WIOO 131400	METAR WIOO 131400Z 31009KT 4000 FU SCT012 27/25 Q1012 NOSIG=
13/02/2021 14:30:00Z	 SAID32 WIOO 131430	METAR WIOO 131430Z 31006KT 4000 FU FEW012 26/25 Q1012 NOSIG=
13/02/2021 15:00:00Z	 SAID32 WIOO 131500	METAR WIOO 131500Z 30005KT 5000 FU FEW012 26/25 Q1012 NOSIG=
13/02/2021 15:30:00Z	 SAID32 WIOO 131530	METAR WIOO 131530Z 29005KT 5000 FU FEW012 26/25 Q1012 NOSIG=
13/02/2021 16:00:00Z	 SAID32 WIOO 131600	METAR WIOO 131600Z 31007KT 5000 FU FEW012 26/24 Q1012 NOSIG=
13/02/2021 16:30:00Z	 SAID32 WIOO 131630	METAR WIOO 131630Z 33003KT 6000 FEW012 26/24 Q1012 NOSIG=
13/02/2021 17:00:00Z	 SAID32 WIOO 131700	METAR WIOO 131700Z 32003KT 6000 FEW012 25/24 Q1012 NOSIG=
13/02/2021 17:30:00Z	 SAID32 WIOO 131730	METAR WIOO 131730Z AUTO 31003KT 280V340 9999 OVC034 BKN041 25/24 Q1012=
13/02/2021 18:00:00Z	 SAID32 WIOO 131800	METAR WIOO 131800Z AUTO 29003KT 9999 OVC035 BKN036 BKN041 25/24 Q1012=
13/02/2021 18:30:00Z	 SAID32 WIOO 131830	METAR WIOO 131830Z AUTO 30003KT 9999 BKN039 SCT250 25/24 Q1011=
13/02/2021 19:00:00Z	 SAID32 WIOO 131900	METAR WIOO 131900Z AUTO 30003KT 6000 3000 BR FEW002 BKN037 BKN042 25/24 Q1011=
13/02/2021 19:30:00Z	 SAID32 WIOO 131930	METAR WIOO 131930Z AUTO 31003KT 9000 4000 BR SCT039 BKN042 BKN049 24/24 Q1011=
13/02/2021 20:00:00Z	 SAID32 WIOO 132000	METAR WIOO 132000Z AUTO 36002KT 9000 OVC042 24/24 Q1011=
13/02/2021 20:30:00Z	 SAID32 WIOO 132030	METAR WIOO 132030Z AUTO 32002KT 7000 FEW043 24/23 Q1011=
13/02/2021 21:00:00Z	 SAID32 WIOO 132100	METAR WIOO 132100Z AUTO 35002KT 9999 NCD 24/23 Q1011=
13/02/2021 21:30:00Z	 SAID32 WIOO 132130	METAR WIOO 132130Z AUTO 02002KT 9999 NCD 24/23 Q1011=
13/02/2021 22:00:00Z	 SAID32 WIOO 132200	METAR WIOO 132200Z 00000KT 6000 FEW012 24/23 Q1011 NOSIG=
13/02/2021 22:30:00Z	 SAID32 WIOO 132230	METAR WIOO 132230Z 00000KT 6000 FEW012 24/23 Q1011 TEMPO TL2400 2000 BR=
13/02/2021 23:00:00Z	 SAID32 WIOO 132300	METAR WIOO 132300Z 00000KT 5000 BR FEW012 24/23 Q1011 TEMPO TL2400 2000 BR=
13/02/2021 23:30:00Z	 SAID32 WIOO 132330	METAR WIOO 132330Z 00000KT 4000 FEW012 24/23 Q1012 TEMPO TL2400 2000 BR=
14/02/2021 00:00:00Z	 SAID32 WIOO 140000	METAR WIOO 140000Z 00000KT 7000 FEW012 24/23 Q1012 NOSIG=
14/02/2021 00:30:00Z	 SAID32 WIOO 140030	METAR WIOO 140030Z 01004KT 9000 FEW012 25/23 Q1013 NOSIG=
14/02/2021 01:00:00Z	 SAID32 WIOO 140100	METAR WIOO 140100Z 01005KT 9999 FEW012 26/23 Q1013 NOSIG=
14/02/2021 01:30:00Z	 SAID32 WIOO 140130	METAR WIOO 140130Z 02006KT 9999 FEW012 27/23 Q1013 NOSIG=
14/02/2021 02:00:00Z	 SAID32 WIOO 140200	METAR WIOO 140200Z 02007KT 9999 FEW012 27/23 Q1013 NOSIG=
14/02/2021 02:30:00Z	 SAID32 WIOO 140230	METAR WIOO 140230Z 01004KT 9999 FEW012 28/23 Q1013 NOSIG=
14/02/2021 03:00:00Z	 SAID32 WIOO 140300	METAR WIOO 140300Z 04006KT 9999 SCT012 29/23 Q1013 NOSIG=
14/02/2021 03:30:00Z	 SAID32 WIOO 140330	METAR WIOO 140330Z 02006KT 9999 SCT012 30/23 Q1012 NOSIG=
14/02/2021 04:00:00Z	 SAID32 WIOO 140400	METAR WIOO 140400Z 03009KT 9999 SCT012 31/23 Q1012 NOSIG=
14/02/2021 04:30:00Z	 SAID32 WIOO 140430	METAR WIOO 140430Z 02008KT 9999 SCT012 32/23 Q1011 NOSIG=
14/02/2021 05:00:00Z	 SAID32 WIOO 140500	METAR WIOO 140500Z 01008KT 9999 BKN012 32/22 Q1011 NOSIG=
14/02/2021 05:30:00Z	 SAID32 WIOO 140530	METAR WIOO 140530Z 02007KT 9999 BKN012 32/22 Q1010 NOSIG=
14/02/2021 06:00:00Z	 SAID32 WIOO 140600	METAR WIOO 140600Z 35007KT 9999 BKN012 32/22 Q1010 NOSIG=
14/02/2021 06:30:00Z	 SAID32 WIOO 140630	METAR WIOO 140630Z 32004KT 9999 BKN012 32/22 Q1010=
14/02/2021 07:00:00Z	 SAID32 WIOO 140700	METAR WIOO 140700Z 01005KT 9999 BKN011 33/22 Q1009=
14/02/2021 07:30:00Z	 SAID32 WIOO 140730	METAR WIOO 140730Z 32004KT 9999 BKN011 32/22 Q1009=
14/02/2021 08:00:00Z	 SAID32 WIOO 140800	METAR WIOO 140800Z 32009KT 9999 BKN011 32/22 Q1009 NOSIG=
14/02/2021 08:30:00Z	 SAID32 WIOO 140830	METAR WIOO 140830Z 29005KT 9999 BKN012 33/22 Q1009 NOSIG=
14/02/2021 09:00:00Z	 SAID32 WIOO 140900	METAR WIOO 140900Z 26008KT 9999 BKN012 33/25 Q1008 NOSIG=
14/02/2021 09:30:00Z	 SAID32 WIOO 140930	METAR WIOO 140930Z 27007KT 4000 FU 31/25 Q1008 TEMPO FM1030 2000=
14/02/2021 10:00:00Z	 SAID32 WIOO 141000	METAR WIOO 141000Z 25009KT 7000 BKN012 30/24 Q1009 TEMPO FM1030 2000 =
14/02/2021 10:30:00Z	 SAID32 WIOO 141030	METAR WIOO 141030Z 27007KT 6000 SCT012 29/24 Q1009 NOSIG=
14/02/2021 11:00:00Z	 SAID32 WIOO 141100	METAR WIOO 141100Z 26005KT 5000 FU SCT012 29/24 Q1009 TEMPO FM1200 4000 FU=
14/02/2021 11:30:00Z	 SAID32 WIOO 141130	METAR WIOO 141130Z 25004KT 4000 FU SCT012 28/24 Q1009 TEMPO FM1200 4000 FU=
14/02/2021 12:00:00Z	 SAID32 WIOO 141200	METAR WIOO 141200Z 22003KT 5000 FU SCT012 28/25 Q1009 NOSIG=
14/02/2021 12:30:00Z	 SAID32 WIOO 141230	METAR WIOO 141230Z 00000KT 4000 FU SCT012 27/25 Q1010=
14/02/2021 13:00:00Z	 SAID32 WIOO 141300	METAR WIOO 141300Z 25004KT 3000 FU SCT012 27/25 Q1010=
14/02/2021 13:30:00Z	 SAID32 WIOO 141330	METAR WIOO 141330Z 29004KT 3000 FU SCT012 26/25 Q1011 NOSIG=
14/02/2021 14:00:00Z	 SAID32 WIOO 141400	METAR WIOO 141400Z 30003KT 3000 FU SCT012 26/24 Q1011 NOSIG=
14/02/2021 14:30:00Z	 SAID32 WIOO 141430	METAR WIOO 141430Z 29003KT 3000 FU SCT012 26/24 Q1012 NOSIG=
14/02/2021 15:00:00Z	 SAID32 WIOO 141500	METAR WIOO 141500Z AUTO 31004KT 9000 NCD 25/24 Q1012=
14/02/2021 15:30:00Z	 SAID32 WIOO 141530	METAR WIOO 141530Z AUTO 31002KT 9000 NCD 25/24 Q1012=
14/02/2021 16:00:00Z	 SAID32 WIOO 141600	METAR WIOO 141600Z AUTO 32002KT 5000 NCD 25/24 Q1012=
14/02/2021 16:30:00Z	 SAID32 WIOO 141630	METAR WIOO 141630Z AUTO 29002KT 4200 BR NCD 24/24 Q1012=
14/02/2021 17:00:00Z	 SAID32 WIOO 141700	METAR WIOO 141700Z AUTO 35002KT 3300 BR NCD 24/24 Q1012=
14/02/2021 17:30:00Z	 SAID32 WIOO 141730	METAR WIOO 141730Z AUTO 33002KT 3700 BR NCD 24/24 Q1011=
14/02/2021 18:00:00Z	 SAID32 WIOO 141800	METAR WIOO 141800Z AUTO 31002KT 3200 BR NCD 24/23 Q1011=
14/02/2021 18:30:00Z	 SAID32 WIOO 141830	METAR WIOO 141830Z AUTO 31002KT 3200 BR NCD 24/23 Q1011=
14/02/2021 19:00:00Z	 SAID32 WIOO 141900	METAR WIOO 141900Z AUTO 36003KT 4700 BR NCD 24/23 Q1010=
14/02/2021 19:30:00Z	 SAID32 WIOO 141930	METAR WIOO 141930Z AUTO 34004KT 7000 BR NCD 23/23 Q1010=
14/02/2021 20:00:00Z	 SAID32 WIOO 142000	METAR WIOO 142000Z AUTO 34004KT 6000 NCD 23/23 Q1010=
14/02/2021 20:30:00Z	 SAID32 WIOO 142030	METAR WIOO 142030Z AUTO 34003KT 7000 NCD 23/23 Q1010=
14/02/2021 21:00:00Z	 SAID32 WIOO 142100	METAR WIOO 142100Z AUTO 35002KT 5000 NCD 23/23 Q1010=
14/02/2021 21:30:00Z	 SAID32 WIOO 142130	METAR WIOO 142130Z AUTO 01003KT 8000 NCD 23/23 Q1010=
14/02/2021 22:00:00Z	 SAID32 WIOO 142200	METAR WIOO 142200Z AUTO 02002KT 9999 NCD 23/23 Q1010=
14/02/2021 22:30:00Z	 SAID32 WIOO 142230	METAR WIOO 142230Z AUTO 01003KT 8000 NCD 23/22 Q1010=
14/02/2021 23:00:00Z	 SAID32 WIOO 142300	METAR WIOO 142300Z 00000KT 4000 HZ FEW013 23/22 Q1010 NOSIG=
14/02/2021 23:30:00Z	 SAID32 WIOO 142330	METAR WIOO 142330Z 06003KT 4000 HZ FEW013 23/22 Q1011 TEMPO AT0000 5000=
15/02/2021 00:00:00Z	 SAID32 WIOO 150000	METAR WIOO 150000Z 06004KT 7000 FEW013 23/22 Q1011 NOSIG=
15/02/2021 00:30:00Z	 SAID32 WIOO 150030	METAR WIOO 150030Z 06003KT 7000 FEW012 24/22 Q1011 NOSIG=
15/02/2021 01:00:00Z	 SAID32 WIOO 150100	METAR WIOO 150100Z 06003KT 9999 FEW012 25/22 Q1012 NOSIG=
15/02/2021 01:30:00Z	 SAID32 WIOO 150130	METAR WIOO 150130Z 09003KT 9999 FEW013 26/23 Q1012 NOSIG=
15/02/2021 02:00:00Z	 SAID32 WIOO 150200	METAR WIOO 150200Z 06006KT 9999 FEW013 27/23 Q1012 NOSIG=
15/02/2021 02:30:00Z	 SAID32 WIOO 150230	METAR WIOO 150230Z 05003KT 9999 FEW013 28/22 Q1011 NOSIG=
15/02/2021 03:00:00Z	 SAID32 WIOO 150300	METAR WIOO 150300Z 01007KT 9999 FEW013 29/21 Q1011 NOSIG=
15/02/2021 03:30:00Z	 SAID32 WIOO 150330	METAR WIOO 150330Z 02007KT 9999 FEW013 30/21 Q1011 NOSIG=
15/02/2021 04:00:00Z	 SAID32 WIOO 150400	METAR WIOO 150400Z 01012KT 9999 FEW013 31/21 Q1011 NOSIG=
15/02/2021 04:30:00Z	 SAID32 WIOO 150430	METAR WIOO 150430Z 33007KT 9999 FEW013 31/21 Q1011 NOSIG=
15/02/2021 05:00:00Z	 SAID32 WIOO 150500	METAR WIOO 150500Z 33011KT 9999 FEW013 33/20 Q1010 NOSIG=
15/02/2021 05:30:00Z	 SAID32 WIOO 150530	METAR WIOO 150530Z 31010KT 9999 FEW013 33/20 Q1009 NOSIG=
15/02/2021 06:00:00Z	 SAID32 WIOO 150600	METAR WIOO 150600Z 32011KT 9999 FEW012 33/21 Q1009 NOSIG=
15/02/2021 06:30:00Z	 SAID32 WIOO 150630	METAR WIOO 150630Z 31007KT 5000 FU SCT012 33/21 Q1009 TEMPO TL0730 3000 FU=
15/02/2021 07:00:00Z	 SAID32 WIOO 150700	METAR WIOO 150700Z 26011KT 4000 FU SCT012 33/22 Q1008 TEMPO TL0730 3000 FU=
15/02/2021 07:30:00Z	 SAID32 WIOO 150730	METAR WIOO 150730Z 26013KT 2000 FU SCT011 33/22 Q1008 TEMPO TL0830 1000 FU=
15/02/2021 08:00:00Z	 SAID32 WIOO 150800	METAR WIOO 150800Z 26009KT 2000 FU SCT011 32/22 Q1008 TEMPO TL0830 1000 FU=
15/02/2021 08:30:00Z	 SAID32 WIOO 150830	METAR WIOO 150830Z 28009KT 1500 FU SCT011 32/22 Q1007 TEMPO TL0900 1000 FU=
15/02/2021 09:00:00Z	 SAID32 WIOO 150900	METAR WIOO 150900Z 26008KT 2000 FU 31/22 Q1007 TEMPO TL1000 1000 FU=
15/02/2021 09:30:00Z	 SAID32 WIOO 150930	METAR WIOO 150930Z 26005KT 2000 FU SCT011 30/22 Q1007 TEMPO TL1000 1000 FU=
15/02/2021 10:00:00Z	 SAID32 WIOO 151000	METAR WIOO 151000Z 26005KT 2000 FU SCT011 30/22 Q1008 NOSIG=
15/02/2021 10:30:00Z	 SAID32 WIOO 151030	METAR WIOO 151030Z 27007KT 2500 FU SCT012 29/22 Q1008 NOSIG=
15/02/2021 11:00:00Z	 SAID32 WIOO 151100	METAR WIOO 151100Z 26005KT 3000 FU SCT012 28/23 Q1008 NOSIG=
15/02/2021 11:30:00Z	 SAID32 WIOO 151130	METAR WIOO 151130Z 26004KT 3000 FU SCT012 27/23 Q1009 NOSI=
15/02/2021 12:00:00Z	 SAID32 WIOO 151200	METAR WIOO 151200Z 35003KT 2000 FU SCT012 27/23 Q1009 NOSIG=
15/02/2021 12:30:00Z	 SAID32 WIOO 151230	METAR WIOO 151230Z 27003KT 2000 FU SCT012 26/23 Q1009=
15/02/2021 13:00:00Z	 SAID32 WIOO 151300	METAR WIOO 151300Z 26004KT 2000 FU SCT012 26/23 Q1010 NOSIG=
15/02/2021 13:30:00Z	 SAID32 WIOO 151330	METAR WIOO 151330Z 28003KT 1500 FU SCT011 26/23 Q1010 NOSIG=
15/02/2021 14:00:00Z	 SAID32 WIOO 151400	METAR WIOO 151400Z 21003KT 1500 FU SCT011 25/23 Q1011 NOSIG=
15/02/2021 14:30:00Z	 SAID32 WIOO 151430	METAR WIOO 151430Z 27003KT 1300 FU SCT011 25/23 Q1011 NOSIG=
15/02/2021 15:00:00Z	 SAID32 WIOO 151500	METAR WIOO 151500Z 30004KT 1200 FU SCT011 25/22 Q1011 NOSIG=
15/02/2021 15:30:00Z	 SAID32 WIOO 151530	METAR WIOO 151530Z 00000KT 1200 FU SCT011 24/22 Q1011 NOSIG=
15/02/2021 16:00:00Z	 SAID32 WIOO 151600	METAR WIOO 151600Z 00000KT 1000 FU SCT011 24/22 Q1011 NOSIG=
15/02/2021 16:30:00Z	 SAID32 WIOO 151630	METAR WIOO 151630Z 32005KT 1500 FU SCT011 24/22 Q1011 NOSIG=
15/02/2021 17:00:00Z	 SAID32 WIOO 151700	METAR WIOO 151700Z 28003KT 1500 FU SCT011 23/21 Q1010 NOSIG=
15/02/2021 17:30:00Z	 SAID32 WIOO 151730	METAR WIOO 151730Z 31004KT 1500 FU SCT011 23/21 Q1010 NOSIG=
15/02/2021 18:00:00Z	 SAID32 WIOO 151800	METAR WIOO 151800Z 31004KT 1500 FU SCT010 23/21 Q1010 NOSIG=
15/02/2021 18:30:00Z	 SAID32 WIOO 151830	METAR WIOO 151830Z AUTO 31001KT 2400 BR OVC001 SCT260 22/22 Q1010=
15/02/2021 19:00:00Z	 SAID32 WIOO 151900	METAR WIOO 151900Z AUTO 01001KT 3200 BR BKN002 OVC260 23/22 Q1010=
15/02/2021 19:30:00Z	 SAID32 WIOO 151930	METAR WIOO 151930Z 00000KT 4000 FU SCT010 22/21 Q1010 NOSIG=
15/02/2021 20:00:00Z	 SAID32 WIOO 152000	METAR WIOO 152000Z AUTO 07002KT 3800 BR NCD 22/22 Q1009=
15/02/2021 20:30:00Z	 SAID32 WIOO 152030	METAR WIOO 152030Z AUTO 05003KT 3400 BR NCD 22/21 Q1009=
15/02/2021 21:00:00Z	 SAID32 WIOO 152100	METAR WIOO 152100Z 03003KT 3000 FU SCT010 22/21 Q1009 TEMPO FM2230 1000=
15/02/2021 21:30:00Z	 SAID32 WIOO 152130	METAR WIOO 152130Z 00000KT 4000 FU SCT010 22/21 Q1009 TEMPO FM2230 1000=
15/02/2021 22:00:00Z	 SAID32 WIOO 152200	METAR WIOO 152200Z 04003KT 5000 BR SCT010 22/21 Q1009 TEMPO FM2230 1000=
15/02/2021 22:30:00Z	 SAID32 WIOO 152230	METAR WIOO 152230Z 00000KT 5000 BR SCT010 22/21 Q1009 TEMPO FM2315 1000=
15/02/2021 23:00:00Z	 SAID32 WIOO 152300	METAR WIOO 152300Z 00000KT 5000 BR SCT011 21/21 Q1009 TEMPO FM2315 1000=
15/02/2021 23:30:00Z	 SAID32 WIOO 152330	METAR WIOO 152330Z 00000KT 4000 BR SCT010 21/21 Q1009 TEMPO TL2400 2000=
16/02/2021 00:00:00Z	 SAID32 WIOO 160000	METAR WIOO 160000Z 04004KT 7000 FEW011 22/21 Q1010 NOSIG=
16/02/2021 00:30:00Z	 SAID32 WIOO 160030	METAR WIOO 160030Z 05004KT 9000 FEW012 23/21 Q1010 NOSIG=
16/02/2021 01:00:00Z	 SAID32 WIOO 160100	METAR WIOO 160100Z 09003KT 9999 FEW012 24/21 Q1010 NOSIG=
16/02/2021 01:30:00Z	 SAID32 WIOO 160130	METAR WIOO 160130Z 06004KT 9999 FEW012 26/22 Q1011 NOSIG=
16/02/2021 02:00:00Z	 SAID32 WIOO 160200	METAR WIOO 160200Z 04005KT 9999 FEW012 27/22 Q1011 NOSIG=
16/02/2021 02:30:00Z	 SAID32 WIOO 160230	METAR WIOO 160230Z 01005KT 9999 FEW012 27/22 Q1011 NOSIG=
16/02/2021 03:00:00Z	 SAID32 WIOO 160300	METAR WIOO 160300Z 01006KT 9999 FEW011 28/22 Q1011 NOSIG=
16/02/2021 03:30:00Z	 SAID32 WIOO 160330	METAR WIOO 160330Z 36006KT 9999 FEW012 29/21 Q1011 NOSIG=
16/02/2021 04:00:00Z	 SAID32 WIOO 160400	METAR WIOO 160400Z 06003KT 9999 FEW012 30/20 Q1010 NOSIG=
16/02/2021 04:30:00Z	 SAID32 WIOO 160430	METAR WIOO 160430Z 02003KT 9999 FEW012 31/20 Q1010 NOSIG=
16/02/2021 05:00:00Z	 SAID32 WIOO 160500	METAR WIOO 160500Z 21003KT 9999 FEW012 31/19 Q1009 NOSIG=
16/02/2021 05:30:00Z	 SAID32 WIOO 160530	METAR WIOO 160530Z 26005KT 9999 FEW012 33/19 Q1009 NOSIG=
16/02/2021 06:00:00Z	 SAID32 WIOO 160600	METAR WIOO 160600Z 33005KT 9999 FEW012 33/19 Q1008 NOSIG=
16/02/2021 06:30:00Z	 SAID32 WIOO 160630	METAR WIOO 160630Z 33004KT 9999 FEW012 33/18 Q1008 NOSIG=
16/02/2021 07:00:00Z	 SAID32 WIOO 160700	METAR WIOO 160700Z 30008KT 8000 SCT012 33/19 Q1007 TEMPO FM0800 4000 FU=
16/02/2021 07:30:00Z	 SAID32 WIOO 160730	METAR WIOO 160730Z 25007KT 5000 FU SCT012 33/22 Q1007 TEMPO FM0800 4000 FU=
16/02/2021 08:00:00Z	 SAID32 WIOO 160800	METAR WIOO 160800Z 28010KT 4000 FU SCT012 32/22 Q1007 TEMPO FM0900 5000=
16/02/2021 08:30:00Z	 SAID32 WIOO 160830	METAR WIOO 160830Z 28010KT 4000 FU SCT012 32/22 Q1007 TEMPO FM0900 5000=
16/02/2021 09:00:00Z	 SAID32 WIOO 160900	METAR WIOO 160900Z 27010KT 5000 FU SCT012 31/22 Q1007 TEMPO TL1000 4000=
16/02/2021 09:30:00Z	 SAID32 WIOO 160930	METAR WIOO 160930Z 27011KT 5000 FU SCT012 30/23 Q1007 TEMPO TL1000 4000=
16/02/2021 10:00:00Z	 SAID32 WIOO 161000	METAR WIOO 161000Z 27009KT 4000 FU SCT012 29/23 Q1008 NOSIG=
16/02/2021 10:30:00Z	 SAID32 WIOO 161030	METAR WIOO 161030Z 28008KT 3000 FU SCT012 28/23 Q1008 NOSIG=
16/02/2021 11:00:00Z	 SAID32 WIOO 161100	METAR WIOO 161100Z 28007KT 3000 FU SCT012 27/23 Q1008 NOSIG=
16/02/2021 12:00:00Z	 SAID32 WIOO 161200	METAR WIOO 161200Z 29005KT 2500 FU SCT012 26/22 Q1009 NOSIG=
16/02/2021 12:30:00Z	 SAID32 WIOO 161230	METAR WIOO 161230Z 28006KT 2000 FU SCT012 26/23 Q1009 NOSIG=
16/02/2021 13:00:00Z	 SAID32 WIOO 161300	METAR WIOO 161300Z 28005KT 2000 FU SCT012 26/22 Q1009 NOSIG=
16/02/2021 13:30:00Z	 SAID32 WIOO 161330	METAR WIOO 161330Z 27004KT 1500 FU SCT012 25/22 Q1010=
16/02/2021 14:00:00Z	 SAID32 WIOO 161400	METAR WIOO 161400Z 25003KT 1000 FU SCT012 25/22 Q1010=
16/02/2021 14:30:00Z	 SAID32 WIOO 161430	METAR WIOO 161430Z 28003KT 2000 FU SCT012 25/22 Q1010=
16/02/2021 15:00:00Z	 SAID32 WIOO 161500	METAR WIOO 161500Z 00000KT 5000 FU SCT012 24/22 Q1011=
16/02/2021 15:30:00Z	 SAID32 WIOO 161530	METAR WIOO 161530Z AUTO 33004KT 9000 NCD 24/22 Q1010=
16/02/2021 16:00:00Z	 SAID32 WIOO 161600	METAR WIOO 161600Z AUTO 32003KT 9999 NCD 24/22 Q1010=
16/02/2021 16:30:00Z	 SAID32 WIOO 161630	METAR WIOO 161630Z AUTO 33004KT 9000 NCD 24/22 Q1010=
16/02/2021 17:00:00Z	 SAID32 WIOO 161700	METAR WIOO 161700Z AUTO 32005KT 4600 BR NCD 23/21 Q1010=
16/02/2021 17:30:00Z	 SAID32 WIOO 161730	METAR WIOO 161730Z AUTO 33004KT 4600 BR BKN002 23/22 Q1010=
16/02/2021 18:00:00Z	 SAID32 WIOO 161800	METAR WIOO 161800Z AUTO 32004KT 5000 BR FEW002 23/22 Q1010=
16/02/2021 18:30:00Z	 SAID32 WIOO 161830	METAR WIOO 161830Z AUTO 27002KT 4400 BR SCT002 23/22 Q1010=
16/02/2021 19:00:00Z	 SAID32 WIOO 161900	METAR WIOO 161900Z AUTO 28003KT 2800 BR OVC001 OVC002 22/22 Q1010=
16/02/2021 19:30:00Z	 SAID32 WIOO 161930	METAR WIOO 161930Z AUTO 29002KT 2000 1300 BR OVC001 BKN002 22/22 Q1010=
16/02/2021 20:00:00Z	 SAID32 WIOO 162000	METAR WIOO 162000Z AUTO 30003KT 1600 1100 BR OVC001 22/22 Q1010=
16/02/2021 20:30:00Z	 SAID32 WIOO 162030	METAR WIOO 162030Z AUTO 30002KT 1700 0800 FG OVC001 BKN070 22/21 Q1010=
16/02/2021 21:00:00Z	 SAID32 WIOO 162100	METAR WIOO 162100Z AUTO 30003KT 1300 0800 R15/1800N FG OVC001 OVC075 22/22 Q1010=
16/02/2021 21:30:00Z	 SAID32 WIOO 162130	METAR WIOO 162130Z AUTO 32003KT 1900 BR SCT001 OVC070 OVC075 22/22 Q1010=
16/02/2021 22:00:00Z	 SAID32 WIOO 162200	METAR WIOO 162200Z 00000KT 2000 FU SCT012 23/22 Q1010 TEMPO AT2300 1000 FU=
16/02/2021 22:30:00Z	 SAID32 WIOO 162230	METAR WIOO 162230Z 00000KT 2000 FU SCT012 23/22 Q1011 TEMPO AT2300 1000 FU=
16/02/2021 23:00:00Z	 SAID32 WIOO 162300	METAR WIOO 162300Z 29004KT 3000 FU SCT012 24/22 Q1011 TEMPO AT2400 1000 FU=
16/02/2021 23:30:00Z	 SAID32 WIOO 162330	METAR WIOO 162330Z 34004KT 4000 FU SCT012 24/22 Q1011 TEMPO TL0000 1000 FU=
16/02/2021 23:30:00Z	 SAID32 WIOO 162330 CCA	METAR COR WIOO 162330Z 34004KT 4000 FU SCT012 24/22 Q1011 TEMPO TL2400 1000 FU=
17/02/2021 00:00:00Z	 SAID32 WIOO 170000	METAR WIOO 170000Z 01003KT 3000 FU SCT012 24/22 Q1011 BECMG TL0100 8000=
17/02/2021 00:30:00Z	 SAID32 WIOO 170030	METAR WIOO 170030Z 02004KT 4000 FU FEW012 25/22 Q1012 BECMG TL0100 8000=
17/02/2021 01:00:00Z	 SAID32 WIOO 170100	METAR WIOO 170100Z 02004KT 6000 FEW012 25/22 Q1012 NOSIG=
17/02/2021 01:30:00Z	 SAID32 WIOO 170130	METAR WIOO 170130Z 01006KT 9000 FEW012 26/22 Q1012 NOSIG=
17/02/2021 02:00:00Z	 SAID32 WIOO 170200	METAR WIOO 170200Z 33010KT 9999 FEW012 27/23 Q1012 NOSIG=
17/02/2021 02:30:00Z	 SAID32 WIOO 170230	METAR WIOO 170230Z 34008KT 9999 FEW012 28/22 Q1012 NOSIG=
17/02/2021 03:00:00Z	 SAID32 WIOO 170300	METAR WIOO 170300Z 34005KT 9999 FEW012 29/22 Q1012 NOSIG=
17/02/2021 03:30:00Z	 SAID32 WIOO 170330	METAR WIOO 170330Z 32006KT 9999 FEW012 30/21 Q1012 NOSIG=
17/02/2021 04:00:00Z	 SAID32 WIOO 170400	METAR WIOO 170400Z 34003KT 9999 FEW012 30/19 Q1012 NOSIG=
17/02/2021 04:30:00Z	 SAID32 WIOO 170430	METAR WIOO 170430Z 33004KT 9999 FEW012 31/18 Q1011 NOSIG=
17/02/2021 05:00:00Z	 SAID32 WIOO 170500	METAR WIOO 170500Z 29007KT 9999 SCT012 31/18 Q1011 NOSIG=
17/02/2021 05:30:00Z	 SAID32 WIOO 170530	METAR WIOO 170530Z 30007KT 9999 SCT012 31/19 Q1010 NOSIG=
17/02/2021 06:00:00Z	 SAID32 WIOO 170600	METAR WIOO 170600Z 29008KT 9999 SCT012 31/19 Q1010 NOSIG=
17/02/2021 06:30:00Z	 SAID32 WIOO 170630	METAR WIOO 170630Z 30006KT 9999 SCT012 31/21 Q1010 NOSIG=
17/02/2021 07:00:00Z	 SAID32 WIOO 170700	METAR WIOO 170700Z 30010KT 9999 SCT012 31/22 Q1010 NOSIG=
17/02/2021 07:30:00Z	 SAID32 WIOO 170730	METAR WIOO 170730Z 27010KT 9999 SCT012 31/22 Q1009 NOSIG=
17/02/2021 08:00:00Z	 SAID32 WIOO 170800	METAR WIOO 170800Z 28010KT 9999 SCT012 31/21 Q1009 NOSIG=
17/02/2021 08:30:00Z	 SAID32 WIOO 170830	METAR WIOO 170830Z 26006KT 9999 SCT012 30/22 Q1009 NOSIG=
17/02/2021 09:00:00Z	 SAID32 WIOO 170900	METAR WIOO 170900Z 25008KT 9999 SCT012 31/21 Q1009 NOSIG=
17/02/2021 09:30:00Z	 SAID32 WIOO 170930	METAR WIOO 170930Z 29007KT 8000 SCT012 30/22 Q1009 NOSIG=
17/02/2021 10:00:00Z	 SAID32 WIOO 171000	METAR COR WIOO 171000Z 28003KT 5000 FU FEW012 30/22 Q1009 TEMPO FM1030 3000=
17/02/2021 10:30:00Z	 SAID32 WIOO 171030	METAR WIOO 171030Z 28003KT 4000 FU FEW012 28/22 Q1009 NOSIG=
17/02/2021 11:00:00Z	 SAID32 WIOO 171100	METAR WIOO 171100Z 25005KT 3000 FU FEW012 28/22 Q1009 TEMPO TL1300 2000=
17/02/2021 11:30:00Z	 SAID32 WIOO 171130	METAR WIOO 171130Z 25004KT 3000 FU FEW012 27/22 Q1010 NOSIG=
17/02/2021 12:00:00Z	 SAID32 WIOO 171200	METAR WIOO 171200Z 25003KT 3000 FU FEW012 27/23 Q1010 NOSIG=
17/02/2021 12:30:00Z	 SAID32 WIOO 171230	METAR WIOO 171230Z 00000KT 3000 FU FEW012 27/23 Q1010 NOSIG=
17/02/2021 13:00:00Z	 SAID32 WIOO 171300	METAR WIOO 171300Z 00000KT 3000 FU FEW012 27/23 Q1011 NOSIG=
17/02/2021 13:30:00Z	 SAID32 WIOO 171330	METAR WIOO 171330Z 26003KT 2000 FU FEW012 26/23 Q1011 NOSIG=
17/02/2021 14:00:00Z	 SAID32 WIOO 171400	METAR WIOO 171400Z 29004KT 2000 FU SCT012 26/23 Q1011 NOSIG=
17/02/2021 14:30:00Z	 SAID32 WIOO 171430	METAR WIOO 171430Z 29003KT 2000 FU SCT012 25/23 Q1011 NOSIG=
17/02/2021 15:00:00Z	 SAID32 WIOO 171500	METAR WIOO 171500Z 28003KT 2000 FU SCT012 25/23 Q1011 NOSIG=
17/02/2021 15:30:00Z	 SAID32 WIOO 171530	METAR WIOO 171530Z 00000KT 1500 FU SCT012 25/23 Q1011 NOSIG=
17/02/2021 16:00:00Z	 SAID32 WIOO 171600	METAR WIOO 171600Z 32003KT 1500 FU SCT012 25/23 Q1011 NOSIG=
17/02/2021 16:30:00Z	 SAID32 WIOO 171630	METAR WIOO 171630Z 32003KT 3000 FU SCT012 25/23 Q1011 NOSIG=
17/02/2021 17:00:00Z	 SAID32 WIOO 171700	METAR WIOO 171700Z 00000KT 4000 FU SCT012 25/22 Q1011 NOSIG=
17/02/2021 17:30:00Z	 SAID32 WIOO 171730	METAR WIOO 171730Z 31003KT 4000 FU SCT012 24/22 Q1011 NOSIG=
17/02/2021 18:00:00Z	 SAID32 WIOO 171800	METAR WIOO 171800Z 32003KT 5000 FU SCT012 24/22 Q1010 NOSIG=
17/02/2021 18:30:00Z	 SAID32 WIOO 171830	METAR WIOO 171830Z 32004KT 5000 FU SCT012 24/22 Q1010 NOSIG=
17/02/2021 19:00:00Z	 SAID32 WIOO 171900	METAR WIOO 171900Z 33004KT 6000 SCT012 25/23 Q1010 NOSIG=
17/02/2021 19:30:00Z	 SAID32 WIOO 171930	METAR WIOO 171930Z 33003KT 7000 SCT012 25/23 Q1010 NOSIG=
17/02/2021 20:00:00Z	 SAID32 WIOO 172000	METAR WIOO 172000Z 00000KT 5000 FU SCT012 24/23 Q1010 NOSIG=
17/02/2021 20:30:00Z	 SAID32 WIOO 172030	METAR WIOO 172030Z 32004KT 3000 FU SCT012 24/23 Q1010 NOSIG=
17/02/2021 21:00:00Z	 SAID32 WIOO 172100	METAR WIOO 172100Z 31003KT 3000 FU SCT012 24/23 Q1010 NOSIG=
17/02/2021 21:30:00Z	 SAID32 WIOO 172130	METAR WIOO 172130Z 00000KT 5000 FU SCT012 24/23 Q1010 NOSIG=
17/02/2021 22:00:00Z	 SAID32 WIOO 172200	METAR WIOO 172200Z 36003KT 6000 SCT012 24/23 Q1010 NOSIG=
17/02/2021 22:30:00Z	 SAID32 WIOO 172230	METAR WIOO 172230Z 34003KT 6000 SCT012 24/23 Q1010 NOSIG=
17/02/2021 23:00:00Z	 SAID32 WIOO 172300	METAR WIOO 172300Z 36003KT 4000 FU SCT012 24/23 Q1011 TEMPO AT0000 6000=
17/02/2021 23:30:00Z	 SAID32 WIOO 172330	METAR WIOO 172330Z 00000KT 4000 FU SCT012 25/23 Q1011 TEMPO AT0000 6000=
18/02/2021 00:00:00Z	 SAID32 WIOO 180000	METAR WIOO 180000Z 02003KT 4000 FU SCT012 25/23 Q1012 BECMG AT0100 6000=
18/02/2021 00:30:00Z	 SAID32 WIOO 180030	METAR WIOO 180030Z 00000KT 4000 FU BKN012 25/23 Q1012 BECMG AT0100 6000=
18/02/2021 01:00:00Z	 SAID32 WIOO 180100	METAR WIOO 180100Z 01004KT 8000 SCT012 26/23 Q1012 NOSIG=
18/02/2021 01:30:00Z	 SAID32 WIOO 180130	METAR WIOO 180130Z 35004KT 9999 SCT012 27/23 Q1013 NOSIG=
18/02/2021 02:00:00Z	 SAID32 WIOO 180200	METAR WIOO 180200Z 36006KT 9999 FEW012 29/23 Q1012 NOSIG=
18/02/2021 02:30:00Z	 SAID32 WIOO 180230	METAR WIOO 180230Z 02006KT 9999 FEW012 30/22 Q1012 NOSIG=
18/02/2021 03:00:00Z	 SAID32 WIOO 180300	METAR WIOO 180300Z 33007KT 9999 SCT012 30/22 Q1012 NOSIG=
18/02/2021 03:30:00Z	 SAID32 WIOO 180330	METAR WIOO 180330Z 32006KT 9999 SCT012 31/21 Q1012 NOSIG=
18/02/2021 04:00:00Z	 SAID32 WIOO 180400	METAR WIOO 180400Z 35007KT 9999 SCT012 32/21 Q1012 NOSIG=
18/02/2021 04:30:00Z	 SAID32 WIOO 180430	METAR WIOO 180430Z 34005KT 9999 SCT012 32/21 Q1011 NOSIG=
18/02/2021 05:00:00Z	 SAID32 WIOO 180500	METAR WIOO 180500Z 34007KT 8000 BKN012 32/20 Q1011 NOSIG=
18/02/2021 05:30:00Z	 SAID32 WIOO 180530	METAR WIOO 180530Z 36005KT 8000 BKN012 32/20 Q1010 NOSIG=
18/02/2021 06:00:00Z	 SAID32 WIOO 180600	METAR WIOO 180600Z 34005KT 8000 BKN012 33/21 Q1010 NOSIG=
18/02/2021 06:30:00Z	 SAID32 WIOO 180630	METAR WIOO 180630Z 34008KT 8000 BKN012 32/21 Q1009 NOSIG=
18/02/2021 07:00:00Z	 SAID32 WIOO 180700	METAR WIOO 180700Z 33005KT 6000 BKN012 31/22 Q1009 TEMPO FM0730 3000 RA=
18/02/2021 07:30:00Z	 SAID32 WIOO 180730	METAR WIOO 180730Z 15010G24KT 0500 RA FEW003CB BKN004 28/23 Q1009 NOSIG=
18/02/2021 08:00:00Z	 SAID32 WIOO 180800	METAR WIOO 180800Z 07008KT 2000 0600NW TSRA FEW002CB BKN003 26/22 Q1009 TEMPO FM0830 4000=
18/02/2021 08:30:00Z	 SAID32 WIOO 180830	METAR WIOO 180830Z 00000KT 6000 -RA FEW010CB BKN011 27/24 Q1008 RETS NOSIG=
18/02/2021 09:00:00Z	 SAID32 WIOO 180900	METAR WIOO 180900Z 28009KT 6000 -RA FEW010CB BKN011 28/25 Q1008 NOSIG=
18/02/2021 09:30:00Z	 SAID32 WIOO 180930	METAR WIOO 180930Z 29009KT 8000 FEW010CB BKN011 29/25 Q1008 RERA NOSIG=
18/02/2021 10:00:00Z	 SAID32 WIOO 181000	METAR WIOO 181000Z 29008KT 8000 FEW010CB BKN011 29/25 Q1009 NOSIG=
18/02/2021 10:30:00Z	 SAID32 WIOO 181030	METAR WIOO 181030Z 28010KT 7000 FEW010CB BKN011 29/25 Q1009 NOSIG=
18/02/2021 11:00:00Z	 SAID32 WIOO 181100	METAR WIOO 181100Z 27005KT 4000 HZ FEW011CB BKN012 28/24 Q1009 NOSIG=
18/02/2021 11:30:00Z	 SAID32 WIOO 181130	METAR WIOO 181130Z 27005KT 4000 HZ FEW011CB BKN012 27/24 Q1010 NOSIG=
18/02/2021 12:00:00Z	 SAID32 WIOO 181200	METAR WIOO 181200Z 28005KT 4000 HZ FEW011CB BKN012 27/24 Q1010 NOSIG=
18/02/2021 12:30:00Z	 SAID32 WIOO 181230	METAR WIOO 181230Z 28004KT 4000 HZ FEW011CB BKN012 27/24 Q1011 NOSIG=
18/02/2021 13:00:00Z	 SAID32 WIOO 181300	METAR WIOO 181300Z 29005KT 4000 HZ FEW011CB BKN012 26/23 Q1011 NOSIG=
18/02/2021 13:30:00Z	 SAID32 WIOO 181330	METAR WIOO 181330Z 30003KT 4000 HZ FEW011CB BKN012 26/23 Q1011 NOSIG=
18/02/2021 14:00:00Z	 SAID32 WIOO 181400	METAR WIOO 181400Z 36004KT 6000 BKN012 26/24 Q1012 NOSIG=
18/02/2021 14:30:00Z	 SAID32 WIOO 181430	METAR WIOO 181430Z 34005KT 6000 BKN012 26/24 Q1012 NOSIG=
18/02/2021 15:00:00Z	 SAID32 WIOO 181500	METAR WIOO 181500Z 32003KT 6000 BKN012 26/23 Q1012 NOSIG=
18/02/2021 15:30:00Z	 SAID32 WIOO 181530	METAR WIOO 181530Z 00000KT 6000 BKN012 26/24 Q1012 NOSIG=
18/02/2021 16:00:00Z	 SAID32 WIOO 181600	METAR WIOO 181600Z 00000KT 6000 BKN012 25/23 Q1012 NOSIG=
18/02/2021 16:30:00Z	 SAID32 WIOO 181630	METAR WIOO 181630Z 00000KT 6000 SCT012 25/23 Q1011 NOSIG=
18/02/2021 17:00:00Z	 SAID32 WIOO 181700	METAR WIOO 181700Z 33003KT 4000 FU SCT012 24/23 Q1011 NOSIG=
18/02/2021 17:30:00Z	 SAID32 WIOO 181730	METAR WIOO 181730Z 00000KT 4000 FU SCT012 24/23 Q1011 NOSIG=
18/02/2021 18:00:00Z	 SAID32 WIOO 181800	METAR WIOO 181800Z 00000KT 4000 FU SCT012 24/23 Q1011 NOSIG=
18/02/2021 18:30:00Z	 SAID32 WIOO 181830	METAR WIOO 181830Z AUTO 03002KT 5000 BR BKN160 24/24 Q1010=
18/02/2021 19:00:00Z	 SAID32 WIOO 181900	METAR WIOO 181900Z AUTO 03002KT 5000 BR BKN160 23/23 Q1010=
18/02/2021 19:30:00Z	 SAID32 WIOO 181930	METAR WIOO 181930Z AUTO 33002KT 4000 BR BKN160 23/23 Q1010=
18/02/2021 20:00:00Z	 SAID32 WIOO 182000	METAR WIOO 182000Z AUTO 33001KT 4200 BR NCD 23/23 Q1010=
18/02/2021 20:30:00Z	 SAID32 WIOO 182030	METAR WIOO 182030Z AUTO 03002KT 4200 BR SCT160 23/23 Q1010=
18/02/2021 21:00:00Z	 SAID32 WIOO 182100	METAR WIOO 182100Z AUTO 04002KT 4500 BR SCT160 24/23 Q1010=
18/02/2021 21:30:00Z	 SAID32 WIOO 182130	METAR WIOO 182130Z AUTO 01001KT 3900 BR BKN150 23/23 Q1010=
18/02/2021 22:00:00Z	 SAID32 WIOO 182200	METAR WIOO 182200Z AUTO 06002KT 4200 BR BKN150 23/23 Q1011=
18/02/2021 22:30:00Z	 SAID32 WIOO 182230	METAR WIOO 182230Z 00000KT 4000 BR SCT012 23/23 Q1011 TEMPO FM2300 TL2400 4000=
18/02/2021 23:00:00Z	 SAID32 WIOO 182300	METAR WIOO 182300Z 33003KT 1000 BR SCT012 23/22 Q1011 TEMPO FM2400 5000=
18/02/2021 23:30:00Z	 SAID32 WIOO 182330	METAR WIOO 182330Z 00000KT 3000 BR SCT012 23/22 Q1011 TEMPO FM2400 5000=
19/02/2021 00:00:00Z	 SAID32 WIOO 190000	METAR WIOO 190000Z 00000KT 6000 FEW012 24/23 Q1012 NOSIG=
19/02/2021 00:30:00Z	 SAID32 WIOO 190030	METAR WIOO 190030Z 33003KT 8000 SCT012 25/24 Q1012=
19/02/2021 01:00:00Z	 SAID32 WIOO 190100	METAR WIOO 190100Z 01006KT 9999 SCT011 26/23 Q1012 NOSIG=
19/02/2021 01:30:00Z	 SAID32 WIOO 190130	METAR WIOO 190130Z 04008KT 9999 SCT011 27/23 Q1012 NOSIG=
19/02/2021 02:00:00Z	 SAID32 WIOO 190200	METAR WIOO 190200Z 01010KT 9999 BKN011 28/23 Q1012=
19/02/2021 02:30:00Z	 SAID32 WIOO 190230	METAR WIOO 190230Z 03008KT 9999 SCT011 28/23 Q1012 NOSIG=
19/02/2021 03:00:00Z	 SAID32 WIOO 190300	METAR WIOO 190300Z 03005KT 9999 BKN011 29/23 Q1012=
19/02/2021 03:30:00Z	 SAID32 WIOO 190330	METAR WIOO 190330Z 04007KT 9999 BKN011 29/23 Q1011 NOSIG=
19/02/2021 04:00:00Z	 SAID32 WIOO 190400	METAR WIOO 190400Z 01003KT 9999 BKN011 30/23 Q1011=
19/02/2021 04:30:00Z	 SAID32 WIOO 190430	METAR WIOO 190430Z 04007KT 9999 BKN011 31/23 Q1010 NOSIG=
19/02/2021 05:00:00Z	 SAID32 WIOO 190500	METAR WIOO 190500Z 34005KT 9999 BKN011 31/23 Q1010 NOSIG=
19/02/2021 05:30:00Z	 SAID32 WIOO 190530	METAR WIOO 190530Z 02004KT 9999 BKN011 32/22 Q1009 NOSIG=
19/02/2021 06:00:00Z	 SAID32 WIOO 190600	METAR WIOO 190600Z 35003KT 9999 BKN011 32/22 Q1009 NOSIG=
19/02/2021 06:30:00Z	 SAID32 WIOO 190630	METAR WIOO 190630Z 01005KT 9999 BKN011 33/22 Q1009 NOSIG=
19/02/2021 07:00:00Z	 SAID32 WIOO 190700	METAR WIOO 190700Z 04009KT 9999 BKN012 33/23 Q1008 NOSIG=
19/02/2021 07:30:00Z	 SAID32 WIOO 190730	METAR WIOO 190730Z 36007KT 9999 BKN012 33/23 Q1008 NOSIG=
19/02/2021 08:00:00Z	 SAID32 WIOO 190800	METAR WIOO 190800Z 34010KT 9999 SCT012 32/22 Q1007 NOSIG=
19/02/2021 08:30:00Z	 SAID32 WIOO 190830	METAR WIOO 190830Z 35008KT 8000 SCT012 31/22 Q1007 NOSIG=
19/02/2021 09:00:00Z	 SAID32 WIOO 190900	METAR WIOO 190900Z 34010KT 9999 SCT012 32/22 Q1007 NOSIG=
19/02/2021 09:30:00Z	 SAID32 WIOO 190930	METAR WIOO 190930Z 35010KT 9999 FEW012 31/21 Q1008 NOSIG=
19/02/2021 10:00:00Z	 SAID32 WIOO 191000	METAR WIOO 191000Z 35011KT 9999 FEW012 29/21 Q1008 NOSIG=
19/02/2021 10:30:00Z	 SAID32 WIOO 191030	METAR WIOO 191030Z 34010KT 8000 FEW012 28/21 Q1008 NOSIG=
19/02/2021 11:00:00Z	 SAID32 WIOO 191100	METAR WIOO 191100Z 35008KT 8000 FEW012 28/21 Q1009 NOSIG=
19/02/2021 11:30:00Z	 SAID32 WIOO 191130	METAR WIOO 191130Z 35006KT 7000 FEW012 28/21 Q1009 NOSIG=
19/02/2021 12:00:00Z	 SAID32 WIOO 191200	METAR WIOO 191200Z 36005KT 6000 FEW012 28/22 Q1010 NOSIG=
19/02/2021 12:30:00Z	 SAID32 WIOO 191230	METAR WIOO 191230Z 35003KT 6000 FEW012 27/22 Q1010 NOSIG=
19/02/2021 13:00:00Z	 SAID32 WIOO 191300	METAR WIOO 191300Z 32003KT 6000 FEW012 27/22 Q1011 NOSIG=
19/02/2021 13:30:00Z	 SAID32 WIOO 191330	METAR WIOO 191330Z 29003KT 6000 FEW012 26/22 Q1011 NOSIG=
19/02/2021 14:00:00Z	 SAID32 WIOO 191400	METAR WIOO 191400Z AUTO 36004KT 9999 FEW070 OVC170 26/23 Q1011=
19/02/2021 14:30:00Z	 SAID32 WIOO 191430	METAR WIOO 191430Z AUTO 35005KT 9999 SCT170 SCT260 BKN290 26/23 Q1011=
19/02/2021 15:00:00Z	 SAID32 WIOO 191500	METAR WIOO 191500Z AUTO 35006KT 9999 FEW280 26/23 Q1011=
19/02/2021 15:30:00Z	 SAID32 WIOO 191530	METAR WIOO 191530Z AUTO 34005KT 9999 NCD 25/23 Q1011=
19/02/2021 16:00:00Z	 SAID32 WIOO 191600	METAR WIOO 191600Z AUTO 35004KT 9999 BKN290 25/23 Q1011=
19/02/2021 16:30:00Z	 SAID32 WIOO 191630	METAR WIOO 191630Z AUTO 34004KT 9999 FEW070 SCT290 25/23 Q1011=
19/02/2021 17:00:00Z	 SAID32 WIOO 191700	METAR WIOO 191700Z AUTO 35002KT 9999 SCT060 BKN160 OVC290 25/23 Q1011=
19/02/2021 17:30:00Z	 SAID32 WIOO 191730	METAR WIOO 191730Z AUTO 35002KT 9999 FEW160 25/23 Q1011=
19/02/2021 18:00:00Z	 SAID32 WIOO 191800	METAR WIOO 191800Z AUTO VRB02KT 8000 FEW160 24/23 Q1011=
19/02/2021 18:30:00Z	 SAID32 WIOO 191830	METAR WIOO 191830Z AUTO 05003KT 6000 SCT160 24/23 Q1010=
19/02/2021 19:00:00Z	 SAID32 WIOO 191900	METAR WIOO 191900Z AUTO 06003KT 6000 FEW065 BKN200 BKN240 24/23 Q1010=
19/02/2021 19:30:00Z	 SAID32 WIOO 191930	METAR WIOO 191930Z AUTO 34002KT 7000 SCT060 BKN200 BKN200 24/23 Q1010=
19/02/2021 20:00:00Z	 SAID32 WIOO 192000	METAR WIOO 192000Z AUTO VRB02KT 6000 SCT210 24/23 Q1009=
19/02/2021 20:30:00Z	 SAID32 WIOO 192030	METAR WIOO 192030Z AUTO 33002KT 7000 FEW031 BKN180 24/23 Q1009=
19/02/2021 21:00:00Z	 SAID32 WIOO 192100	METAR WIOO 192100Z AUTO 33001KT 6000 SCT032 SCT033 OVC180 24/23 Q1010=
19/02/2021 21:30:00Z	 SAID32 WIOO 192130	METAR WIOO 192130Z AUTO 06002KT 6000 FEW034 OVC180 24/23 Q1009=
19/02/2021 22:00:00Z	 SAID32 WIOO 192200	METAR WIOO 192200Z 00000KT 6000 FEW012 24/23 Q1010 NOSIG=
19/02/2021 22:30:00Z	 SAID32 WIOO 192230	METAR WIOO 192230Z 00000KT 6000 FEW012 24/23 Q1010 NOSIG=
19/02/2021 23:00:00Z	 SAID32 WIOO 192300	METAR WIOO 192300Z 00000KT 6000 FEW012 24/22 Q1011 NOSIG=
19/02/2021 23:30:00Z	 SAID32 WIOO 192330	METAR WIOO 192330Z 00000KT 5000 FU FEW012 24/23 Q1011 NOSIG=
20/02/2021 00:00:00Z	 SAID32 WIOO 200000	METAR WIOO 200000Z 00000KT 4000 BR FEW012 24/23 Q1011 TEMPO FM0100 6000=
20/02/2021 00:30:00Z	 SAID32 WIOO 200030	METAR WIOO 200030Z 00000KT 5000 BR FEW012 25/23 Q1012 TEMPO FM0100 6000=
20/02/2021 01:00:00Z	 SAID32 WIOO 200100	METAR WIOO 200100Z 03005KT 8000 FEW012 26/23 Q1012 NOSIG=
20/02/2021 01:30:00Z	 SAID32 WIOO 200130	METAR WIOO 200130Z 04003KT 9999 FEW012 27/22 Q1012 NOSIG=
20/02/2021 02:00:00Z	 SAID32 WIOO 200200	METAR WIOO 200200Z 02003KT 9999 FEW012 28/22 Q1012 NOSIG=
20/02/2021 02:30:00Z	 SAID32 WIOO 200230	METAR WIOO 200230Z 05005KT 9999 SCT011 29/22 Q1012 NOSIG=
20/02/2021 03:00:00Z	 SAID32 WIOO 200300	METAR WIOO 200300Z 06009KT 9999 SCT011 29/22 Q1011 NOSIG=
20/02/2021 03:30:00Z	 SAID32 WIOO 200330	METAR WIOO 200330Z 05005KT 9999 BKN011 29/22 Q1011 NOSIG=
20/02/2021 04:00:00Z	 SAID32 WIOO 200400	METAR WIOO 200400Z 04004KT 9999 BKN011 29/22 Q1011 NOSIG=
20/02/2021 04:30:00Z	 SAID32 WIOO 200430	METAR WIOO 200430Z 03007KT 9999 BKN011 30/23 Q1010 NOSIG=
20/02/2021 05:00:00Z	 SAID32 WIOO 200500	METAR WIOO 200500Z 04005KT 9999 BKN011 31/22 Q1010 NOSIG=
20/02/2021 05:30:00Z	 SAID32 WIOO 200530	METAR WIOO 200530Z 05005KT 9999 BKN011 31/22 Q1009 NOSIG=
20/02/2021 06:00:00Z	 SAID32 WIOO 200600	METAR WIOO 200600Z 36005KT 9999 BKN011 31/22 Q1009 NOSIG=
20/02/2021 06:30:00Z	 SAID32 WIOO 200630	METAR WIOO 200630Z 01005KT 9999 BKN011 31/22 Q1009=
20/02/2021 07:00:00Z	 SAID32 WIOO 200700	METAR WIOO 200700Z 29006KT 9999 BKN011 32/23 Q1008=
20/02/2021 07:30:00Z	 SAID32 WIOO 200730	METAR WIOO 200730Z 33003KT 9999 BKN011 31/23 Q1008=
20/02/2021 08:00:00Z	 SAID32 WIOO 200800	METAR WIOO 200800Z 01006KT 9999 BKN011 32/24 Q1008=
20/02/2021 08:30:00Z	 SAID32 WIOO 200830	METAR WIOO 200830Z 04007KT 9999 BKN011 31/24 Q1007=
20/02/2021 09:00:00Z	 SAID32 WIOO 200900	METAR WIOO 200900Z 06005KT 9999 BKN011 31/23 Q1007=
20/02/2021 09:30:00Z	 SAID32 WIOO 200930	METAR WIOO 200930Z 00000KT 9999 FEW010CB SCT011 30/23 Q1007 TEMPO FM0950 TL1030 27015 1000 RA=
20/02/2021 10:00:00Z	 SAID32 WIOO 201000	METAR WIOO 201000Z 01004KT 9999 FEW010CB SCT011 30/23 Q1008 TEMPO FM0950 TL1030 27015KT 1000 RA=
20/02/2021 10:30:00Z	 SAID32 WIOO 201030	METAR WIOO 201030Z 00000KT 8000 - TSRA FEW010 BKN011 29/24 Q1008 NOSIG=
20/02/2021 11:00:00Z	 SAID32 WIOO 201100	METAR WIOO 201100Z 28003KT 8000 FEW011CB BKN012 28/24 Q1009 RERA=
20/02/2021 11:30:00Z	 SAID32 WIOO 201130	METAR WIOO 201130Z 00000KT 19000 BR FEW011CB BKN012 27/24 Q1009=
20/02/2021 12:00:00Z	 SAID32 WIOO 201200	METAR WIOO 201200Z 00000KT 2500 BR SCT012 27/24 Q1010=
20/02/2021 12:30:00Z	 SAID32 WIOO 201230	METAR WIOO 201230Z 00000KT 1800 BR SCT012 27/24 Q1010=
20/02/2021 13:00:00Z	 SAID32 WIOO 201300	METAR WIOO 201300Z 00000KT 1800 BR SCT012 26/24 Q1010=
20/02/2021 13:30:00Z	 SAID32 WIOO 201330	METAR WIOO 201330Z 00000KT 1500 FU SCT013 26/24 Q1013 NOSIG=
20/02/2021 14:00:00Z	 SAID32 WIOO 201400	METAR WIOO 201400Z 00000KT 2500 FU SCT012 26/24 Q1011 NOSIG=
20/02/2021 14:30:00Z	 SAID32 WIOO 201430	METAR WIOO 201430Z 29003KT 3000 FU SCT012 26/24 Q1012 NOSIG=
20/02/2021 15:00:00Z	 SAID32 WIOO 201500	METAR WIOO 201500Z 35004KT 3000 HZ SCT012 26/23 Q1012 NOSIG=
20/02/2021 15:30:00Z	 SAID32 WIOO 201530	METAR WIOO 201530Z 35004KT 6000 SCT012 26/23 Q1011 NOSIG=
20/02/2021 16:00:00Z	 SAID32 WIOO 201600	METAR WIOO 201600Z 36004KT 6000 SCT012 26/22 Q1011 NOSIG=
20/02/2021 16:30:00Z	 SAID32 WIOO 201630	METAR WIOO 201630Z 34004KT 6000 SCT012 25/22 Q1011 NOSIG=
20/02/2021 17:00:00Z	 SAID32 WIOO 201700	METAR WIOO 201700Z 36003KT 6000 SCT012 25/22 Q1011 NOSIG=
20/02/2021 17:30:00Z	 SAID32 WIOO 201730	METAR WIOO 201730Z 00000KT 6000 SCT012 25/22 Q1011 NOSIG=
20/02/2021 18:00:00Z	 SAID32 WIOO 201800	METAR WIOO 201800Z 00000KT 6000 SCT012 25/22 Q1011 NOSIG=
20/02/2021 18:30:00Z	 SAID32 WIOO 201830	METAR WIOO 201830Z AUTO 20001KT 9000 OVC310 24/23 Q1010=
20/02/2021 19:00:00Z	 SAID32 WIOO 201900	METAR WIOO 201900Z AUTO 17001KT 8000 OVC310 23/23 Q1010=
20/02/2021 19:30:00Z	 SAID32 WIOO 201930	METAR WIOO 201930Z 00000KT 6000 SCT012 23/23 Q1010=
20/02/2021 20:00:00Z	 SAID32 WIOO 202000	METAR WIOO 202000Z 00000KT 6000 SCT012 23/22 Q1009=
20/02/2021 20:30:00Z	 SAID32 WIOO 202030	METAR WIOO 202030Z 00000KT 4000 HZ SCT012 23/22 Q1009=
20/02/2021 21:00:00Z	 SAID32 WIOO 202100	METAR WIOO 202100Z 00000KT 2000 FU SCT011 23/22 Q1010 NOSIG=
20/02/2021 21:30:00Z	 SAID32 WIOO 202130	METAR WIOO 202130Z 00000KT 1500 FU SCT010 23/22 Q1010 NOSIG=
20/02/2021 22:00:00Z	 SAID32 WIOO 202200	METAR WIOO 202200Z 00000KT 1500 FU SCT010 23/21 Q1010 NOSIG=
20/02/2021 22:30:00Z	 SAID32 WIOO 202230	METAR WIOO 202230Z 00000KT 1000 FU SCT010 22/21 Q1010 NOSIG=
20/02/2021 23:00:00Z	 SAID32 WIOO 202300	METAR WIOO 202300Z 00000KT 0700 FU SCT010 22/21 Q1011 TEMPO FM2330 1000=
20/02/2021 23:30:00Z	 SAID32 WIOO 202330	METAR WIOO 202330Z 00000KT 0700 FU SCT010 22/21 Q1011 TEMPO AT0000 1000 FU=
21/02/2021 00:00:00Z	 SAID32 WIOO 210000	METAR WIOO 210000Z 00000KT 0700 FU FEW010 23/22 Q1011 TEMPO FM0010 TL0100 0700=
21/02/2021 00:30:00Z	 SAID32 WIOO 210030	METAR WIOO 210030Z 06003KT 1500 FU 24/22 Q1012 NOSIG=
21/02/2021 01:00:00Z	 SAID32 WIOO 210100	METAR WIOO 210100Z 04004KT 4000 FU FEW012 25/23 Q1012 BECMG FM0200 6000 NSW=
21/02/2021 01:30:00Z	 SAID32 WIOO 210130	METAR WIOO 210130Z 03005KT 8000 FEW012 27/23 Q1012 NOSIG=
21/02/2021 02:00:00Z	 SAID32 WIOO 210200	METAR WIOO 210200Z 02005KT 8000 FEW012 28/23 Q1012 NOSIG=
21/02/2021 02:30:00Z	 SAID32 WIOO 210230	METAR WIOO 210230Z 01006KT 9999 FEW012 29/23 Q1012 NOSIG=
21/02/2021 03:00:00Z	 SAID32 WIOO 210300	METAR WIOO 210300Z 01006KT 9999 SCT012 30/21 Q1012 NOSIG=
21/02/2021 03:30:00Z	 SAID32 WIOO 210330	METAR WIOO 210330Z 05007KT 9999 SCT012 31/22 Q1012 NOSIG=
21/02/2021 04:00:00Z	 SAID32 WIOO 210400	METAR WIOO 210400Z 32004KT 9999 SCT012 31/22 Q1011 NOSIG=
21/02/2021 04:30:00Z	 SAID32 WIOO 210430	METAR WIOO 210430Z 00000KT 9999 SCT012 31/22 Q1011 NOSIG=
21/02/2021 05:00:00Z	 SAID32 WIOO 210500	METAR WIOO 210500Z 05004KT 9999 BKN012 32/21 Q1010 NOSIG=
21/02/2021 05:30:00Z	 SAID32 WIOO 210530	METAR WIOO 210530Z 00000KT 9999 BKN012 33/21 Q1010 NOSIG=
21/02/2021 06:00:00Z	 SAID32 WIOO 210600	METAR WIOO 210600Z 06007KT 9999 BKN012 32/22 Q1009 NOSIG=
21/02/2021 06:30:00Z	 SAID32 WIOO 210630	METAR WIOO 210630Z 07004KT 9999 BKN012 32/22 Q1008 NOSIG=
21/02/2021 07:00:00Z	 SAID32 WIOO 210700	METAR WIOO 210700Z 15003KT 9999 FEW011CB BKN012 32/21 Q1008 NOSIG=
21/02/2021 07:30:00Z	 SAID32 WIOO 210730	METAR WIOO 210730Z 26003KT 8000 FEW010CB BKN011 32/22 Q1007 NOSIG=
21/02/2021 08:00:00Z	 SAID32 WIOO 210800	METAR WIOO 210800Z 01012KT 5000 -TSRA FEW009CB BKN010 28/24 Q1007 TEMPO TL0830 4000 RA=
21/02/2021 08:30:00Z	 SAID32 WIOO 210830	METAR WIOO 210830Z 11006KT 7000 -RA FEW010CB BKN011 28/24 Q1008 RETS BECMG AT0900 NSW=
21/02/2021 09:00:00Z	 SAID32 WIOO 210900	METAR WIOO 210900Z 19006KT 5000 FU FEW010CB BKN011 28/24 Q1008 RERA NOSIG=
21/02/2021 09:30:00Z	 SAID32 WIOO 210930	METAR WIOO 210930Z 24009KT 1000 FU FEW010CB BKN011 28/25 Q1008 TEMPO TL1030 1000 FU=
21/02/2021 10:00:00Z	 SAID32 WIOO 211000	METAR WIOO 211000Z 26011KT 1500 FU BKN012 29/24 Q1008 TEMPO TL1030 1000 FU=
21/02/2021 10:30:00Z	 SAID32 WIOO 211030	METAR WIOO 211030Z 28008KT 4000 FU SCT012 28/24 Q1008 TEMPO FM1100 4000=
21/02/2021 11:00:00Z	 SAID32 WIOO 211100	METAR WIOO 211100Z 290109KT 6000 SCT012 27/24 Q1008 NOSIG=
21/02/2021 11:00:00Z	 SAID32 WIOO 211100 CCA	METAR COR WIOO 211100Z 29010KT 6000 SCT012 27/24 Q1008 NOSIG=
21/02/2021 11:30:00Z	 SAID32 WIOO 211130	METAR WIOO 211130Z 29007KT 6000 SCT012 27/24 Q1009 NOSIG=
21/02/2021 12:00:00Z	 SAID32 WIOO 211200	METAR WIOO 211200Z 28008KT 6000 SCT012 27/24 Q1009 NOSIG=
21/02/2021 12:30:00Z	 SAID32 WIOO 211230	METAR WIOO 211230Z 30006KT 6000 SCT012 27/24 Q1010 NOSIG=
21/02/2021 13:00:00Z	 SAID32 WIOO 211300	METAR WIOO 211300Z 30006KT 5000 HZ SCT012 26/24 Q1010 NOSIG=
21/02/2021 13:30:00Z	 SAID32 WIOO 211330	METAR WIOO 211330Z 27004KT 6000 SCT012 26/24 Q1010=
21/02/2021 14:00:00Z	 SAID32 WIOO 211400	METAR WIOO 211400Z 30006KT 6000 SCT012 26/23 Q1011=
21/02/2021 14:30:00Z	 SAID32 WIOO 211430	METAR WIOO 211430Z 35004KT 6000 SCT012 26/24 Q1011=
21/02/2021 15:00:00Z	 SAID32 WIOO 211500	METAR WIOO 211500Z 31003KT 6000 SCT012 26/23 Q1011=
21/02/2021 15:30:00Z	 SAID32 WIOO 211530	METAR WIOO 211530Z 03004KT 6000 SCT012 26/23 Q1011=
21/02/2021 16:00:00Z	 SAID32 WIOO 211600	METAR WIOO 211600Z AUTO 35003KT 9999 FEW022 SCT049 BKN050 25/24 Q1011=
21/02/2021 16:30:00Z	 SAID32 WIOO 211630	METAR WIOO 211630Z AUTO 36003KT 9999 SCT047 SCT050 BKN090 25/24 Q1011=
21/02/2021 17:00:00Z	 SAID32 WIOO 211700	METAR WIOO 211700Z AUTO 34004KT 9999 SCT050 OVC055 25/24 Q1010=
21/02/2021 17:30:00Z	 SAID32 WIOO 211730	METAR WIOO 211730Z AUTO 30001KT 9999 FEW050 OVC060 OVC065 25/24 Q1010=
21/02/2021 18:00:00Z	 SAID32 WIOO 211800	METAR WIOO 211800Z AUTO 32001KT 7000 FEW055 SCT070 25/24 Q1010=
21/02/2021 18:30:00Z	 SAID32 WIOO 211830	METAR WIOO 211830Z AUTO 27001KT 6000 FEW055 SCT060 24/24 Q1010=
21/02/2021 19:00:00Z	 SAID32 WIOO 211900	METAR WIOO 211900Z AUTO 29002KT 5000 BR FEW055 BKN060 24/24 Q1009=
21/02/2021 19:30:00Z	 SAID32 WIOO 211930	METAR WIOO 211930Z AUTO 32002KT 3800 BR BKN001 24/24 Q1009=
21/02/2021 20:00:00Z	 SAID32 WIOO 212000	METAR WIOO 212000Z AUTO 30001KT 4100 BR NCD 24/24 Q1009=
21/02/2021 20:30:00Z	 SAID32 WIOO 212030	METAR WIOO 212030Z AUTO 25001KT 4400 1600 BR SCT044 24/24 Q1009=
21/02/2021 21:00:00Z	 SAID32 WIOO 212100	METAR WIOO 212100Z AUTO 29002KT 2100 BR BKN001 SCT044 23/23 Q1009=
21/02/2021 21:30:00Z	 SAID32 WIOO 212130	METAR WIOO 212130Z AUTO 31002KT 2100 R15/P2000N BR OVC001 SCT045 23/23 Q1009=
21/02/2021 22:00:00Z	 SAID32 WIOO 212200	METAR WIOO 212200Z 00000KT 1600 FU SCT012 24/23 Q1010=
21/02/2021 22:30:00Z	 SAID32 WIOO 212230	METAR WIOO 212230Z 00000KT 1300 SCT012 FU 24/23 Q1010 TEMPO FM2300 TL2400 0700=
21/02/2021 23:00:00Z	 SAID32 WIOO 212300	METAR WIOO 212300Z 00000KT 1000 BR 24/23 Q1010 TEMPO TL2340 0700=
21/02/2021 23:30:00Z	 SAID32 WIOO 212330	METAR WIOO 212330Z 00000KT 1000 FU SCT011 24/23 Q1010 TEMPO TL2400 1000=
22/02/2021 00:00:00Z	 SAID32 WIOO 220000	METAR WIOO 220000Z 00000KT 2000 FU SCT011 24/23 Q1011 TEMPO TL0100 2000=
22/02/2021 00:30:00Z	 SAID32 WIOO 220030	METAR WIOO 220030Z 00000KT 2000 FU SCT011 25/24 Q1011 TEMPO TL0100 2000=
22/02/2021 01:00:00Z	 SAID32 WIOO 220100	METAR WIOO 220100Z 00000KT 2000 FU SCT011 25/24 Q1012 TEMPO FM0130 3000=
22/02/2021 01:30:00Z	 SAID32 WIOO 220130	METAR WIOO 220130Z 00000KT 2500 FU SCT011 26/24 Q1012 NOSIG=
22/02/2021 02:00:00Z	 SAID32 WIOO 220200	METAR WIOO 220200Z 35004KT 7000 SCT011 27/24 Q1011 NOSIG=
22/02/2021 02:30:00Z	 SAID32 WIOO 220230	METAR WIOO 220230Z 01005KT 9000 SCT011 28/24 Q1012 NOSIG=
22/02/2021 03:00:00Z	 SAID32 WIOO 220300	METAR WIOO 220300Z 34007KT 9999 SCT011 28/23 Q1011 NOSIG=
22/02/2021 03:30:00Z	 SAID32 WIOO 220330	METAR WIOO 220330Z 05004KT 9999 BKN012 29/23 Q1011 NOSIG=
22/02/2021 04:00:00Z	 SAID32 WIOO 220400	METAR WIOO 220400Z 03007KT 9999 BKN012 29/23 Q1011 NOSIG=
22/02/2021 04:30:00Z	 SAID32 WIOO 220430	METAR WIOO 220430Z 32004KT 9999 BKN012 30/23 Q1010 NOSIG=
22/02/2021 05:00:00Z	 SAID32 WIOO 220500	METAR WIOO 220500Z 33005KT 9999 BKN012 31/23 Q1009 NOSIG=
22/02/2021 05:30:00Z	 SAID32 WIOO 220530	METAR WIOO 220530Z 34003KT 9999 BKN010 30/24 Q1009 NOSIG=
22/02/2021 06:00:00Z	 SAID32 WIOO 220600	METAR WIOO 220600Z 33004KT 9000 BKN010 30/24 Q1009 RERA TEMPO TL0630 SHRA=
22/02/2021 06:30:00Z	 SAID32 WIOO 220630	METAR WIOO 220630Z 00000KT 9999 FEW010CB BKN011 30/23 Q1008=
22/02/2021 06:32:00Z	 SAID32 WIOO 220632 CCA	METAR COR WIOO 220630Z 00000KT 9999 FEW010CB BKN011 30/23 Q1008 TEMPO FM0730 4000 RA=
22/02/2021 07:00:00Z	 SAID32 WIOO 220700	METAR WIOO 220700Z 00000KT 8000 -RA FEW010CB BKN011 30/25 Q1008 NOSIG=
22/02/2021 07:30:00Z	 SAID32 WIOO 220730	METAR WIOO 220730Z 26005KT 8000 -RA FEW010CB BKN011 30/25 Q1008 NOSIG=
22/02/2021 08:00:00Z	 SAID32 WIOO 220800	METAR WIOO 220800Z 26008KT 8000 FEW010CB BKN011 30/25 Q1007 RERA TEMPO FM0830 4000 RA=
22/02/2021 08:30:00Z	 SAID32 WIOO 220830	METAR WIOO 220830Z 24010KT 8000 TS FEW010CB BKN011 29/25 Q1007 NOSIG=
22/02/2021 09:00:00Z	 SAID32 WIOO 220900	METAR WIOO 220900Z 26008KT 8000 FEW010CB BKN011 29/24 Q1007 RETS NOSIG=
22/02/2021 09:30:00Z	 SAID32 WIOO 220930	METAR WIOO 220930Z 25010KT 8000 FEW010CB BKN011 29/24 Q1007 NOSIG=
22/02/2021 10:00:00Z	 SAID32 WIOO 221000	METAR WIOO 221000Z 27005KT 8000 FEW010CB BKN011 29/24 Q1008 NOSIG=
22/02/2021 10:30:00Z	 SAID32 WIOO 221030	METAR WIOO 221030Z 30006KT 8000 FEW010 BKN011 28/25 Q1008 NOSIG=
22/02/2021 11:00:00Z	 SAID32 WIOO 221100	METAR WIOO 221100Z 32005KT 6000 FEW010CB BKN011 28/24 Q1009 NOSIG=
22/02/2021 11:30:00Z	 SAID32 WIOO 221130	METAR WIOO 221130Z 00000KT 6000 FEW010CB BKN011 27/24 Q1009 NOSIG=
22/02/2021 12:00:00Z	 SAID32 WIOO 221200	METAR WIOO 221200Z 00000KT 6000 FEW010CB BKN011 27/24 Q1010 NOSIG=
22/02/2021 12:30:00Z	 SAID32 WIOO 221230	METAR WIOO 221230Z 00000KT 6000 FEW010CB BKN011 27/24 Q1010 NOSIG=
22/02/2021 13:00:00Z	 SAID32 WIOO 221300	METAR WIOO 221300Z 00000KT 6000 FEW010CB BKN011 26/24 Q1010 NOSIG=
22/02/2021 13:30:00Z	 SAID32 WIOO 221330	METAR WIOO 221330Z 30004KT 6000 BKN011 26/23 Q1010 NOSIG=
22/02/2021 14:00:00Z	 SAID32 WIOO 221400	METAR WIOO 221400Z 28003KT 6000 BKN011 26/23 Q1011 NOSIG=
22/02/2021 14:30:00Z	 SAID32 WIOO 221430	METAR WIOO 221430Z 30006KT 4000 HZ BKN011 26/23 Q1011 NOSIG=
22/02/2021 15:00:00Z	 SAID32 WIOO 221500	METAR WIOO 221500Z 32004KT 6000 BKN012 25/23 Q1011 NOSIG=
22/02/2021 15:30:00Z	 SAID32 WIOO 221530	METAR WIOO 221530Z 34004KT 6000 BKN012 25/23 Q1011 NOSIG=
22/02/2021 16:00:00Z	 SAID32 WIOO 221600	METAR WIOO 221600Z 35004KT 6000 SCT012 26/23 Q1011 NOSIG=
22/02/2021 16:30:00Z	 SAID32 WIOO 221630	METAR WIOO 221630Z 33004KT 6000 SCT012 25/23 Q1011 NOSIG=
22/02/2021 17:00:00Z	 SAID32 WIOO 221700	METAR WIOO 221700Z 34005KT 6000 SCT012 25/23 Q1010 NOSIG=
22/02/2021 17:30:00Z	 SAID32 WIOO 221730	METAR WIOO 221730Z 00000KT 6000 SCT012 25/23 Q1010 NOSIG=
22/02/2021 18:00:00Z	 SAID32 WIOO 221800	METAR WIOO 221800Z 01003KT 6000 SCT012 25/23 Q1010 NOSIG=
22/02/2021 18:30:00Z	 SAID32 WIOO 221830	METAR WIOO 221830Z 02003KT 6000 SCT012 25/23 Q1010 NOSIG=
22/02/2021 19:00:00Z	 SAID32 WIOO 221900	METAR WIOO 221900Z 01003KT 6000 FEW012 24/23 Q1009 NOSIG=
22/02/2021 19:30:00Z	 SAID32 WIOO 221930	METAR WIOO 221930Z 36003KT 6000 FEW012 24/23 Q1009 NOSIG=
22/02/2021 20:00:00Z	 SAID32 WIOO 222000	METAR WIOO 222000Z 01003KT 6000 FEW012 24/23 Q1009 NOSIG=
22/02/2021 20:30:00Z	 SAID32 WIOO 222030	METAR WIOO 222030Z 36003KT 6000 FEW012 24/23 Q1008 NOSIG=
22/02/2021 21:00:00Z	 SAID32 WIOO 222100	METAR WIOO 222100Z 02003KT 6000 FEW012 24/23 Q1008 NOSIG=
22/02/2021 21:30:00Z	 SAID32 WIOO 222130	METAR WIOO 222130Z 00000KT 6000 FEW012 24/23 Q1009 NOSIG=
22/02/2021 22:00:00Z	 SAID32 WIOO 222200	METAR WIOO 222200Z 00000KT 6000 FEW012 24/22 Q1009 NOSIG=
22/02/2021 22:30:00Z	 SAID32 WIOO 222230	METAR WIOO 222230Z 00000KT 6000 FEW012 23/22 Q1009 NOSIG=
22/02/2021 23:00:00Z	 SAID32 WIOO 222300	METAR WIOO 222300Z 00000KT 3000 FU FEW012 23/22 Q1010 TEMPO TL2330 1000 FU=
22/02/2021 23:30:00Z	 SAID32 WIOO 222330	METAR WIOO 222330Z 00000KT 3500 FU FEW012 23/22 Q1010 BECMG TL2400 7000 NSW=
23/02/2021 00:00:00Z	 SAID32 WIOO 230000	METAR WIOO 230000Z 00000KT 2000 BR FEW012 23/23 Q1010 BECMG FM0100 8000 NSW=
23/02/2021 00:30:00Z	 SAID32 WIOO 230030	METAR WIOO 230030Z 32003KT 8000 FEW012 25/23 Q1010 NOSG=
23/02/2021 00:30:00Z	 SAID32 WIOO 230030 CCA	METAR WIOO 230030Z 32003KT 8000 FEW012 25/23 Q1010 NOSIG=
23/02/2021 01:00:00Z	 SAID32 WIOO 230100	METAR WIOO 230100Z 01005KT 8000 FEW012 26/23 Q1011 NOSIG=
23/02/2021 01:30:00Z	 SAID32 WIOO 230130	METAR WIOO 230130Z 02004KT 9999 FEW012 27/22 Q1011 NOSIG=
23/02/2021 02:00:00Z	 SAID32 WIOO 230200	METAR WIOO 230200Z 34007KT 9999 FEW012 28/22 Q1011 NOSIG=
23/02/2021 02:30:00Z	 SAID32 WIOO 230230	METAR WIOO 230230Z 36006KT 9999 SCT012 28/22 Q1011 NOSIG=
23/02/2021 03:00:00Z	 SAID32 WIOO 230300	METAR WIOO 230300Z 35008KT 9999 SCT012 29/22 Q1010 NOSIG=
23/02/2021 03:30:00Z	 SAID32 WIOO 230330	METAR WIOO 230330Z 34008KT 9999 SCT012 30/22 Q1010 NOSIG=
23/02/2021 04:00:00Z	 SAID32 WIOO 230400	METAR WIOO 230400Z 36007KT 9999 SCT012 31/22 Q1010 NOSIG=
23/02/2021 04:30:00Z	 SAID32 WIOO 230430	METAR WIOO 230430Z 01007KT 9999 BKN012 31/22 Q1009 NOSIG=
23/02/2021 05:00:00Z	 SAID32 WIOO 230500	METAR WIOO 230500Z 01008KT 9999 BKN012 31/22 Q1009 NOSIG=
23/02/2021 05:30:00Z	 SAID32 WIOO 230530	METAR WIOO 230530Z 02007KT 9999 BKN012 32/22 Q1008 NOSIG=
23/02/2021 06:00:00Z	 SAID32 WIOO 230600	METAR WIOO 230600Z 34006KT 9999 BKN012 32/22 Q1008 NOSIG=
23/02/2021 06:30:00Z	 SAID32 WIOO 230630	METAR WIOO 230630Z 34008KT 9999 BKN012 32/22 Q1007 NOSIG=
23/02/2021 07:00:00Z	 SAID32 WIOO 230700	METAR WIOO 230700Z 30006KT 9999 BKN012 33/22 Q1006 NOSIG=
23/02/2021 07:30:00Z	 SAID32 WIOO 230730	METAR WIOO 230730Z 28005KT 9999 BKN012 32/22 Q1006 NOSIG=
23/02/2021 08:00:00Z	 SAID32 WIOO 230800	METAR WIOO 230800Z 30005KT 9999 BKN012 32/22 Q1006 NOSIG=
23/02/2021 08:30:00Z	 SAID32 WIOO 230830	METAR WIOO 230830Z 26010KT 4000 HZ FEW010CB BKN011 32/22 Q1006 NOSIG=
23/02/2021 08:30:00Z	 SAID32 WIOO 230830 CCA	METAR COR WIOO 230830Z 26010KT 4000 HZ FEW010CB BKN011 32/22 Q1006 TEMPO TL0930 30015KT=
23/02/2021 09:00:00Z	 SAID32 WIOO 230900	METAR WIOO 230900Z 27010KT 4000 FU FEW011CB BKN012 31/24 Q1006 NOSIG=
23/02/2021 09:30:00Z	 SAID32 WIOO 230930	METAR WIOO 230930Z 26011KT 4000 FU FEW010CB BKN011 30/24 Q1006 NOSIG=
23/02/2021 10:00:00Z	 SAID32 WIOO 231000	METAR WIOO 231000Z 27010KT 4000 FU FEW011CB BKN012 30/24 Q1007 NOSIG=
23/02/2021 10:30:00Z	 SAID32 WIOO 231030	METAR WIOO 231030Z 26010KT 4000 FU FEW011CB BKN012 29/24 Q1007 NOSIG=
23/02/2021 11:00:00Z	 SAID32 WIOO 231100	METAR WIOO 231100Z 27007KT 4000 FU FEW011CB BKN012 28/24 Q1007 NOSIG=
23/02/2021 11:30:00Z	 SAID32 WIOO 231130	METAR WIOO 231130Z 29008KT 4000 FU FEW011CB BKN012 28/24 Q1007 NOSIG=
23/02/2021 12:00:00Z	 SAID32 WIOO 231200	METAR WIOO 231200Z 29008KT 4000 FU FEW011CB BKN012 27/24 Q1008 NOSIG=
23/02/2021 12:30:00Z	 SAID32 WIOO 231230	METAR WIOO 231230Z 29006KT 4000 FU BKN012 27/24 Q1008 NOSIG=
23/02/2021 13:00:00Z	 SAID32 WIOO 231300	METAR WIOO 231300Z 28006KT 4000 FU BKN012 26/23 Q1010 NOSIG=
23/02/2021 13:30:00Z	 SAID32 WIOO 231330	METAR WIOO 231330Z 31006KT 6000 BKN012 26/23 Q1009 NOSIG=
23/02/2021 14:00:00Z	 SAID32 WIOO 231400	METAR WIOO 231400Z AUTO 32006KT 8000 NCD 26/24 Q1009=
23/02/2021 14:30:00Z	 SAID32 WIOO 231430	METAR WIOO 231430Z AUTO 32005KT 9000 SCT085 26/24 Q1010=
23/02/2021 15:00:00Z	 SAID32 WIOO 231500	METAR WIOO 231500Z AUTO 30004KT 8000 NCD 26/24 Q1010=
