01/02/2021 00:00:00Z	 SAID32 WIPP 010000	METAR WIPP 010000Z 32004KT 8000 FEW010 25/24 Q1011 NOSIG=
01/02/2021 00:30:00Z	 SAID32 WIPP 010030	METAR WIPP 010030Z 31007KT 9999 FEW010 25/24 Q1011 NOSIG=
01/02/2021 01:00:00Z	 SAID32 WIPP 010100	METAR WIPP 010100Z 32007KT 9999 FEW010 26/24 Q1012 NOSIG=
01/02/2021 01:30:00Z	 SAID32 WIPP 010130	METAR WIPP 010130Z 31008KT 9999 FEW010 27/24 Q1012 NOSIG=
01/02/2021 02:00:00Z	 SAID32 WIPP 010200	METAR WIPP 010200Z 32008KT 9999 FEW010 27/24 Q1012 NOSIG=
01/02/2021 02:30:00Z	 SAID32 WIPP 010230	METAR WIPP 010230Z 32010KT 9999 SCT010 28/24 Q1012 NOSIG=
01/02/2021 03:00:00Z	 SAID32 WIPP 010300	METAR WIPP 010300Z 32011KT 9999 BKN010 28/24 Q1012 NOSIG=
01/02/2021 03:30:00Z	 SAID32 WIPP 010330	METAR WIPP 010330Z 32010KT 9999 BKN010 29/24 Q1012 NOSIG=
01/02/2021 04:00:00Z	 SAID32 WIPP 010400	METAR WIPP 010400Z 35011KT 9999 BKN010 30/24 Q1012 NOSIG=
01/02/2021 04:30:00Z	 SAID32 WIPP 010430	METAR WIPP 010430Z 31014KT 9999 FEW010CB BKN010 30/23 Q1011 RMK CB TO W=
01/02/2021 05:00:00Z	 SAID32 WIPP 010500	METAR WIPP 010500Z 32006KT 9999 FEW010CB BKN010 30/24 Q1011 RMK CB TO SW AND W=
01/02/2021 05:30:00Z	 SAID32 WIPP 010530	METAR WIPP 010530Z 34010KT 9999 FEW010CB BKN010 31/24 Q1010 RMK CB TO SE AND W=
01/02/2021 06:00:00Z	 SAID32 WIPP 010600	METAR WIPP 010600Z 30010KT 9999 FEW010CB BKN010 30/24 Q1010 RMK CB TO SE AND SW=
01/02/2021 06:30:00Z	 SAID32 WIPP 010630	METAR WIPP 010630Z 26004KT 9999 FEW010CB BKN010 30/24 Q1009 RMK CB TO SE AND W=
01/02/2021 07:00:00Z	 SAID32 WIPP 010700	METAR WIPP 010700Z 32008KT 9999 FEW010CB BKN010 31/23 Q1009 RMK CB TO SE=
01/02/2021 07:30:00Z	 SAID32 WIPP 010730	METAR WIPP 010730Z 32009KT 9999 FEW010CB BKN010 31/23 Q1008 RMK CB TO E=
01/02/2021 08:00:00Z	 SAID32 WIPP 010800	METAR WIPP 010800Z 02009KT 6000 -RA FEW010CB BKN010 29/25 Q1008 RMK CB OVER THE FIELD=
01/02/2021 08:30:00Z	 SAID32 WIPP 010830	METAR WIPP 010830Z 36007KT 9999 FEW010CB BKN010 29/24 Q1008 RMK CB TO NW=
01/02/2021 09:00:00Z	 SAID32 WIPP 010900	METAR WIPP 010900Z 34003KT 9999 FEW010CB BKN010 28/23 Q1008 TEMPO FM0910 36010G25KT 3000 RA BKN010 FEW011CB RMK CB TO NW AND SW=
01/02/2021 09:30:00Z	 SAID32 WIPP 010930	METAR WIPP 010930Z 36007KT 8000 -RA FEW010CB BKN010 26/23 Q1008 RMK CB TO S=
01/02/2021 10:00:00Z	 SAID32 WIPP 011000	METAR WIPP 011000Z 36005KT 9999 FEW010CB SCT010 26/23 Q1009 RMK CB TO S=
01/02/2021 10:30:00Z	 SAID32 WIPP 011030	METAR WIPP 011030Z 34004KT 9999 FEW010CB SCT010 26/24 Q1009 RMK CB TO SW=
01/02/2021 11:00:00Z	 SAID32 WIPP 011100	METAR WIPP 011100Z 33005KT 9999 FEW010CB SCT010 26/25 Q1009 RMK CB TO SW=
01/02/2021 11:30:00Z	 SAID32 WIPP 011130	METAR WIPP 011130Z 32002KT 9999 SCT010 26/25 Q1010=
01/02/2021 12:00:00Z	 SAID32 WIPP 011200	METAR WIPP 011200Z 00000KT 9999 SCT010 26/25 Q1010=
01/02/2021 12:30:00Z	 SAID32 WIPP 011230	METAR WIPP 011230Z 35003KT 9999 SCT010 26/25 Q1010=
01/02/2021 13:00:00Z	 SAID32 WIPP 011300	METAR WIPP 011300Z 00000KT 9999 SCT010 26/25 Q1010=
01/02/2021 14:00:00Z	 SAID32 WIPP 011400	METAR WIPP 011400Z 00000KT 5000 HZ SCT010 26/25 Q1011=
01/02/2021 15:00:00Z	 SAID32 WIPP 011500	METAR WIPP 011500Z 00000KT 6000 SCT010 26/24 Q1012=
01/02/2021 16:00:00Z	 SAID32 WIPP 011600	METAR WIPP 011600Z 28005KT 3000 HZ BKN010 26/25 Q1013=
01/02/2021 17:00:00Z	 SAID32 WIPP 011700	METAR WIPP 011700Z 23005KT 5000 -RA BKN010 FEW012CB 23/22 Q1013 RMK CB TO NW=
01/02/2021 18:00:00Z	 SAID32 WIPP 011800	METAR WIPP 011800Z 00000KT 6000 -RA BKN010 FEW012CB 23/22 Q1013 RMK CB TO NW=
01/02/2021 19:00:00Z	 SAID32 WIPP 011900	METAR WIPP 011900Z 31002KT 2000 RA BKN010 FEW012CB 23/22 Q1012 RMK CB TO NW=
01/02/2021 20:00:00Z	 SAID32 WIPP 012000	METAR WIPP 012000Z 15001KT 8000 -RA BKN010 FEW012CB 23/23 Q1011 RMK CB TO N=
01/02/2021 21:00:00Z	 SAID32 WIPP 012100	METAR WIPP 012100Z 09001KT 8000 -RA BKN010 24/23 Q1010 =
01/02/2021 22:00:00Z	 SAID32 WIPP 012200	METAR WIPP 012200Z 33002KT 7000 -RA BKN010 24/23 Q1010 =
01/02/2021 22:30:00Z	 SAID32 WIPP 012230	METAR WIPP 012230Z 32004KT 7000 BKN010 24/23 Q1010 =
01/02/2021 23:00:00Z	 SAID32 WIPP 012300	METAR WIPP 012300Z 29005KT 2000 BR SCT010 24/23 Q1010 =
01/02/2021 23:30:00Z	 SAID32 WIPP 012330	METAR WIPP 012330Z 28005KT 2000 BR BKN010 24/23 Q1010 =
02/02/2021 00:00:00Z	 SAID32 WIPP 020000	METAR WIPP 020000Z 29005KT 1500 BR BKN010 24/23 Q1010 =
02/02/2021 00:30:00Z	 SAID32 WIPP 020030	METAR WIPP 020030Z 29005KT 5000 HZ BKN010 24/23 Q1011=
02/02/2021 01:00:00Z	 SAID32 WIPP 020100	METAR WIPP 020100Z 28010KT 9999 FEW010 25/24 Q1011 NOSIG=
02/02/2021 01:30:00Z	 SAID32 WIPP 020130	METAR WIPP 020130Z 30010KT 9999 FEW010 26/24 Q1012 NOSIG=
02/02/2021 02:00:00Z	 SAID32 WIPP 020200	METAR WIPP 020200Z 30010KT 9999 FEW010 26/24 Q1012 NOSIG=
02/02/2021 02:30:00Z	 SAID32 WIPP 020230	METAR WIPP 020230Z 30010KT 9999 SCT010 27/24 Q1012 NOSIG=
02/02/2021 03:00:00Z	 SAID32 WIPP 020300	METAR WIPP 020300Z 31012KT 9999 BKN010 27/24 Q1012 NOSIG=
02/02/2021 03:30:00Z	 SAID32 WIPP 020330	METAR WIPP 020330Z 35010KT 9999 BKN010 28/24 Q1012 NOSIG=
02/02/2021 04:00:00Z	 SAID32 WIPP 020400	METAR WIPP 020400Z 32012KT 9999 BKN010 28/24 Q1011 RERA=
02/02/2021 04:30:00Z	 SAID32 WIPP 020430	METAR WIPP 020430Z 31013KT 9999 BKN010 28/24 Q1011 NOSIG=
02/02/2021 05:00:00Z	 SAID32 WIPP 020500	METAR WIPP 020500Z 30013KT 9999 BKN010 29/24 Q1011 NOSIG=
02/02/2021 05:30:00Z	 SAID32 WIPP 020530	METAR WIPP 020530Z 30012KT 9999 BKN010 FEW012CB 30/24 Q1010 RMK CB TO NE=
02/02/2021 06:00:00Z	 SAID32 WIPP 020600	METAR WIPP 020600Z 31012KT 9999 BKN010 FEW012CB 30/24 Q1009 RMK CB TO NE=
02/02/2021 06:30:00Z	 SAID32 WIPP 020630	METAR WIPP 020630Z 31010KT 9999 BKN010 FEW012CB 30/24 Q1009 RMK CB TO N=
02/02/2021 07:00:00Z	 SAID32 WIPP 020700	METAR WIPP 020700Z 30012KT 9999 BKN010 FEW012CB 30/24 Q1008 RMK CB TO N=
02/02/2021 07:30:00Z	 SAID32 WIPP 020730	METAR WIPP 020730Z 02008KT 9999 BKN010 FEW012CB 30/24 Q1008 RERA=
02/02/2021 08:00:00Z	 SAID32 WIPP 020800	METAR WIPP 020800Z 03012KT 4000 RA BKN010 FEW012CB 26/24 Q1008 RMK CB TO N=
02/02/2021 08:30:00Z	 SAID32 WIPP 020830	METAR WIPP 020830Z 35005KT 5000 -RA BKN010 FEW012CB 26/24 Q1008 RMK CB TO SE=
02/02/2021 09:00:00Z	 SAID32 WIPP 020900	METAR WIPP 020900Z 01003KT 6000 -RA BKN010 FEW012CB 26/25 Q1008 RMK CB TO SE=
02/02/2021 09:30:00Z	 SAID32 WIPP 020930	METAR WIPP 020930Z 01005KT 8000 -RA BKN010 FEW012CB 26/25 Q1008 RMK CB TO SE=
02/02/2021 10:00:00Z	 SAID32 WIPP 021000	METAR WIPP 021000Z 35005KT 9999 BKN010 26/25 Q1008 RERA=
02/02/2021 10:30:00Z	 SAID32 WIPP 021030	METAR WIPP 021030Z 36005KT 9999 BKN010 26/24 Q1009 NOSIG=
02/02/2021 11:00:00Z	 SAID32 WIPP 021100	METAR WIPP 021100Z 36005KT 8000 SCT010 26/24 Q1009 NOSIG=
02/02/2021 11:30:00Z	 SAID32 WIPP 021130	METAR WIPP 021130Z 00000KT 8000 SCT010 26/24 Q1010 NOSIG=
02/02/2021 12:00:00Z	 SAID32 WIPP 021200	METAR WIPP 021200Z 00000KT 8000 SCT010 26/25 Q1010 NOSIG=
02/02/2021 12:30:00Z	 SAID32 WIPP 021230	METAR WIPP 021230Z 00000KT 8000 SCT010 26/25 Q1010 NOSIG=
02/02/2021 13:00:00Z	 SAID32 WIPP 021300	METAR WIPP 021300Z 34004KT 9999 SCT010 25/24 Q1011 NOSIG=
02/02/2021 14:00:00Z	 SAID32 WIPP 021400	METAR WIPP 021400Z 36003KT 9999 SCT010 25/24 Q1011 NOSIG=
02/02/2021 15:00:00Z	 SAID32 WIPP 021500	METAR WIPP 021500Z 31003KT 9999 SCT010 25/24 Q1011 NOSIG=
02/02/2021 16:00:00Z	 SAID32 WIPP 021600	METAR WIPP 021600Z 32005KT 9999 SCT010 25/24 Q1012 NOSIG=
02/02/2021 17:00:00Z	 SAID32 WIPP 021700	METAR WIPP 021700Z 29004KT 9999 SCT010 25/24 Q1012 NOSIG=
02/02/2021 18:00:00Z	 SAID32 WIPP 021800	METAR WIPP 021800Z 33003KT 5000 BR SCT010 25/24 Q1011=
02/02/2021 19:00:00Z	 SAID32 WIPP 021900	METAR WIPP 021900Z 30004KT 4000 BR SCT010 25/24 Q1011=
02/02/2021 20:00:00Z	 SAID32 WIPP 022000	METAR WIPP 022000Z 29005KT 5000 BR SCT010 25/24 Q1011=
02/02/2021 21:00:00Z	 SAID32 WIPP 022100	METAR WIPP 022100Z 29008KT 9999 SCT010 25/24 Q1011=
02/02/2021 22:00:00Z	 SAID32 WIPP 022200	METAR WIPP 022200Z 26005KT 6000 SCT010 24/23 Q1011=
02/02/2021 22:30:00Z	 SAID32 WIPP 022230	METAR WIPP 022230Z 26005KT 9999 SCT010 23/22 Q1011=
02/02/2021 23:00:00Z	 SAID32 WIPP 022300	METAR WIPP 022300Z 29004KT 9999 SCT010 23/22 Q1011=
02/02/2021 23:30:00Z	 SAID32 WIPP 022330	METAR WIPP 022330Z 28004KT 6000 SCT010 23/22 Q1011=
03/02/2021 00:00:00Z	 SAID32 WIPP 030000	METAR WIPP 030000Z 28002KT 8000 FEW010 23/22 Q1011=
03/02/2021 00:30:00Z	 SAID32 WIPP 030030	METAR WIPP 030030Z 26004KT 6000 FEW010 23/22 Q1011=
03/02/2021 01:00:00Z	 SAID32 WIPP 030100	METAR WIPP 030100Z 29005KT 6000 FEW010 24/22 Q1012 NOSIG=
03/02/2021 01:30:00Z	 SAID32 WIPP 030130	METAR WIPP 030130Z 30005KT 9999 FEW010 24/22 Q1012 NOSIG=
03/02/2021 02:00:00Z	 SAID32 WIPP 030200	METAR WIPP 030200Z 31007KT 9999 FEW010 25/23 Q1012 NOSIG=
03/02/2021 02:30:00Z	 SAID32 WIPP 030230	METAR WIPP 030230Z 32008KT 9999 FEW010 27/24 Q1012 NOSIG=
03/02/2021 03:00:00Z	 SAID32 WIPP 030300	METAR WIPP 030300Z 32009KT 9999 SCT010 27/24 Q1012 NOSIG=
03/02/2021 03:30:00Z	 SAID32 WIPP 030330	METAR WIPP 030330Z 32007KT 9999 BKN010 28/24 Q1012 NOSIG=
03/02/2021 04:00:00Z	 SAID32 WIPP 030400	METAR WIPP 030400Z 33010KT 9999 BKN010 29/23 Q1012 NOSIG=
03/02/2021 04:30:00Z	 SAID32 WIPP 030430	METAR WIPP 030430Z 32008KT 9999 BKN010 29/23 Q1012 NOSIG=
03/02/2021 05:00:00Z	 SAID32 WIPP 030500	METAR WIPP 030500Z 31009KT 9999 BKN010 30/23 Q1011 NOSIG=
03/02/2021 05:30:00Z	 SAID32 WIPP 030530	METAR WIPP 030530Z 33008KT 9999 BKN010 30/22 Q1011 NOSIG=
03/02/2021 06:00:00Z	 SAID32 WIPP 030600	METAR WIPP 030600Z 33010KT 9999 FEW012CB SCT010 30/23 Q1010 TEMPO FM0620 TL0700 32015G25KT 2000 +RA RMK CB TO NW=
03/02/2021 06:00:00Z	 SAID32 WIPP 030600 CCA	METAR WIPP 030600Z 33010KT 9999 SCT010 FEW012CB 30/23 Q1010 TEMPO FM0620 TL0700 32015G25KT 2000 +RA RMK CB TO NW=
03/02/2021 06:30:00Z	 SAID32 WIPP 030630	METAR WIPP 030630Z 33010KT 9999 SCT010 FEW012CB 30/22 RMK CB TO W=
03/02/2021 07:00:00Z	 SAID32 WIPP 030700	METAR WIPP 030700Z 32007KT 9999 SCT010 FEW012CB 30/24 Q1009 RMK CB TO NW=
03/02/2021 07:30:00Z	 SAID32 WIPP 030730	METAR WIPP 030730Z 31006KT 9999 SCT010 FEW012CB 29/24 Q1009 RMK CB TO NW=
03/02/2021 08:00:00Z	 SAID32 WIPP 030800	METAR WIPP 030800Z 33016KT 1000 +RA BKN010 FEW012CB 25/23 Q1010 FM0800 TL0840 32015G25T 1500 +RA RMK CB TO OVER THE FIELD=
03/02/2021 08:30:00Z	 SAID32 WIPP 030830	METAR WIPP 030830Z 35004KT 9999 SCT010 FEW012CB 24/23 Q1009 RERA RMK CB TO SE=
03/02/2021 09:00:00Z	 SAID32 WIPP 030900	METAR WIPP 030900Z 32004KT 9999 SCT010 FEW012CB 25/24 Q1009 RMK CB TO SE=
03/02/2021 09:30:00Z	 SAID32 WIPP 030930	METAR WIPP 030930Z 35005KT 9999 SCT010 FEW012CB 27/24 Q1009 RMK CB TO SE=
03/02/2021 10:00:00Z	 SAID32 WIPP 031000	METAR WIPP 031000Z 34009KT 9999 SCT010 FEW012CB 26/23 Q1009 RMK CB TO NE=
03/02/2021 10:30:00Z	 SAID32 WIPP 031030	METAR WIPP 031030Z 34005KT 9999 SCT010 FEW012CB 26/23 Q1009 RMK CB TO E=
03/02/2021 11:00:00Z	 SAID32 WIPP 031100	METAR WIPP 031100Z 34005KT 9999 SCT010 FEW012CB 26/23 Q1010 RMK CB TO W=
03/02/2021 11:30:00Z	 SAID32 WIPP 031130	METAR WIPP 031130Z 34003KT 9999 FEW010 25/23 Q1010 NOSIG=
03/02/2021 12:00:00Z	 SAID32 WIPP 031200	METAR WIPP 031200Z 32004KT 8000 FEW010 25/23 Q1011 NOSIG=
03/02/2021 12:30:00Z	 SAID32 WIPP 031230	METAR WIPP 031230Z 27003KT 7000 FEW010 25/23 Q1011 NOSIG=
03/02/2021 13:00:00Z	 SAID32 WIPP 031300	METAR WIPP 031300Z 00000KT 6000 FEW010 25/23 Q1011 NOSIG=
03/02/2021 13:30:00Z	 SAID32 WIPP 031330	METAR WIPP 031330Z 00000KT 5000 HZ FEW010 25/23 Q1012=
03/02/2021 14:00:00Z	 SAID32 WIPP 031400	METAR WIPP 031400Z 00000KT 4000 HZ FEW010 25/23 Q1012=
03/02/2021 14:30:00Z	 SAID32 WIPP 031430	METAR WIPP 031430Z 00000KT 3000 HZ SCT010 24/23 Q1013=
03/02/2021 15:00:00Z	 SAID32 WIPP 031500	METAR WIPP 031500Z 00000KT 3000 HZ SCT010 FEW012CB 25/24 Q1013 RMK CB TO SW=
03/02/2021 15:30:00Z	 SAID32 WIPP 031530	METAR WIPP 031530Z 28005KT 4000 BR SCT010 FEW012CB 25/24 Q1013 RMK CB TO W=
03/02/2021 16:00:00Z	 SAID32 WIPP 031600	METAR WIPP 031600Z 27005KT 4000 BR BKN010 FEW012CB 25/24 Q1013 RMK CB TO SW=
03/02/2021 16:30:00Z	 SAID32 WIPP 031630	METAR WIPP 031630Z 25005KT 8000 BKN010 25/23 Q1013 NOSIG=
03/02/2021 17:00:00Z	 SAID32 WIPP 031700	METAR WIPP 031700Z 26003KT 8000 BKN010 24/23 Q1012 NOSIG=
03/02/2021 17:30:00Z	 SAID32 WIPP 031730	METAR WIPP 031730Z AUTO 25005KT 9999NDV ////// 24/24 Q1012=
03/02/2021 18:00:00Z	 SAID32 WIPP 031800	METAR WIPP 031800Z AUTO 25003KT 220V280 9999NDV ////// 24/24 Q1012=
03/02/2021 18:30:00Z	 SAID32 WIPP 031830	METAR WIPP 031830Z AUTO 28003KT 9999NDV ////// 24/24 Q1011=
03/02/2021 19:00:00Z	 SAID32 WIPP 031900	METAR WIPP 031900Z AUTO 28003KT 8000NDV ////// 24/24 Q1011=
03/02/2021 19:30:00Z	 SAID32 WIPP 031930	METAR WIPP 031930Z AUTO 30004KT 8000NDV ////// 23/23 Q1011=
03/02/2021 20:00:00Z	 SAID32 WIPP 032000	METAR WIPP 032000Z AUTO 30003KT 4300NDV BR ////// 23/23 Q1010=
03/02/2021 20:30:00Z	 SAID32 WIPP 032030	METAR WIPP 032030Z AUTO 30003KT 4100NDV BR ////// 23/23 Q1010=
03/02/2021 21:00:00Z	 SAID32 WIPP 032100	METAR WIPP 032100Z AUTO 29003KT 3200NDV BR ////// 23/23 Q1010=
03/02/2021 21:30:00Z	 SAID32 WIPP 032130	METAR WIPP 032130Z AUTO 30003KT 3600NDV BR ////// 23/23 Q1010=
03/02/2021 22:00:00Z	 SAID32 WIPP 032200	METAR WIPP 032200Z AUTO 28002KT 1900NDV BR ////// 23/23 Q1010=
03/02/2021 22:30:00Z	 SAID32 WIPP 032230	METAR WIPP 032230Z 29003KT 3000 BR SCT010 23/23 Q1010=
03/02/2021 23:00:00Z	 SAID32 WIPP 032300	METAR WIPP 032300Z 30003KT 1500 BR FEW010 23/23 Q1010=
03/02/2021 23:30:00Z	 SAID32 WIPP 032330	METAR WIPP 032330Z 28005KT 2000 BR FEW010 23/23 Q1011=
04/02/2021 00:00:00Z	 SAID32 WIPP 040000	METAR WIPP 040000Z 28005KT 3000 BR SCT010 24/23 Q1011=
04/02/2021 00:30:00Z	 SAID32 WIPP 040030	METAR WIPP 040030Z 30005KT 4000 BR SCT010 24/23 Q1012=
04/02/2021 01:00:00Z	 SAID32 WIPP 040100	METAR WIPP 040100Z 30006KT 8000 SCT010 25/23 Q1012 NOSIG=
04/02/2021 01:30:00Z	 SAID32 WIPP 040130	METAR WIPP 040130Z 31007KT 9999 SCT010 26/23 Q1012 NOSIG=
04/02/2021 02:00:00Z	 SAID32 WIPP 040200	METAR WIPP 040200Z 33009KT 9999 SCT010 26/23 Q1012 NOSIG=
04/02/2021 02:30:00Z	 SAID32 WIPP 040230	METAR WIPP 040230Z 33010KT 9999 SCT010 27/23 Q1012 NOSIG=
04/02/2021 03:00:00Z	 SAID32 WIPP 040300	METAR WIPP 040300Z 34011KT 9999 SCT010 28/23 Q1012 NOSIG=
04/02/2021 03:30:00Z	 SAID32 WIPP 040330	METAR WIPP 040330Z 34010KT 9999 BKN010 28/23 Q1012 NOSIG=
04/02/2021 04:00:00Z	 SAID32 WIPP 040400	METAR WIPP 040400Z 33011KT 9999 BKN010 29/23 Q1011 NOSIG=
04/02/2021 04:30:00Z	 SAID32 WIPP 040430	METAR WIPP 040430Z 33011KT 9999 BKN010 28/23 Q1011 NOSIG=
04/02/2021 05:00:00Z	 SAID32 WIPP 040500	METAR WIPP 040500Z 36010KT 9999 BKN010 29/23 Q1011 NOSIG=
04/02/2021 05:30:00Z	 SAID32 WIPP 040530	METAR WIPP 040530Z 32009KT 9999 BKN010 28/23 Q1011 NOSIG=
04/02/2021 06:00:00Z	 SAID32 WIPP 040600	METAR WIPP 040600Z 33007KT 9999 BKN010 28/23 Q1010 NOSIG=
04/02/2021 06:30:00Z	 SAID32 WIPP 040630	METAR WIPP 040630Z 35008KT 9999 BKN010 FEW011CB 29/23 Q1010 RERA RMK CB TO N=
04/02/2021 07:00:00Z	 SAID32 WIPP 040700	METAR WIPP 040700Z 01008KT 9999 BKN010 28/24 Q1010 NOSIG=
04/02/2021 07:30:00Z	 SAID32 WIPP 040730	METAR WIPP 040730Z 01009KT 9999 BKN010 29/23 Q1009 NOSIG=
04/02/2021 08:00:00Z	 SAID32 WIPP 040800	METAR WIPP 040800Z 35008KT 9999 BKN010 29/23 Q1009 NOSIG=
04/02/2021 08:30:00Z	 SAID32 WIPP 040830	METAR WIPP 040830Z 34008KT 9999 BKN010 FEW011CB 29/23 Q1009 TEMPO FM0850 TL0930 4000 -RA RMK CB TO NW=
04/02/2021 09:00:00Z	 SAID32 WIPP 040900	METAR WIPP 040900Z 32008KT 1000 -RA FEW010CB BKN010 26/24 Q1009 RMK CB OVER THE FIELD=
04/02/2021 09:30:00Z	 SAID32 WIPP 040930	METAR WIPP 040930Z 36006KT 9999 SCT010 27/25 Q1009 RERA=
04/02/2021 10:00:00Z	 SAID32 WIPP 041000	METAR WIPP 041000Z 36008KT 9999 FEW010 28/24 Q1009 NOSIG=
04/02/2021 10:30:00Z	 SAID32 WIPP 041030	METAR WIPP 041030Z 35006KT 9999 FEW010 28/23 Q1009 NOSIG=
04/02/2021 11:00:00Z	 SAID32 WIPP 041100	METAR WIPP 041100Z 35008KT 9999 SCT010 27/23 Q1010 NOSIG=
04/02/2021 11:30:00Z	 SAID32 WIPP 041130	METAR WIPP 041130Z 36008KT 9999 FEW010 27/23 Q1010 NOSIG=
04/02/2021 12:00:00Z	 SAID32 WIPP 041200	METAR WIPP 041200Z 01007KT 9999 FEW010 26/23 Q1010 NOSIG=
04/02/2021 12:30:00Z	 SAID32 WIPP 041230	METAR WIPP 041230Z 36007KT 9999 FEW010 26/23 Q1010 NOSIG=
04/02/2021 13:00:00Z	 SAID32 WIPP 041300	METAR WIPP 041300Z 34003KT 9999 FEW010 26/23 Q1011 NOSIG=
04/02/2021 13:30:00Z	 SAID32 WIPP 041330	METAR WIPP 041330Z 02004KT 9999 FEW010 26/23 Q1011 NOSIG=
04/02/2021 14:00:00Z	 SAID32 WIPP 041400	METAR WIPP 041400Z 35004KT 9999 FEW010 25/23 Q1012 NOSIG=
04/02/2021 14:30:00Z	 SAID32 WIPP 041430	METAR WIPP 041430Z 34004KT 9999 FEW010 25/23 Q1012 NOSIG=
04/02/2021 15:00:00Z	 SAID32 WIPP 041500	METAR WIPP 041500Z 32004KT 9999 FEW010 25/23 Q1012 NOSIG=
04/02/2021 15:30:00Z	 SAID32 WIPP 041530	METAR WIPP 041530Z 00000KT 9999 FEW010 25/23 Q1012 NOSIG=
04/02/2021 16:00:00Z	 SAID32 WIPP 041600	METAR WIPP 041600Z 00000KT 8000 SCT010 25/23 Q1012 NOSIG=
04/02/2021 16:30:00Z	 SAID32 WIPP 041630	METAR WIPP 041630Z 29004KT 7000 SCT010 25/23 Q1012 NOSIG=
04/02/2021 17:00:00Z	 SAID32 WIPP 041700	METAR WIPP 041700Z 28003KT 8000 SCT010 25/23 Q1012 NOSIG=
04/02/2021 17:30:00Z	 SAID32 WIPP 041730	METAR WIPP 041730Z 24003KT 6000 SCT010 25/23 Q1012 NOSIG=
04/02/2021 18:00:00Z	 SAID32 WIPP 041800	METAR WIPP 041800Z 00000KT 5000 HZ FEW010 24/23 Q1011=
04/02/2021 18:30:00Z	 SAID32 WIPP 041830	METAR WIPP 041830Z AUTO 22002KT 1400NDV R11/P2000N R29/P2000N BR ////// 24/24 Q1011=
04/02/2021 19:00:00Z	 SAID32 WIPP 041900	METAR WIPP 041900Z AUTO VRB02KT 5000NDV ////// 24/24 Q1011=
04/02/2021 19:30:00Z	 SAID32 WIPP 041930	METAR WIPP 041930Z AUTO 31003KT 2700NDV BR ////// 24/24 Q1010=
04/02/2021 20:00:00Z	 SAID32 WIPP 042000	METAR WIPP 042000Z AUTO 28003KT 3000NDV BR ////// 24/24 Q1010=
04/02/2021 21:00:00Z	 SAID32 WIPP 042100	METAR WIPP 042100Z 30004KT 3000 HZ FEW010 24/23 Q1010=
04/02/2021 21:30:00Z	 SAID32 WIPP 042130	METAR WIPP 042130Z 30003KT 3000 HZ FEW010 24/23 Q1010=
04/02/2021 22:00:00Z	 SAID32 WIPP 042200	METAR WIPP 042200Z 30003KT 2500 HZ FEW010 24/23 Q1010=
04/02/2021 22:30:00Z	 SAID32 WIPP 042230	METAR WIPP 042230Z 28004KT 2500 HZ FEW010 24/23 Q1010=
04/02/2021 23:00:00Z	 SAID32 WIPP 042300	METAR WIPP 042300Z 30004KT 2000 HZ FEW010 24/23 Q1011=
04/02/2021 23:30:00Z	 SAID32 WIPP 042330	METAR WIPP 042330Z 29005KT 4000 HZ FEW010 24/23 Q1011=
05/02/2021 00:00:00Z	 SAID32 WIPP 050000	METAR WIPP 050000Z 30004KT 4000 HZ FEW010 24/23 Q1011=
05/02/2021 00:30:00Z	 SAID32 WIPP 050030	METAR WIPP 050030Z 31005KT 6000 FEW010 24/23 Q1011 NOSIG=
05/02/2021 01:00:00Z	 SAID32 WIPP 050100	METAR WIPP 050100Z 32005KT 9999 FEW010 25/23 Q1012 NOSIG=
05/02/2021 01:30:00Z	 SAID32 WIPP 050130	METAR WIPP 050130Z 32005KT 9999 FEW010 26/23 Q1012 NOSIG=
05/02/2021 02:00:00Z	 SAID32 WIPP 050200	METAR WIPP 050200Z 33008KT 9999 FEW010 26/23 Q1012 NOSIG=
05/02/2021 02:30:00Z	 SAID32 WIPP 050230	METAR WIPP 050230Z 29006KT 9999 SCT010 27/23 Q1012 NOSIG=
05/02/2021 03:00:00Z	 SAID32 WIPP 050300	METAR WIPP 050300Z 27007KT 9999 BKN010 28/23 Q1012 NOSIG=
05/02/2021 03:30:00Z	 SAID32 WIPP 050330	METAR WIPP 050330Z 21004KT 9999 BKN010 29/23 Q1012 NOSIG=
05/02/2021 04:00:00Z	 SAID32 WIPP 050400	METAR WIPP 050400Z 28008KT 9999 BKN010 29/23 Q1012 NOSIG=
05/02/2021 04:30:00Z	 SAID32 WIPP 050430	METAR WIPP 050430Z 24006KT 9999 BKN010 29/23 Q1011 NOSIG=
05/02/2021 05:00:00Z	 SAID32 WIPP 050500	METAR WIPP 050500Z 31007KT 9999 BKN010 30/23 Q1011 NOSIG=
05/02/2021 05:30:00Z	 SAID32 WIPP 050530	METAR WIPP 050530Z 14005KT 9999 BKN010 30/23 Q1010 NOSIG=
05/02/2021 06:00:00Z	 SAID32 WIPP 050600	METAR WIPP 050600Z 29005KT 9999 BKN010 29/23 Q1010 NOSIG=
05/02/2021 06:30:00Z	 SAID32 WIPP 050630	METAR WIPP 050630Z 26006KT 9999 BKN010 30/23 Q1009 NOSIG=
05/02/2021 07:00:00Z	 SAID32 WIPP 050700	METAR WIPP 050700Z 22006KT 9999 SCT010 30/23 Q1009 NOSIG=
05/02/2021 07:30:00Z	 SAID32 WIPP 050730	METAR WIPP 050730Z 15008KT 9999 SCT010 30/23 Q1009 NOSIG=
05/02/2021 08:00:00Z	 SAID32 WIPP 050800	METAR WIPP 050800Z 15006KT 9999 BKN010 30/24 Q1008 NOSIG=
05/02/2021 08:30:00Z	 SAID32 WIPP 050830	METAR WIPP 050830Z 06007KT 9999 BKN010 29/23 Q1008 NOSIG=
05/02/2021 09:00:00Z	 SAID32 WIPP 050900	METAR WIPP 050900Z 15006KT 9999 BKN010 29/23 Q1008 NOSIG=
05/02/2021 09:30:00Z	 SAID32 WIPP 050930	METAR WIPP 050930Z 08005KT 9999 SCT010 29/23 Q1008 NOSIG=
05/02/2021 10:00:00Z	 SAID32 WIPP 051000	METAR WIPP 051000Z 08004KT 9999 FEW010 29/23 Q1008 NOSIG=
05/02/2021 10:30:00Z	 SAID32 WIPP 051030	METAR WIPP 051030Z 14005KT 9999 FEW010 28/23 Q1008 NOSIG=
05/02/2021 11:00:00Z	 SAID32 WIPP 051100	METAR WIPP 051100Z 14003KT 9999 FEW010 28/23 Q1008 NOSIG=
05/02/2021 11:30:00Z	 SAID32 WIPP 051130	METAR WIPP 051130Z 34003KT 9999 FEW010 27/23 Q1008 NOSIG=
05/02/2021 12:00:00Z	 SAID32 WIPP 051200	METAR WIPP 051200Z 32003KT 9999 FEW010 27/24 Q1009 NOSIG=
05/02/2021 12:30:00Z	 SAID32 WIPP 051230	METAR WIPP 051230Z 32003KT 9999 FEW010 27/24 Q1009 NOSIG=
05/02/2021 13:00:00Z	 SAID32 WIPP 051300	METAR WIPP 051300Z 35004KT 9999 FEW010 26/24 Q1009 NOSIG=
05/02/2021 14:00:00Z	 SAID32 WIPP 051400	METAR WIPP 051400Z 34003KT 9999 FEW010 26/24 Q1010 NOSIG=
05/02/2021 15:00:00Z	 SAID32 WIPP 051500	METAR WIPP 051500Z 34005KT 9999 FEW010 26/23 Q1011 NOSIG=
05/02/2021 16:00:00Z	 SAID32 WIPP 051600	METAR WIPP 051600Z 36006KT 9999 FEW010 25/23 Q1011 NOSIG=
05/02/2021 17:00:00Z	 SAID32 WIPP 051700	METAR WIPP 051700Z 31005KT 9999 FEW010 25/24 Q1011 NOSIG=
05/02/2021 18:00:00Z	 SAID32 WIPP 051800	METAR WIPP 051800Z 30003KT 8000 FEW010 25/24 Q1011 NOSIG=
05/02/2021 19:00:00Z	 SAID32 WIPP 051900	METAR WIPP 051900Z 28003KT 6000 FEW010 25/24 Q1010 NOSIG=
05/02/2021 20:00:00Z	 SAID32 WIPP 052000	METAR WIPP 052000Z 32003KT 6000 FEW010 25/24 Q1009 NOSIG=
05/02/2021 21:00:00Z	 SAID32 WIPP 052100	METAR WIPP 052100Z 29003KT 6000 FEW010 25/24 Q1009 NOSIG=
05/02/2021 22:00:00Z	 SAID32 WIPP 052200	METAR WIPP 052200Z 29003KT 4000 BR FEW010 25/24 Q1009=
05/02/2021 22:30:00Z	 SAID32 WIPP 052230	METAR WIPP 052230Z 28003KT 3000 BR FEW010 24/24 Q1010=
05/02/2021 23:00:00Z	 SAID32 WIPP 052300	METAR WIPP 052300Z 30005KT 3000 BR FEW010 25/24 Q1010=
05/02/2021 23:30:00Z	 SAID32 WIPP 052330	METAR WIPP 052330Z 31005KT 4000 BR FEW010 24/24 Q1010=
06/02/2021 00:00:00Z	 SAID32 WIPP 060000	METAR WIPP 060000Z 32005KT 6000 FEW010 24/24 Q1010 NOSIG=
06/02/2021 00:30:00Z	 SAID32 WIPP 060030	METAR WIPP 060030Z 31007KT 8000 FEW010 25/24 Q1011 NOSIG=
06/02/2021 01:00:00Z	 SAID32 WIPP 060100	METAR WIPP 060100Z 32009KT 9999 SCT010 26/24 Q1011 NOSIG=
06/02/2021 01:30:00Z	 SAID32 WIPP 060130	METAR WIPP 060130Z 34009KT 9999 BKN010 27/24 Q1011 NOSIG=
06/02/2021 02:00:00Z	 SAID32 WIPP 060200	METAR WIPP 060200Z 25011KT 9999 BKN010 28/24 Q1011 NOSIG=
06/02/2021 02:30:00Z	 SAID32 WIPP 060230	METAR WIPP 060230Z 35012KT 9999 BKN010 29/24 Q1011 NOSIG=
06/02/2021 03:00:00Z	 SAID32 WIPP 060300	METAR WIPP 060300Z 35010KT 9999 BKN010 29/24 Q1011 NOSIG=
06/02/2021 03:30:00Z	 SAID32 WIPP 060330	METAR WIPP 060330Z 33011KT 9999 BKN010 30/23 Q1010 NOSIG=
06/02/2021 04:00:00Z	 SAID32 WIPP 060400	METAR WIPP 060400Z 34012KT 9999 BKN010 30/23 Q1010 NOSIG=
06/02/2021 04:30:00Z	 SAID32 WIPP 060430	METAR WIPP 060430Z 34009KT 9999 BKN010 30/23 Q1010 NOSIG=
06/02/2021 05:00:00Z	 SAID32 WIPP 060500	METAR WIPP 060500Z 33011KT 9999 BKN010 30/23 Q1009 NOSIG=
06/02/2021 05:30:00Z	 SAID32 WIPP 060530	METAR WIPP 060530Z 33012KT 9999 BKN010 31/24 Q1008 NOSIG=
06/02/2021 06:00:00Z	 SAID32 WIPP 060600	METAR WIPP 060600Z 33009KT 9999 BKN010 31/22 Q1008 NOSIG=
06/02/2021 06:30:00Z	 SAID32 WIPP 060630	METAR WIPP 060630Z 31010KT 9999 BKN010 FEW012CB 30/24 Q1008 RMK CB TO E=
06/02/2021 07:00:00Z	 SAID32 WIPP 060700	METAR WIPP 060700Z 34009KT 9999 BKN010 FEW012CB 32/24 Q1008 RMK CB TO E AND NW=
06/02/2021 07:30:00Z	 SAID32 WIPP 060730	METAR WIPP 060730Z 02011KT 9999 BKN010 FEW012CB 32/24 Q1006 TEMPO FM0740 TL0820 35015G25KT 1500 +RA RMK CB OVER THE FIELD=
06/02/2021 08:00:00Z	 SAID32 WIPP 060800	METAR WIPP 060800Z 02011KT 9999 BKN010 FEW012CB 29/24 Q1007 RMK CB TO E=
06/02/2021 08:30:00Z	 SAID32 WIPP 060830	METAR WIPP 060830Z 36009KT 9999 BKN010 FEW012CB 30/24 Q1006 RMK CB TO SE=
06/02/2021 09:00:00Z	 SAID32 WIPP 060900	METAR WIPP 060900Z 36011KT 9999 BKN010 FEW012CB 30/24 Q1006 RMK CB TO SE=
06/02/2021 09:30:00Z	 SAID32 WIPP 060930	METAR WIPP 060930Z 33010KT 9999 BKN010 30/24 Q1006=
06/02/2021 10:00:00Z	 SAID32 WIPP 061000	METAR WIPP 061000Z 01011KT 9999 BKN010 29/24 Q1007=
06/02/2021 10:30:00Z	 SAID32 WIPP 061030	METAR WIPP 061030Z 35008KT 9999 BKN010 29/23 Q1007=
06/02/2021 11:00:00Z	 SAID32 WIPP 061100	METAR WIPP 061100Z 36007KT 9999 BKN010 28/24 Q1007=
06/02/2021 11:30:00Z	 SAID32 WIPP 061130	METAR WIPP 061130Z 02007KT 9999 FEW010 27/24 Q1007=
06/02/2021 12:00:00Z	 SAID32 WIPP 061200	METAR WIPP 061200Z 36006KT 9999 FEW010 27/25 Q1008=
06/02/2021 12:30:00Z	 SAID32 WIPP 061230	METAR WIPP 061230Z 01005KT 9999 FEW010 27/24 Q1008=
06/02/2021 13:00:00Z	 SAID32 WIPP 061300	METAR WIPP 061300Z 05002KT 9999 FEW010 26/24 Q1008=
06/02/2021 14:00:00Z	 SAID32 WIPP 061400	METAR WIPP 061400Z 04002KT 9999 SCT010 26/24 Q1009=
06/02/2021 15:00:00Z	 SAID32 WIPP 061500	METAR WIPP 061500Z 27002KT 9999 SCT010 25/24 Q1010=
06/02/2021 16:00:00Z	 SAID32 WIPP 061600	METAR WIPP 061600Z 16002KT 8000 FEW010 25/24 Q1010=
06/02/2021 17:00:00Z	 SAID32 WIPP 061700	METAR WIPP 061700Z 32002KT 6000 FEW010 25/24 Q1009=
06/02/2021 18:00:00Z	 SAID32 WIPP 061800	METAR WIPP 061800Z 23002KT 8000 FEW010 25/24 Q1009=
06/02/2021 19:00:00Z	 SAID32 WIPP 061900	METAR WIPP 061900Z 27002KT 6000 FEW010 25/24 Q1009=
06/02/2021 20:00:00Z	 SAID32 WIPP 062000	METAR WIPP 062000Z 32002KT 3000 HZ FEW010 25/24 Q1008=
06/02/2021 21:00:00Z	 SAID32 WIPP 062100	METAR WIPP 062100Z 28002KT 6000 FEW010 25/24 Q1008=
06/02/2021 22:00:00Z	 SAID32 WIPP 062200	METAR WIPP 062200Z 26003KT 5000 HZ FEW010 24/24 Q1008=
06/02/2021 22:30:00Z	 SAID32 WIPP 062230	METAR WIPP 062230Z 32003KT 5000 HZ FEW010 24/24 Q1008=
06/02/2021 23:00:00Z	 SAID32 WIPP 062300	METAR WIPP 062300Z 31004KT 2000 BR SCT010 24/23 Q1008=
06/02/2021 23:30:00Z	 SAID32 WIPP 062330	METAR WIPP 062330Z 31003KT 2000 BR BKN010 24/23 Q1009=
07/02/2021 00:00:00Z	 SAID32 WIPP 070000	METAR WIPP 070000Z 33004KT 3000 HZ BKN010 24/24 Q1009=
07/02/2021 00:30:00Z	 SAID32 WIPP 070030	METAR WIPP 070030Z 32004KT 6000 BKN010 25/24 Q1009=
07/02/2021 01:00:00Z	 SAID32 WIPP 070100	METAR WIPP 070100Z 32008KT 8000 SCT010 25/24 Q1010 NOSIG=
07/02/2021 01:30:00Z	 SAID32 WIPP 070130	METAR WIPP 070130Z 33008KT 8000 SCT010 26/24 Q1011 NOSIG=
07/02/2021 02:00:00Z	 SAID32 WIPP 070200	METAR WIPP 070200Z 33008KT 8000 SCT010 27/24 Q1011 NOSIG=
07/02/2021 02:30:00Z	 SAID32 WIPP 070230	METAR WIPP 070230Z 35010KT 8000 BKN010 27/24 Q1011 NOSIG=
07/02/2021 03:00:00Z	 SAID32 WIPP 070300	METAR WIPP 070300Z 32010KT 9999 BKN010 28/24 Q1011 NOSIG=
07/02/2021 03:30:00Z	 SAID32 WIPP 070330	METAR WIPP 070330Z 32012KT 9999 BKN010 28/24 Q1011 NOSIG=
07/02/2021 04:00:00Z	 SAID32 WIPP 070400	METAR WIPP 070400Z 33012KT 9999 SCT010 29/24 Q1010 NOSIG=
07/02/2021 04:30:00Z	 SAID32 WIPP 070430	METAR WIPP 070430Z 33012KT 9999 SCT010 30/24 Q1010 NOSIG=
07/02/2021 05:00:00Z	 SAID32 WIPP 070500	METAR WIPP 070500Z 32012KT 9999 BKN010 30/24 Q1009 NOSIG=
07/02/2021 05:30:00Z	 SAID32 WIPP 070530	METAR WIPP 070530Z 35010KT 9999 BKN010 30/23 Q1009 NOSIG=
07/02/2021 06:00:00Z	 SAID32 WIPP 070600	METAR WIPP 070600Z 32015KT 9999 BKN010 31/23 Q1008 NOSIG=
07/02/2021 06:30:00Z	 SAID32 WIPP 070630	METAR WIPP 070630Z 33010KT 9999 BKN010 31/23 Q1008 NOSIG=
07/02/2021 07:00:00Z	 SAID32 WIPP 070700	METAR WIPP 070700Z 33008KT 9999 BKN010 31/24 Q1007 NOSIG=
07/02/2021 07:30:00Z	 SAID32 WIPP 070730	METAR WIPP 070730Z 35010KT 9999 BKN010 31/24 Q1007 NOSIG=
07/02/2021 08:00:00Z	 SAID32 WIPP 070800	METAR WIPP 070800Z 32012KT 9999 BKN010 31/24 Q1007 NOSIG=
07/02/2021 08:30:00Z	 SAID32 WIPP 070830	METAR WIPP 070830Z 04005KT 9999 BKN010 FEW012CB 30/24 Q1007 RERA=
07/02/2021 09:00:00Z	 SAID32 WIPP 070900	METAR WIPP 070900Z 35008KT 9999 BKN010 FEW012CB 28/24 Q1007 RMK CB TO SE=
07/02/2021 09:30:00Z	 SAID32 WIPP 070930	METAR WIPP 070930Z 32005KT 9999 BKN010 FEW012CB 28/24 Q1007 RMK CB TO SE=
07/02/2021 10:00:00Z	 SAID32 WIPP 071000	METAR WIPP 071000Z 35005KT 9999 BKN010 FEW012CB 29/24 Q1007 RMK CB TO SE=
07/02/2021 10:30:00Z	 SAID32 WIPP 071030	METAR WIPP 071030Z 04005KT 9999 SCT010 FEW012CB 29/24 Q1006 RMK CB TO N=
07/02/2021 11:00:00Z	 SAID32 WIPP 071100	METAR WIPP 071100Z 05005KT 9999 SCT010 28/25 Q1007 NOSIG=
07/02/2021 11:30:00Z	 SAID32 WIPP 071130	METAR WIPP 071130Z 03005KT 9999 SCT010 28/25 Q1007 NOSIG=
07/02/2021 12:00:00Z	 SAID32 WIPP 071200	METAR WIPP 071200Z 01003KT 9999 SCT010 27/25 Q1008 NOSIG=
07/02/2021 12:30:00Z	 SAID32 WIPP 071230	METAR WIPP 071230Z 02003KT 9999 SCT010 27/25 Q1008 NOSIG=
07/02/2021 13:00:00Z	 SAID32 WIPP 071300	METAR WIPP 071300Z 36003KT 9999 SCT010 27/24 Q1009 NOSIG=
07/02/2021 14:00:00Z	 SAID32 WIPP 071400	METAR WIPP 071400Z 35003KT 9999 SCT010 26/24 Q1010 NOSIG=
07/02/2021 15:00:00Z	 SAID32 WIPP 071500	METAR WIPP 071500Z 36005KT 9999 SCT010 26/24 Q1010 NOSIG=
07/02/2021 16:00:00Z	 SAID32 WIPP 071600	METAR WIPP 071600Z 00000KT 9999 SCT010 26/24 Q1011 NOSIG=
07/02/2021 17:00:00Z	 SAID32 WIPP 071700	METAR WIPP 071700Z 25004KT 9999 SCT010 26/24 Q1010 NOSIG=
07/02/2021 18:00:00Z	 SAID32 WIPP 071800	METAR WIPP 071800Z 30004KT 6000 SCT010 26/24 Q1009 NOSIG=
07/02/2021 19:00:00Z	 SAID32 WIPP 071900	METAR WIPP 071900Z 28003KT 6000 SCT010 26/24 Q1009 NOSIG=
07/02/2021 20:00:00Z	 SAID32 WIPP 072000	METAR WIPP 072000Z 28002KT 5000 HZ SCT010 26/24 Q1009=
07/02/2021 21:00:00Z	 SAID32 WIPP 072100	METAR WIPP 072100Z 31006KT 8000 FEW010 26/24 Q1008=
07/02/2021 22:00:00Z	 SAID32 WIPP 072200	METAR WIPP 072200Z 31007KT 8000 FEW010 25/24 Q1009=
07/02/2021 22:30:00Z	 SAID32 WIPP 072230	METAR WIPP 072230Z 27006KT 8000 SCT010 25/24 Q1009=
07/02/2021 23:00:00Z	 SAID32 WIPP 072300	METAR WIPP 072300Z 31004KT 6000 SCT010 25/24 Q1009=
07/02/2021 23:30:00Z	 SAID32 WIPP 072330	METAR WIPP 072330Z 30007KT 6000 SCT010 25/24 Q1010=
08/02/2021 00:00:00Z	 SAID32 WIPP 080000	METAR WIPP 080000Z 31007KT 5000 HZ FEW010 25/24 Q1010=
08/02/2021 00:30:00Z	 SAID32 WIPP 080030	METAR WIPP 080030Z 30007KT 6000 FEW010 25/24 Q1010=
08/02/2021 01:00:00Z	 SAID32 WIPP 080100	METAR WIPP 080100Z 31008KT 8000 SCT010 26/24 Q1010 NOSIG=
08/02/2021 01:30:00Z	 SAID32 WIPP 080130	METAR WIPP 080130Z 31007KT 9999 BKN010 27/24 Q1010 NOSIG=
08/02/2021 02:00:00Z	 SAID32 WIPP 080200	METAR WIPP 080200Z 33009KT 9999 BKN010 27/24 Q1010 NOSIG=
08/02/2021 02:30:00Z	 SAID32 WIPP 080230	METAR WIPP 080230Z 33009KT 9999 BKN010 28/24 Q1010 NOSIG=
08/02/2021 03:00:00Z	 SAID32 WIPP 080300	METAR WIPP 080300Z 35010KT 9999 BKN010 28/24 Q1010 NOSIG=
08/02/2021 03:30:00Z	 SAID32 WIPP 080330	METAR WIPP 080330Z 35010KT 9999 BKN010 29/24 Q1010 NOSIG=
08/02/2021 04:00:00Z	 SAID32 WIPP 080400	METAR WIPP 080400Z 32010KT 9999 BKN010 29/24 Q1010 NOSIG=
08/02/2021 04:30:00Z	 SAID32 WIPP 080430	METAR WIPP 080430Z 33010KT 9999 BKN010 30/24 Q1009 NOSIG=
08/02/2021 05:00:00Z	 SAID32 WIPP 080500	METAR WIPP 080500Z 33012KT 9999 BKN010 30/23 Q1009 NOSIG=
08/02/2021 05:30:00Z	 SAID32 WIPP 080530	METAR WIPP 080530Z 32011KT 9999 BKN010 31/23 Q1008 NOSIG=
08/02/2021 06:00:00Z	 SAID32 WIPP 080600	METAR WIPP 080600Z 31010KT 9999 BKN010 31/24 Q1008 NOSIG=
08/02/2021 06:30:00Z	 SAID32 WIPP 080630	METAR WIPP 080630Z 32011KT 9999 BKN010 31/24 Q1008 NOSIG=
08/02/2021 07:00:00Z	 SAID32 WIPP 080700	METAR WIPP 080700Z 31011KT 9999 BKN010 31/24 Q1007 NOSIG=
08/02/2021 07:30:00Z	 SAID32 WIPP 080730	METAR WIPP 080730Z 33012KT 9999 BKN010 31/24 Q1007 NOSIG=
08/02/2021 08:00:00Z	 SAID32 WIPP 080800	METAR WIPP 080800Z 30012KT 9999 SCT010 32/23 Q1006 NOSIG=
08/02/2021 08:30:00Z	 SAID32 WIPP 080830	METAR WIPP 080830Z 32012KT 9999 SCT010 FEW012CB 33/24 Q1007 RMK CB TO E AND N=
08/02/2021 09:00:00Z	 SAID32 WIPP 080900	METAR WIPP 080900Z 30011KT 9999 SCT010 FEW012CB 32/24 Q1007 RMK CB TO E AND N=
08/02/2021 09:30:00Z	 SAID32 WIPP 080930	METAR WIPP 080930Z 03008KT 8000 -RA SCT010 FEW012CB 30/25 Q1007 RMK CB TO E AND SE=
08/02/2021 10:00:00Z	 SAID32 WIPP 081000	METAR WIPP 081000Z 03009KT 9999 SCT010 FEW012CB 30/25 Q1007 RERA RMK CB TO SE=
08/02/2021 10:30:00Z	 SAID32 WIPP 081030	METAR WIPP 081030Z 36009KT 9999 SCT010 FEW012CB 29/24 Q1007 RMK CB TO SE=
08/02/2021 11:00:00Z	 SAID32 WIPP 081100	METAR WIPP 081100Z 01007KT 9999 FEW010 29/24 Q1007 NOSIG=
08/02/2021 11:30:00Z	 SAID32 WIPP 081130	METAR WIPP 081130Z 02006KT 9999 FEW010 28/24 Q1008 NOSIG=
08/02/2021 12:00:00Z	 SAID32 WIPP 081200	METAR WIPP 081200Z 02004KT 9999 FEW010 28/24 Q1008 NOSIG=
08/02/2021 12:30:00Z	 SAID32 WIPP 081230	METAR WIPP 081230Z 02005KT 9999 FEW010 28/24 Q1009 NOSIG=
08/02/2021 13:00:00Z	 SAID32 WIPP 081300	METAR WIPP 081300Z 02003KT 9999 FEW010 27/24 Q1009 NOSIG=
08/02/2021 13:30:00Z	 SAID32 WIPP 081330	METAR WIPP 081330Z 02005KT 8000 FEW010 27/24 Q1010 NOSIG=
08/02/2021 14:00:00Z	 SAID32 WIPP 081400	METAR WIPP 081400Z 01005KT 8000 SCT010 27/24 Q1010 NOSIG=
08/02/2021 14:30:00Z	 SAID32 WIPP 081430	METAR WIPP 081430Z 05005KT 8000 SCT010 26/25 Q1010 NOSIG=
08/02/2021 15:00:00Z	 SAID32 WIPP 081500	METAR WIPP 081500Z 02005KT 8000 SCT010 26/25 Q1010 NOSIG=
08/02/2021 15:30:00Z	 SAID32 WIPP 081530	METAR WIPP 081530Z 03003KT 8000 SCT010 26/25 Q1010 NOSIG=
08/02/2021 16:00:00Z	 SAID32 WIPP 081600	METAR WIPP 081600Z 34005KT 8000 SCT010 26/25 Q1010 NOSIG=
08/02/2021 16:30:00Z	 SAID32 WIPP 081630	METAR WIPP 081630Z AUTO ///// ////NDV ////// ///// Q////=
08/02/2021 17:00:00Z	 SAID32 WIPP 081700	METAR WIPP 081700Z AUTO ///// ////NDV ////// ///// Q////=
08/02/2021 17:30:00Z	 SAID32 WIPP 081730	METAR WIPP 081730Z AUTO ///// ////NDV ////// ///// Q////=
08/02/2021 18:00:00Z	 SAID32 WIPP 081800	METAR WIPP 081800Z 01005KT 8000 FEW010 26/24 Q1009 NOSIG=
08/02/2021 19:00:00Z	 SAID32 WIPP 081900	METAR WIPP 081900Z 33005KT 6000 FEW010 25/24 Q1008 NOSIG=
08/02/2021 20:00:00Z	 SAID32 WIPP 082000	METAR WIPP 082000Z 35003KT 6000 FEW010 25/24 Q1008 NOSIG=
08/02/2021 21:00:00Z	 SAID32 WIPP 082100	METAR WIPP 082100Z 32005KT 5000 BR FEW010 25/24 Q1008=
08/02/2021 22:00:00Z	 SAID32 WIPP 082200	METAR WIPP 082200Z 32005KT 5000 BR FEW010 25/24 Q1008=
08/02/2021 22:30:00Z	 SAID32 WIPP 082230	METAR WIPP 082230Z 32005KT 5000 BR FEW010 25/24 Q1008=
08/02/2021 23:00:00Z	 SAID32 WIPP 082300	METAR WIPP 082300Z 32005KT 1000 BR SCT008 25/24 Q1008=
08/02/2021 23:30:00Z	 SAID32 WIPP 082330	METAR WIPP 082330Z 32005KT 1000 BR SCT010 25/24 Q1009=
09/02/2021 00:00:00Z	 SAID32 WIPP 090000	METAR WIPP 090000Z 32005KT 2000 BR SCT010 25/24 Q1009=
09/02/2021 00:30:00Z	 SAID32 WIPP 090030	METAR WIPP 090030Z 32005KT 5000 BR SCT010 25/24 Q1010=
09/02/2021 01:00:00Z	 SAID32 WIPP 090100	METAR WIPP 090100Z 34005KT 5000 HZ SCT010 26/24 Q1010=
09/02/2021 01:30:00Z	 SAID32 WIPP 090130	METAR WIPP 090130Z 29005KT 9999 BKN010 27/25 Q1010=
09/02/2021 02:00:00Z	 SAID32 WIPP 090200	METAR WIPP 090200Z 20008KT 9999 BKN010 28/24 Q1010=
09/02/2021 02:30:00Z	 SAID32 WIPP 090230	METAR WIPP 090230Z 25006KT 9999 BKN010 29/24 Q1010=
09/02/2021 03:00:00Z	 SAID32 WIPP 090300	METAR WIPP 090300Z 29007KT 9999 BKN010 29/23 Q1010=
09/02/2021 03:30:00Z	 SAID32 WIPP 090330	METAR WIPP 090330Z 21008KT 9999 BKN010 29/23 Q1010=
09/02/2021 04:00:00Z	 SAID32 WIPP 090400	METAR WIPP 090400Z 31010KT 9999 BKN010 30/24 Q1009=
09/02/2021 04:30:00Z	 SAID32 WIPP 090430	METAR WIPP 090430Z 30005KT 9999 BKN010 30/24 Q1009=
09/02/2021 05:00:00Z	 SAID32 WIPP 090500	METAR WIPP 090500Z 31006KT 9999 BKN010 31/24 Q1009=
09/02/2021 05:30:00Z	 SAID32 WIPP 090530	METAR WIPP 090530Z 30009KT 9999 BKN010 30/24 Q1008=
09/02/2021 06:00:00Z	 SAID32 WIPP 090600	METAR WIPP 090600Z 31009KT 9999 SCT010 31/23 Q1008=
09/02/2021 06:30:00Z	 SAID32 WIPP 090630	METAR WIPP 090630Z 20006KT 9999 BKN010 32/24 Q1007=
09/02/2021 07:00:00Z	 SAID32 WIPP 090700	METAR WIPP 090700Z 31009KT 9999 SCT010 32/24 Q1007=
09/02/2021 07:30:00Z	 SAID32 WIPP 090730	METAR WIPP 090730Z 32008KT 9999 SCT010 33/24 Q1006=
09/02/2021 08:00:00Z	 SAID32 WIPP 090800	METAR WIPP 090800Z 32008KT 9999 SCT010 32/23 Q1006=
09/02/2021 08:30:00Z	 SAID32 WIPP 090830	METAR WIPP 090830Z 31008KT 9999 SCT010 32/24 Q1006=
09/02/2021 09:00:00Z	 SAID32 WIPP 090900	METAR WIPP 090900Z 30007KT 9999 SCT010 32/24 Q1005=
09/02/2021 09:30:00Z	 SAID32 WIPP 090930	METAR WIPP 090930Z 33005KT 9999 SCT010 32/24 Q1005=
09/02/2021 10:00:00Z	 SAID32 WIPP 091000	METAR WIPP 091000Z 07008KT 9999 FEW010 31/25 Q1006=
09/02/2021 10:30:00Z	 SAID32 WIPP 091030	METAR WIPP 091030Z 04006KT 9999 FEW010 30/25 Q1006=
09/02/2021 11:30:00Z	 SAID32 WIPP 091130	METAR WIPP 091130Z 04003KT 9999 FEW010 29/25 Q1007=
09/02/2021 12:00:00Z	 SAID32 WIPP 091200	METAR WIPP 091200Z 03003KT 9999 FEW010 28/24 Q1007=
09/02/2021 12:30:00Z	 SAID32 WIPP 091230	METAR WIPP 091230Z 09002KT 9999 FEW010 28/25 Q1007=
09/02/2021 13:00:00Z	 SAID32 WIPP 091300	METAR WIPP 091300Z 03004KT 9999 FEW010 28/25 Q1008 NOSIG=
09/02/2021 13:30:00Z	 SAID32 WIPP 091330	METAR WIPP 091330Z 03003KT 9999 FEW010 27/25 Q1009 NOSIG=
09/02/2021 14:00:00Z	 SAID32 WIPP 091400	METAR WIPP 091400Z 36004KT 9999 FEW010 27/25 Q1009 NOSIG=
09/02/2021 14:30:00Z	 SAID32 WIPP 091430	METAR WIPP 091430Z 36005KT 9999 FEW010 27/24 Q1009 NOSIG=
09/02/2021 15:00:00Z	 SAID32 WIPP 091500	METAR WIPP 091500Z 33003KT 9999 FEW010 27/24 Q1009 NOSIG=
09/02/2021 15:30:00Z	 SAID32 WIPP 091530	METAR WIPP 091530Z 03003KT 9999 FEW010 26/24 Q1009 NOSIG=
09/02/2021 16:00:00Z	 SAID32 WIPP 091600	METAR WIPP 091600Z 00000KT 7000 FEW010 26/24 Q1009 NOSIG=
09/02/2021 16:30:00Z	 SAID32 WIPP 091630	METAR WIPP 091630Z 00000KT 6000 FEW010 26/24 Q1009 NOSIG=
09/02/2021 17:00:00Z	 SAID32 WIPP 091700	METAR WIPP 091700Z 35003KT 7000 FEW010 26/24 Q1009 NOSIG=
09/02/2021 17:30:00Z	 SAID32 WIPP 091730	METAR WIPP 091730Z 00000KT 8000 FEW010 26/24 Q1008 NOSIG=
09/02/2021 18:00:00Z	 SAID32 WIPP 091800	METAR WIPP 091800Z 00000KT 6000 FEW010 26/24 Q1008 NOSIG=
09/02/2021 18:30:00Z	 SAID32 WIPP 091830	METAR WIPP 091830Z 00000KT 5000 HZ FEW010 26/24 Q1008 NOSIG=
09/02/2021 19:00:00Z	 SAID32 WIPP 091900	METAR WIPP 091900Z 00000KT 5000 HZ FEW010 26/24 Q1008 NOSIG=
09/02/2021 19:30:00Z	 SAID32 WIPP 091930	METAR WIPP 091930Z 00000KT 5000 HZ SCT010 26/24 Q1007 NOSIG=
09/02/2021 20:00:00Z	 SAID32 WIPP 092000	METAR WIPP 092000Z 33003KT 5000 HZ SCT010 26/24 Q1007 NOSIG=
09/02/2021 20:30:00Z	 SAID32 WIPP 092030	METAR WIPP 092030Z 31003KT 4000 HZ SCT010 26/24 Q1007 NOSIG=
09/02/2021 21:00:00Z	 SAID32 WIPP 092100	METAR WIPP 092100Z 30003KT 3000 HZ SCT010 26/24 Q1007=
09/02/2021 21:30:00Z	 SAID32 WIPP 092130	METAR WIPP 092130Z 29003KT 2500 HZ SCT010 25/24 Q1007=
09/02/2021 22:00:00Z	 SAID32 WIPP 092200	METAR WIPP 092200Z 30004KT 2500 HZ SCT010 25/24 Q1007=
09/02/2021 22:30:00Z	 SAID32 WIPP 092230	METAR WIPP 092230Z 30004KT 2500 HZ SCT010 25/24 Q1008=
09/02/2021 23:00:00Z	 SAID32 WIPP 092300	METAR WIPP 092300Z 00000KT 1300 HZ FEW010 25/24 Q1008=
09/02/2021 23:30:00Z	 SAID32 WIPP 092330	METAR WIPP 092330Z 31004KT 1300 HZ FEW010 25/24 Q1009=
10/02/2021 00:00:00Z	 SAID32 WIPP 100000	METAR WIPP 100000Z 00000KT 1700 BR FEW010 26/25 Q1009=
10/02/2021 00:30:00Z	 SAID32 WIPP 100030	METAR WIPP 100030Z 33004KT 3500 HZ BKN010 26/25 Q1009=
10/02/2021 01:00:00Z	 SAID32 WIPP 100100	METAR WIPP 100100Z 30003KT 8000 SCT010 26/25 Q1010 NOSIG=
10/02/2021 01:30:00Z	 SAID32 WIPP 100130	METAR WIPP 100130Z 33004KT 9999 BKN010 26/24 Q1010 NOSIG=
10/02/2021 02:00:00Z	 SAID32 WIPP 100200	METAR WIPP 100200Z 35005KT 9999 BKN010 28/25 Q1010 NOSIG=
10/02/2021 02:30:00Z	 SAID32 WIPP 100230	METAR WIPP 100230Z 35007KT 9999 BKN010 29/25 Q1010 NOSIG=
10/02/2021 03:00:00Z	 SAID32 WIPP 100300	METAR WIPP 100300Z 35008KT 9999 BKN010 29/25 Q1010 NOSIG=
10/02/2021 03:30:00Z	 SAID32 WIPP 100330	METAR WIPP 100330Z 33011KT 9999 SCT010 30/24 Q1010 NOSIG=
10/02/2021 04:00:00Z	 SAID32 WIPP 100400	METAR WIPP 100400Z 33009KT 9999 SCT010 31/25 Q1010 NOSIG=
10/02/2021 04:30:00Z	 SAID32 WIPP 100430	METAR WIPP 100430Z 28006KT 9999 BKN010 31/24 Q1009 NOSIG=
10/02/2021 05:00:00Z	 SAID32 WIPP 100500	METAR WIPP 100500Z 33008KT 9999 BKN010 31/24 Q1009 NOSIG=
10/02/2021 05:30:00Z	 SAID32 WIPP 100530	METAR WIPP 100530Z 33010KT 9999 BKN010 31/24 Q1008 NOSIG=
10/02/2021 06:00:00Z	 SAID32 WIPP 100600	METAR WIPP 100600Z 35003KT 9999 BKN010 32/23 Q1008 NOSIG=
10/02/2021 06:30:00Z	 SAID32 WIPP 100630	METAR WIPP 100630Z 26009KT 8000 -RA BKN010 FEW011CB 31/26 Q1007 RMK CB TO SE=
10/02/2021 07:00:00Z	 SAID32 WIPP 100700	METAR WIPP 100700Z 25006KT 9999 BKN010 FEW011CB 31/25 Q1007 RERA RMK CB TO SE=
10/02/2021 07:30:00Z	 SAID32 WIPP 100730	METAR WIPP 100730Z 30007KT 9999 BKN010 32/25 Q1006 NOSIG=
10/02/2021 08:00:00Z	 SAID32 WIPP 100800	METAR WIPP 100800Z 20002KT 9999 FEW010CB BKN010 32/24 Q1006 RMK CB TO N=
10/02/2021 08:30:00Z	 SAID32 WIPP 100830	METAR WIPP 100830Z 07003KT 9999 FEW010CB BKN010 31/23 Q1006 RMK CB TO N=
10/02/2021 09:00:00Z	 SAID32 WIPP 100900	METAR WIPP 100900Z 04010KT 9999 FEW010CB BKN010 30/25 Q1006 RMK CB TO N=
10/02/2021 09:30:00Z	 SAID32 WIPP 100930	METAR WIPP 100930Z 04007KT 9999 FEW010CB BKN010 30/25 Q1007 RMK CB TO N=
10/02/2021 10:00:00Z	 SAID32 WIPP 101000	METAR WIPP 101000Z 04009KT 9999 FEW010CB SCT010 29/25 Q1007 RMK CB TO N=
10/02/2021 10:30:00Z	 SAID32 WIPP 101030	METAR WIPP 101030Z 04011KT 9999 FEW010CB SCT010 29/25 Q1007 RMK CB TO NE=
10/02/2021 11:00:00Z	 SAID32 WIPP 101100	METAR WIPP 101100Z 02006KT 9999 SCT010 28/25 Q1008 NOSIG=
10/02/2021 11:30:00Z	 SAID32 WIPP 101130	METAR WIPP 101130Z 04005KT 9999 FEW010CB SCT010 28/25 Q1007 RMK CB TO W=
10/02/2021 12:00:00Z	 SAID32 WIPP 101200	METAR WIPP 101200Z 13004KT 9999 FEW010CB SCT010 28/25 Q1008 RMK CB TO W=
10/02/2021 12:30:00Z	 SAID32 WIPP 101230	METAR WIPP 101230Z 07003KT 9999 FEW010CB SCT010 27/25 Q1009 RMK CB TO W=
10/02/2021 13:00:00Z	 SAID32 WIPP 101300	METAR WIPP 101300Z 24012KT 9999 TS FEW010CB BKN010 27/25 Q1010 RMK CB OVER THE FIELD=
10/02/2021 13:30:00Z	 SAID32 WIPP 101330	METAR WIPP 101330Z 24006KT 1000 +TSRA FEW010CB BKN010 23/22 Q1010 RMK CB OVER THE FIELD=
10/02/2021 14:00:00Z	 SAID32 WIPP 101400	METAR WIPP 101400Z 25002KT 8000 -TSRA FEW010CB BKN010 23/22 Q1010 RMK CB W=
10/02/2021 14:30:00Z	 SAID32 WIPP 101430	METAR WIPP 101430Z 00000KT 9999 -RA FEW010CB BKN010 23/22 Q1010 =
10/02/2021 15:00:00Z	 SAID32 WIPP 101500	METAR WIPP 101500Z 00000KT 8000 -RA BKN010 23/22 Q1010 =
10/02/2021 16:00:00Z	 SAID32 WIPP 101600	METAR WIPP 101600Z 05002KT 8000 -RA BKN010 24/22 Q1010 =
10/02/2021 17:00:00Z	 SAID32 WIPP 101700	METAR WIPP 101700Z 00000KT 8000 -RA BKN010 24/22 Q1010 =
10/02/2021 18:00:00Z	 SAID32 WIPP 101800	METAR WIPP 101800Z 33002KT 4000 HZ BKN010 24/23 Q1009 =
10/02/2021 19:00:00Z	 SAID32 WIPP 101900	METAR WIPP 101900Z 33003KT 5000 HZ SCT010 24/23 Q1008 =
10/02/2021 20:00:00Z	 SAID32 WIPP 102000	METAR WIPP 102000Z 31002KT 5000 HZ SCT010 24/23 Q1008 =
10/02/2021 21:00:00Z	 SAID32 WIPP 102100	METAR WIPP 102100Z 00000KT 8000 BKN010 24/23 Q1008 =
10/02/2021 22:00:00Z	 SAID32 WIPP 102200	METAR WIPP 102200Z 29003KT 2000 BR BKN010 23/23 Q1008 =
10/02/2021 22:30:00Z	 SAID32 WIPP 102230	METAR WIPP 102230Z 00000KT 1500 BR BKN010 23/23 Q1008 =
10/02/2021 23:00:00Z	 SAID32 WIPP 102300	METAR WIPP 102300Z 00000KT 1000 BR BKN010 23/23 Q1009 =
10/02/2021 23:30:00Z	 SAID32 WIPP 102330	METAR WIPP 102330Z 27001KT 1500 BR SCT010 23/23 Q1009 =
11/02/2021 00:00:00Z	 SAID32 WIPP 110000	METAR WIPP 110000Z 00000KT 2000 BR BKN010 24/23 Q1009 =
11/02/2021 00:30:00Z	 SAID32 WIPP 110030	METAR WIPP 110030Z 31003KT 6000 SCT010 24/23 Q1010 =
11/02/2021 01:00:00Z	 SAID32 WIPP 110100	METAR WIPP 110100Z 29004KT 8000 FEW010 25/24 Q1010 =
11/02/2021 01:30:00Z	 SAID32 WIPP 110130	METAR WIPP 110130Z 31005KT 9999 FEW010 27/25 Q1010 =
11/02/2021 02:00:00Z	 SAID32 WIPP 110200	METAR WIPP 110200Z 33006KT 9999 SCT010 28/25 Q1011=
11/02/2021 02:30:00Z	 SAID32 WIPP 110230	METAR WIPP 110230Z 31008KT 9999 SCT010 28/25 Q1011=
11/02/2021 03:00:00Z	 SAID32 WIPP 110300	METAR WIPP 110300Z 34009KT 9999 BKN010 29/25 Q1011=
11/02/2021 03:30:00Z	 SAID32 WIPP 110330	METAR WIPP 110330Z 35009KT 9999 BKN010 29/25 Q1010=
11/02/2021 04:00:00Z	 SAID32 WIPP 110400	METAR WIPP 110400Z 31012KT 9999 BKN010 30/24 Q1010=
11/02/2021 04:30:00Z	 SAID32 WIPP 110430	METAR WIPP 110430Z 32010KT 9999 BKN010 30/23 Q1010=
11/02/2021 05:00:00Z	 SAID32 WIPP 110500	METAR WIPP 110500Z 30008KT 9999 BKN010 31/24 Q1010=
11/02/2021 05:30:00Z	 SAID32 WIPP 110530	METAR WIPP 110530Z 29005KT 9999 BKN010 31/24 Q1009=
11/02/2021 06:00:00Z	 SAID32 WIPP 110600	METAR WIPP 110600Z 27006KT 9999 BKN010 31/23 Q1008=
11/02/2021 06:30:00Z	 SAID32 WIPP 110630	METAR WIPP 110630Z 35010KT 9000 -RA BKN010 FEW012CB 31/25 Q1008 RMK CB TO N=
11/02/2021 07:00:00Z	 SAID32 WIPP 110700	METAR WIPP 110700Z 03004KT 9999 BKN010 FEW012CB 32/25 Q1007 RMK CB TO N=
11/02/2021 07:30:00Z	 SAID32 WIPP 110730	METAR WIPP 110730Z 01011KT 9999 BKN010 FEW012CB 30/25 Q1007 TEMPO FM0750 TL0830 04015G25KT 3000 TSRA RMK CB TO NW=
11/02/2021 08:00:00Z	 SAID32 WIPP 110800	METAR WIPP 110800Z 03010KT 9999 BKN010 FEW012CB 30/25 Q1007 RMK CB TO NW=
11/02/2021 08:30:00Z	 SAID32 WIPP 110830	METAR WIPP 110830Z 35011KT 0500 +RA BKN010 FEW010CB 26/24 Q1007 RMK CB OVER THE FIELD=
11/02/2021 09:00:00Z	 SAID32 WIPP 110900	METAR WIPP 110900Z 36004KT 6000 BKN010 FEW010CB 26/25 Q1007 RMK CB TO S AND SW=
11/02/2021 09:30:00Z	 SAID32 WIPP 110930	METAR WIPP 110930Z 23002KT 6000 SCT010 FEW010CB 27/25 Q1007 RMK CB TO S=
11/02/2021 10:00:00Z	 SAID32 WIPP 111000	METAR WIPP 111000Z 00000KT 5000 -RA SCT010 FEW010CB 27/25 Q1007 RMK CB TO NW=
11/02/2021 10:30:00Z	 SAID32 WIPP 111030	METAR WIPP 111030Z 35003KT 5000 -RA SCT010 FEW010CB 27/26 Q1008 RMK CB TO NW=
11/02/2021 11:00:00Z	 SAID32 WIPP 111100	METAR WIPP 111100Z 01004KT 5000 -RA SCT010 FEW010CB 27/26 Q1008 TEMPO FM1130 TL1230 02015G25KT 2500 TSRA RMK CB TO NW=
11/02/2021 11:30:00Z	 SAID32 WIPP 111130	METAR WIPP 111130Z 34008KT 9999 SCT010 FEW010CB 25/24 Q1008 RMK CB TO N=
11/02/2021 12:00:00Z	 SAID32 WIPP 111200	METAR WIPP 111200Z 01004KT 9999 SCT010 FEW010CB 25/23 Q1008 RMK CB TO NE=
11/02/2021 12:30:00Z	 SAID32 WIPP 111230	METAR WIPP 111230Z 05002KT 9999 SCT010 FEW010CB 25/23 Q1008 RMK CB TO NE=
11/02/2021 13:00:00Z	 SAID32 WIPP 111300	METAR WIPP 111300Z 02002KT 9999 SCT010 24/23 Q1009 NOSIG=
11/02/2021 14:00:00Z	 SAID32 WIPP 111400	METAR WIPP 111400Z 04002KT 9999 SCT010 25/23 Q1009 NOSIG=
11/02/2021 15:00:00Z	 SAID32 WIPP 111500	METAR WIPP 111500Z 03003KT 9999 SCT010 25/24 Q1010 NOSIG=
11/02/2021 16:00:00Z	 SAID32 WIPP 111600	METAR WIPP 111600Z 01003KT 9999 FEW010 25/24 Q1010 NOSIG=
11/02/2021 17:00:00Z	 SAID32 WIPP 111700	METAR WIPP 111700Z 00000KT 8000 FEW010 25/24 Q1010 NOSIG=
11/02/2021 18:00:00Z	 SAID32 WIPP 111800	METAR WIPP 111800Z 36003KT 9999 FEW010 25/24 Q1009 NOSIG=
11/02/2021 19:00:00Z	 SAID32 WIPP 111900	METAR WIPP 111900Z 36004KT 9999 FEW010 25/24 Q1008 NOSIG=
11/02/2021 20:00:00Z	 SAID32 WIPP 112000	METAR WIPP 112000Z 01004KT 8000 FEW010 25/24 Q1008 NOSIG=
11/02/2021 21:00:00Z	 SAID32 WIPP 112100	METAR WIPP 112100Z 30003KT 8000 FEW010 25/24 Q1008 NOSIG=
11/02/2021 22:00:00Z	 SAID32 WIPP 112200	METAR WIPP 112200Z 31004KT 5000 BR FEW010 24/24 Q1009=
11/02/2021 22:30:00Z	 SAID32 WIPP 112230	METAR WIPP 112230Z 29002KT 3000 BR FEW010 24/24 Q1009=
11/02/2021 23:00:00Z	 SAID32 WIPP 112300	METAR WIPP 112300Z 310004KT 1200 BR FEW010 24/24 Q1009=
11/02/2021 23:00:00Z	 SAID32 WIPP 112300 CCA	METAR WIPP 112300Z 31004KT 1200 BR FEW010 24/24 Q1009=
11/02/2021 23:30:00Z	 SAID32 WIPP 112330	METAR WIPP 112330Z 30004KT 1200 BR FEW010 24/24 Q1010=
12/02/2021 00:00:00Z	 SAID32 WIPP 120000	METAR WIPP 120000Z 28004KT 2000 BR FEW010 25/24 Q1011=
12/02/2021 00:30:00Z	 SAID32 WIPP 120030	METAR WIPP 120030Z 33004KT 4000 BR FEW010 25/24 Q1011=
12/02/2021 01:00:00Z	 SAID32 WIPP 120100	METAR WIPP 120100Z 32005KT 4000 BR SCT010 25/24 Q1011=
12/02/2021 01:30:00Z	 SAID32 WIPP 120130	METAR WIPP 120130Z 00000KT 6000 BKN010 FEW012CB 26/25 Q1012 RMK CB TO SW=
12/02/2021 02:00:00Z	 SAID32 WIPP 120200	METAR WIPP 120200Z 00000KT 6000 BKN010 FEW012CB 26/25 Q1012 RMK CB TO SW=
12/02/2021 02:30:00Z	 SAID32 WIPP 120230	METAR WIPP 120230Z 34008KT 8000 BKN010 FEW012CB 27/25 Q1012 RMK CB TO SW=
12/02/2021 03:00:00Z	 SAID32 WIPP 120300	METAR WIPP 120300Z 02005KT 9999 BKN010 FEW012CB 27/25 Q1012 RMK CB TO S=
12/02/2021 03:30:00Z	 SAID32 WIPP 120330	METAR WIPP 120330Z 35008KT 9999 BKN010 FEW012CB 29/25 Q1011 RMK CB TO SE=
12/02/2021 04:00:00Z	 SAID32 WIPP 120400	METAR WIPP 120400Z 35010KT 9999 BKN010 FEW012CB 30/25 Q1011 RMK CB TO SE=
12/02/2021 04:30:00Z	 SAID32 WIPP 120430	METAR WIPP 120430Z 32008KT 9999 BKN010 FEW012CB 30/25 Q1011 RMK CB TO SE=
12/02/2021 05:00:00Z	 SAID32 WIPP 120500	METAR WIPP 120500Z 27012KT 9999 BKN010 FEW012CB 29/25 Q1011 RMK CB TO SE=
12/02/2021 05:30:00Z	 SAID32 WIPP 120530	METAR WIPP 120530Z AUTO 30009KT 280V340 9999NDV ////// 31/30 Q1010=
12/02/2021 06:00:00Z	 SAID32 WIPP 120600	METAR WIPP 120600Z 05012KT 9999 BKN010 FEW012CB 29/25 Q1010 RMK CB TO E AND W=
12/02/2021 06:30:00Z	 SAID32 WIPP 120630	METAR WIPP 120630Z 02008KT 9999 BKN010 FEW012CB 29/25 Q1009 RMK CB TO E AND W=
12/02/2021 07:00:00Z	 SAID32 WIPP 120700	METAR WIPP 120700Z 07005KT 6000 -RA BKN010 FEW012CB 29/25 Q1009 RMK CB TO E AND W=
12/02/2021 07:30:00Z	 SAID32 WIPP 120730	METAR WIPP 120730Z 22012KT 4000 RA BKN010 FEW012CB 26/25 Q1009 RMK CB TO E AND W=
12/02/2021 08:00:00Z	 SAID32 WIPP 120800	METAR WIPP 120800Z 27010KT 2000 TSRA BKN008 FEW010CB 25/25 Q1009 RMK CB OVER THE FIELD=
12/02/2021 08:30:00Z	 SAID32 WIPP 120830	METAR WIPP 120830Z 30020KT 0700 +TSRA BKN008 FEW010CB 25/25 Q1009 RMK CB OVER THE FIELD=
12/02/2021 09:00:00Z	 SAID32 WIPP 120900	METAR WIPP 120900Z 30015KT 0900 +TSRA BKN008 FEW010CB 23/23 Q1009 RMK CB OVER THE FIELD=
12/02/2021 09:30:00Z	 SAID32 WIPP 120930	METAR WIPP 120930Z 35008KT 5000 TSRA BKN008 FEW010CB 23/22 Q1009 RMK CB TO E AND SE=
12/02/2021 10:00:00Z	 SAID32 WIPP 121000	METAR WIPP 121000Z 35008KT 5000 TSRA BKN008 FEW010CB 23/22 Q1009 RMK CB TO NE AND SE=
12/02/2021 10:30:00Z	 SAID32 WIPP 121030	METAR WIPP 121030Z 35005KT 6000 -RA FEW010CB BKN010 23/22 Q1010 RMK CB TO NE=
12/02/2021 11:00:00Z	 SAID32 WIPP 121100	METAR WIPP 121100Z 00000KT 6000 -RA FEW010CB BKN010 23/23 Q1010 RMK CB TO NW=
12/02/2021 11:30:00Z	 SAID32 WIPP 121130	METAR WIPP 121130Z 00000KT 5000 RA FEW010CB BKN010 23/23 Q1010 RMK CB TO W=
12/02/2021 12:00:00Z	 SAID32 WIPP 121200	METAR WIPP 121200Z 31005KT 5000 -RA FEW010CB BKN010 24/23 Q1010 RMK CB TO NW=
12/02/2021 12:30:00Z	 SAID32 WIPP 121230	METAR WIPP 121230Z 31005KT 6000 -RA BKN010 24/23 Q1010=
12/02/2021 13:00:00Z	 SAID32 WIPP 121300	METAR WIPP 121300Z 31006KT 5000 -RA BKN010 FEW010CB 24/23 Q1010 RMK CB TO NW=
12/02/2021 14:00:00Z	 SAID32 WIPP 121400	METAR WIPP 121400Z 02002KT 7000 -RA BKN010 24/23 Q1012=
12/02/2021 15:00:00Z	 SAID32 WIPP 121500	METAR WIPP 121500Z 02002KT 9999 SCT010 24/23 Q1012=
12/02/2021 16:00:00Z	 SAID32 WIPP 121600	METAR WIPP 121600Z 14002KT 9999 FEW010 24/24 Q1012=
12/02/2021 17:00:00Z	 SAID32 WIPP 121700	METAR WIPP 121700Z 11002KT 9999 FEW010 24/24 Q1012=
12/02/2021 19:00:00Z	 SAID32 WIPP 121900	METAR WIPP 121900Z AUTO 17003KT 5000NDV -RA ////// 23/24 Q1011=
12/02/2021 19:30:00Z	 SAID32 WIPP 121930	METAR WIPP 121930Z AUTO 00000KT 4200NDV BR ////// 24/24 Q1010=
12/02/2021 20:00:00Z	 SAID32 WIPP 122000	METAR WIPP 122000Z AUTO 22002KT 2700NDV BR ////// 23/23 Q1010=
12/02/2021 20:30:00Z	 SAID32 WIPP 122030	METAR WIPP 122030Z AUTO 23002KT 0400NDV R11/1000N R29/P2000N FG ////// 23/23 Q1010=
12/02/2021 21:00:00Z	 SAID32 WIPP 122100	METAR WIPP 122100Z AUTO 00000KT 0550NDV R11/0500U R29/1400N FG ////// 23/23 Q1010=
12/02/2021 21:30:00Z	 SAID32 WIPP 122130	METAR WIPP 122130Z AUTO 00000KT 1400NDV R11/0800N R29/P2000N BR ////// 23/23 Q1010=
12/02/2021 22:00:00Z	 SAID32 WIPP 122200	METAR WIPP 122200Z AUTO 00000KT 0250NDV R11/0700D R29/P2000N FG ////// 23/23 Q1010=
12/02/2021 22:30:00Z	 SAID32 WIPP 122230	METAR WIPP 122230Z 00000KT 0500 R29/1500 FG FEW010 24/23 Q1011=
12/02/2021 23:00:00Z	 SAID32 WIPP 122300	METAR WIPP 122300Z 00000KT 0400 FG FEW010 24/23 Q1011=
12/02/2021 23:30:00Z	 SAID32 WIPP 122330	METAR WIPP 122330Z 00000KT 0400 R29/0800 FG FEW010 24/23 Q1011=
13/02/2021 00:00:00Z	 SAID32 WIPP 130000	METAR WIPP 130000Z 21002KT 0500 R29/1000 FG FEW010 24/23 Q1011=
13/02/2021 00:30:00Z	 SAID32 WIPP 130030	METAR WIPP 130030Z 23002KT 0500 FG FEW010 25/24 Q1012=
13/02/2021 01:00:00Z	 SAID32 WIPP 130100	METAR WIPP 130100Z 29004KT 1000 BR FEW010 25/25 Q1012=
13/02/2021 01:30:00Z	 SAID32 WIPP 130130	METAR WIPP 130130Z 30005KT 4000 BR FEW010 26/25 Q1013=
13/02/2021 02:00:00Z	 SAID32 WIPP 130200	METAR WIPP 130200Z 31006KT 8000 SCT010 26/25 Q1013=
13/02/2021 02:30:00Z	 SAID32 WIPP 130230	METAR WIPP 130230Z 35005KT 9999 BKN010 27/25 Q1013 NOSIG=
13/02/2021 03:00:00Z	 SAID32 WIPP 130300	METAR WIPP 130300Z 32005KT 9999 BKN010 28/25 Q1012 NOSIG=
13/02/2021 03:30:00Z	 SAID32 WIPP 130330	METAR WIPP 130330Z 03004KT 9999 BKN010 29/25 Q1012 NOSIG=
13/02/2021 04:00:00Z	 SAID32 WIPP 130400	METAR WIPP 130400Z 34004KT 9999 BKN010 30/25 Q1012 NOSIG=
13/02/2021 04:30:00Z	 SAID32 WIPP 130430	METAR WIPP 130430Z 01004KT 9999 BKN010 30/25 Q1012 NOSIG=
13/02/2021 05:00:00Z	 SAID32 WIPP 130500	METAR WIPP 130500Z 01006KT 8000 -RA BKN010 30/25 Q1012=
13/02/2021 05:30:00Z	 SAID32 WIPP 130530	METAR WIPP 130530Z 32003KT 9999 BKN010 28/25 Q1011 RERA=
13/02/2021 06:00:00Z	 SAID32 WIPP 130600	METAR WIPP 130600Z 02003KT 9999 SCT010 FEW012CB 29/25 Q1010 RMK CB TO SE=
13/02/2021 06:30:00Z	 SAID32 WIPP 130630	METAR WIPP 130630Z 02007KT 9999 SCT010 FEW012CB 29/25 Q1010 RMK CB TO NW AND SE=
13/02/2021 07:00:00Z	 SAID32 WIPP 130700	METAR WIPP 130700Z 32004KT 9999 SCT010 FEW012CB 30/25 Q1009 RMK CB TO NW AND SE=
13/02/2021 07:30:00Z	 SAID32 WIPP 130730	METAR WIPP 130730Z 36010KT 9999 SCT010 FEW012CB 29/25 Q1009 RMK CB TO NE AND SE=
13/02/2021 08:00:00Z	 SAID32 WIPP 130800	METAR WIPP 130800Z 36009KT 9999 SCT010 FEW012CB 29/24 Q1009 RMK CB TO SE=
13/02/2021 08:30:00Z	 SAID32 WIPP 130830	METAR WIPP 130830Z 03004KT 9999 SCT010 FEW012CB 29/24 Q1009 RMK CB TO S AND SE=
13/02/2021 09:00:00Z	 SAID32 WIPP 130900	METAR WIPP 130900Z 03005KT 9999 TS SCT010 FEW012CB 29/24 Q1009 RMK CB TO W=
13/02/2021 09:30:00Z	 SAID32 WIPP 130930	METAR WIPP 130930Z 05005KT 9999 TS SCT010 FEW012CB 29/24 Q1009 RMK CB TO W=
13/02/2021 10:00:00Z	 SAID32 WIPP 131000	METAR WIPP 131000Z 04005KT 9999 SCT010 FEW012CB 29/25 Q1009 RMK CB TO NW=
13/02/2021 10:30:00Z	 SAID32 WIPP 131030	METAR WIPP 131030Z 03006KT 9999 SCT010 FEW012CB 28/24 Q1009 RMK CB TO NW=
13/02/2021 11:00:00Z	 SAID32 WIPP 131100	METAR WIPP 131100Z 01007KT 9999 SCT010 FEW012CB 28/24 Q1009 RMK CB TO N=
13/02/2021 11:30:00Z	 SAID32 WIPP 131130	METAR WIPP 131130Z 36004KT 9999 SCT010 27/24 Q1010 NOSIG=
13/02/2021 12:00:00Z	 SAID32 WIPP 131200	METAR WIPP 131200Z 35005KT 9999 FEW010 27/24 Q1010 NOSIG=
13/02/2021 12:30:00Z	 SAID32 WIPP 131230	METAR WIPP 131230Z 36004KT 9999 FEW010 26/24 Q1010 NOSIG=
13/02/2021 13:00:00Z	 SAID32 WIPP 131300	METAR WIPP 131300Z 00000KT 8000 FEW010 26/24 Q1011 NOSIG=
13/02/2021 13:30:00Z	 SAID32 WIPP 131330	METAR WIPP 131330Z 00000KT 8000 FEW010 26/24 Q1011 NOSIG=
13/02/2021 14:00:00Z	 SAID32 WIPP 131400	METAR WIPP 131400Z 00000KT 8000 FEW010 26/24 Q1012 NOSIG=
13/02/2021 14:30:00Z	 SAID32 WIPP 131430	METAR WIPP 131430Z 35003KT 8000 FEW010 26/24 Q1012 NOSIG=
13/02/2021 15:00:00Z	 SAID32 WIPP 131500	METAR WIPP 131500Z 00000KT 7000 FEW010 26/24 Q1012 NOSIG=
13/02/2021 15:30:00Z	 SAID32 WIPP 131530	METAR WIPP 131530Z 00000KT 7000 FEW010 26/24 Q1012 NOSIG=
13/02/2021 16:00:00Z	 SAID32 WIPP 131600	METAR WIPP 131600Z 05003KT 5000 HZ FEW010 26/25 Q1012=
13/02/2021 16:30:00Z	 SAID32 WIPP 131630	METAR WIPP 131630Z AUTO 03002KT 5000NDV ////// 25/25 Q1012=
13/02/2021 17:00:00Z	 SAID32 WIPP 131700	METAR WIPP 131700Z AUTO 00000KT 7000NDV ////// 25/25 Q1012=
13/02/2021 17:30:00Z	 SAID32 WIPP 131730	METAR WIPP 131730Z AUTO 00000KT 5000NDV ////// 25/25 Q1012=
13/02/2021 18:00:00Z	 SAID32 WIPP 131800	METAR WIPP 131800Z 00000KT 6000 FEW010 25/24 Q1012 NOSIG=
13/02/2021 18:30:00Z	 SAID32 WIPP 131830	METAR WIPP 131830Z AUTO VRB02KT 6000NDV ////// 24/24 Q1011=
13/02/2021 19:00:00Z	 SAID32 WIPP 131900	METAR WIPP 131900Z AUTO 36003KT 4600NDV BR ////// 25/25 Q1011=
13/02/2021 19:30:00Z	 SAID32 WIPP 131930	METAR WIPP 131930Z AUTO VRB02KT 6000NDV ////// 25/25 Q1011=
13/02/2021 20:00:00Z	 SAID32 WIPP 132000	METAR WIPP 132000Z AUTO 36002KT 5000NDV ////// 24/24 Q1010=
13/02/2021 20:30:00Z	 SAID32 WIPP 132030	METAR WIPP 132030Z AUTO 35005KT 5000NDV ////// 24/24 Q1010=
13/02/2021 21:00:00Z	 SAID32 WIPP 132100	METAR WIPP 132100Z 03005KT 5000 BR FEW010 25/24 Q1011=
13/02/2021 21:30:00Z	 SAID32 WIPP 132130	METAR WIPP 132130Z AUTO 35003KT 6000NDV ////// 24/24 Q1011=
13/02/2021 22:00:00Z	 SAID32 WIPP 132200	METAR WIPP 132200Z AUTO 36002KT 8000NDV ////// 24/24 Q1011=
13/02/2021 22:30:00Z	 SAID32 WIPP 132230	METAR WIPP 132230Z AUTO 01003KT 4300NDV BR ////// 24/24 Q1011=
13/02/2021 23:00:00Z	 SAID32 WIPP 132300	METAR WIPP 132300Z 02003KT 4000 BR FEW010 24/24 Q1011=
13/02/2021 23:30:00Z	 SAID32 WIPP 132330	METAR WIPP 132330Z 02003KT 4000 BR FEW012 24/24 Q1011=
14/02/2021 00:00:00Z	 SAID32 WIPP 140000	METAR WIPP 140000Z 03003KT 5000 BR FEW100 25/24 Q1011=
14/02/2021 00:30:00Z	 SAID32 WIPP 140030	METAR WIPP 140030Z 35003KT 6000 FEW100 25/24 Q1012 NOSIG=
14/02/2021 01:00:00Z	 SAID32 WIPP 140100	METAR WIPP 140100Z 35006KT 9999 FEW010 26/24 Q1012 NOSIG=
14/02/2021 01:30:00Z	 SAID32 WIPP 140130	METAR WIPP 140130Z 02007KT 9999 FEW010 27/24 Q1013 NOSIG=
14/02/2021 02:00:00Z	 SAID32 WIPP 140200	METAR WIPP 140200Z 36009KT 9999 FEW010 27/24 Q1013 NOSIG=
14/02/2021 02:30:00Z	 SAID32 WIPP 140230	METAR WIPP 140230Z 02009KT 9999 SCT010 28/24 Q1013 NOSIG=
14/02/2021 03:00:00Z	 SAID32 WIPP 140300	METAR WIPP 140300Z 36009KT 9999 SCT010 29/25 Q1013 NOSIG=
14/02/2021 03:30:00Z	 SAID32 WIPP 140330	METAR WIPP 140330Z 35011KT 9999 SCT010 30/24 Q1013 NOSIG=
14/02/2021 04:00:00Z	 SAID32 WIPP 140400	METAR WIPP 140400Z 03009KT 9999 BKN010 30/25 Q1012 NOSIG=
14/02/2021 04:30:00Z	 SAID32 WIPP 140430	METAR WIPP 140430Z 01010KT 9999 BKN010 29/24 Q1012 NOSIG=
14/02/2021 05:00:00Z	 SAID32 WIPP 140500	METAR WIPP 140500Z 02010KT 9999 BKN010 30/24 Q1012 NOSIG=
14/02/2021 05:30:00Z	 SAID32 WIPP 140530	METAR WIPP 140530Z 36009KT 9999 BKN010 31/24 Q1011 NOSIG=
14/02/2021 06:00:00Z	 SAID32 WIPP 140600	METAR WIPP 140600Z 02010KT 9999 BKN010 31/24 Q1010 NOSIG=
14/02/2021 06:30:00Z	 SAID32 WIPP 140630	METAR WIPP 140630Z 03010KT 9999 BKN010 31/25 Q1010 NOSIG=
14/02/2021 07:00:00Z	 SAID32 WIPP 140700	METAR WIPP 140700Z 02011KT 9999 BKN010 30/24 Q1009 NOSIG=
14/02/2021 07:30:00Z	 SAID32 WIPP 140730	METAR WIPP 140730Z 02013KT 9999 FEW010CB BKN010 30/24 Q1009 RMK CB TO W=
14/02/2021 08:00:00Z	 SAID32 WIPP 140800	METAR WIPP 140800Z 02014KT 8000 -RA BKN010 FEW011CB 30/24 Q1009 RMK CB TO W=
14/02/2021 08:30:00Z	 SAID32 WIPP 140830	METAR WIPP 140830Z 02010KT 9999 SCT010 FEW011CB 31/24 Q1008 RMK CB TO W=
14/02/2021 09:00:00Z	 SAID32 WIPP 140900	METAR WIPP 140900Z 01011KT 9999 SCT010 30/24 Q1008 NOSIG=
14/02/2021 09:30:00Z	 SAID32 WIPP 140930	METAR WIPP 140930Z 01012KT 8000 -RA SCT010 FEW010CB 29/25 Q1008 RMK CB TO W=
14/02/2021 10:00:00Z	 SAID32 WIPP 141000	METAR WIPP 141000Z 01011KT 9999 SCT010 29/24 Q1008 RERA=
14/02/2021 10:30:00Z	 SAID32 WIPP 141030	METAR WIPP 141030Z 36008KT 9999 SCT010 28/24 Q1009 NOSIG=
14/02/2021 11:00:00Z	 SAID32 WIPP 141100	METAR WIPP 141100Z 03010KT 9999 FEW010 28/24 Q1009 NOSIG=
14/02/2021 11:30:00Z	 SAID32 WIPP 141130	METAR WIPP 141130Z 03006KT 9999 FEW010 28/24 Q1010 NOSIG=
14/02/2021 12:00:00Z	 SAID32 WIPP 141200	METAR WIPP 141200Z 01007KT 9999 FEW010 27/24 Q1010 NOSIG=
14/02/2021 12:30:00Z	 SAID32 WIPP 141230	METAR WIPP 141230Z 03005KT 9999 FEW010 27/24 Q1010 NOSIG=
14/02/2021 13:00:00Z	 SAID32 WIPP 141300	METAR WIPP 141300Z 02004KT 9999 FEW010 27/24 Q1011 NOSIG=
14/02/2021 13:30:00Z	 SAID32 WIPP 141330	METAR WIPP 141330Z 00000KT 9999 FEW010 27/24 Q1011 NOSIG=
14/02/2021 14:00:00Z	 SAID32 WIPP 141400	METAR WIPP 141400Z 00000KT 9999 FEW010 27/24 Q1011 NOSIG=
14/02/2021 14:30:00Z	 SAID32 WIPP 141430	METAR WIPP 141430Z 00000KT 9999 FEW010 26/24 Q1012 NOSIG=
14/02/2021 15:00:00Z	 SAID32 WIPP 141500	METAR WIPP 141500Z 00000KT 9999 FEW010 26/24 Q1012 NOSIG=
14/02/2021 15:30:00Z	 SAID32 WIPP 141530	METAR WIPP 141530Z 00000KT 9999 FEW010 26/24 Q1012 NOSIG=
14/02/2021 16:00:00Z	 SAID32 WIPP 141600	METAR WIPP 141600Z 36004KT 9999 FEW010 26/24 Q1012 NOSIG=
14/02/2021 16:30:00Z	 SAID32 WIPP 141630	METAR WIPP 141630Z AUTO VRB02KT 9999NDV NCD 26/26 Q1012=
14/02/2021 17:00:00Z	 SAID32 WIPP 141700	METAR WIPP 141700Z AUTO 03002KT 9999NDV NCD 26/26 Q1011=
14/02/2021 17:30:00Z	 SAID32 WIPP 141730	METAR WIPP 141730Z 00000KT 9999 FEW010 26/24 Q1011 NOSIG=
14/02/2021 18:00:00Z	 SAID32 WIPP 141800	METAR WIPP 141800Z 00000KT 8000 FEW010 26/24 Q1011 NOSIG=
14/02/2021 18:30:00Z	 SAID32 WIPP 141830	METAR WIPP 141830Z 02003KT 7000 FEW010 26/24 Q1010 NOSIG=
14/02/2021 19:00:00Z	 SAID32 WIPP 141900	METAR WIPP 141900Z 00000KT 8000 FEW010 26/24 Q1010 NOSIG=
14/02/2021 19:30:00Z	 SAID32 WIPP 141930	METAR WIPP 141930Z 00000KT 8000 FEW010 26/24 Q1010 NOSIG=
14/02/2021 20:00:00Z	 SAID32 WIPP 142000	METAR WIPP 142000Z 00000KT 8000 FEW010 26/24 Q1009 NOSIG=
14/02/2021 20:30:00Z	 SAID32 WIPP 142030	METAR WIPP 142030Z AUTO VRB02KT 8000NDV NCD 25/25 Q1010=
14/02/2021 21:00:00Z	 SAID32 WIPP 142100	METAR WIPP 142100Z AUTO 33004KT 4800NDV BR NCD 25/25 Q1010=
14/02/2021 21:30:00Z	 SAID32 WIPP 142130	METAR WIPP 142130Z AUTO 35003KT 320V030 8000NDV NCD 25/25 Q1009=
14/02/2021 22:00:00Z	 SAID32 WIPP 142200	METAR WIPP 142200Z AUTO 27003KT 4500NDV BR NCD 25/25 Q1010=
14/02/2021 22:30:00Z	 SAID32 WIPP 142230	METAR WIPP 142230Z 00000KT 5000 HZ SCT010 25/24 Q1010=
14/02/2021 23:00:00Z	 SAID32 WIPP 142300	METAR WIPP 142300Z 32004KT 6000 FEW010 25/24 Q1010=
14/02/2021 23:30:00Z	 SAID32 WIPP 142330	METAR WIPP 142330Z 33003KT 5000 HZ SCT010 25/24 Q1011=
15/02/2021 00:00:00Z	 SAID32 WIPP 150000	METAR WIPP 150000Z 00000KT 6000 FEW010 25/24 Q1011 NOSIG=
15/02/2021 00:30:00Z	 SAID32 WIPP 150030	METAR WIPP 150030Z 36003KT 9999 SCT010 25/24 Q1011 NOSIG=
15/02/2021 01:00:00Z	 SAID32 WIPP 150100	METAR WIPP 150100Z 04002KT 9999 SCT010 26/24 Q1011 NOSIG=
15/02/2021 01:30:00Z	 SAID32 WIPP 150130	METAR WIPP 150130Z 14004KT 9999 FEW010 27/24 Q1012 NOSIG=
15/02/2021 02:00:00Z	 SAID32 WIPP 150200	METAR WIPP 150200Z 07009KT 9999 BKN010 28/24 Q1012 NOSIG=
15/02/2021 02:30:00Z	 SAID32 WIPP 150230	METAR WIPP 150230Z 11008KT 9999 BKN010 28/24 Q1011 NOSIG=
15/02/2021 03:00:00Z	 SAID32 WIPP 150300	METAR WIPP 150300Z 12006KT 9999 BKN010 29/24 Q1011 NOSIG=
15/02/2021 03:30:00Z	 SAID32 WIPP 150330	METAR WIPP 150330Z 10005KT 9999 BKN010 29/23 Q1011 NOSIG=
15/02/2021 04:00:00Z	 SAID32 WIPP 150400	METAR WIPP 150400Z 20004KT 9999 BKN010 30/24 Q1011 NOSIG=
15/02/2021 04:30:00Z	 SAID32 WIPP 150430	METAR WIPP 150430Z 14008KT 9999 BKN010 30/24 Q1011 NOSIG=
15/02/2021 05:00:00Z	 SAID32 WIPP 150500	METAR WIPP 150500Z 10005KT 9999 BKN010 30/24 Q1010 NOSIG=
15/02/2021 05:30:00Z	 SAID32 WIPP 150530	METAR WIPP 150530Z 12007KT 9999 BKN010 30/23 Q1010 NOSIG=
15/02/2021 06:00:00Z	 SAID32 WIPP 150600	METAR WIPP 150600Z 13006KT 9999 BKN010 30/23 Q1009 NOSIG=
15/02/2021 06:30:00Z	 SAID32 WIPP 150630	METAR WIPP 150630Z 07005KT 9999 BKN010 30/24 Q1009 NOSIG=
15/02/2021 07:00:00Z	 SAID32 WIPP 150700	METAR WIPP 150700Z 07006KT 9999 BKN010 31/24 Q1008 NOSIG=
15/02/2021 07:30:00Z	 SAID32 WIPP 150730	METAR WIPP 150730Z 10004KT 9999 SCT010 30/24 Q1008 NOSIG=
15/02/2021 08:00:00Z	 SAID32 WIPP 150800	METAR WIPP 150800Z 06010KT 9999 BKN010 30/24 Q1007 NOSIG=
15/02/2021 08:30:00Z	 SAID32 WIPP 150830	METAR WIPP 150830Z 07008KT 9999 BKN010 30/24 Q1007 NOSIG=
15/02/2021 09:00:00Z	 SAID32 WIPP 150900	METAR WIPP 150900Z 08009KT 9999 SCT010 30/24 Q1007 NOSIG=
15/02/2021 09:30:00Z	 SAID32 WIPP 150930	METAR WIPP 150930Z 09006KT 9999 SCT010 30/24 Q1007 NOSIG=
15/02/2021 10:00:00Z	 SAID32 WIPP 151000	METAR WIPP 151000Z 18006KT 9999 SCT010 29/24 Q1007 NOSIG=
15/02/2021 10:30:00Z	 SAID32 WIPP 151030	METAR WIPP 151030Z 10009KT 9999 FEW010 29/23 Q1007 NOSIG=
15/02/2021 11:00:00Z	 SAID32 WIPP 151100	METAR WIPP 151100Z 10004KT 9999 FEW010 28/23 Q1008 NOSIG=
15/02/2021 11:30:00Z	 SAID32 WIPP 151130	METAR WIPP 151130Z 09001KT 9999 FEW010 28/24 Q1008 NOSIG=
15/02/2021 12:00:00Z	 SAID32 WIPP 151200	METAR WIPP 151200Z 14001KT 9999 FEW010 27/24 Q1009 NOSIG=
15/02/2021 12:30:00Z	 SAID32 WIPP 151230	METAR WIPP 151230Z 03003KT 9999 FEW010 27/24 Q1009 NOSIG=
15/02/2021 13:00:00Z	 SAID32 WIPP 151300	METAR WIPP 151300Z 01004KT 9999 FEW010 26/23 Q1010 NOSIG=
15/02/2021 14:00:00Z	 SAID32 WIPP 151400	METAR WIPP 151400Z 03004KT 9999 FEW010 26/23 Q1010 NOSIG=
15/02/2021 15:00:00Z	 SAID32 WIPP 151500	METAR WIPP 151500Z 04004KT 9999 FEW010 26/24 Q1011 NOSIG=
15/02/2021 16:00:00Z	 SAID32 WIPP 151600	METAR WIPP 151600Z 03002KT 9999 FEW010 25/24 Q1011 NOSIG=
15/02/2021 17:00:00Z	 SAID32 WIPP 151700	METAR WIPP 151700Z 03002KT 9999 FEW010 25/24 Q1010 NOSIG=
15/02/2021 18:00:00Z	 SAID32 WIPP 151800	METAR WIPP 151800Z 00000KT 9999 FEW010 25/23 Q1010 NOSIG=
15/02/2021 19:00:00Z	 SAID32 WIPP 151900	METAR WIPP 151900Z 00000KT 9999 FEW010 25/23 Q1010 NOSIG=
15/02/2021 20:00:00Z	 SAID32 WIPP 152000	METAR WIPP 152000Z 02002KT 8000 FEW010 25/23 Q1009 NOSIG=
15/02/2021 21:00:00Z	 SAID32 WIPP 152100	METAR WIPP 152100Z 32003KT 8000 FEW010 24/23 Q1008 NOSIG=
15/02/2021 22:00:00Z	 SAID32 WIPP 152200	METAR WIPP 152200Z 32004KT 6000 FEW010 24/23 Q1008 NOSIG=
15/02/2021 22:30:00Z	 SAID32 WIPP 152230	METAR WIPP 152230Z 35004KT 6000 FEW010 24/23 Q1008 NOSIG=
15/02/2021 23:00:00Z	 SAID32 WIPP 152300	METAR WIPP 152300Z 35003KT 6000 FEW010 24/23 Q1009 NOSIG=
15/02/2021 23:30:00Z	 SAID32 WIPP 152330	METAR WIPP 152330Z 35003KT 6000 FEW010 24/23 Q1009 NOSIG=
16/02/2021 00:00:00Z	 SAID32 WIPP 160000	METAR WIPP 160000Z 31002KT 8000 FEW010 24/23 Q1010 NOSIG=
16/02/2021 00:30:00Z	 SAID32 WIPP 160030	METAR WIPP 160030Z 00000KT 8000 FEW010 24/23 Q1010 NOSIG=
16/02/2021 01:00:00Z	 SAID32 WIPP 160100	METAR WIPP 160100Z 36003KT 8000 SCT010 25/23 Q1011 NOSIG=
16/02/2021 01:30:00Z	 SAID32 WIPP 160130	METAR WIPP 160130Z 35005KT 9999 SCT010 26/24 Q1011 NOSIG=
16/02/2021 02:00:00Z	 SAID32 WIPP 160200	METAR WIPP 160200Z 36009KT 9999 FEW010 27/24 Q1011 NOSIG=
16/02/2021 02:30:00Z	 SAID32 WIPP 160230	METAR WIPP 160230Z 01008KT 9999 FEW010 28/23 Q1011 NOSIG=
16/02/2021 03:00:00Z	 SAID32 WIPP 160300	METAR WIPP 160300Z 35009KT 9999 FEW010 29/23 Q1011 NOSIG=
16/02/2021 03:30:00Z	 SAID32 WIPP 160330	METAR WIPP 160330Z 34009KT 9999 SCT010 29/22 Q1011 NOSIG=
16/02/2021 04:00:00Z	 SAID32 WIPP 160400	METAR WIPP 160400Z 36010KT 9999 BKN010 30/23 Q1011 NOSIG=
16/02/2021 04:30:00Z	 SAID32 WIPP 160430	METAR WIPP 160430Z 33011KT 9999 BKN010 30/23 Q1010 NOSIG=
16/02/2021 05:00:00Z	 SAID32 WIPP 160500	METAR WIPP 160500Z 36009KT 9999 BKN010 30/23 Q1010 NOSIG=
16/02/2021 05:30:00Z	 SAID32 WIPP 160530	METAR WIPP 160530Z 36008KT 9999 BKN010 30/23 Q1010 NOSIG=
16/02/2021 06:00:00Z	 SAID32 WIPP 160600	METAR WIPP 160600Z 01009KT 9999 BKN010 30/23 Q1009 NOSIG=
16/02/2021 06:30:00Z	 SAID32 WIPP 160630	METAR WIPP 160630Z 35009KT 9999 BKN010 30/23 Q1009 NOSIG=
16/02/2021 07:00:00Z	 SAID32 WIPP 160700	METAR WIPP 160700Z 01007KT 9999 BKN010 28/24 Q1009 NOSIG=
16/02/2021 07:30:00Z	 SAID32 WIPP 160730	METAR WIPP 160730Z 36010KT 9999 BKN010 29/23 Q1008 NOSIG=
16/02/2021 08:00:00Z	 SAID32 WIPP 160800	METAR WIPP 160800Z 34008KT 9999 SCT010 30/24 Q1008 NOSIG=
16/02/2021 08:30:00Z	 SAID32 WIPP 160830	METAR WIPP 160830Z 02009KT 9999 SCT010 30/23 Q1007 NOSIG=
16/02/2021 09:00:00Z	 SAID32 WIPP 160900	METAR WIPP 160900Z 36009KT 9999 SCT010 30/23 Q1007 NOSIG=
16/02/2021 09:30:00Z	 SAID32 WIPP 160930	METAR WIPP 160930Z 36007KT 9999 FEW010CB SCT010 29/23 Q1007 RMK CB TO W=
16/02/2021 10:00:00Z	 SAID32 WIPP 161000	METAR WIPP 161000Z 35007KT 9999 FEW010CB SCT010 29/23 Q1008 RMK CB TO W=
16/02/2021 10:30:00Z	 SAID32 WIPP 161030	METAR WIPP 161030Z 35007KT 9999 FEW010CB SCT010 29/23 Q1008 RMK CB TO W=
16/02/2021 11:00:00Z	 SAID32 WIPP 161100	METAR WIPP 161100Z 01004KT 9999 SCT010 28/23 Q1008=
16/02/2021 11:30:00Z	 SAID32 WIPP 161130	METAR WIPP 161130Z 03005KT 9999 SCT010 28/23 Q1009=
16/02/2021 12:00:00Z	 SAID32 WIPP 161200	METAR WIPP 161200Z 03004KT 9999 SCT010 27/23 Q1009=
16/02/2021 12:30:00Z	 SAID32 WIPP 161230	METAR WIPP 161230Z 02004KT 9999 SCT010 27/23 Q1010=
16/02/2021 13:00:00Z	 SAID32 WIPP 161300	METAR WIPP 161300Z 03002KT 9999 SCT010 27/23 Q1010=
16/02/2021 14:00:00Z	 SAID32 WIPP 161400	METAR WIPP 161400Z 10002KT 9999 SCT010 26/23 Q1010=
16/02/2021 15:00:00Z	 SAID32 WIPP 161500	METAR WIPP 161500Z 00000KT 8000 SCT010 26/23 Q1011=
16/02/2021 16:00:00Z	 SAID32 WIPP 161600	METAR WIPP 161600Z 31001KT 7000 FEW010 25/23 Q1010=
16/02/2021 17:00:00Z	 SAID32 WIPP 161700	METAR WIPP 161700Z 00000KT 7000 FEW010 25/23 Q1010=
16/02/2021 18:00:00Z	 SAID32 WIPP 161800	METAR WIPP 161800Z 00000KT 9999 FEW010 25/23 Q1010=
16/02/2021 19:00:00Z	 SAID32 WIPP 161900	METAR WIPP 161900Z 00000KT 9999 FEW010 25/23 Q1009=
16/02/2021 20:00:00Z	 SAID32 WIPP 162000	METAR WIPP 162000Z 31001KT 5000 HZ FEW010 25/23 Q1009=
16/02/2021 21:00:00Z	 SAID32 WIPP 162100	METAR WIPP 162100Z 31001KT 8000 FEW010 25/23 Q1010=
16/02/2021 22:00:00Z	 SAID32 WIPP 162200	METAR WIPP 162200Z 00000KT 6000 SCT010 25/23 Q1010=
16/02/2021 22:30:00Z	 SAID32 WIPP 162230	METAR WIPP 162230Z 00000KT 5000 HZ SCT010 25/23 Q1010=
16/02/2021 23:00:00Z	 SAID32 WIPP 162300	METAR WIPP 162300Z 00000KT 4000 HZ BKN010 25/24 Q1010=
16/02/2021 23:30:00Z	 SAID32 WIPP 162330	METAR WIPP 162330Z 00000KT 3000 HZ BKN010 25/23 Q1011=
17/02/2021 00:00:00Z	 SAID32 WIPP 170000	METAR WIPP 170000Z 00000KT 4000 HZ SCT010 25/24 Q1011=
17/02/2021 00:30:00Z	 SAID32 WIPP 170030	METAR WIPP 170030Z 00000KT 6000 FEW010 25/24 Q1011=
17/02/2021 01:00:00Z	 SAID32 WIPP 170100	METAR WIPP 170100Z 35003KT 8000 SCT010 26/24 Q1012 NOSIG=
17/02/2021 01:30:00Z	 SAID32 WIPP 170130	METAR WIPP 170130Z 03008KT 9999 SCT010 27/24 Q1012 NOSIG=
17/02/2021 02:00:00Z	 SAID32 WIPP 170200	METAR WIPP 170200Z 03008KT 9999 SCT010 28/24 Q1012 NOSIG=
17/02/2021 02:30:00Z	 SAID32 WIPP 170230	METAR WIPP 170230Z 01008KT 9999 BKN010 28/24 Q1012 NOSIG=
17/02/2021 03:00:00Z	 SAID32 WIPP 170300	METAR WIPP 170300Z 34008KT 9999 BKN010 29/24 Q1012 NOSIG=
17/02/2021 03:30:00Z	 SAID32 WIPP 170330	METAR WIPP 170330Z 35008KT 9999 BKN010 29/24 Q1012 NOSIG=
17/02/2021 04:00:00Z	 SAID32 WIPP 170400	METAR WIPP 170400Z 01010KT 9999 BKN010 30/24 Q1012 NOSIG=
17/02/2021 04:30:00Z	 SAID32 WIPP 170430	METAR WIPP 170430Z 03008KT 9999 BKN010 30/24 Q1011 NOSIG=
17/02/2021 05:00:00Z	 SAID32 WIPP 170500	METAR WIPP 170500Z 02008KT 9999 BKN010 30/24 Q1011 NOSIG=
17/02/2021 05:30:00Z	 SAID32 WIPP 170530	METAR WIPP 170530Z 32008KT 9999 BKN010 31/24 Q1010 NOSIG=
17/02/2021 06:00:00Z	 SAID32 WIPP 170600	METAR WIPP 170600Z 02008KT 9999 BKN010 31/24 Q1010 NOSIG=
17/02/2021 06:30:00Z	 SAID32 WIPP 170630	METAR WIPP 170630Z 06010KT 9999 BKN010 31/24 Q1010 NOSIG=
17/02/2021 07:00:00Z	 SAID32 WIPP 170700	METAR WIPP 170700Z 02010KT 9999 BKN010 31/24 Q1009 NOSIG=
17/02/2021 07:30:00Z	 SAID32 WIPP 170730	METAR WIPP 170730Z 05005KT 9999 BKN010 31/24 Q1009 NOSIG=
17/02/2021 08:00:00Z	 SAID32 WIPP 170800	METAR WIPP 170800Z 03008KT 9999 BKN010 31/24 Q1008 NOSIG=
17/02/2021 08:30:00Z	 SAID32 WIPP 170830	METAR WIPP 170830Z 05008KT 9999 SCT010 31/24 Q1008 NOSIG=
17/02/2021 09:00:00Z	 SAID32 WIPP 170900	METAR WIPP 170900Z 03010KT 9999 SCT010 30/24 Q1008 NOSIG=
17/02/2021 09:30:00Z	 SAID32 WIPP 170930	METAR WIPP 170930Z 02012KT 9999 SCT010 29/24 Q1008 NOSIG=
17/02/2021 10:00:00Z	 SAID32 WIPP 171000	METAR WIPP 171000Z 04008KT 9999 SCT010 FEW012CB 29/24 Q1008 RMK CB TO S=
17/02/2021 10:30:00Z	 SAID32 WIPP 171030	METAR WIPP 171030Z 03005KT 9999 SCT010 FEW012CB 29/24 Q1008 RMK CB TO S=
17/02/2021 11:00:00Z	 SAID32 WIPP 171100	METAR WIPP 171100Z 05010KT 9999 SCT010 FEW012CB 28/24 Q1009 RMK CB TO SE AND SW=
17/02/2021 11:30:00Z	 SAID32 WIPP 171130	METAR WIPP 171130Z 02010KT 9999 SCT010 FEW012CB 27/24 Q1009 RMK CB TO SE AND SW=
17/02/2021 12:00:00Z	 SAID32 WIPP 171200	METAR WIPP 171200Z 02008KT 9999 SCT010 FEW012CB 27/24 Q1009 RMK CB TO SW=
17/02/2021 12:30:00Z	 SAID32 WIPP 171230	METAR WIPP 171230Z 04005KT 9999 SCT010 27/23 Q1010 NOSIG=
17/02/2021 13:00:00Z	 SAID32 WIPP 171300	METAR WIPP 171300Z 03004KT 9999 SCT010 27/23 Q1010 NOSIG=
17/02/2021 14:00:00Z	 SAID32 WIPP 171400	METAR WIPP 171400Z 02003KT 9999 SCT010 26/23 Q1011 NOSIG=
17/02/2021 15:00:00Z	 SAID32 WIPP 171500	METAR WIPP 171500Z 03003KT 9999 SCT010 26/24 Q1011 NOSIG=
17/02/2021 16:00:00Z	 SAID32 WIPP 171600	METAR WIPP 171600Z 05003KT 9999 SCT010 26/23 Q1011 NOSIG=
17/02/2021 17:00:00Z	 SAID32 WIPP 171700	METAR WIPP 171700Z 08003KT 9999 FEW010CB SCT010 26/23 Q1011 RMK CB TO S=
17/02/2021 18:00:00Z	 SAID32 WIPP 171800	METAR WIPP 171800Z 01002KT 5000 -RA FEW010CB BKN010 25/24 Q1011 RMK CB TO N=
17/02/2021 19:00:00Z	 SAID32 WIPP 171900	METAR WIPP 171900Z 27003KT 4000 -RA FEW010CB BKN010 24/23 Q1011 RMK CB TO N=
17/02/2021 20:00:00Z	 SAID32 WIPP 172000	METAR WIPP 172000Z 34002KT 4000 -RA FEW010CB SCT010 24/23 Q1010 RMK CB TO N=
17/02/2021 21:00:00Z	 SAID32 WIPP 172100	METAR WIPP 172100Z 33002KT 5000 BR FEW010CB SCT010 23/23 Q1010 RMK CB TO N=
17/02/2021 22:00:00Z	 SAID32 WIPP 172200	METAR WIPP 172200Z 35004KT 9999 SCT010 23/22 Q1010=
17/02/2021 22:30:00Z	 SAID32 WIPP 172230	METAR WIPP 172230Z 34005KT 9999 SCT010 23/22 Q1011=
17/02/2021 23:00:00Z	 SAID32 WIPP 172300	METAR WIPP 172300Z 32006KT 4000 BR SCT010 23/22 Q1011=
17/02/2021 23:30:00Z	 SAID32 WIPP 172330	METAR WIPP 172330Z 34006KT 4000 BR SCT010 23/22 Q1011=
18/02/2021 00:00:00Z	 SAID32 WIPP 180000	METAR WIPP 180000Z 35006KT 5000 BR SCT010 23/22 Q1011=
18/02/2021 00:30:00Z	 SAID32 WIPP 180030	METAR WIPP 180030Z 33006KT 9999 SCT010 23/22 Q1012=
18/02/2021 01:00:00Z	 SAID32 WIPP 180100	METAR WIPP 180100Z 30004KT 9999 SCT010 23/22 Q1012 NOSIG=
18/02/2021 01:30:00Z	 SAID32 WIPP 180130	METAR WIPP 180130Z 31003KT 9999 SCT010 24/22 Q1013 NOSIG=
18/02/2021 02:00:00Z	 SAID32 WIPP 180200	METAR WIPP 180200Z 30003KT 8000 -RA SCT010 24/22 Q1013=
18/02/2021 02:30:00Z	 SAID32 WIPP 180230	METAR WIPP 180230Z 30005KT 4000 RA BKN010 24/22 Q1014=
18/02/2021 03:00:00Z	 SAID32 WIPP 180300	METAR WIPP 180300Z 32005KT 6000 -RA BKN010 24/22 Q1014=
18/02/2021 03:30:00Z	 SAID32 WIPP 180330	METAR WIPP 180330Z 34005KT 9999 BKN010 24/23 Q1013 RERA=
18/02/2021 04:00:00Z	 SAID32 WIPP 180400	METAR WIPP 180400Z 35005KT 9999 BKN010 25/23 Q1013 NOSIG=
18/02/2021 04:30:00Z	 SAID32 WIPP 180430	METAR WIPP 180430Z 03004KT 9999 BKN010 26/23 Q1013 NOSIG=
18/02/2021 05:00:00Z	 SAID32 WIPP 180500	METAR WIPP 180500Z 32007KT 9999 BKN010 27/23 Q1012 NOSIG=
18/02/2021 05:30:00Z	 SAID32 WIPP 180530	METAR WIPP 180530Z 02005KT 9999 BKN010 28/23 Q1012 NOSIG=
18/02/2021 06:00:00Z	 SAID32 WIPP 180600	METAR WIPP 180600Z 02005KT 9999 BKN010 FEW012CB 28/23 Q1011 RMK CB TO W=
18/02/2021 06:30:00Z	 SAID32 WIPP 180630	METAR WIPP 180630Z 33008KT 9999 BKN010 FEW012CB 29/24 Q1011 RMK CB TO NW=
18/02/2021 07:00:00Z	 SAID32 WIPP 180700	METAR WIPP 180700Z 35008KT 9999 BKN010 FEW012CB 27/24 Q1010 RMK CB TO NW=
18/02/2021 07:30:00Z	 SAID32 WIPP 180730	METAR WIPP 180730Z 32012KT 2000 BKN010 FEW012CB 25/24 Q1010 RMK CB OVER THE FIELD=
18/02/2021 08:00:00Z	 SAID32 WIPP 180800	METAR WIPP 180800Z 01007KT 8000 SCT008 FEW012CB 25/24 Q1010 RMK CB TO SE=
18/02/2021 08:30:00Z	 SAID32 WIPP 180830	METAR WIPP 180830Z 34010KT 7000 SCT008 FEW012CB 25/24 Q1010 RMK CB TO N=
18/02/2021 09:00:00Z	 SAID32 WIPP 180900	METAR WIPP 180900Z 32008KT 3000 RA SCT008 FEW012CB 24/23 Q1010 RMK CB TO N=
18/02/2021 09:30:00Z	 SAID32 WIPP 180930	METAR WIPP 180930Z 34007KT 5000 -RA SCT008 FEW012CB 24/23 Q1010 RMK CB TO N=
18/02/2021 10:00:00Z	 SAID32 WIPP 181000	METAR WIPP 181000Z 35008KT 8000 BKN008 24/23 Q1010 RERA=
18/02/2021 10:30:00Z	 SAID32 WIPP 181030	METAR WIPP 181030Z 34005KT 9999 BKN008 24/23 Q1010 NOSIG=
18/02/2021 11:00:00Z	 SAID32 WIPP 181100	METAR WIPP 181100Z 33007KT 9999 SCT010 24/22 Q1010 NOSIG=
18/02/2021 11:30:00Z	 SAID32 WIPP 181130	METAR WIPP 181130Z 35006KT 8000 SCT010 23/22 Q1011 NOSIG=
18/02/2021 12:00:00Z	 SAID32 WIPP 181200	METAR WIPP 181200Z 33004KT 9999 SCT010 23/22 Q1011 NOSIG=
18/02/2021 12:30:00Z	 SAID32 WIPP 181230	METAR WIPP 181230Z 33006KT 8000 SCT010 23/22 Q1011 NOSIG=
18/02/2021 13:00:00Z	 SAID32 WIPP 181300	METAR WIPP 181300Z 00000KT 8000 SCT010 23/22 Q1012 NOSIG=
18/02/2021 13:30:00Z	 SAID32 WIPP 181330	METAR WIPP 181330Z 35003KT 6000 SCT010 23/22 Q1012 NOSIG=
18/02/2021 14:00:00Z	 SAID32 WIPP 181400	METAR WIPP 181400Z 32005KT 8000 SCT010 23/22 Q1013 NOSIG=
18/02/2021 14:30:00Z	 SAID32 WIPP 181430	METAR WIPP 181430Z 32005KT 8000 SCT010 23/22 Q1013 NOSIG=
18/02/2021 15:00:00Z	 SAID32 WIPP 181500	METAR WIPP 181500Z 32003KT 6000 SCT010 23/22 Q1013 NOSIG=
18/02/2021 15:30:00Z	 SAID32 WIPP 181530	METAR WIPP 181530Z 30005KT 5000 BR SCT010 23/22 Q1013=
18/02/2021 16:00:00Z	 SAID32 WIPP 181600	METAR WIPP 181600Z 32003KT 5000 BR SCT010 23/23 Q1012=
18/02/2021 16:30:00Z	 SAID32 WIPP 181630	METAR WIPP 181630Z AUTO 29004KT 3500NDV BR NCD 23/23 Q1012=
18/02/2021 17:00:00Z	 SAID32 WIPP 181700	METAR WIPP 181700Z 28005KT 5000 BR SCT010 23/22 Q1012=
18/02/2021 18:00:00Z	 SAID32 WIPP 181800	METAR WIPP 181800Z 28008KT 5000 BR SCT010 23/22 Q1011=
18/02/2021 18:30:00Z	 SAID32 WIPP 181830	METAR WIPP 181830Z AUTO 29004KT 3000NDV BR NCD 23/23 Q1011=
18/02/2021 20:00:00Z	 SAID32 WIPP 182000	METAR WIPP 182000Z AUTO 28003KT 5000NDV NCD 23/23 Q1010=
18/02/2021 21:00:00Z	 SAID32 WIPP 182100	METAR WIPP 182100Z 29005KT 4000 BR SCT010 23/22 Q1010=
18/02/2021 22:00:00Z	 SAID32 WIPP 182200	METAR WIPP 182200Z 29005KT 3000 BR SCT010 23/22 Q1011=
18/02/2021 22:30:00Z	 SAID32 WIPP 182230	METAR WIPP 182230Z 29005KT 3000 BR SCT010 23/22 Q1011=
18/02/2021 23:00:00Z	 SAID32 WIPP 182300	METAR WIPP 182300Z 29005KT 2000 BR SCT010 23/22 Q1011=
18/02/2021 23:30:00Z	 SAID32 WIPP 182330	METAR WIPP 182330Z 30005KT 2000 BR SCT010 23/22 Q1011=
19/02/2021 00:00:00Z	 SAID32 WIPP 190000	METAR WIPP 190000Z 31005KT 3000 BR SCT010 23/22 Q1012=
19/02/2021 00:30:00Z	 SAID32 WIPP 190030	METAR WIPP 190030Z 30008KT 4000 BR SCT010 24/23 Q1012=
19/02/2021 01:00:00Z	 SAID32 WIPP 190100	METAR WIPP 190100Z 29006KT 9999 FEW010 24/23 Q1012 NOSIG=
19/02/2021 01:30:00Z	 SAID32 WIPP 190130	METAR WIPP 190130Z 30007KT 9999 FEW010 26/23 Q1013 NOSIG=
19/02/2021 02:00:00Z	 SAID32 WIPP 190200	METAR WIPP 190200Z 31009KT 9999 FEW010 27/22 Q1013 NOSIG=
19/02/2021 02:30:00Z	 SAID32 WIPP 190230	METAR WIPP 190230Z 32013KT 9999 FEW010 27/22 Q1013 NOSIG=
19/02/2021 03:00:00Z	 SAID32 WIPP 190300	METAR WIPP 190300Z 32010KT 9999 FEW010 28/22 Q1013 NOSIG=
19/02/2021 03:30:00Z	 SAID32 WIPP 190330	METAR WIPP 190330Z 33009KT 9999 SCT010 28/23 Q1013 NOSIG=
19/02/2021 04:00:00Z	 SAID32 WIPP 190400	METAR WIPP 190400Z 32009KT 9999 SCT010 29/22 Q1013 NOSIG=
19/02/2021 04:30:00Z	 SAID32 WIPP 190430	METAR WIPP 190430Z 34009KT 9999 SCT010 29/22 Q1012 NOSIG=
19/02/2021 05:00:00Z	 SAID32 WIPP 190500	METAR WIPP 190500Z 33010KT 9999 SCT010 30/22 Q1012 NOSIG=
19/02/2021 05:30:00Z	 SAID32 WIPP 190530	METAR WIPP 190530Z 33012KT 9999 BKN010 30/22 Q1012 NOSIG=
19/02/2021 06:00:00Z	 SAID32 WIPP 190600	METAR WIPP 190600Z 33009KT 9999 BKN010 30/22 Q1011 NOSIG=
19/02/2021 06:30:00Z	 SAID32 WIPP 190630	METAR WIPP 190630Z 01009KT 9999 BKN010 FEW011CB 28/23 Q1010 RERA RMK CB TO N=
19/02/2021 07:00:00Z	 SAID32 WIPP 190700	METAR WIPP 190700Z 36010KT 9999 SCT010 29/23 Q1010 NOSIG=
19/02/2021 07:30:00Z	 SAID32 WIPP 190730	METAR WIPP 190730Z 35011KT 9999 SCT010 30/22 Q1009 NOSIG=
19/02/2021 08:00:00Z	 SAID32 WIPP 190800	METAR WIPP 190800Z 35012KT 9999 BKN010 30/22 Q1009 NOSIG=
19/02/2021 08:30:00Z	 SAID32 WIPP 190830	METAR WIPP 190830Z 30012KT 9999 BKN010 28/23 Q1009 NOSIG=
19/02/2021 09:00:00Z	 SAID32 WIPP 190900	METAR WIPP 190900Z 32010KT 9999 SCT010 28/22 Q1009 NOSIG=
19/02/2021 09:30:00Z	 SAID32 WIPP 190930	METAR WIPP 190930Z 35008KT 9999 SCT010 29/22 Q1009 NOSIG=
19/02/2021 10:00:00Z	 SAID32 WIPP 191000	METAR WIPP 191000Z 33009KT 9999 FEW010 29/23 Q1009 NOSIG=
19/02/2021 10:30:00Z	 SAID32 WIPP 191030	METAR WIPP 191030Z 31006KT 9999 FEW010 29/23 Q1009 NOSIG=
19/02/2021 11:00:00Z	 SAID32 WIPP 191100	METAR WIPP 191100Z 33006KT 9999 FEW010 28/23 Q1009 NOSIG=
19/02/2021 11:30:00Z	 SAID32 WIPP 191130	METAR WIPP 191130Z 01006KT 9999 SCT010 28/23 Q1009 NOSIG=
19/02/2021 12:00:00Z	 SAID32 WIPP 191200	METAR WIPP 191200Z 36005KT 9999 SCT010 28/23 Q1010 NOSIG=
19/02/2021 12:30:00Z	 SAID32 WIPP 191230	METAR WIPP 191230Z 36005KT 9999 FEW010 27/23 Q1010 NOSIG=
19/02/2021 13:00:00Z	 SAID32 WIPP 191300	METAR WIPP 191300Z 36006KT 9999 SCT010 26/23 Q1011 NOSIG=
19/02/2021 13:30:00Z	 SAID32 WIPP 191330	METAR WIPP 191330Z 01003KT 9999 SCT010 26/23 Q1011 NOSIG=
19/02/2021 14:00:00Z	 SAID32 WIPP 191400	METAR WIPP 191400Z 01005KT 9999 FEW010 26/23 Q1012 NOSIG=
19/02/2021 14:30:00Z	 SAID32 WIPP 191430	METAR WIPP 191430Z 35004KT 9999 FEW010 26/23 Q1012 NOSIG=
19/02/2021 15:00:00Z	 SAID32 WIPP 191500	METAR WIPP 191500Z 36003KT 9999 FEW010 26/24 Q1012 NOSIG=
19/02/2021 15:30:00Z	 SAID32 WIPP 191530	METAR WIPP 191530Z 36004KT 9999 FEW010 25/23 Q1012 NOSIG=
19/02/2021 16:00:00Z	 SAID32 WIPP 191600	METAR WIPP 191600Z 01004KT 9999 FEW010 25/23 Q1012 NOSIG=
19/02/2021 16:30:00Z	 SAID32 WIPP 191630	METAR WIPP 191630Z 00000KT 9999 FEW010 25/23 Q1012 NOSIG=
19/02/2021 17:00:00Z	 SAID32 WIPP 191700	METAR WIPP 191700Z 00000KT 8000 FEW010 25/23 Q1012 NOSIG=
19/02/2021 17:30:00Z	 SAID32 WIPP 191730	METAR WIPP 191730Z 29003KT 6000 FEW010 25/23 Q1012 NOSIG=
19/02/2021 18:00:00Z	 SAID32 WIPP 191800	METAR WIPP 191800Z 30003KT 5000 HZ FEW010 24/23 Q1011=
19/02/2021 18:30:00Z	 SAID32 WIPP 191830	METAR WIPP 191830Z 32004KT 6000 FEW010 24/23 Q1011=
19/02/2021 19:00:00Z	 SAID32 WIPP 191900	METAR WIPP 191900Z 00000KT 8000 FEW010 24/23 Q1010=
19/02/2021 19:30:00Z	 SAID32 WIPP 191930	METAR WIPP 191930Z 00000KT 8000 FEW010 24/23 Q1010 NOSIG=
19/02/2021 20:00:00Z	 SAID32 WIPP 192000	METAR WIPP 192000Z 00000KT 7000 FEW010 24/23 Q1010 NOSIG=
19/02/2021 20:30:00Z	 SAID32 WIPP 192030	METAR WIPP 192030Z 31003KT 5000 HZ FEW010 24/23 Q1010=
19/02/2021 21:00:00Z	 SAID32 WIPP 192100	METAR WIPP 192100Z 34003KT 5000 HZ FEW010 24/23 Q1010=
19/02/2021 21:30:00Z	 SAID32 WIPP 192130	METAR WIPP 192130Z 30004KT 5000 HZ FEW010 24/23 Q1010=
19/02/2021 22:00:00Z	 SAID32 WIPP 192200	METAR WIPP 192200Z 29003KT 3000 BR FEW010 23/23 Q1010=
19/02/2021 22:30:00Z	 SAID32 WIPP 192230	METAR WIPP 192230Z 30003KT 3000 BR SCT010 23/23 Q1011=
19/02/2021 23:00:00Z	 SAID32 WIPP 192300	METAR WIPP 192300Z 30003KT 3000 BR FEW010 23/23 Q1011=
19/02/2021 23:30:00Z	 SAID32 WIPP 192330	METAR WIPP 192330Z 31005KT 4000 HZ FEW010 24/23 Q1011=
20/02/2021 00:00:00Z	 SAID32 WIPP 200000	METAR WIPP 200000Z 31007KT 5000 HZ FEW010 24/23 Q1012=
20/02/2021 00:30:00Z	 SAID32 WIPP 200030	METAR WIPP 200030Z 31006KT 7000 FEW010 24/23 Q1012 NOSIG=
20/02/2021 01:00:00Z	 SAID32 WIPP 200100	METAR WIPP 200100Z 30003KT 9999 FEW010 24/23 Q1012 NOSIG=
20/02/2021 01:30:00Z	 SAID32 WIPP 200130	METAR WIPP 200130Z 32006KT 9999 FEW010 27/23 Q1013 NOSIG=
20/02/2021 02:00:00Z	 SAID32 WIPP 200200	METAR WIPP 200200Z 31008KT 9999 SCT010 27/24 Q1013 NOSIG=
20/02/2021 02:30:00Z	 SAID32 WIPP 200230	METAR WIPP 200230Z 27006KT 9999 SCT010 28/23 Q1013 NOSIG=
20/02/2021 03:00:00Z	 SAID32 WIPP 200300	METAR WIPP 200300Z 30007KT 9999 BKN010 28/23 Q1013 NOSIG=
20/02/2021 03:30:00Z	 SAID32 WIPP 200330	METAR WIPP 200330Z 23009KT 9999 BKN010 29/23 Q1012 NOSIG=
20/02/2021 04:00:00Z	 SAID32 WIPP 200400	METAR WIPP 200400Z 31009KT 9999 FEW010CB SCT010 29/23 Q1012 RMK CB TO NW=
20/02/2021 04:30:00Z	 SAID32 WIPP 200430	METAR WIPP 200430Z 25007KT 9999 FEW010CB SCT010 29/23 Q1011 RMK CB TO NW=
20/02/2021 05:00:00Z	 SAID32 WIPP 200500	METAR WIPP 200500Z 05008KT 9999 FEW010CB BKN010 26/23 Q1011 RMK CB TO NE=
20/02/2021 05:30:00Z	 SAID32 WIPP 200530	METAR WIPP 200530Z 06008KT 9999 FEW010CB BKN010 26/23 Q1011 RMK CB TO NE=
20/02/2021 06:00:00Z	 SAID32 WIPP 200600	METAR WIPP 200600Z 13009KT 9999 SCT010 26/23 Q1010 NOSIG=
20/02/2021 06:30:00Z	 SAID32 WIPP 200630	METAR WIPP 200630Z 12002KT 9999 SCT010 26/23 Q1010 NOSIG=
20/02/2021 07:00:00Z	 SAID32 WIPP 200700	METAR WIPP 200700Z 13003KT 9999 SCT010 26/23 Q1009 NOSIG=
20/02/2021 07:30:00Z	 SAID32 WIPP 200730	METAR WIPP 200730Z 32012KT 9999 SCT010 28/23 Q1009 NOSIG=
20/02/2021 08:00:00Z	 SAID32 WIPP 200800	METAR WIPP 200800Z 29004KT 9999 SCT010 FEW010CB 27/23 Q1009 RMK CB TO NW=
20/02/2021 08:30:00Z	 SAID32 WIPP 200830	METAR WIPP 200830Z 18007KT 9999 SCT010 26/23 Q1008 NOSIG=
20/02/2021 09:00:00Z	 SAID32 WIPP 200900	METAR WIPP 200900Z 27005KT 9999 FEW010 25/22 Q1008 NOSIG=
20/02/2021 09:30:00Z	 SAID32 WIPP 200930	METAR WIPP 200930Z 22003KT 9999 FEW010 26/23 Q1009 NOSIG=
20/02/2021 10:00:00Z	 SAID32 WIPP 201000	METAR WIPP 201000Z 06002KT 9999 FEW010 27/23 Q1009 NOSIG=
20/02/2021 10:30:00Z	 SAID32 WIPP 201030	METAR WIPP 201030Z 05003KT 9999 FEW010 26/24 Q1009 NOSIG=
20/02/2021 11:00:00Z	 SAID32 WIPP 201100	METAR WIPP 201100Z 07002KT 9999 BKN100 26/24 Q1010 NOSIG=
20/02/2021 11:30:00Z	 SAID32 WIPP 201130	METAR WIPP 201130Z 00000KT 9999 BKN100 26/24 Q1010 NOSIG=
20/02/2021 12:00:00Z	 SAID32 WIPP 201200	METAR WIPP 201200Z 00000KT 9999 BKN100 26/24 Q1010 NOSIG=
20/02/2021 12:30:00Z	 SAID32 WIPP 201230	METAR WIPP 201230Z 00000KT 9999 FEW010 26/24 Q1011 NOSIG=
20/02/2021 13:00:00Z	 SAID32 WIPP 201300	METAR WIPP 201300Z 36005KT 9999 FEW010 26/24 Q1011 NOSIG=
20/02/2021 14:00:00Z	 SAID32 WIPP 201400	METAR WIPP 201400Z 35006KT 9999 FEW010 25/23 Q1012 NOSIG=
20/02/2021 15:00:00Z	 SAID32 WIPP 201500	METAR WIPP 201500Z 00000KT 9999 FEW010 25/23 Q1012 NOSIG=
20/02/2021 16:00:00Z	 SAID32 WIPP 201600	METAR WIPP 201600Z 32003KT 9999 FEW010 24/23 Q1012 NOSIG=
20/02/2021 17:00:00Z	 SAID32 WIPP 201700	METAR WIPP 201700Z 29002KT 5000 HZ FEW010 24/23 Q1012=
20/02/2021 18:00:00Z	 SAID32 WIPP 201800	METAR WIPP 201800Z 29002KT 5000 HZ FEW010 24/23 Q1011=
20/02/2021 19:00:00Z	 SAID32 WIPP 201900	METAR WIPP 201900Z 29005KT 2000 BR FEW010 24/23 Q1011=
20/02/2021 20:00:00Z	 SAID32 WIPP 202000	METAR WIPP 202000Z 33003KT 5000 HZ FEW010 24/23 Q1010=
20/02/2021 21:00:00Z	 SAID32 WIPP 202100	METAR WIPP 202100Z 31003KT 5000 HZ FEW010 24/23 Q1010=
20/02/2021 22:00:00Z	 SAID32 WIPP 202200	METAR WIPP 202200Z 30003KT 4000 HZ FEW010 24/23 Q1010=
20/02/2021 22:30:00Z	 SAID32 WIPP 202230	METAR WIPP 202230Z 25004KT 2000 BR FEW010 23/22 Q1011=
20/02/2021 23:00:00Z	 SAID32 WIPP 202300	METAR WIPP 202300Z 28003KT 1000 BR FEW010 23/22 Q1011=
20/02/2021 23:30:00Z	 SAID32 WIPP 202330	METAR WIPP 202330Z 26003KT 1000 BR FEW010 23/22 Q1011=
21/02/2021 00:00:00Z	 SAID32 WIPP 210000	METAR WIPP 210000Z 25002KT 1000 BR FEW010 23/23 Q1012=
21/02/2021 00:30:00Z	 SAID32 WIPP 210030	METAR WIPP 210030Z 29003KT 3000 BR FEW010 24/24 Q1012=
21/02/2021 01:00:00Z	 SAID32 WIPP 210100	METAR WIPP 210100Z 28003KT 6000 FEW010 25/24 Q1012 NOSIG=
21/02/2021 01:30:00Z	 SAID32 WIPP 210130	METAR WIPP 210130Z 31004KT 8000 FEW010 26/24 Q1013 NOSIG=
21/02/2021 02:00:00Z	 SAID32 WIPP 210200	METAR WIPP 210200Z 32006KT 9999 SCT010 27/24 Q1013 NOSIG=
21/02/2021 02:30:00Z	 SAID32 WIPP 210230	METAR WIPP 210230Z 32005KT 9999 SCT010 28/24 Q1013 NOSIG=
21/02/2021 03:00:00Z	 SAID32 WIPP 210300	METAR WIPP 210300Z 35006KT 9999 BKN010 29/24 Q1013 NOSIG=
21/02/2021 03:30:00Z	 SAID32 WIPP 210330	METAR WIPP 210330Z 32007KT 9999 BKN010 28/24 Q1012 NOSIG=
21/02/2021 04:00:00Z	 SAID32 WIPP 210400	METAR WIPP 210400Z 34004KT 9999 BKN010 29/24 Q1012 NOSIG=
21/02/2021 04:30:00Z	 SAID32 WIPP 210430	METAR WIPP 210430Z 31007KT 9999 BKN010 29/24 Q1012 NOSIG=
21/02/2021 05:00:00Z	 SAID32 WIPP 210500	METAR WIPP 210500Z 34006KT 9999 FEW010CB BKN010 29/24 Q1011 RMK CB TO N=
21/02/2021 05:30:00Z	 SAID32 WIPP 210530	METAR WIPP 210530Z 36011KT 9999 FEW010CB BKN010 29/23 Q1011 RMK CB TO SE=
21/02/2021 06:00:00Z	 SAID32 WIPP 210600	METAR WIPP 210600Z 35007KT 9999 FEW010CB BKN010 29/24 Q1010 RMK CB TO SE=
21/02/2021 06:30:00Z	 SAID32 WIPP 210630	METAR WIPP 210630Z 35009KT 5000 -RA FEW010CB BKN010 28/23 Q1010 RMK CB OVER THE FIELD=
21/02/2021 07:00:00Z	 SAID32 WIPP 210700	METAR WIPP 210700Z 04005KT 9999 FEW010CB BKN010 28/24 Q1009 RMK CB TO N AND SE=
21/02/2021 07:30:00Z	 SAID32 WIPP 210730	METAR WIPP 210730Z 02011KT 400 -RA FEW010CB BKN010 27/25 Q1009 RMK CB OVER THE FIELD=
21/02/2021 08:00:00Z	 SAID32 WIPP 210800	METAR WIPP 210800Z 01006KT 8000 -RA FEW010CB SCT010 28/24 Q1008 RMK CB TO SW=
21/02/2021 08:30:00Z	 SAID32 WIPP 210830	METAR WIPP 210830Z 36002KT 9999 FEW010CB SCT010 28/23 Q1008 RMK CB TO W=
21/02/2021 09:00:00Z	 SAID32 WIPP 210900	METAR WIPP 210900Z 36005KT 9999 FEW010CB FEW010 28/25 Q1008 RMK CB TO W=
21/02/2021 09:30:00Z	 SAID32 WIPP 210930	METAR WIPP 210930Z 02011KT 9999 FEW010CB FEW010 29/24 Q1008 RMK CB TO W=
21/02/2021 10:00:00Z	 SAID32 WIPP 211000	METAR WIPP 211000Z 02012KT 9999 FEW010CB SCT010 29/24 Q1008 RMK CB TO W=
21/02/2021 10:30:00Z	 SAID32 WIPP 211030	METAR WIPP 211030Z 02009KT 9999 FEW010CB SCT010 29/24 Q1008 RMK CB TO W=
21/02/2021 11:00:00Z	 SAID32 WIPP 211100	METAR WIPP 211100Z 02008KT 9999 FEW010CB SCT010 29/24 Q1009 RMK CB TO W=
21/02/2021 11:30:00Z	 SAID32 WIPP 211130	METAR WIPP 211130Z 02006KT 9999 FEW010CB FEW010 28/24 Q1009 RMK CB TO SW=
21/02/2021 12:00:00Z	 SAID32 WIPP 211200	METAR WIPP 211200Z 01004KT 9999 FEW010 27/24 Q1010=
21/02/2021 12:30:00Z	 SAID32 WIPP 211230	METAR WIPP 211230Z 03005KT 9999 FEW010 27/24 Q1010=
21/02/2021 13:00:00Z	 SAID32 WIPP 211300	METAR WIPP 211300Z 03003KT 9999 FEW010 26/23 Q1010=
21/02/2021 14:00:00Z	 SAID32 WIPP 211400	METAR WIPP 211400Z 00000KT 9999 FEW010 26/24 Q1011=
21/02/2021 15:00:00Z	 SAID32 WIPP 211500	METAR WIPP 211500Z 00000KT 7000 FEW010 25/23 Q1011=
21/02/2021 16:00:00Z	 SAID32 WIPP 211600	METAR WIPP 211600Z 00000KT 8000 FEW010 25/23 Q1011=
21/02/2021 17:00:00Z	 SAID32 WIPP 211700	METAR WIPP 211700Z 00000KT 5000 HZ FEW010 25/23 Q1011=
21/02/2021 18:00:00Z	 SAID32 WIPP 211800	METAR WIPP 211800Z 00000KT 3000 HZ FEW010 24/23 Q1011=
21/02/2021 19:00:00Z	 SAID32 WIPP 211900	METAR WIPP 211900Z 00000KT 4000 HZ FEW010 24/23 Q1010=
21/02/2021 20:00:00Z	 SAID32 WIPP 212000	METAR WIPP 212000Z 00000KT 2000 BR FEW010 24/23 Q1010=
21/02/2021 21:00:00Z	 SAID32 WIPP 212100	METAR WIPP 212100Z 00000KT 2000 BR SCT010 24/23 Q1010=
21/02/2021 22:00:00Z	 SAID32 WIPP 212200	METAR WIPP 212200Z 00000KT 3000 HZ SCT010 24/23 Q1010=
21/02/2021 22:30:00Z	 SAID32 WIPP 212230	METAR WIPP 212230Z 00000KT 3000 HZ FEW010 24/23 Q1010=
21/02/2021 23:00:00Z	 SAID32 WIPP 212300	METAR WIPP 212300Z 00000KT 3000 HZ FEW010 24/23 Q1011=
21/02/2021 23:30:00Z	 SAID32 WIPP 212330	METAR WIPP 212330Z 32003KT 5000 HZ FEW010 24/23 Q1011=
22/02/2021 00:00:00Z	 SAID32 WIPP 220000	METAR WIPP 220000Z 34003KT 6000 FEW010 24/23 Q1011=
22/02/2021 00:30:00Z	 SAID32 WIPP 220030	METAR WIPP 220030Z 22003KT 9999 FEW010 25/24 Q1011=
22/02/2021 01:00:00Z	 SAID32 WIPP 220100	METAR WIPP 220100Z 05003KT 9999 FEW012 26/24 Q1012 NOSIG=
22/02/2021 01:30:00Z	 SAID32 WIPP 220130	METAR WIPP 220130Z 03005KT 9999 SCT010 27/25 Q1012 NOSIG=
22/02/2021 02:00:00Z	 SAID32 WIPP 220200	METAR WIPP 220200Z 01005KT 9999 BKN010 28/24 Q1012 NOSIG=
22/02/2021 02:30:00Z	 SAID32 WIPP 220230	METAR WIPP 220230Z 35008KT 9999 BKN010 28/24 Q1012 NOSIG=
22/02/2021 03:00:00Z	 SAID32 WIPP 220300	METAR WIPP 220300Z 32008KT 9999 BKN010 28/24 Q1012 NOSIG=
22/02/2021 03:30:00Z	 SAID32 WIPP 220330	METAR WIPP 220330Z 02008KT 9999 BKN010 29/24 Q1011 NOSIG=
22/02/2021 04:00:00Z	 SAID32 WIPP 220400	METAR WIPP 220400Z 34008KT 9999 BKN010 30/25 Q1011 NOSIG=
22/02/2021 04:30:00Z	 SAID32 WIPP 220430	METAR WIPP 220430Z 01005KT 9999 BKN010 30/24 Q1011 NOSIG=
22/02/2021 05:00:00Z	 SAID32 WIPP 220500	METAR WIPP 220500Z 34005KT 9999 BKN010 30/24 Q1010 NOSIG=
22/02/2021 05:30:00Z	 SAID32 WIPP 220530	METAR WIPP 220530Z 33008KT 9999 BKN010 31/24 Q1010 NOSIG=
22/02/2021 06:00:00Z	 SAID32 WIPP 220600	METAR WIPP 220600Z 35008KT 9999 BKN010 32/23 Q1009 NOSIG=
22/02/2021 06:30:00Z	 SAID32 WIPP 220630	METAR WIPP 220630Z 31010KT 9999 BKN010 32/23 Q1008 NOSIG=
22/02/2021 07:00:00Z	 SAID32 WIPP 220700	METAR WIPP 220700Z 31008KT 9999 BKN010 31/23 Q1008 NOSIG=
22/02/2021 07:30:00Z	 SAID32 WIPP 220730	METAR WIPP 220730Z 35008KT 9999 BKN010 31/23 Q1008 NOSIG=
22/02/2021 08:00:00Z	 SAID32 WIPP 220800	METAR WIPP 220800Z 34010KT 9999 BKN010 32/24 Q1007 NOSIG=
22/02/2021 08:30:00Z	 SAID32 WIPP 220830	METAR WIPP 220830Z 02008KT 9999 BKN010 31/24 Q1007 NOSIG=
22/02/2021 09:00:00Z	 SAID32 WIPP 220900	METAR WIPP 220900Z 01010KT 9999 BKN010 32/24 Q1007 NOSIG=
22/02/2021 09:30:00Z	 SAID32 WIPP 220930	METAR WIPP 220930Z 35010KT 9999 BKN010 31/24 Q1007 NOSIG=
22/02/2021 10:00:00Z	 SAID32 WIPP 221000	METAR WIPP 221000Z 05008KT 9999 SCT010 31/24 Q1008 NOSIG=
22/02/2021 10:30:00Z	 SAID32 WIPP 221030	METAR WIPP 221030Z 01008KT 9999 SCT010 30/24 Q1008 NOSIG=
22/02/2021 11:00:00Z	 SAID32 WIPP 221100	METAR WIPP 221100Z 04005KT 9999 SCT010 29/24 Q1008 NOSIG=
22/02/2021 11:30:00Z	 SAID32 WIPP 221130	METAR WIPP 221130Z 03005KT 9999 SCT010 28/24 Q1009 NOSIG=
22/02/2021 12:00:00Z	 SAID32 WIPP 221200	METAR WIPP 221200Z 01008KT 9999 SCT010 28/24 Q1009 NOSIG=
22/02/2021 12:30:00Z	 SAID32 WIPP 221230	METAR WIPP 221230Z 35008KT 9999 SCT010 27/24 Q1010 NOSIG=
22/02/2021 13:00:00Z	 SAID32 WIPP 221300	METAR WIPP 221300Z 02005KT 9999 SCT010 27/24 Q1010 NOSIG=
22/02/2021 13:30:00Z	 SAID32 WIPP 221330	METAR WIPP 221330Z 02004KT 9999 FEW010 26/24 Q1011 NOSIG=
22/02/2021 14:00:00Z	 SAID32 WIPP 221400	METAR WIPP 221400Z 02004KT 9999 FEW010 26/24 Q1011 NOSIG=
22/02/2021 15:00:00Z	 SAID32 WIPP 221500	METAR WIPP 221500Z 36003KT 9999 FEW010 26/24 Q1011 NOSIG=
22/02/2021 16:00:00Z	 SAID32 WIPP 221600	METAR WIPP 221600Z 02003KT 9999 FEW010 25/24 Q1011 NOSIG=
22/02/2021 17:00:00Z	 SAID32 WIPP 221700	METAR WIPP 221700Z 00000KT 8000 FEW010 25/24 Q1010 NOSIG=
22/02/2021 18:00:00Z	 SAID32 WIPP 221800	METAR WIPP 221800Z 35002KT 9999 FEW010 25/24 Q1010 NOSIG=
22/02/2021 19:00:00Z	 SAID32 WIPP 221900	METAR WIPP 221900Z 33006KT 9999 FEW010 25/24 Q1009 NOSIG=
22/02/2021 20:00:00Z	 SAID32 WIPP 222000	METAR WIPP 222000Z 01004KT 9999 FEW010 25/24 Q1009 NOSIG=
22/02/2021 21:00:00Z	 SAID32 WIPP 222100	METAR WIPP 222100Z 26004KT 6000 SCT010 24/23 Q1008 NOSIG=
22/02/2021 22:00:00Z	 SAID32 WIPP 222200	METAR WIPP 222200Z 28003KT 5000 HZ SCT010 24/23 Q1009=
22/02/2021 22:30:00Z	 SAID32 WIPP 222230	METAR WIPP 222230Z 28004KT 4000 BR FEW010 24/23 Q1009=
22/02/2021 23:00:00Z	 SAID32 WIPP 222300	METAR WIPP 222300Z 27002KT 2000 BR FEW010 24/23 Q1009=
22/02/2021 23:30:00Z	 SAID32 WIPP 222330	METAR WIPP 222330Z 27002KT 2000 BR FEW010 25/24 Q1009=
23/02/2021 00:00:00Z	 SAID32 WIPP 230000	METAR WIPP 230000Z 24002KT 2000 BR SCT010 25/24 Q1010=
23/02/2021 00:30:00Z	 SAID32 WIPP 230030	METAR WIPP 230030Z 28002KT 3000 HZ SCT010 25/24 Q1010=
23/02/2021 01:00:00Z	 SAID32 WIPP 230100	METAR WIPP 230100Z 31005KT 4000 HZ SCT010 26/24 Q1011=
23/02/2021 01:30:00Z	 SAID32 WIPP 230130	METAR WIPP 230130Z 32005KT 8000 SCT010 26/24 Q1011 NOSIG=
23/02/2021 02:00:00Z	 SAID32 WIPP 230200	METAR WIPP 230200Z 32006KT 9999 SCT010 27/24 Q1011 NOSIG=
23/02/2021 02:30:00Z	 SAID32 WIPP 230230	METAR WIPP 230230Z 34006KT 9999 SCT010 27/24 Q1011 NOSIG=
23/02/2021 03:00:00Z	 SAID32 WIPP 230300	METAR WIPP 230300Z 34010KT 9999 SCT010 28/24 Q1011 NOSIG=
23/02/2021 03:30:00Z	 SAID32 WIPP 230330	METAR WIPP 230330Z 35009KT 9999 SCT010 29/24 Q1011 NOSIG=
23/02/2021 04:00:00Z	 SAID32 WIPP 230400	METAR WIPP 230400Z 34005KT 9999 BKN010 29/23 Q1010 NOSIG=
23/02/2021 04:30:00Z	 SAID32 WIPP 230430	METAR WIPP 230430Z 34006KT 9999 BKN010 29/24 Q1010 NOSIG=
23/02/2021 05:00:00Z	 SAID32 WIPP 230500	METAR WIPP 230500Z 35010KT 9999 BKN010 29/24 Q1009 NOSIG=
23/02/2021 05:30:00Z	 SAID32 WIPP 230530	METAR WIPP 230530Z 33007KT 9999 BKN010 FEW012CB 30/24 Q1009 RMK CB TO NE=
23/02/2021 06:00:00Z	 SAID32 WIPP 230600	METAR WIPP 230600Z 30006KT 9999 BKN010 FEW012CB 30/24 Q1009 RMK CB TO NE=
23/02/2021 06:30:00Z	 SAID32 WIPP 230630	METAR WIPP 230630Z 32012KT 9999 SCT010 FEW012CB 30/24 Q1008 RMK CB TO NE=
23/02/2021 07:00:00Z	 SAID32 WIPP 230700	METAR WIPP 230700Z 31005KT 9999 SCT010 FEW012CB 30/24 Q1008 RMK CB TO NE=
23/02/2021 07:30:00Z	 SAID32 WIPP 230730	METAR WIPP 230730Z 32008KT 9999 SCT010 FEW012CB 31/24 Q1007 RMK CB TO NE AND SE=
23/02/2021 08:00:00Z	 SAID32 WIPP 230800	METAR WIPP 230800Z 29008KT 9999 SCT010 FEW012CB 32/24 Q1007 RMK CB TO SE=
23/02/2021 08:30:00Z	 SAID32 WIPP 230830	METAR WIPP 230830Z 03009KT 9999 SCT010 FEW012CB 30/24 Q1006 RMK CB TO NE=
23/02/2021 09:00:00Z	 SAID32 WIPP 230900	METAR WIPP 230900Z 05007KT 9999 SCT010 FEW012CB 29/25 Q1006 RMK CB TO E=
23/02/2021 09:30:00Z	 SAID32 WIPP 230930	METAR WIPP 230930Z 36006KT 9999 SCT010 FEW012CB 30/25 Q1006 RMK CB TO E=
23/02/2021 10:00:00Z	 SAID32 WIPP 231000	METAR WIPP 231000Z 05007KT 9999 SCT010 FEW012CB 29/24 Q1006 RMK CB TO E=
23/02/2021 10:30:00Z	 SAID32 WIPP 231030	METAR WIPP 231030Z 05006KT 9999 SCT010 FEW012CB 29/25 Q1007 RMK CB TO E=
23/02/2021 11:00:00Z	 SAID32 WIPP 231100	METAR WIPP 231100Z 05007KT 9999 SCT010 FEW012CB 28/25 Q1007 RMK CB TO W AND S=
23/02/2021 11:30:00Z	 SAID32 WIPP 231130	METAR WIPP 231130Z 05008KT 9999 SCT010 FEW012CB 28/24 Q1007 RMK CB TO W AND S=
23/02/2021 12:00:00Z	 SAID32 WIPP 231200	METAR WIPP 231200Z 05006KT 9999 SCT010 FEW012CB 27/24 Q1008 RMK CB TO W AND S=
23/02/2021 12:30:00Z	 SAID32 WIPP 231230	METAR WIPP 231230Z 03007KT 9999 SCT010 FEW012CB 27/24 Q1008 RMK CB TO SE AND W=
23/02/2021 13:00:00Z	 SAID32 WIPP 231300	METAR WIPP 231300Z 02005KT 9999 SCT010 FEW012CB 27/24 Q1008 RMK CB TO SE AND SW=
23/02/2021 13:30:00Z	 SAID32 WIPP 231330	METAR WIPP 231330Z 01005KT 9999 VCTS SCT010 FEW012CB 27/24 Q1009 RMK CB TO SE AND SW=
23/02/2021 14:00:00Z	 SAID32 WIPP 231400	METAR WIPP 231400Z 05003KT 9999 VCTS SCT010 FEW012CB 26/24 Q1009 RMK CB TO SE AND SW=
23/02/2021 14:30:00Z	 SAID32 WIPP 231430	METAR WIPP 231430Z 26012G22KT 8000 -TSRA BKN010 FEW012CB 25/23 Q1011 RMK CB TO SE AND W=
23/02/2021 15:00:00Z	 SAID32 WIPP 231500	METAR WIPP 231500Z 26008KT 6000 -TSRA BKN010 FEW012CB 23/22 Q1011 RMK CB TO SE AND NW=
23/02/2021 15:30:00Z	 SAID32 WIPP 231530	METAR WIPP 231530Z 00000KT 8000 -RA BKN010 FEW012CB 23/22 Q1011 RMK CB TO N AND E=
23/02/2021 16:00:00Z	 SAID32 WIPP 231600	METAR WIPP 231600Z 10003KT 8000 VCTS BKN010 FEW012CB 23/22 Q1011 RERA=
23/02/2021 16:30:00Z	 SAID32 WIPP 231630	METAR WIPP 231630Z 20003KT 5000 RA BKN010 FEW012CB 24/23 Q1011 RMK CB TO E=
23/02/2021 17:00:00Z	 SAID32 WIPP 231700	METAR WIPP 231700Z 24005KT 4000 TSRA FEW010CB BKN010 23/23 Q1011 RMK CB TO NE AND W=
23/02/2021 18:00:00Z	 SAID32 WIPP 231800	METAR WIPP 231800Z 12005KT 8000 -RA BKN010 24/23 Q1010=
23/02/2021 19:00:00Z	 SAID32 WIPP 231900	METAR WIPP 231900Z 32003KT 8000 -RA BKN010 24/23 Q1009=
23/02/2021 20:00:00Z	 SAID32 WIPP 232000	METAR WIPP 232000Z 35003KT 8000 -RA BKN010 23/23 Q1009=
23/02/2021 21:00:00Z	 SAID32 WIPP 232100	METAR WIPP 232100Z 35003KT 9999 BKN010 23/22 Q1008 RERA=
23/02/2021 22:00:00Z	 SAID32 WIPP 232200	METAR WIPP 232200Z 32005KT 8000 SCT010 23/22 Q1009=
23/02/2021 22:30:00Z	 SAID32 WIPP 232230	METAR WIPP 232230Z 33003KT 6000 SCT010 23/22 Q1009=
23/02/2021 23:00:00Z	 SAID32 WIPP 232300	METAR WIPP 232300Z 32003KT 0900 FG SCT010 23/22 Q1008=
23/02/2021 23:30:00Z	 SAID32 WIPP 232330	METAR WIPP 232330Z 30003KT 0300 FG VV008 23/22 Q1009=
24/02/2021 00:00:00Z	 SAID32 WIPP 240000	METAR WIPP 240000Z 30003KT 0300 FG VV008 23/22 Q1009=
24/02/2021 00:30:00Z	 SAID32 WIPP 240030	METAR WIPP 240030Z 33003KT 0300 FG VV008 23/22 Q1009=
24/02/2021 01:00:00Z	 SAID32 WIPP 240100	METAR WIPP 240100Z 32005KT 5000 BR FEW010 23/23 Q1009=
24/02/2021 01:30:00Z	 SAID32 WIPP 240130	METAR WIPP 240130Z 36002KT 9999 SCT010 24/23 Q1010 NOSIG=
24/02/2021 02:00:00Z	 SAID32 WIPP 240200	METAR WIPP 240200Z 32003KT 9999 SCT010 25/23 Q1010 NOSIG=
24/02/2021 02:30:00Z	 SAID32 WIPP 240230	METAR WIPP 240230Z 31003KT 9999 SCT010 26/24 Q1010 NOSIG=
24/02/2021 03:00:00Z	 SAID32 WIPP 240300	METAR WIPP 240300Z 35006KT 9999 SCT010 28/24 Q1010 NOSIG=
24/02/2021 03:30:00Z	 SAID32 WIPP 240330	METAR WIPP 240330Z 31006KT 9999 SCT010 28/24 Q1010 NOSIG=
24/02/2021 04:00:00Z	 SAID32 WIPP 240400	METAR WIPP 240400Z 31008KT 9999 BKN010 29/23 Q1010 NOSIG=
24/02/2021 04:30:00Z	 SAID32 WIPP 240430	METAR WIPP 240430Z 32008KT 9999 BKN010 29/23 Q1009 NOSIG=
24/02/2021 05:00:00Z	 SAID32 WIPP 240500	METAR WIPP 240500Z 33006KT 9999 BKN010 30/24 Q1009 NOSIG=
24/02/2021 05:30:00Z	 SAID32 WIPP 240530	METAR WIPP 240530Z 33009KT 9999 BKN010 30/24 Q1009 NOSIG=
24/02/2021 06:00:00Z	 SAID32 WIPP 240600	METAR WIPP 240600Z 26007KT 9999 BKN010 30/23 Q1008 NOSIG=
24/02/2021 06:30:00Z	 SAID32 WIPP 240630	METAR WIPP 240630Z 31007KT 9999 BKN010 31/23 Q1007 NOSIG=
24/02/2021 07:00:00Z	 SAID32 WIPP 240700	METAR WIPP 240700Z 32009KT 9999 BKN010 30/23 Q1007 NOSIG=
24/02/2021 07:30:00Z	 SAID32 WIPP 240730	METAR WIPP 240730Z 32010KT 9999 BKN010 31/23 Q1006 NOSIG=
24/02/2021 08:00:00Z	 SAID32 WIPP 240800	METAR WIPP 240800Z 31008KT 9999 BKN010 31/22 Q1006 NOSIG=
24/02/2021 08:30:00Z	 SAID32 WIPP 240830	METAR WIPP 240830Z 29009KT 9999 BKN010 31/23 Q1005 NOSIG=
24/02/2021 09:00:00Z	 SAID32 WIPP 240900	METAR WIPP 240900Z 30007KT 9999 BKN010 31/24 Q1005 NOSIG=
24/02/2021 09:30:00Z	 SAID32 WIPP 240930	METAR WIPP 240930Z 32006KT 9999 SCT010 32/24 Q1005 NOSIG=
24/02/2021 10:00:00Z	 SAID32 WIPP 241000	METAR WIPP 241000Z 34008KT 9999 SCT010 31/23 Q1005 NOSIG=
24/02/2021 10:30:00Z	 SAID32 WIPP 241030	METAR WIPP 241030Z 35007KT 9999 FEW010 30/24 Q1006 NOSIG=
24/02/2021 11:00:00Z	 SAID32 WIPP 241100	METAR WIPP 241100Z 03009KT 9999 FEW010 30/23 Q1006 NOSIG=
24/02/2021 11:30:00Z	 SAID32 WIPP 241130	METAR WIPP 241130Z 02006KT 9999 FEW010 28/24 Q1007 NOSIG=
24/02/2021 12:00:00Z	 SAID32 WIPP 241200	METAR WIPP 241200Z 02008KT 9999 FEW010 28/24 Q1007 NOSIG=
24/02/2021 12:30:00Z	 SAID32 WIPP 241230	METAR WIPP 241230Z 02007KT 9999 FEW010 27/24 Q1008 NOSIG=
24/02/2021 13:00:00Z	 SAID32 WIPP 241300	METAR WIPP 241300Z 34005KT 9999 FEW010 27/24 Q1008 NOSIG=
24/02/2021 13:30:00Z	 SAID32 WIPP 241330	METAR WIPP 241330Z 01005KT 9999 FEW010 27/24 Q1008 NOSIG=
24/02/2021 14:00:00Z	 SAID32 WIPP 241400	METAR WIPP 241400Z 35004KT 9999 FEW010 26/24 Q1008 NOSIG=
24/02/2021 14:30:00Z	 SAID32 WIPP 241430	METAR WIPP 241430Z 01004KT 9999 FEW010 26/24 Q1008 NOSIG=
24/02/2021 15:00:00Z	 SAID32 WIPP 241500	METAR WIPP 241500Z 02003KT 9999 FEW010 26/24 Q1009 NOSIG=
24/02/2021 15:30:00Z	 SAID32 WIPP 241530	METAR WIPP 241530Z 36003KT 9999 FEW010 26/24 Q1009 NOSIG=
24/02/2021 16:00:00Z	 SAID32 WIPP 241600	METAR WIPP 241600Z 35003KT 8000 FEW010 26/24 Q1009 NOSIG=
24/02/2021 16:30:00Z	 SAID32 WIPP 241630	METAR WIPP 241630Z 34003KT 8000 FEW010 26/24 Q1009 NOSIG=
24/02/2021 17:00:00Z	 SAID32 WIPP 241700	METAR WIPP 241700Z 33004KT 8000 FEW010 25/24 Q1008 NOSIG=
24/02/2021 17:30:00Z	 SAID32 WIPP 241730	METAR WIPP 241730Z 33004KT 7000 FEW010 25/24 Q1008 NOSIG=
24/02/2021 18:00:00Z	 SAID32 WIPP 241800	METAR WIPP 241800Z 33005KT 7000 FEW010 25/24 Q1008 NOSIG=
24/02/2021 18:30:00Z	 SAID32 WIPP 241830	METAR WIPP 241830Z 33005KT 7000 FEW010 25/24 Q1007 NOSIG=
24/02/2021 19:00:00Z	 SAID32 WIPP 241900	METAR WIPP 241900Z 33005KT 7000 FEW010 25/24 Q1007 NOSIG=
24/02/2021 19:30:00Z	 SAID32 WIPP 241930	METAR WIPP 241930Z 31004KT 6000 FEW010 25/24 Q1006 NOSIG=
24/02/2021 20:00:00Z	 SAID32 WIPP 242000	METAR WIPP 242000Z 33004KT 5000 HZ FEW010 FEW012CB 25/24 Q1006 RMK CB TO W=
24/02/2021 20:30:00Z	 SAID32 WIPP 242030	METAR WIPP 242030Z 31005KT 5000 HZ SCT010 FEW012CB 25/24 Q1006 RMK CB TO SW=
24/02/2021 21:00:00Z	 SAID32 WIPP 242100	METAR WIPP 242100Z 31005KT 2500 BR SCT010 FEW012CB 25/24 Q1006 RMK CB TO SW=
24/02/2021 22:00:00Z	 SAID32 WIPP 242200	METAR WIPP 242200Z 31005KT 3000 BR SCT010 25/24 Q1007=
24/02/2021 22:30:00Z	 SAID32 WIPP 242230	METAR WIPP 242230Z 31006KT 3000 BR SCT010 25/24 Q1007=
24/02/2021 23:00:00Z	 SAID32 WIPP 242300	METAR WIPP 242300Z 32007KT 2500 BR SCT010 25/24 Q1007=
24/02/2021 23:30:00Z	 SAID32 WIPP 242330	METAR WIPP 242330Z 33006KT 3500 BR FEW010 25/24 Q1008=
25/02/2021 00:00:00Z	 SAID32 WIPP 250000	METAR WIPP 250000Z 34008KT 4000 HZ BKN008 25/24 Q1008=
25/02/2021 00:30:00Z	 SAID32 WIPP 250030	METAR WIPP 250030Z 32008KT 6000 SCT010 26/24 Q1008 NOSIG=
25/02/2021 01:00:00Z	 SAID32 WIPP 250100	METAR WIPP 250100Z 29009KT 9999 BKN010 26/24 Q1008 NOSIG=
25/02/2021 01:30:00Z	 SAID32 WIPP 250130	METAR WIPP 250130Z 28009KT 9999 BKN010 27/24 Q1007 NOSIG=
25/02/2021 02:00:00Z	 SAID32 WIPP 250200	METAR WIPP 250200Z 24006KT 9999 BKN010 28/24 Q1008 NOSIG=
25/02/2021 02:30:00Z	 SAID32 WIPP 250230	METAR WIPP 250230Z 18004KT 9999 BKN010 28/24 Q1008 NOSIG=
25/02/2021 03:00:00Z	 SAID32 WIPP 250300	METAR WIPP 250300Z 19005KT 9999 BKN010 28/24 Q1008 NOSIG=
25/02/2021 03:30:00Z	 SAID32 WIPP 250330	METAR WIPP 250330Z 32008KT 9999 BKN010 29/24 Q1008 NOSIG=
25/02/2021 04:00:00Z	 SAID32 WIPP 250400	METAR WIPP 250400Z 30010KT 9999 BKN010 29/23 Q1008 NOSIG=
25/02/2021 04:30:00Z	 SAID32 WIPP 250430	METAR WIPP 250430Z 30005KT 9999 BKN010 30/23 Q1008 NOSIG=
25/02/2021 05:00:00Z	 SAID32 WIPP 250500	METAR WIPP 250500Z 32010KT 9999 BKN010 30/24 Q1007 NOSIG=
25/02/2021 05:30:00Z	 SAID32 WIPP 250530	METAR WIPP 250530Z 31006KT 9999 BKN010 31/23 Q1007 NOSIG=
25/02/2021 06:00:00Z	 SAID32 WIPP 250600	METAR WIPP 250600Z 31007KT 9999 SCT010 31/23 Q1006 NOSIG=
25/02/2021 06:30:00Z	 SAID32 WIPP 250630	METAR WIPP 250630Z 30008KT 9999 SCT010 32/23 Q1005 NOSIG=
25/02/2021 07:00:00Z	 SAID32 WIPP 250700	METAR WIPP 250700Z 31009KT 9999 SCT010 32/23 Q1004 NOSIG=
25/02/2021 07:30:00Z	 SAID32 WIPP 250730	METAR WIPP 250730Z 31006KT 9999 SCT010 32/23 Q1004 NOSIG=
25/02/2021 08:00:00Z	 SAID32 WIPP 250800	METAR WIPP 250800Z 27005KT 9999 BKN010 32/23 Q1004 NOSIG=
25/02/2021 08:30:00Z	 SAID32 WIPP 250830	METAR WIPP 250830Z 30011KT 9999 BKN010 33/23 Q1003 NOSIG=
25/02/2021 09:00:00Z	 SAID32 WIPP 250900	METAR WIPP 250900Z 30006KT 9999 FEW010 33/23 Q1003 NOSIG=
25/02/2021 09:30:00Z	 SAID32 WIPP 250930	METAR WIPP 250930Z 20002KT 9999 FEW010 31/25 Q1004 NOSIG=
25/02/2021 10:00:00Z	 SAID32 WIPP 251000	METAR WIPP 251000Z 15003KT 9999 SCT010 31/25 Q1004 NOSIG=
25/02/2021 10:30:00Z	 SAID32 WIPP 251030	METAR WIPP 251030Z 09003KT 9999 BKN010 FEW010CB 30/25 Q1004 RMK CB TO SE=
25/02/2021 11:00:00Z	 SAID32 WIPP 251100	METAR WIPP 251100Z 23004KT 5000 HZ SCT010 FEW010CB 29/26 Q1005 RMK CB TO SW=
25/02/2021 11:30:00Z	 SAID32 WIPP 251130	METAR WIPP 251130Z 00000KT 5000 HZ FEW010 29/25 Q1005 NOSIG=
25/02/2021 12:00:00Z	 SAID32 WIPP 251200	METAR WIPP 251200Z 02003KT 9999 FEW010 28/25 Q1006 NOSIG=
25/02/2021 12:30:00Z	 SAID32 WIPP 251230	METAR WIPP 251230Z 03004KT 9999 FEW010 28/25 Q1006 NOSIG=
25/02/2021 13:00:00Z	 SAID32 WIPP 251300	METAR WIPP 251300Z 03007KT 9999 SCT010 28/25 Q1007 NOSIG=
25/02/2021 14:00:00Z	 SAID32 WIPP 251400	METAR WIPP 251400Z 01005KT 9999 SCT010 27/24 Q1007 NOSIG=
25/02/2021 15:00:00Z	 SAID32 WIPP 251500	METAR WIPP 251500Z 320005KT 9999 SCT010 26/24 Q1008 NOSIG=
