01/02/2021 00:00:00Z	 SAID34 WIJJ 010000	METAR WIJJ 010000Z 31007KT 9999 FEW014 25/24 Q1011 NOSIG=
01/02/2021 00:30:00Z	 SAID34 WIJJ 010030	METAR WIJJ 010030Z 32007KT 9999 FEW015 25/24 Q1012 NOSIG=
01/02/2021 01:00:00Z	 SAID34 WIJJ 010100	METAR WIJJ 010100Z 32007KT 9999 FEW015 26/24 Q1012 NOSIG=
01/02/2021 01:30:00Z	 SAID34 WIJJ 010130	METAR WIJJ 010130Z 33006KT 280V360 9999 FEW013 27/24 Q1012 NOSIG=
01/02/2021 02:00:00Z	 SAID34 WIJJ 010200	METAR WIJJ 010200Z 32009KT 9999 SCT015 27/24 Q1012 NOSIG=
01/02/2021 02:30:00Z	 SAID34 WIJJ 010230	METAR WIJJ 010230Z 33008KT 9999 BKN015 28/24 Q1012 NOSIG=
01/02/2021 03:00:00Z	 SAID34 WIJJ 010300	METAR WIJJ 010300Z 36010KT 9999 BKN016 29/24 Q1012 NOSIG=
01/02/2021 03:30:00Z	 SAID34 WIJJ 010330	METAR WIJJ 010330Z 35008KT 9999 BKN016 29/24 Q1012 NOSIG=
01/02/2021 04:00:00Z	 SAID34 WIJJ 010400	METAR WIJJ 010400Z 35008KT 9999 BKN016 29/24 Q1012 NOSIG=
01/02/2021 04:30:00Z	 SAID34 WIJJ 010430	METAR WIJJ 010430Z 34009KT 9999 BKN016 29/23 Q1012 NOSIG=
01/02/2021 05:00:00Z	 SAID34 WIJJ 010500	METAR WIJJ 010500Z 35009KT 9999 BKN016 30/23 Q1011 NOSIG=
01/02/2021 05:30:00Z	 SAID34 WIJJ 010530	METAR WIJJ 010530Z 35009KT 9999 -RA BKN015 30/23 Q1011 NOSIG=
01/02/2021 06:00:00Z	 SAID34 WIJJ 010600	METAR WIJJ 010600Z 33006KT 9999 BKN016 30/24 Q1010 RERA NOSIG=
01/02/2021 06:30:00Z	 SAID34 WIJJ 010630	METAR WIJJ 010630Z 36007KT 9999 BKN015 31/23 Q1010 NOSIG=
01/02/2021 07:00:00Z	 SAID34 WIJJ 010700	METAR WIJJ 010700Z 34010KT 9999 SCT016 31/24 Q1009 NOSIG=
01/02/2021 07:30:00Z	 SAID34 WIJJ 010730	METAR WIJJ 010730Z 34010KT 9999 BKN016 31/23 Q1009 NOSIG=
01/02/2021 08:00:00Z	 SAID34 WIJJ 010800	METAR WIJJ 010800Z 36009KT 9999 SCT016 31/23 Q1008 NOSIG=
01/02/2021 08:30:00Z	 SAID34 WIJJ 010830	METAR WIJJ 010830Z 35011KT 9999 SCT016 31/23 Q1008 NOSIG=
01/02/2021 09:00:00Z	 SAID34 WIJJ 010900	METAR WIJJ 010900Z 36010KT 9999 SCT016 31/23 Q1008 NOSIG=
01/02/2021 09:30:00Z	 SAID34 WIJJ 010930	METAR WIJJ 010930Z 01009KT 9999 SCT016 31/23 Q1008 NOSIG=
01/02/2021 10:00:00Z	 SAID34 WIJJ 011000	METAR WIJJ 011000Z 01006KT 9999 SCT015 30/23 Q1008 NOSIG=
01/02/2021 10:30:00Z	 SAID34 WIJJ 011030	METAR WIJJ 011030Z 01006KT 9999 SCT015 30/23 Q1008 NOSIG=
01/02/2021 11:00:00Z	 SAID34 WIJJ 011100	METAR WIJJ 011100Z 01007KT 9999 FEW016 29/24 Q1009 NOSIG=
01/02/2021 11:30:00Z	 SAID34 WIJJ 011130	METAR WIJJ 011130Z 36007KT 9999 FEW016 29/24 Q1010 NOSIG=
01/02/2021 12:30:00Z	 SAID34 WIJJ 011230	METAR WIJJ 011230Z 01006KT 9999 FEW016 27/23 Q1010 NOSIG=
01/02/2021 13:00:00Z	 SAID34 WIJJ 011300	METAR WIJJ 011300Z 02004KT 340V050 9999 FEW016 27/23 Q1010 NOSIG=
01/02/2021 13:30:00Z	 SAID34 WIJJ 011330	METAR WIJJ 011330Z 02005KT 9999 SCT016 27/24 Q1011 NOSIG=
01/02/2021 14:00:00Z	 SAID34 WIJJ 011400	METAR WIJJ 011400Z 01004KT 340V050 9999 SCT016 27/24 Q1011 NOSIG=
01/02/2021 14:30:00Z	 SAID34 WIJJ 011430	METAR WIJJ 011430Z 03005KT 9999 SCT016 26/24 Q1011 NOSIG=
01/02/2021 15:00:00Z	 SAID34 WIJJ 011500	METAR WIJJ 011500Z 02003KT 350V050 9999 SCT016 26/24 Q1012 NOSIG=
01/02/2021 15:30:00Z	 SAID34 WIJJ 011530	METAR WIJJ 011530Z 04003KT 9999 SCT016 26/24 Q1012 NOSIG=
01/02/2021 16:00:00Z	 SAID34 WIJJ 011600	METAR WIJJ 011600Z 02003KT 350V060 9999 SCT016 26/24 Q1012 NOSIG=
01/02/2021 16:30:00Z	 SAID34 WIJJ 011630	METAR WIJJ 011630Z 35003KT 310V040 9999 BKN015 26/24 Q1012 NOSIG=
01/02/2021 17:00:00Z	 SAID34 WIJJ 011700	METAR WIJJ 011700Z 35003KT 320V030 9999 BKN015 26/24 Q1012 NOSIG=
01/02/2021 17:30:00Z	 SAID34 WIJJ 011730	METAR WIJJ 011730Z 34002KT 9999 BKN015 26/24 Q1012 NOSIG=
01/02/2021 18:00:00Z	 SAID34 WIJJ 011800	METAR WIJJ 011800Z 34002KT 9999 BKN015 26/24 Q1012 NOSIG=
01/02/2021 18:30:00Z	 SAID34 WIJJ 011830	METAR WIJJ 011830Z 23003KT 9999 BKN015 26/24 Q1012 NOSIG=
01/02/2021 19:00:00Z	 SAID34 WIJJ 011900	METAR WIJJ 011900Z 18003KT 140V230 9000 BKN015 26/24 Q1012 NOSIG=
01/02/2021 19:30:00Z	 SAID34 WIJJ 011930	METAR WIJJ 011930Z 19005KT 140V240 9999 BKN012 24/23 Q1012 NOSIG=
01/02/2021 20:00:00Z	 SAID34 WIJJ 012000	METAR WIJJ 012000Z 18004KT 150V230 9999 BKN014 23/22 Q1011 NOSIG=
01/02/2021 20:30:00Z	 SAID34 WIJJ 012030	METAR WIJJ 012030Z 19002KT 9999 BKN013 23/22 Q1011 NOSIG=
01/02/2021 21:00:00Z	 SAID34 WIJJ 012100	METAR WIJJ 012100Z 15002KT 9999 SCT016 23/22 Q1010 NOSIG=
01/02/2021 21:30:00Z	 SAID34 WIJJ 012130	METAR WIJJ 012130Z 00000KT 9999 SCT016 23/22 Q1010 NOSIG=
01/02/2021 22:00:00Z	 SAID34 WIJJ 012200	METAR WIJJ 012200Z 00000KT 9999 SCT016 23/22 Q1010 NOSIG=
01/02/2021 22:30:00Z	 SAID34 WIJJ 012230	METAR WIJJ 012230Z 00000KT 9999 SCT016 23/22 Q1010 NOSIG=
01/02/2021 23:00:00Z	 SAID34 WIJJ 012300	METAR WIJJ 012300Z 29002KT 9999 SCT013 23/22 Q1010 NOSIG=
01/02/2021 23:30:00Z	 SAID34 WIJJ 012330	METAR WIJJ 012330Z 28003KT 9999 SCT015 24/23 Q1011 NOSIG=
02/02/2021 00:00:00Z	 SAID34 WIJJ 020000	METAR WIJJ 020000Z 27004KT 9999 BKN013 24/23 Q1011 NOSIG=
02/02/2021 00:30:00Z	 SAID34 WIJJ 020030	METAR WIJJ 020030Z 28004KT 8000 SCT014 25/23 Q1011 NOSIG=
02/02/2021 01:00:00Z	 SAID34 WIJJ 020100	METAR WIJJ 020100Z 29005KT 240V330 7000 FEW010 25/24 Q1011 NOSIG=
02/02/2021 01:30:00Z	 SAID34 WIJJ 020130	METAR WIJJ 020130Z 31008KT 9000 FEW012 26/24 Q1012 NOSIG=
02/02/2021 02:00:00Z	 SAID34 WIJJ 020200	METAR WIJJ 020200Z 32013KT 9999 SCT013 27/24 Q1012 NOSIG=
02/02/2021 02:30:00Z	 SAID34 WIJJ 020230	METAR WIJJ 020230Z 33011KT 9999 BKN014 28/24 Q1012 NOSIG=
02/02/2021 03:00:00Z	 SAID34 WIJJ 020300	METAR WIJJ 020300Z 32013KT 9999 BKN015 28/23 Q1012 NOSIG=
02/02/2021 03:30:00Z	 SAID34 WIJJ 020330	METAR WIJJ 020330Z 33011KT 9999 BKN015 29/24 Q1012 NOSIG=
02/02/2021 04:00:00Z	 SAID34 WIJJ 020400	METAR WIJJ 020400Z 32010KT 9999 SCT015 29/24 Q1012 NOSIG=
02/02/2021 04:30:00Z	 SAID34 WIJJ 020430	METAR WIJJ 020430Z 30008KT 9999 BKN015 30/24 Q1011 NOSIG=
02/02/2021 05:00:00Z	 SAID34 WIJJ 020500	METAR WIJJ 020500Z 30011KT 270V330 9999 BKN015 30/24 Q1011 NOSIG=
02/02/2021 05:30:00Z	 SAID34 WIJJ 020530	METAR WIJJ 020530Z 32011KT 280V350 9999 BKN015 31/23 Q1010 NOSIG=
02/02/2021 06:00:00Z	 SAID34 WIJJ 020600	METAR WIJJ 020600Z 31011KT 260V330 9999 BKN015 30/23 Q1010 NOSIG=
02/02/2021 06:30:00Z	 SAID34 WIJJ 020630	METAR WIJJ 020630Z 32011KT 9999 BKN015 30/23 Q1009 NOSIG=
02/02/2021 07:00:00Z	 SAID34 WIJJ 020700	METAR WIJJ 020700Z 36008KT 330V050 9999 SCT015 29/24 Q1009 NOSIG=
02/02/2021 07:30:00Z	 SAID34 WIJJ 020730	METAR WIJJ 020730Z 34006KT 9999 SCT013 29/23 Q1008 NOSIG=
02/02/2021 08:00:00Z	 SAID34 WIJJ 020800	METAR WIJJ 020800Z 34006KT 9999 SCT015 29/24 Q1008 NOSIG=
02/02/2021 08:30:00Z	 SAID34 WIJJ 020830	METAR WIJJ 020830Z 01006KT 320V040 9999 SCT015 29/24 Q1008 NOSIG=
02/02/2021 09:00:00Z	 SAID34 WIJJ 020900	METAR WIJJ 020900Z 02007KT 330V030 9000 SCT015 28/25 Q1008 RERA NOSIG=
02/02/2021 09:30:00Z	 SAID34 WIJJ 020930	METAR WIJJ 020930Z 01008KT 340V050 9999 SCT015 28/24 Q1008 NOSIG=
02/02/2021 10:00:00Z	 SAID34 WIJJ 021000	METAR WIJJ 021000Z 36008KT 330V030 9999 SCT015 28/24 Q1008 NOSIG=
02/02/2021 10:30:00Z	 SAID34 WIJJ 021030	METAR WIJJ 021030Z 35007KT 330V030 5000 -RA SCT015 28/24 Q1009 NOSIG=
02/02/2021 11:00:00Z	 SAID34 WIJJ 021100	METAR WIJJ 021100Z 33004KT 5000 -RA SCT015 27/25 Q1009 NOSIG=
02/02/2021 11:30:00Z	 SAID34 WIJJ 021130	METAR WIJJ 021130Z 01004KT 8000 SCT015 26/25 Q1009 RERA NOSIG=
02/02/2021 12:00:00Z	 SAID34 WIJJ 021200	METAR WIJJ 021200Z 02003KT 9000 SCT015 27/24 Q1010 NOSIG=
02/02/2021 12:30:00Z	 SAID34 WIJJ 021230	METAR WIJJ 021230Z 36003KT 320V030 9999 SCT015 27/24 Q1010 NOSIG=
02/02/2021 13:00:00Z	 SAID34 WIJJ 021300	METAR WIJJ 021300Z 01003KT 9999 SCT015 27/24 Q1010 NOSIG=
02/02/2021 13:30:00Z	 SAID34 WIJJ 021330	METAR WIJJ 021330Z 01002KT 9999 FEW016 26/24 Q1011 NOSIG=
02/02/2021 14:00:00Z	 SAID34 WIJJ 021400	METAR WIJJ 021400Z 02002KT 9999 FEW015 26/24 Q1011 NOSIG=
02/02/2021 14:30:00Z	 SAID34 WIJJ 021430	METAR WIJJ 021430Z 02003KT 350V050 9999 FEW015 26/24 Q1011 NOSIG=
02/02/2021 15:00:00Z	 SAID34 WIJJ 021500	METAR WIJJ 021500Z 01002KT 9999 FEW016 26/24 Q1011 NOSIG=
02/02/2021 15:30:00Z	 SAID34 WIJJ 021530	METAR WIJJ 021530Z 34002KT 9999 FEW016 26/24 Q1011 NOSIG=
02/02/2021 16:00:00Z	 SAID34 WIJJ 021600	METAR WIJJ 021600Z 36003KT 330V030 9999 FEW016 26/24 Q1011 NOSIG=
02/02/2021 16:30:00Z	 SAID34 WIJJ 021630	METAR WIJJ 021630Z 35004KT 320V020 9999 FEW016 26/24 Q1012 NOSIG=
02/02/2021 17:00:00Z	 SAID34 WIJJ 021700	METAR WIJJ 021700Z 34005KT 9999 FEW015CB SCT016 26/24 Q1012 NOSIG RMK CB TO SW AND W=
02/02/2021 17:30:00Z	 SAID34 WIJJ 021730	METAR WIJJ 021730Z 34005KT 9000 SCT016 26/24 Q1011 NOSIG=
02/02/2021 18:00:00Z	 SAID34 WIJJ 021800	METAR WIJJ 021800Z 33005KT 9999 FEW016 26/24 Q1011 NOSIG=
02/02/2021 18:30:00Z	 SAID34 WIJJ 021830	METAR WIJJ 021830Z 32005KT 9999 FEW016 26/24 Q1011 NOSIG=
02/02/2021 19:00:00Z	 SAID34 WIJJ 021900	METAR WIJJ 021900Z 34003KT 320V020 9999 FEW016 25/24 Q1011 NOSIG=
02/02/2021 19:30:00Z	 SAID34 WIJJ 021930	METAR WIJJ 021930Z 25002KT 9999 FEW016 25/24 Q1011 NOSIG=
02/02/2021 20:00:00Z	 SAID34 WIJJ 022000	METAR WIJJ 022000Z 32002KT 9999 FEW016 25/24 Q1011 NOSIG=
02/02/2021 20:30:00Z	 SAID34 WIJJ 022030	METAR WIJJ 022030Z 32003KT 9000 FEW015 25/24 Q1010 NOSIG=
02/02/2021 21:00:00Z	 SAID34 WIJJ 022100	METAR WIJJ 022100Z 29002KT 7000 FEW015 25/24 Q1010 NOSIG=
02/02/2021 21:30:00Z	 SAID34 WIJJ 022130	METAR WIJJ 022130Z 25002KT 7000 FEW015 25/24 Q1010 NOSIG=
02/02/2021 22:00:00Z	 SAID34 WIJJ 022200	METAR WIJJ 022200Z 00000KT 7000 FEW015 25/24 Q1011 NOSIG=
02/02/2021 22:30:00Z	 SAID34 WIJJ 022230	METAR WIJJ 022230Z 23001KT 7000 SCT015 25/24 Q1011 NOSIG=
02/02/2021 23:00:00Z	 SAID34 WIJJ 022300	METAR WIJJ 022300Z 28002KT 7000 BKN012 25/24 Q1011 NOSIG=
02/02/2021 23:30:00Z	 SAID34 WIJJ 022330	METAR WIJJ 022330Z 30004KT 8000 BKN005 25/24 Q1011 NOSIG=
03/02/2021 00:00:00Z	 SAID34 WIJJ 030000	METAR WIJJ 030000Z 28003KT 250V320 8000 BKN005 25/24 Q1011 NOSIG=
03/02/2021 00:30:00Z	 SAID34 WIJJ 030030	METAR WIJJ 030030Z 31007KT 9999 FEW015 26/24 Q1012 NOSIG=
03/02/2021 01:00:00Z	 SAID34 WIJJ 030100	METAR WIJJ 030100Z 31005KT 9999 SCT018 26/24 Q1012 NOSIG=
03/02/2021 01:30:00Z	 SAID34 WIJJ 030130	METAR WIJJ 030130Z 31007KT 9999 FEW018 26/24 Q1012 NOSIG=
03/02/2021 02:00:00Z	 SAID34 WIJJ 030200	METAR WIJJ 030200Z 31005KT 9999 FEW018 26/23 Q1012 NOSIG=
03/02/2021 02:30:00Z	 SAID34 WIJJ 030230	METAR WIJJ 030230Z 30008KT 9999 FEW012 27/23 Q1012 NOSIG=
03/02/2021 03:00:00Z	 SAID34 WIJJ 030300	METAR WIJJ 030300Z 30008KT 9999 SCT015 27/24 Q1013 NOSIG=
03/02/2021 03:30:00Z	 SAID34 WIJJ 030330	METAR WIJJ 030330Z 30009KT 9999 FEW017 28/24 Q1012 NOSIG=
03/02/2021 04:00:00Z	 SAID34 WIJJ 030400	METAR WIJJ 030400Z 31007KT 9999 SCT018 28/23 Q1012 NOSIG=
03/02/2021 04:30:00Z	 SAID34 WIJJ 030430	METAR WIJJ 030430Z 32007KT 9999 SCT018 29/23 Q1012 NOSIG=
03/02/2021 05:00:00Z	 SAID34 WIJJ 030500	METAR WIJJ 030500Z 31007KT 9999 SCT018 29/23 Q1011 NOSIG=
03/02/2021 05:30:00Z	 SAID34 WIJJ 030530	METAR WIJJ 030530Z 35006KT 9999 FEW018 29/23 Q1011 NOSIG=
03/02/2021 06:00:00Z	 SAID34 WIJJ 030600	METAR WIJJ 030600Z 33007KT 9999 SCT018 29/23 Q1010 NOSIG=
03/02/2021 06:30:00Z	 SAID34 WIJJ 030630	METAR WIJJ 030630Z 33007KT 9999 SCT018 29/23 Q1010 NOSIG=
03/02/2021 07:00:00Z	 SAID34 WIJJ 030700	METAR WIJJ 030700Z 32007KT 9999 SCT018 29/24 Q1010 NOSIG=
03/02/2021 07:30:00Z	 SAID34 WIJJ 030730	METAR WIJJ 030730Z 35007KT 9999 SCT018 30/24 Q1009 NOSIG=
03/02/2021 08:00:00Z	 SAID34 WIJJ 030800	METAR WIJJ 030800Z 35007KT 9999 SCT018 29/24 Q1009 NOSIG=
03/02/2021 08:30:00Z	 SAID34 WIJJ 030830	METAR WIJJ 030830Z 35006KT 9999 FEW018 29/24 Q1009 NOSIG=
03/02/2021 09:00:00Z	 SAID34 WIJJ 030900	METAR WIJJ 030900Z 35007KT 9999 SCT018 30/24 Q1008 NOSIG=
03/02/2021 09:30:00Z	 SAID34 WIJJ 030930	METAR WIJJ 030930Z 01007KT 9999 FEW018 30/24 Q1009 NOSIG=
03/02/2021 10:00:00Z	 SAID34 WIJJ 031000	METAR WIJJ 031000Z 03006KT 9999 FEW018 29/23 Q1009 NOSIG=
03/02/2021 10:30:00Z	 SAID34 WIJJ 031030	METAR WIJJ 031030Z 02004KT 9999 FEW018 29/23 Q1009 NOSIG=
03/02/2021 11:00:00Z	 SAID34 WIJJ 031100	METAR WIJJ 031100Z 01005KT 9999 FEW018 29/23 Q1010 NOSIG=
03/02/2021 11:30:00Z	 SAID34 WIJJ 031130	METAR WIJJ 031130Z 02004KT 8000 FEW018 28/23 Q1010 NOSIG=
03/02/2021 12:00:00Z	 SAID34 WIJJ 031200	METAR WIJJ 031200Z 01004KT 9999 FEW016CB FEW018 28/24 Q1010 RMK CB TO W=
03/02/2021 12:30:00Z	 SAID34 WIJJ 031230	METAR WIJJ 031230Z 01003KT 9000 FEW016 27/23 Q1011 NOSIG=
03/02/2021 13:00:00Z	 SAID34 WIJJ 031300	METAR WIJJ 031300Z 36002KT 9999 FEW016 27/24 Q1011 NOSIG=
03/02/2021 13:30:00Z	 SAID34 WIJJ 031330	METAR WIJJ 031330Z 35002KT 9999 FEW016 27/23 Q1011 NOSIG=
03/02/2021 14:00:00Z	 SAID34 WIJJ 031400	METAR WIJJ 031400Z 35002KT 9999 FEW016 27/24 Q1012 NOSIG=
03/02/2021 14:30:00Z	 SAID34 WIJJ 031430	METAR WIJJ 031430Z 36002KT 9000 FEW015 26/24 Q1012 NOSIG=
03/02/2021 15:00:00Z	 SAID34 WIJJ 031500	METAR WIJJ 031500Z 34001KT 9999 FEW016 25/23 Q1012 NOSIG=
03/02/2021 15:30:00Z	 SAID34 WIJJ 031530	METAR WIJJ 031530Z 25001KT 9000 FEW016 25/24 Q1012 NOSIG=
03/02/2021 16:00:00Z	 SAID34 WIJJ 031600	METAR WIJJ 031600Z 14001KT 5000 FEW016 25/24 Q1012 NOSIG=
03/02/2021 16:30:00Z	 SAID34 WIJJ 031630	METAR WIJJ 031630Z 09001KT 6000 FEW016 25/24 Q1012 NOSIG=
03/02/2021 17:00:00Z	 SAID34 WIJJ 031700	METAR WIJJ 031700Z 16001KT 4600 BR SCT016 24/24 Q1012 NOSIG=
03/02/2021 17:30:00Z	 SAID34 WIJJ 031730	METAR WIJJ 031730Z 02001KT 5000 SCT016 25/24 Q1012=
03/02/2021 18:00:00Z	 SAID34 WIJJ 031800	METAR WIJJ 031800Z 35001KT 5000 SCT016 24/24 Q1012=
03/02/2021 18:00:00Z	 SAID34 WIJJ 031800 CCA	METAR COR WIJJ 031800Z 35001KT 5000 HZ SCT016 24/24 Q1012 NOSIG=
03/02/2021 18:30:00Z	 SAID34 WIJJ 031830	METAR WIJJ 031830Z 00000KT 4300 HZ SCT016 24/23 Q1011 NOSIG=
03/02/2021 19:00:00Z	 SAID34 WIJJ 031900	METAR WIJJ 031900Z 22002KT 3700 HZ SCT016 26/24 Q1011 NOSIG=
03/02/2021 19:30:00Z	 SAID34 WIJJ 031930	METAR WIJJ 031930Z 00000KT 4100 HZ SCT017 25/24 Q1011 NOSIG=
03/02/2021 20:00:00Z	 SAID34 WIJJ 032000	METAR WIJJ 032000Z 34002KT 9000 FEW016 25/24 Q1010 NOSIG=
03/02/2021 20:30:00Z	 SAID34 WIJJ 032030	METAR WIJJ 032030Z 34003KT 9999 FEW016 25/23 Q1010 NOSIG=
03/02/2021 21:00:00Z	 SAID34 WIJJ 032100	METAR WIJJ 032100Z 35003KT 9999 FEW016 25/24 Q1010 NOSIG=
03/02/2021 21:30:00Z	 SAID34 WIJJ 032130	METAR WIJJ 032130Z 34003KT 9999 FEW015 25/23 Q1010 NOSIG=
03/02/2021 22:00:00Z	 SAID34 WIJJ 032200	METAR WIJJ 032200Z 34004KT 9999 SCT015 25/23 Q1010 NOSIG=
03/02/2021 22:30:00Z	 SAID34 WIJJ 032230	METAR WIJJ 032230Z 34004KT 8000 FEW017 24/23 Q1010 NOSIG=
03/02/2021 23:00:00Z	 SAID34 WIJJ 032300	METAR WIJJ 032300Z 30002KT 7000 FEW015 25/23 Q1011 NOSIG=
03/02/2021 23:30:00Z	 SAID34 WIJJ 032330	METAR WIJJ 032330Z 32004KT 9000 FEW016 25/23 Q1011 NOSIG=
04/02/2021 00:00:00Z	 SAID34 WIJJ 040000	METAR WIJJ 040000Z 33004KT 9000 FEW015 25/23 Q1011 NOSIG=
04/02/2021 00:30:00Z	 SAID34 WIJJ 040030	METAR WIJJ 040030Z 33006KT 9999 SCT015 25/23 Q1012 NOSIG=
04/02/2021 01:00:00Z	 SAID34 WIJJ 040100	METAR WIJJ 040100Z 33007KT 9999 BKN015 26/23 Q1012 NOSIG=
04/02/2021 01:30:00Z	 SAID34 WIJJ 040130	METAR WIJJ 040130Z 33007KT 310V010 9999 BKN014 26/24 Q1012 NOSIG=
04/02/2021 02:00:00Z	 SAID34 WIJJ 040200	METAR WIJJ 040200Z 34008KT 9999 BKN014 27/23 Q1012 NOSIG=
04/02/2021 02:30:00Z	 SAID34 WIJJ 040230	METAR WIJJ 040230Z 34010KT 310V010 9999 BKN014 27/23 Q1012 NOSIG=
04/02/2021 03:00:00Z	 SAID34 WIJJ 040300	METAR WIJJ 040300Z 35009KT 320V020 9999 BKN014 27/23 Q1013 NOSIG=
04/02/2021 03:30:00Z	 SAID34 WIJJ 040330	METAR WIJJ 040330Z 34007KT 9999 BKN015 27/24 Q1012 NOSIG=
04/02/2021 04:00:00Z	 SAID34 WIJJ 040400	METAR WIJJ 040400Z 35009KT 320V020 9999 BKN015 28/23 Q1012 NOSIG=
04/02/2021 04:30:00Z	 SAID34 WIJJ 040430	METAR WIJJ 040430Z 35011KT 9999 BKN015 29/24 Q1011 NOSIG=
04/02/2021 05:00:00Z	 SAID34 WIJJ 040500	METAR WIJJ 040500Z 01009KT 330V040 9999 BKN015 28/23 Q1011 NOSIG=
04/02/2021 05:30:00Z	 SAID34 WIJJ 040530	METAR WIJJ 040530Z 35010KT 310V030 9999 BKN014 29/22 Q1011 NOSIG=
04/02/2021 06:00:00Z	 SAID34 WIJJ 040600	METAR WIJJ 040600Z 36008KT 320V030 9999 BKN014 29/23 Q1011 NOSIG=
04/02/2021 06:30:00Z	 SAID34 WIJJ 040630	METAR WIJJ 040630Z 34010KT 9999 BKN015 28/23 Q1010 NOSIG=
04/02/2021 07:00:00Z	 SAID34 WIJJ 040700	METAR COR WIJJ 040700Z 35007KT 9999 BKN014 29/23 Q1010 NOSIG=
04/02/2021 07:30:00Z	 SAID34 WIJJ 040730	METAR WIJJ 040730Z 35009KT 9999 BKN015 29/23 Q1009 NOSIG=
04/02/2021 08:00:00Z	 SAID34 WIJJ 040800	METAR WIJJ 040800Z 36009KT 330V040 9999 BKN015 29/23 Q1009 NOSIG=
04/02/2021 08:30:00Z	 SAID34 WIJJ 040830	METAR WIJJ 040830Z 01009KT 330V040 9999 BKN015 29/22 Q1009 NOSIG=
04/02/2021 09:00:00Z	 SAID34 WIJJ 040900	METAR WIJJ 040900Z 01008KT 310V040 9999 SCT015 28/22 Q1009 NOSIG=
04/02/2021 09:30:00Z	 SAID34 WIJJ 040930	METAR WIJJ 040930Z 36008KT 9999 SCT015 28/22 Q1009 NOSIG=
04/02/2021 10:00:00Z	 SAID34 WIJJ 041000	METAR WIJJ 041000Z 01008KT 340V040 9999 SCT016 28/22 Q1009 NOSIG=
04/02/2021 10:30:00Z	 SAID34 WIJJ 041030	METAR WIJJ 041030Z 01008KT 340V040 9999 SCT016 28/22 Q1009 NOSIG=
04/02/2021 11:00:00Z	 SAID34 WIJJ 041100	METAR WIJJ 041100Z 01006KT 9999 FEW016 27/22 Q1010 NOSIG=
04/02/2021 11:30:00Z	 SAID34 WIJJ 041130	METAR WIJJ 041130Z 02005KT 340V050 9999 SCT016 27/22 Q1010 NOSIG=
04/02/2021 12:00:00Z	 SAID34 WIJJ 041200	METAR WIJJ 041200Z 02005KT 9999 BKN015 27/22 Q1010 NOSIG=
04/02/2021 12:30:00Z	 SAID34 WIJJ 041230	METAR WIJJ 041230Z 02003KT 340V050 9999 BKN015 27/23 Q1011 NOSIG=
04/02/2021 13:00:00Z	 SAID34 WIJJ 041300	METAR WIJJ 041300Z 36004KT 330V030 9999 BKN015 27/23 Q1011 NOSIG=
04/02/2021 13:30:00Z	 SAID34 WIJJ 041330	METAR WIJJ 041330Z 36003KT 330V030 9999 BKN015 26/23 Q1011 NOSIG=
04/02/2021 14:00:00Z	 SAID34 WIJJ 041400	METAR WIJJ 041400Z 01005KT 9999 BKN015 27/23 Q1012 NOSIG=
04/02/2021 14:30:00Z	 SAID34 WIJJ 041430	METAR WIJJ 041430Z 36003KT 320V030 9999 BKN015 26/23 Q1012 NOSIG=
04/02/2021 15:00:00Z	 SAID34 WIJJ 041500	METAR WIJJ 041500Z 01004KT 340V040 9999 BKN015 26/23 Q1012 NOSIG=
04/02/2021 15:30:00Z	 SAID34 WIJJ 041530	METAR WIJJ 041530Z 01003KT 320V040 9999 BKN015 26/23 Q1012 NOSIG=
04/02/2021 16:00:00Z	 SAID34 WIJJ 041600	METAR WIJJ 041600Z 06002KT 9999 BKN015 26/23 Q1012 NOSIG=
04/02/2021 16:30:00Z	 SAID34 WIJJ 041630	METAR WIJJ 041630Z 01002KT 9999 BKN015 26/23 Q1012 NOSIG=
04/02/2021 17:00:00Z	 SAID34 WIJJ 041700	METAR WIJJ 041700Z 34002KT 9999 SCT014 26/23 Q1012 NOSIG=
04/02/2021 17:30:00Z	 SAID34 WIJJ 041730	METAR WIJJ 041730Z 07001KT 9999 SCT014 26/23 Q1012 NOSIG=
04/02/2021 18:00:00Z	 SAID34 WIJJ 041800	METAR WIJJ 041800Z 34003KT 9999 FEW013 26/23 Q1011 NOSIG=
04/02/2021 18:30:00Z	 SAID34 WIJJ 041830	METAR WIJJ 041830Z 32004KT 9999 FEW013 25/23 Q1011 NOSIG=
04/02/2021 19:00:00Z	 SAID34 WIJJ 041900	METAR WIJJ 041900Z 32003KT 9999 SCT014 25/22 Q1011 NOSIG=
04/02/2021 19:30:00Z	 SAID34 WIJJ 041930	METAR WIJJ 041930Z 01002KT 9999 SCT014 25/22 Q1011 NOSIG=
04/02/2021 20:00:00Z	 SAID34 WIJJ 042000	METAR WIJJ 042000Z 25001KT 9999 FEW014 25/23 Q1010 NOSIG=
04/02/2021 20:30:00Z	 SAID34 WIJJ 042030	METAR WIJJ 042030Z 28003KT 9999 FEW014 24/23 Q1010 NOSIG=
04/02/2021 21:00:00Z	 SAID34 WIJJ 042100	METAR WIJJ 042100Z 29003KT 9999 FEW013 24/22 Q1010 NOSIG=
04/02/2021 21:30:00Z	 SAID34 WIJJ 042130	METAR WIJJ 042130Z 31005KT 9999 FEW013 24/22 Q1010 NOSIG=
04/02/2021 22:00:00Z	 SAID34 WIJJ 042200	METAR WIJJ 042200Z 32006KT 9999 FEW013 25/23 Q1010 NOSIG=
04/02/2021 22:30:00Z	 SAID34 WIJJ 042230	METAR WIJJ 042230Z 32005KT 9999 SCT013 24/22 Q1010 NOSIG=
04/02/2021 23:00:00Z	 SAID34 WIJJ 042300	METAR WIJJ 042300Z 32005KT 9999 FEW013 24/22 Q1011 NOSIG=
04/02/2021 23:30:00Z	 SAID34 WIJJ 042330	METAR WIJJ 042330Z 29003KT 9999 FEW013 24/22 Q1011 NOSIG=
05/02/2021 00:00:00Z	 SAID34 WIJJ 050000	METAR WIJJ 050000Z 30003KT 9999 FEW013 24/22 Q1011 NOSIG=
05/02/2021 00:30:00Z	 SAID34 WIJJ 050030	METAR WIJJ 050030Z 33007KT 9999 NSC 25/22 Q1011 NOSIG=
05/02/2021 01:00:00Z	 SAID34 WIJJ 050100	METAR WIJJ 050100Z 32009KT 9999 NSC 26/22 Q1011 NOSIG=
05/02/2021 01:30:00Z	 SAID34 WIJJ 050130	METAR WIJJ 050130Z 32010KT 9999 NSC 27/22 Q1012 NOSIG=
05/02/2021 02:00:00Z	 SAID34 WIJJ 050200	METAR WIJJ 050200Z 33009KT 9999 FEW015 27/22 Q1012 NOSIG=
05/02/2021 02:30:00Z	 SAID34 WIJJ 050230	METAR WIJJ 050230Z 32010KT 9999 SCT015 28/23 Q1012 NOSIG=
05/02/2021 03:00:00Z	 SAID34 WIJJ 050300	METAR WIJJ 050300Z 34008KT 300V040 9999 SCT016 29/23 Q1012 NOSIG=
05/02/2021 03:30:00Z	 SAID34 WIJJ 050330	METAR WIJJ 050330Z 36009KT 320V040 9999 BKN016 29/23 Q1012 NOSIG=
05/02/2021 04:00:00Z	 SAID34 WIJJ 050400	METAR WIJJ 050400Z 35008KT 320V050 9999 BKN016 29/23 Q1012 NOSIG=
05/02/2021 04:30:00Z	 SAID34 WIJJ 050430	METAR WIJJ 050430Z 36007KT 320V030 9999 BKN016 29/23 Q1012 NOSIG=
05/02/2021 05:00:00Z	 SAID34 WIJJ 050500	METAR WIJJ 050500Z 33008KT 310V030 9999 FEW016 30/23 Q1011 NOSIG=
05/02/2021 05:30:00Z	 SAID34 WIJJ 050530	METAR WIJJ 050530Z 35008KT 300V030 9999 BKN016 30/23 Q1011 NOSIG=
05/02/2021 06:00:00Z	 SAID34 WIJJ 050600	METAR WIJJ 050600Z 33009KT 300V360 9999 BKN016 29/23 Q1010 NOSIG=
05/02/2021 06:30:00Z	 SAID34 WIJJ 050630	METAR WIJJ 050630Z 35010KT 310V030 9999 BKN015 29/22 Q1010 NOSIG=
05/02/2021 07:00:00Z	 SAID34 WIJJ 050700	METAR WIJJ 050700Z 34008KT 310V010 9999 BKN015 29/22 Q1009 NOSIG=
05/02/2021 07:30:00Z	 SAID34 WIJJ 050730	METAR WIJJ 050730Z 01009KT 340V040 9999 BKN015 28/22 Q1009 NOSIG=
05/02/2021 08:00:00Z	 SAID34 WIJJ 050800	METAR WIJJ 050800Z 36007KT 330V040 9999 BKN015 28/23 Q1009 NOSIG=
05/02/2021 08:30:00Z	 SAID34 WIJJ 050830	METAR WIJJ 050830Z 01007KT 9999 BKN015 28/23 Q1009 NOSIG=
05/02/2021 09:00:00Z	 SAID34 WIJJ 050900	METAR WIJJ 050900Z 36004KT 320V040 9999 SCT017 28/23 Q1008 NOSIG=
05/02/2021 09:30:00Z	 SAID34 WIJJ 050930	METAR WIJJ 050930Z 35004KT 320V020 9999 SCT017 28/23 Q1008 NOSIG=
05/02/2021 10:00:00Z	 SAID34 WIJJ 051000	METAR WIJJ 051000Z 35006KT 330V030 9999 FEW018 29/23 Q1008 NOSIG=
05/02/2021 10:30:00Z	 SAID34 WIJJ 051030	METAR WIJJ 051030Z 35007KT 8000 NSC 29/23 Q1008 NOSIG=
05/02/2021 11:00:00Z	 SAID34 WIJJ 051100	METAR WIJJ 051100Z 36006KT 320V020 8000 FEW017 28/23 Q1009 NOSIG=
05/02/2021 11:30:00Z	 SAID34 WIJJ 051130	METAR WIJJ 051130Z 01004KT 340V040 9999 NSC 28/23 Q1009 NOSIG=
05/02/2021 12:00:00Z	 SAID34 WIJJ 051200	METAR WIJJ 051200Z 02004KT 340V050 9999 NSC 27/23 Q1009 NOSIG=
05/02/2021 12:30:00Z	 SAID34 WIJJ 051230	METAR WIJJ 051230Z 01003KT 9999 FEW045 27/24 Q1009 NOSIG=
05/02/2021 13:00:00Z	 SAID34 WIJJ 051300	METAR WIJJ 051300Z 35002KT 9999 FEW015 27/24 Q1010 NOSIG=
05/02/2021 13:30:00Z	 SAID34 WIJJ 051330	METAR WIJJ 051330Z 36003KT 9999 FEW015 27/24 Q1010 NOSIG=
05/02/2021 14:00:00Z	 SAID34 WIJJ 051400	METAR WIJJ 051400Z 36002KT 9999 FEW015 27/24 Q1010 NOSIG=
05/02/2021 14:30:00Z	 SAID34 WIJJ 051430	METAR WIJJ 051430Z 36004KT 9999 FEW015 27/24 Q1010 NOSIG=
05/02/2021 15:00:00Z	 SAID34 WIJJ 051500	METAR WIJJ 051500Z 35003KT 9999 FEW015 26/24 Q1011 NOSIG=
05/02/2021 15:30:00Z	 SAID34 WIJJ 051530	METAR WIJJ 051530Z 31003KT 9999 FEW015 26/24 Q1011 NOSIG=
05/02/2021 16:00:00Z	 SAID34 WIJJ 051600	METAR WIJJ 051600Z 32003KT 9999 FEW015 26/24 Q1011 NOSIG=
05/02/2021 16:30:00Z	 SAID34 WIJJ 051630	METAR WIJJ 051630Z 33002KT 9999 FEW015 26/24 Q1011 NOSIG=
05/02/2021 17:00:00Z	 SAID34 WIJJ 051700	METAR WIJJ 051700Z 34002KT 9999 FEW015 26/24 Q1011 NOSIG=
05/02/2021 17:30:00Z	 SAID34 WIJJ 051730	METAR WIJJ 051730Z 32003KT 9999 FEW015 26/24 Q1011 NOSIG=
05/02/2021 18:00:00Z	 SAID34 WIJJ 051800	METAR WIJJ 051800Z 32002KT 9999 FEW015 26/24 Q1011 NOSIG=
05/02/2021 18:30:00Z	 SAID34 WIJJ 051830	METAR WIJJ 051830Z 33003KT 9999 FEW015 26/24 Q1010 NOSIG=
05/02/2021 19:00:00Z	 SAID34 WIJJ 051900	METAR WIJJ 051900Z 33003KT 9999 FEW015 26/24 Q1010 NOSIG=
05/02/2021 19:30:00Z	 SAID34 WIJJ 051930	METAR WIJJ 051930Z 33003KT 9999 FEW015 25/24 Q1010 NOSIG=
05/02/2021 20:00:00Z	 SAID34 WIJJ 052000	METAR WIJJ 052000Z 34003KT 9999 FEW015 25/24 Q1010 NOSIG=
05/02/2021 20:30:00Z	 SAID34 WIJJ 052030	METAR WIJJ 052030Z 33003KT 9999 FEW015 25/24 Q1010 NOSIG=
05/02/2021 21:00:00Z	 SAID34 WIJJ 052100	METAR WIJJ 052100Z 32003KT 9999 FEW015 25/24 Q1009 NOSIG=
05/02/2021 21:30:00Z	 SAID34 WIJJ 052130	METAR WIJJ 052130Z 31004KT 9999 FEW015 25/24 Q1010 NOSIG=
05/02/2021 22:00:00Z	 SAID34 WIJJ 052200	METAR WIJJ 052200Z 31004KT 9999 FEW015 25/24 Q1010 NOSIG=
05/02/2021 22:30:00Z	 SAID34 WIJJ 052230	METAR WIJJ 052230Z 33002KT 9999 FEW015 25/24 Q1010 NOSIG=
05/02/2021 23:00:00Z	 SAID34 WIJJ 052300	METAR WIJJ 052300Z 30003KT 6000 FEW015 25/24 Q1010 NOSIG=
05/02/2021 23:30:00Z	 SAID34 WIJJ 052330	METAR WIJJ 052330Z 30004KT 3500 HZ FEW015 25/24 Q1010=
06/02/2021 00:00:00Z	 SAID34 WIJJ 060000	METAR WIJJ 060000Z 32003KT 6000 HZ FEW015 25/24 Q1010=
06/02/2021 00:30:00Z	 SAID34 WIJJ 060030	METAR WIJJ 060030Z 28003KT 6000 FEW013 25/24 Q1011 NOSIG=
06/02/2021 01:00:00Z	 SAID34 WIJJ 060100	METAR WIJJ 060100Z 30004KT 7000 SCT013 26/24 Q1011 NOSIG=
06/02/2021 01:30:00Z	 SAID34 WIJJ 060130	METAR WIJJ 060130Z 31005KT 7000 SCT012 26/24 Q1011 NOSIG=
06/02/2021 02:00:00Z	 SAID34 WIJJ 060200	METAR WIJJ 060200Z 32006KT 4500 HZ BKN012 27/25 Q1011 NOSIG=
06/02/2021 02:30:00Z	 SAID34 WIJJ 060230	METAR WIJJ 060230Z 33008KT 9999 SCT015 28/24 Q1011 NOSIG=
06/02/2021 03:00:00Z	 SAID34 WIJJ 060300	METAR WIJJ 060300Z 32008KT 9999 SCT014 28/24 Q1011 NOSIG=
06/02/2021 03:30:00Z	 SAID34 WIJJ 060330	METAR WIJJ 060330Z 33009KT 9999 SCT017 29/24 Q1011 NOSIG=
06/02/2021 04:00:00Z	 SAID34 WIJJ 060400	METAR WIJJ 060400Z 32005KT 9999 BKN016 30/24 Q1010 NOSIG=
06/02/2021 04:30:00Z	 SAID34 WIJJ 060430	METAR WIJJ 060430Z 35006KT 9999 -RA FEW015CB SCT016 28/25 Q1010 NOSIG RMK CB TO S AND SE=
06/02/2021 05:00:00Z	 SAID34 WIJJ 060500	METAR WIJJ 060500Z 34006KT 0750 -RA FEW015CB BKN016 28/25 Q1010 NOSIG RMK CB TO S=
06/02/2021 05:30:00Z	 SAID34 WIJJ 060530	METAR WIJJ 060530Z 30005KT 9999 FEW015CB SCT016 29/25 Q1009 RERA NOSIG RMK CB TO S=
06/02/2021 06:00:00Z	 SAID34 WIJJ 060600	METAR WIJJ 060600Z 33009KT 9999 BKN016 30/24 Q1008 NOSIG=
06/02/2021 06:30:00Z	 SAID34 WIJJ 060630	METAR WIJJ 060630Z 35008KT 9999 BKN016 31/24 Q1008 NOSIG=
06/02/2021 07:00:00Z	 SAID34 WIJJ 060700	METAR WIJJ 060700Z 35008KT 9999 BKN016 31/23 Q1007 NOSIG=
06/02/2021 07:30:00Z	 SAID34 WIJJ 060730	METAR WIJJ 060730Z 34008KT 9999 BKN016 31/23 Q1007 NOSIG=
06/02/2021 08:00:00Z	 SAID34 WIJJ 060800	METAR WIJJ 060800Z 35010KT 9999 SCT016 31/23 Q1006 NOSIG=
06/02/2021 08:30:00Z	 SAID34 WIJJ 060830	METAR WIJJ 060830Z 35007KT 9999 SCT016 31/23 Q1006 NOSIG=
06/02/2021 09:00:00Z	 SAID34 WIJJ 060900	METAR WIJJ 060900Z 01009KT 9999 SCT016 31/24 Q1006 NOSIG=
06/02/2021 09:30:00Z	 SAID34 WIJJ 060930	METAR WIJJ 060930Z 02009KT 9999 SCT016 30/23 Q1006 NOSIG=
06/02/2021 10:00:00Z	 SAID34 WIJJ 061000	METAR WIJJ 061000Z 36007KT 9999 SCT016 29/24 Q1007 NOSIG=
06/02/2021 10:30:00Z	 SAID34 WIJJ 061030	METAR WIJJ 061030Z 01007KT 9999 SCT016 29/23 Q1007 NOSIG=
06/02/2021 11:00:00Z	 SAID34 WIJJ 061100	METAR WIJJ 061100Z 01007KT 9999 SCT016 29/23 Q1007 NOSIG=
06/02/2021 11:30:00Z	 SAID34 WIJJ 061130	METAR WIJJ 061130Z 02006KT 9999 FEW016 28/23 Q1007 NOSIG=
06/02/2021 12:00:00Z	 SAID34 WIJJ 061200	METAR WIJJ 061200Z 01006KT 9999 FEW016 28/23 Q1008 NOSIG=
06/02/2021 12:30:00Z	 SAID34 WIJJ 061230	METAR WIJJ 061230Z 36005KT 9999 FEW015 27/23 Q1008 NOSIG=
06/02/2021 13:00:00Z	 SAID34 WIJJ 061300	METAR WIJJ 061300Z 36003KT 9999 FEW015 27/23 Q1008 NOSIG=
06/02/2021 13:30:00Z	 SAID34 WIJJ 061330	METAR WIJJ 061330Z 35002KT 9999 FEW015 27/23 Q1009 NOSIG=
06/02/2021 14:00:00Z	 SAID34 WIJJ 061400	METAR WIJJ 061400Z 03002KT 9999 FEW015 27/23 Q1009 NOSIG=
06/02/2021 14:30:00Z	 SAID34 WIJJ 061430	METAR WIJJ 061430Z 01002KT 9999 FEW015 26/23 Q1010 NOSIG=
06/02/2021 15:00:00Z	 SAID34 WIJJ 061500	METAR WIJJ 061500Z 04002KT 9999 FEW015 26/23 Q1010 NOSIG=
06/02/2021 15:30:00Z	 SAID34 WIJJ 061530	METAR WIJJ 061530Z 36002KT 9999 SCT015 26/23 Q1010 NOSIG=
06/02/2021 16:00:00Z	 SAID34 WIJJ 061600	METAR WIJJ 061600Z 02003KT 9999 SCT015 26/23 Q1010 NOSIG=
06/02/2021 16:30:00Z	 SAID34 WIJJ 061630	METAR WIJJ 061630Z 02003KT 9999 SCT015 26/23 Q1010 NOSIG=
06/02/2021 17:00:00Z	 SAID34 WIJJ 061700	METAR WIJJ 061700Z 33003KT 9999 FEW016 25/23 Q1010 NOSIG=
06/02/2021 17:30:00Z	 SAID34 WIJJ 061730	METAR WIJJ 061730Z 32002KT 9999 SCT016 25/23 Q1010 NOSIG=
06/02/2021 18:00:00Z	 SAID34 WIJJ 061800	METAR WIJJ 061800Z 35003KT 9999 FEW016 25/24 Q1010 NOSIG=
06/02/2021 18:30:00Z	 SAID34 WIJJ 061830	METAR WIJJ 061830Z 33004KT 7000 FEW016 25/24 Q1009 NOSIG=
06/02/2021 19:00:00Z	 SAID34 WIJJ 061900	METAR WIJJ 061900Z 35005KT 8000 FEW016 25/24 Q1009 NOSIG=
06/02/2021 19:30:00Z	 SAID34 WIJJ 061930	METAR WIJJ 061930Z 35005KT 8000 FEW016 25/23 Q1008 NOSIG=
06/02/2021 20:00:00Z	 SAID34 WIJJ 062000	METAR WIJJ 062000Z 32003KT 9999 SCT016 25/23 Q1009 NOSIG=
06/02/2021 20:30:00Z	 SAID34 WIJJ 062030	METAR WIJJ 062030Z 33003KT 9999 SCT016 25/23 Q1009 NOSIG=
06/02/2021 21:00:00Z	 SAID34 WIJJ 062100	METAR WIJJ 062100Z 34004KT 9999 SCT016 25/23 Q1009 NOSIG=
06/02/2021 21:30:00Z	 SAID34 WIJJ 062130	METAR WIJJ 062130Z 34004KT 9999 SCT016 25/23 Q1008 NOSIG=
06/02/2021 22:00:00Z	 SAID34 WIJJ 062200	METAR WIJJ 062200Z 33003KT 9999 SCT016 25/23 Q1008 NOSIG=
06/02/2021 22:30:00Z	 SAID34 WIJJ 062230	METAR WIJJ 062230Z 33005KT 9999 SCT016 25/23 Q1009 NOSIG=
06/02/2021 23:00:00Z	 SAID34 WIJJ 062300	METAR WIJJ 062300Z 34004KT 9999 FEW015 24/23 Q1008 NOSIG=
06/02/2021 23:30:00Z	 SAID34 WIJJ 062330	METAR WIJJ 062330Z 33004KT 9999 BKN014 24/23 Q1009 NOSIG=
07/02/2021 00:00:00Z	 SAID34 WIJJ 070000	METAR WIJJ 070000Z 33004KT 9999 FEW015 25/23 Q1009 NOSIG=
07/02/2021 00:30:00Z	 SAID34 WIJJ 070030	METAR WIJJ 070030Z 33005KT 9000 FEW015 25/24 Q1010 NOSIG=
07/02/2021 01:00:00Z	 SAID34 WIJJ 070100	METAR WIJJ 070100Z 32005KT 290V350 8000 FEW015 26/24 Q1010 NOSIG=
07/02/2021 01:30:00Z	 SAID34 WIJJ 070130	METAR WIJJ 070130Z 35009KT 9999 FEW015 27/24 Q1011 NOSIG=
07/02/2021 02:00:00Z	 SAID34 WIJJ 070200	METAR WIJJ 070200Z 34009KT 9999 SCT014 27/24 Q1011 NOSIG=
07/02/2021 02:30:00Z	 SAID34 WIJJ 070230	METAR WIJJ 070230Z 35009KT 310V010 9999 SCT015 28/24 Q1011 NOSIG=
07/02/2021 03:00:00Z	 SAID34 WIJJ 070300	METAR WIJJ 070300Z 34010KT 9999 BKN015 29/24 Q1011 NOSIG=
07/02/2021 03:30:00Z	 SAID34 WIJJ 070330	METAR WIJJ 070330Z 35009KT 320V020 9999 BKN015 29/24 Q1011 NOSIG=
07/02/2021 04:00:00Z	 SAID34 WIJJ 070400	METAR WIJJ 070400Z 35010KT 310V010 9999 BKN015 30/23 Q1010 NOSIG=
07/02/2021 04:30:00Z	 SAID34 WIJJ 070430	METAR WIJJ 070430Z 35011KT 320V020 9999 BKN015 30/23 Q1010 NOSIG=
07/02/2021 05:00:00Z	 SAID34 WIJJ 070500	METAR WIJJ 070500Z 35010KT 9999 SCT015 30/23 Q1010 NOSIG=
07/02/2021 05:30:00Z	 SAID34 WIJJ 070530	METAR WIJJ 070530Z 35009KT 300V020 9999 BKN015 30/23 Q1009 NOSIG=
07/02/2021 06:00:00Z	 SAID34 WIJJ 070600	METAR WIJJ 070600Z 35008KT 320V040 9999 BKN015 30/23 Q1009 NOSIG=
07/02/2021 06:30:00Z	 SAID34 WIJJ 070630	METAR WIJJ 070630Z 35009KT 320V040 9999 SCT015 30/23 Q1008 NOSIG=
07/02/2021 07:00:00Z	 SAID34 WIJJ 070700	METAR WIJJ 070700Z 34009KT 300V030 9999 SCT015 30/23 Q1007 NOSIG=
07/02/2021 07:30:00Z	 SAID34 WIJJ 070730	METAR WIJJ 070730Z 34008KT 300V010 9999 SCT015 30/23 Q1007 NOSIG=
07/02/2021 08:00:00Z	 SAID34 WIJJ 070800	METAR WIJJ 070800Z 35008KT 320V020 9999 SCT015 31/23 Q1007 NOSIG=
07/02/2021 08:30:00Z	 SAID34 WIJJ 070830	METAR WIJJ 070830Z 34006KT 280V030 9999 SCT015 31/24 Q1006 NOSIG=
07/02/2021 09:00:00Z	 SAID34 WIJJ 070900	METAR WIJJ 070900Z 02006KT 350V060 9999 SCT015 31/24 Q1006 NOSIG=
07/02/2021 09:30:00Z	 SAID34 WIJJ 070930	METAR WIJJ 070930Z 35007KT 320V030 9999 SCT015 31/24 Q1006 NOSIG=
07/02/2021 10:00:00Z	 SAID34 WIJJ 071000	METAR WIJJ 071000Z 36008KT 320V030 9999 SCT015 31/23 Q1006 NOSIG=
07/02/2021 10:30:00Z	 SAID34 WIJJ 071030	METAR WIJJ 071030Z 02010KT 9999 SCT015 29/23 Q1006 NOSIG=
07/02/2021 11:00:00Z	 SAID34 WIJJ 071100	METAR WIJJ 071100Z 02008KT 9000 -RA FEW014 SCT015 29/23 Q1007 NOSIG=
07/02/2021 11:30:00Z	 SAID34 WIJJ 071130	METAR WIJJ 071130Z 01006KT 9000 SCT014 28/24 Q1007 RERA NOSIG=
07/02/2021 12:00:00Z	 SAID34 WIJJ 071200	METAR WIJJ 071200Z 36006KT 9999 SCT014 28/24 Q1008 NOSIG=
07/02/2021 12:30:00Z	 SAID34 WIJJ 071230	METAR WIJJ 071230Z 01004KT 340V050 9999 SCT014 27/24 Q1008 NOSIG=
07/02/2021 13:00:00Z	 SAID34 WIJJ 071300	METAR WIJJ 071300Z 02003KT 350V050 9999 FEW015 27/24 Q1008 NOSIG=
07/02/2021 13:30:00Z	 SAID34 WIJJ 071330	METAR WIJJ 071330Z 03003KT 350V050 9999 FEW016 27/24 Q1009 NOSIG=
07/02/2021 14:00:00Z	 SAID34 WIJJ 071400	METAR WIJJ 071400Z 02005KT 9999 FEW016 27/24 Q1009 NOSIG=
07/02/2021 14:30:00Z	 SAID34 WIJJ 071430	METAR WIJJ 071430Z 35003KT 320V020 9999 FEW016 27/24 Q1010 NOSIG=
07/02/2021 15:00:00Z	 SAID34 WIJJ 071500	METAR WIJJ 071500Z 01003KT 330V030 9999 FEW016 26/24 Q1010 NOSIG=
07/02/2021 15:30:00Z	 SAID34 WIJJ 071530	METAR WIJJ 071530Z 01004KT 9999 FEW017 26/24 Q1010 NOSIG=
07/02/2021 16:00:00Z	 SAID34 WIJJ 071600	METAR WIJJ 071600Z 01003KT 330V030 9999 FEW016 26/24 Q1010 NOSIG=
07/02/2021 16:30:00Z	 SAID34 WIJJ 071630	METAR WIJJ 071630Z 36002KT 8000 FEW017 26/24 Q1010 NOSIG=
07/02/2021 17:00:00Z	 SAID34 WIJJ 071700	METAR WIJJ 071700Z 34001KT 8000 FEW015 25/24 Q1010 NOSIG=
07/02/2021 17:30:00Z	 SAID34 WIJJ 071730	METAR WIJJ 071730Z 05002KT 9000 BKN015 26/24 Q1010 NOSIG=
07/02/2021 18:00:00Z	 SAID34 WIJJ 071800	METAR WIJJ 071800Z 36002KT 9000 BKN015 26/24 Q1009 NOSIG=
07/02/2021 18:30:00Z	 SAID34 WIJJ 071830	METAR WIJJ 071830Z 33003KT 9000 BKN016 26/24 Q1009 NOSIG=
07/02/2021 19:00:00Z	 SAID34 WIJJ 071900	METAR WIJJ 071900Z 33003KT 9999 FEW016 26/24 Q1009 NOSIG=
07/02/2021 19:30:00Z	 SAID34 WIJJ 071930	METAR WIJJ 071930Z 34004KT 9000 FEW014 25/24 Q1009 NOSIG=
07/02/2021 20:00:00Z	 SAID34 WIJJ 072000	METAR WIJJ 072000Z 34003KT 300V010 9999 SCT015 25/24 Q1008 NOSIG=
07/02/2021 20:30:00Z	 SAID34 WIJJ 072030	METAR WIJJ 072030Z 33003KT 9000 FEW015 25/24 Q1009 NOSIG=
07/02/2021 21:00:00Z	 SAID34 WIJJ 072100	METAR WIJJ 072100Z 31004KT 8000 FEW015 25/24 Q1009 NOSIG=
07/02/2021 21:30:00Z	 SAID34 WIJJ 072130	METAR WIJJ 072130Z 28004KT 9999 FEW016 25/24 Q1009 NOSIG=
07/02/2021 22:00:00Z	 SAID34 WIJJ 072200	METAR WIJJ 072200Z 30004KT 9999 BKN015 25/24 Q1009 NOSIG=
07/02/2021 22:30:00Z	 SAID34 WIJJ 072230	METAR WIJJ 072230Z 33005KT 9999 FEW015 25/24 Q1009 NOSIG=
07/02/2021 23:00:00Z	 SAID34 WIJJ 072300	METAR WIJJ 072300Z 30004KT 9999 FEW013 25/24 Q1009 NOSIG=
07/02/2021 23:30:00Z	 SAID34 WIJJ 072330	METAR WIJJ 072330Z 29004KT 5000 HZ FEW012 25/24 Q1009 NOSIG=
08/02/2021 00:00:00Z	 SAID34 WIJJ 080000	METAR WIJJ 080000Z 29004KT 7000 FEW007 25/24 Q1010 NOSIG=
08/02/2021 00:30:00Z	 SAID34 WIJJ 080030	METAR WIJJ 080030Z 30005KT 9000 SCT013 25/24 Q1010 NOSIG=
08/02/2021 01:00:00Z	 SAID34 WIJJ 080100	METAR WIJJ 080100Z 31006KT 260V340 9999 SCT015 26/24 Q1010 NOSIG=
08/02/2021 01:30:00Z	 SAID34 WIJJ 080130	METAR WIJJ 080130Z 31007KT 9999 FEW016 27/24 Q1011 NOSIG=
08/02/2021 02:00:00Z	 SAID34 WIJJ 080200	METAR WIJJ 080200Z 33009KT 300V020 9999 SCT015 28/24 Q1011 NOSIG=
08/02/2021 02:30:00Z	 SAID34 WIJJ 080230	METAR WIJJ 080230Z 34010KT 9999 SCT016 28/24 Q1010 NOSIG=
08/02/2021 03:00:00Z	 SAID34 WIJJ 080300	METAR WIJJ 080300Z 34011KT 9999 SCT015 29/23 Q1010 NOSIG=
08/02/2021 03:30:00Z	 SAID34 WIJJ 080330	METAR WIJJ 080330Z 36010KT 310V040 9999 SCT015 30/23 Q1010 NOSIG=
08/02/2021 04:00:00Z	 SAID34 WIJJ 080400	METAR WIJJ 080400Z 34010KT 9999 SCT015 30/23 Q1010 NOSIG=
08/02/2021 04:30:00Z	 SAID34 WIJJ 080430	METAR WIJJ 080430Z 35010KT 9999 SCT015 30/24 Q1009 NOSIG=
08/02/2021 05:00:00Z	 SAID34 WIJJ 080500	METAR WIJJ 080500Z 32011KT 9999 BKN015 31/24 Q1009 NOSIG=
08/02/2021 05:30:00Z	 SAID34 WIJJ 080530	METAR WIJJ 080530Z 33008KT 310V020 9999 BKN015 31/24 Q1009 NOSIG=
08/02/2021 06:00:00Z	 SAID34 WIJJ 080600	METAR WIJJ 080600Z 32007KT 290V020 9999 BKN015 32/25 Q1008 NOSIG=
08/02/2021 06:30:00Z	 SAID34 WIJJ 080630	METAR WIJJ 080630Z 33008KT 280V020 9999 BKN015 31/24 Q1008 NOSIG=
08/02/2021 07:00:00Z	 SAID34 WIJJ 080700	METAR WIJJ 080700Z 35008KT 320V030 9999 BKN015 31/23 Q1007 NOSIG=
08/02/2021 07:30:00Z	 SAID34 WIJJ 080730	METAR WIJJ 080730Z 34006KT 300V030 9999 BKN015 31/24 Q1007 NOSIG=
08/02/2021 08:00:00Z	 SAID34 WIJJ 080800	METAR WIJJ 080800Z 34008KT 310V020 9999 BKN015 31/23 Q1007 NOSIG=
08/02/2021 08:30:00Z	 SAID34 WIJJ 080830	METAR WIJJ 080830Z 33008KT 9999 BKN015 31/24 Q1007 NOSIG=
08/02/2021 09:00:00Z	 SAID34 WIJJ 080900	METAR WIJJ 080900Z 35007KT 9999 SCT016 31/24 Q1007 NOSIG=
08/02/2021 09:30:00Z	 SAID34 WIJJ 080930	METAR WIJJ 080930Z 36007KT 330V030 9999 SCT015 31/24 Q1007 NOSIG=
08/02/2021 10:00:00Z	 SAID34 WIJJ 081000	METAR WIJJ 081000Z 02009KT 350V050 9999 SCT016 30/24 Q1007 NOSIG=
08/02/2021 10:30:00Z	 SAID34 WIJJ 081030	METAR WIJJ 081030Z 02009KT 9999 SCT016 29/24 Q1007 NOSIG=
08/02/2021 11:00:00Z	 SAID34 WIJJ 081100	METAR WIJJ 081100Z 02007KT 330V060 9999 SCT016 29/24 Q1007 NOSIG=
08/02/2021 11:30:00Z	 SAID34 WIJJ 081130	METAR WIJJ 081130Z 01007KT 9999 SCT016 29/24 Q1008 NOSIG=
08/02/2021 12:00:00Z	 SAID34 WIJJ 081200	METAR WIJJ 081200Z 01007KT 9999 FEW016 28/24 Q1008 NOSIG=
08/02/2021 12:30:00Z	 SAID34 WIJJ 081230	METAR WIJJ 081230Z 01006KT 9999 SCT015 28/24 Q1008 NOSIG=
08/02/2021 13:00:00Z	 SAID34 WIJJ 081300	METAR WIJJ 081300Z 02004KT 9999 FEW016 28/24 Q1009 NOSIG=
08/02/2021 13:30:00Z	 SAID34 WIJJ 081330	METAR WIJJ 081330Z 02004KT 9999 FEW016 28/24 Q1009 NOSIG=
08/02/2021 14:00:00Z	 SAID34 WIJJ 081400	METAR WIJJ 081400Z 02003KT 9999 FEW016 27/24 Q1009 NOSIG=
08/02/2021 14:30:00Z	 SAID34 WIJJ 081430	METAR WIJJ 081430Z 03003KT 9999 FEW017 27/24 Q1010 NOSIG=
08/02/2021 15:00:00Z	 SAID34 WIJJ 081500	METAR WIJJ 081500Z 03004KT 9999 FEW016 27/24 Q1010 NOSIG=
08/02/2021 15:30:00Z	 SAID34 WIJJ 081530	METAR WIJJ 081530Z 36005KT 9999 FEW017 26/24 Q1010 NOSIG=
08/02/2021 16:00:00Z	 SAID34 WIJJ 081600	METAR WIJJ 081600Z 01004KT 9999 SCT017 27/24 Q1010 NOSIG=
08/02/2021 16:30:00Z	 SAID34 WIJJ 081630	METAR WIJJ 081630Z 01003KT 350V050 9999 SCT016 26/24 Q1010 NOSIG=
08/02/2021 17:00:00Z	 SAID34 WIJJ 081700	METAR WIJJ 081700Z 36004KT 9999 FEW015 26/24 Q1010 NOSIG=
08/02/2021 17:30:00Z	 SAID34 WIJJ 081730	METAR WIJJ 081730Z 36004KT 9000 FEW015 26/24 Q1009 NOSIG=
08/02/2021 18:00:00Z	 SAID34 WIJJ 081800	METAR WIJJ 081800Z 36006KT 9999 FEW015 26/24 Q1009 NOSIG=
08/02/2021 18:30:00Z	 SAID34 WIJJ 081830	METAR WIJJ 081830Z 02004KT 8000 FEW015 26/24 Q1010 NOSIG=
08/02/2021 19:00:00Z	 SAID34 WIJJ 081900	METAR WIJJ 081900Z 34005KT 9999 FEW015 25/24 Q1009 NOSIG=
08/02/2021 19:30:00Z	 SAID34 WIJJ 081930	METAR WIJJ 081930Z 36005KT 9000 FEW015 25/24 Q1008 NOSIG=
08/02/2021 20:00:00Z	 SAID34 WIJJ 082000	METAR WIJJ 082000Z 35006KT 9000 FEW015 25/24 Q1009 NOSIG=
08/02/2021 20:30:00Z	 SAID34 WIJJ 082030	METAR WIJJ 082030Z 34006KT 9999 FEW015 25/24 Q1009 NOSIG=
08/02/2021 21:00:00Z	 SAID34 WIJJ 082100	METAR WIJJ 082100Z 33005KT 7000 SCT015 25/24 Q1008 NOSIG=
08/02/2021 21:30:00Z	 SAID34 WIJJ 082130	METAR WIJJ 082130Z 32004KT 8000 SCT015 25/24 Q1008 NOSIG=
08/02/2021 22:00:00Z	 SAID34 WIJJ 082200	METAR WIJJ 082200Z 32006KT 9999 SCT015 25/24 Q1008 NOSIG=
08/02/2021 22:30:00Z	 SAID34 WIJJ 082230	METAR WIJJ 082230Z 32005KT 9999 SCT013 25/24 Q1008 NOSIG=
08/02/2021 23:00:00Z	 SAID34 WIJJ 082300	METAR WIJJ 082300Z 29004KT 6000 SCT015 25/24 Q1009 NOSIG=
08/02/2021 23:30:00Z	 SAID34 WIJJ 082330	METAR WIJJ 082330Z 31006KT 7000 FEW015 25/24 Q1009 NOSIG=
09/02/2021 00:00:00Z	 SAID34 WIJJ 090000	METAR WIJJ 090000Z 30006KT 6000 FEW015 25/24 Q1009 NOSIG=
09/02/2021 00:30:00Z	 SAID34 WIJJ 090030	METAR WIJJ 090030Z 31006KT 9999 FEW015 26/24 Q1009 NOSIG=
09/02/2021 01:00:00Z	 SAID34 WIJJ 090100	METAR WIJJ 090100Z 32008KT 9999 FEW016 26/24 Q1010 NOSIG=
09/02/2021 01:30:00Z	 SAID34 WIJJ 090130	METAR WIJJ 090130Z 32008KT 9999 FEW017 26/24 Q1010 NOSIG=
09/02/2021 02:00:00Z	 SAID34 WIJJ 090200	METAR WIJJ 090200Z 31008KT 9999 SCT013 27/23 Q1010 NOSIG=
09/02/2021 02:30:00Z	 SAID34 WIJJ 090230	METAR WIJJ 090230Z 31007KT 9999 SCT014 27/23 Q1010 NOSIG=
09/02/2021 03:00:00Z	 SAID34 WIJJ 090300	METAR WIJJ 090300Z 31009KT 9999 SCT017 28/24 Q1010 NOSIG=
09/02/2021 03:30:00Z	 SAID34 WIJJ 090330	METAR WIJJ 090330Z 34006KT 9999 SCT018 28/24 Q1010 NOSIG=
09/02/2021 04:00:00Z	 SAID34 WIJJ 090400	METAR WIJJ 090400Z 34007KT 9999 SCT018 29/24 Q1010 NOSIG=
09/02/2021 04:30:00Z	 SAID34 WIJJ 090430	METAR WIJJ 090430Z 31008KT 9999 SCT018 29/24 Q1010 NOSIG=
09/02/2021 05:00:00Z	 SAID34 WIJJ 090500	METAR WIJJ 090500Z 34006KT 9999 SCT018 30/24 Q1009 NOSIG=
09/02/2021 05:30:00Z	 SAID34 WIJJ 090530	METAR WIJJ 090530Z 32007KT 9999 SCT018 30/24 Q1009 NOSIG=
09/02/2021 06:00:00Z	 SAID34 WIJJ 090600	METAR WIJJ 090600Z 35004KT 9999 SCT018 30/24 Q1008 NOSIG=
09/02/2021 06:30:00Z	 SAID34 WIJJ 090630	METAR WIJJ 090630Z 29005KT 9999 SCT018 31/24 Q1008 NOSIG=
09/02/2021 07:00:00Z	 SAID34 WIJJ 090700	METAR WIJJ 090700Z 33004KT 9999 SCT018 31/24 Q1007 NOSIG=
09/02/2021 07:30:00Z	 SAID34 WIJJ 090730	METAR WIJJ 090730Z 30005KT 9999 SCT018 31/24 Q1007 NOSIG=
09/02/2021 08:00:00Z	 SAID34 WIJJ 090800	METAR WIJJ 090800Z 32006KT 9999 SCT018 32/24 Q1006 NOSIG=
09/02/2021 08:30:00Z	 SAID34 WIJJ 090830	METAR WIJJ 090830Z 28008KT 9999 SCT018 32/24 Q1006 NOSIG=
09/02/2021 09:00:00Z	 SAID34 WIJJ 090900	METAR WIJJ 090900Z 32007KT 9999 FEW018 32/23 Q1006 NOSIG=
09/02/2021 09:30:00Z	 SAID34 WIJJ 090930	METAR WIJJ 090930Z 02005KT 9999 FEW018 32/23 Q1005 NOSIG=
09/02/2021 10:00:00Z	 SAID34 WIJJ 091000	METAR WIJJ 091000Z 36004KT 9999 FEW018 31/25 Q1006 NOSIG=
09/02/2021 10:30:00Z	 SAID34 WIJJ 091030	METAR WIJJ 091030Z 36005KT 9999 FEW018 30/25 Q1006 NOSIG=
09/02/2021 11:00:00Z	 SAID34 WIJJ 091100	METAR WIJJ 091100Z 01008KT 9999 FEW017 30/24 Q1006 NOSIG=
09/02/2021 11:30:00Z	 SAID34 WIJJ 091130	METAR WIJJ 091130Z 02004KT 9999 FEW017 29/24 Q1007 NOSIG=
09/02/2021 12:00:00Z	 SAID34 WIJJ 091200	METAR WIJJ 091200Z 36004KT 9999 FEW016 29/25 Q1007 NOSIG=
09/02/2021 12:30:00Z	 SAID34 WIJJ 091230	METAR WIJJ 091230Z 01006KT 9999 FEW016 28/24 Q1007 NOSIG=
09/02/2021 13:00:00Z	 SAID34 WIJJ 091300	METAR WIJJ 091300Z 01006KT 9999 FEW015 28/24 Q1008 NOSIG=
09/02/2021 13:30:00Z	 SAID34 WIJJ 091330	METAR WIJJ 091330Z 01005KT 340V040 9999 FEW015 28/24 Q1008 NOSIG=
09/02/2021 14:00:00Z	 SAID34 WIJJ 091400	METAR WIJJ 091400Z 36002KT 9999 FEW015 27/24 Q1009 NOSIG=
09/02/2021 14:30:00Z	 SAID34 WIJJ 091430	METAR WIJJ 091430Z 35002KT 9999 FEW015 27/24 Q1009 NOSIG=
09/02/2021 15:00:00Z	 SAID34 WIJJ 091500	METAR WIJJ 091500Z 18001KT 9999 FEW015 27/24 Q1009 NOSIG=
09/02/2021 15:30:00Z	 SAID34 WIJJ 091530	METAR WIJJ 091530Z 16002KT 7000 FEW015 27/24 Q1009 NOSIG=
09/02/2021 16:00:00Z	 SAID34 WIJJ 091600	METAR WIJJ 091600Z 17001KT 8000 FEW015 27/24 Q1009 NOSIG=
09/02/2021 16:30:00Z	 SAID34 WIJJ 091630	METAR WIJJ 091630Z 06001KT 8000 SCT014 26/24 Q1009 NOSIG=
09/02/2021 17:00:00Z	 SAID34 WIJJ 091700	METAR WIJJ 091700Z 04001KT 6000 FEW014 26/24 Q1008 NOSIG=
09/02/2021 17:30:00Z	 SAID34 WIJJ 091730	METAR WIJJ 091730Z 36001KT 9000 SCT014 26/24 Q1008 NOSIG=
09/02/2021 18:00:00Z	 SAID34 WIJJ 091800	METAR WIJJ 091800Z 01002KT 9000 SCT014 26/24 Q1008 NOSIG=
09/02/2021 18:30:00Z	 SAID34 WIJJ 091830	METAR WIJJ 091830Z 01002KT 9000 SCT014 26/24 Q1008 NOSIG=
09/02/2021 19:00:00Z	 SAID34 WIJJ 091900	METAR WIJJ 091900Z 36002KT 9999 SCT014 26/24 Q1007 NOSIG=
09/02/2021 19:30:00Z	 SAID34 WIJJ 091930	METAR WIJJ 091930Z 10002KT 7000 SCT014 26/24 Q1007 NOSIG=
09/02/2021 20:00:00Z	 SAID34 WIJJ 092000	METAR WIJJ 092000Z 07001KT 5000 SCT013 26/24 Q1007 NOSIG=
09/02/2021 20:30:00Z	 SAID34 WIJJ 092030	METAR WIJJ 092030Z 05001KT 5000 HZ FEW013 26/24 Q1007 NOSIG=
09/02/2021 21:00:00Z	 SAID34 WIJJ 092100	METAR WIJJ 092100Z 02001KT 4000 HZ SCT013 26/24 Q1007 NOSIG=
09/02/2021 21:30:00Z	 SAID34 WIJJ 092130	METAR WIJJ 092130Z 00000KT 3500 HZ SCT013 25/24 Q1007 NOSIG=
09/02/2021 22:00:00Z	 SAID34 WIJJ 092200	METAR WIJJ 092200Z 01001KT 5000 HZ SCT013 26/24 Q1008 NOSIG=
09/02/2021 22:30:00Z	 SAID34 WIJJ 092230	METAR WIJJ 092230Z 36001KT 6000 SCT012 25/24 Q1008 NOSIG=
09/02/2021 23:00:00Z	 SAID34 WIJJ 092300	METAR WIJJ 092300Z 00000KT 4000 HZ FEW013 25/24 Q1008 NOSIG=
09/02/2021 23:30:00Z	 SAID34 WIJJ 092330	METAR WIJJ 092330Z 03001KT 3700 HZ FEW013 25/24 Q1008 NOSIG=
10/02/2021 00:00:00Z	 SAID34 WIJJ 100000	METAR WIJJ 100000Z 17001KT 2000 BR FEW010 25/24 Q1009 NOSIG=
10/02/2021 00:30:00Z	 SAID34 WIJJ 100030	METAR WIJJ 100030Z 14001KT 2400 BR FEW017 25/24 Q1009 NOSIG=
10/02/2021 01:00:00Z	 SAID34 WIJJ 100100	METAR WIJJ 100100Z 06001KT 2600 HZ FEW014 26/25 Q1009 NOSIG=
10/02/2021 01:30:00Z	 SAID34 WIJJ 100130	METAR WIJJ 100130Z 34005KT 310V020 8000 FEW012 27/25 Q1010 NOSIG=
10/02/2021 02:00:00Z	 SAID34 WIJJ 100200	METAR WIJJ 100200Z 36008KT 340V040 9999 BKN012 28/25 Q1010 NOSIG=
10/02/2021 02:30:00Z	 SAID34 WIJJ 100230	METAR WIJJ 100230Z 35006KT 320V030 9999 BKN014 28/25 Q1010 NOSIG=
10/02/2021 03:00:00Z	 SAID34 WIJJ 100300	METAR WIJJ 100300Z 35006KT 320V030 9999 BKN012 29/24 Q1010 NOSIG=
10/02/2021 03:30:00Z	 SAID34 WIJJ 100330	METAR WIJJ 100330Z 34006KT 310V040 9999 BKN015 30/25 Q1010 NOSIG=
10/02/2021 04:00:00Z	 SAID34 WIJJ 100400	METAR WIJJ 100400Z 33005KT 260V360 9999 BKN015 30/24 Q1010 NOSIG=
10/02/2021 04:30:00Z	 SAID34 WIJJ 100430	METAR WIJJ 100430Z 35005KT 310V040 9999 BKN015 30/25 Q1009 NOSIG=
10/02/2021 05:00:00Z	 SAID34 WIJJ 100500	METAR WIJJ 100500Z 35005KT 320V050 9999 BKN016 31/25 Q1009 NOSIG=
10/02/2021 05:30:00Z	 SAID34 WIJJ 100530	METAR WIJJ 100530Z 31006KT 9999 BKN017 33/24 Q1008 NOSIG=
10/02/2021 06:00:00Z	 SAID34 WIJJ 100600	METAR WIJJ 100600Z 35009KT 300V020 9999 BKN017 33/24 Q1007 NOSIG=
10/02/2021 06:30:00Z	 SAID34 WIJJ 100630	METAR WIJJ 100630Z 36009KT 320V080 9999 BKN017 32/24 Q1007 NOSIG=
10/02/2021 07:00:00Z	 SAID34 WIJJ 100700	METAR WIJJ 100700Z 01008KT 330V060 9999 BKN016 32/25 Q1007 NOSIG=
10/02/2021 07:30:00Z	 SAID34 WIJJ 100730	METAR WIJJ 100730Z 05008KT 010V080 9999 BKN016 32/25 Q1006 NOSIG=
10/02/2021 08:00:00Z	 SAID34 WIJJ 100800	METAR WIJJ 100800Z 02007KT 350V050 9999 FEW015CB SCT016 31/25 Q1006 NOSIG RMK CB TO E=
10/02/2021 08:30:00Z	 SAID34 WIJJ 100830	METAR WIJJ 100830Z 01009KT 9999 FEW015CB SCT016 31/25 Q1005 NOSIG RMK CB TO E AND SE=
10/02/2021 09:00:00Z	 SAID34 WIJJ 100900	METAR WIJJ 100900Z 01007KT 9999 FEW015CB FEW016 32/25 Q1006 NOSIG RMK CB TO E=
10/02/2021 09:30:00Z	 SAID34 WIJJ 100930	METAR WIJJ 100930Z 03008KT 9999 VCTS FEW015CB 30/24 Q1006 NOSIG RMK CB TO E AND SW=
10/02/2021 10:00:00Z	 SAID34 WIJJ 101000	METAR WIJJ 101000Z 02008KT 350V050 9999 FEW016 30/25 Q1006 NOSIG=
10/02/2021 10:30:00Z	 SAID34 WIJJ 101030	METAR WIJJ 101030Z 05007KT 9999 FEW017 30/25 Q1006 NOSIG=
10/02/2021 11:00:00Z	 SAID34 WIJJ 101100	METAR WIJJ 101100Z 04006KT 9999 FEW017CB 29/25 Q1007 NOSIG RMK CB TO S=
10/02/2021 11:30:00Z	 SAID34 WIJJ 101130	METAR WIJJ 101130Z 04006KT 020V080 9999 FEW017 28/25 Q1007 NOSIG=
10/02/2021 12:00:00Z	 SAID34 WIJJ 101200	METAR WIJJ 101200Z 03005KT 350V050 9999 FEW017CB 28/25 Q1007 NOSIG RMK CB TO S AND SW=
10/02/2021 12:30:00Z	 SAID34 WIJJ 101230	METAR WIJJ 101230Z 01005KT 9999 FEW015CB 28/25 Q1007 RMK CB TO SW=
10/02/2021 13:00:00Z	 SAID34 WIJJ 101300	METAR WIJJ 101300Z 08002KT 9000 FEW015CB FEW016 28/25 Q1009 RMK CB TO SW=
10/02/2021 13:30:00Z	 SAID34 WIJJ 101330	METAR WIJJ 101330Z 07003KT 9999 FEW015CB FEW016 28/25 Q1009 RMK CB TO S AND SW=
10/02/2021 14:00:00Z	 SAID34 WIJJ 101400	METAR WIJJ 101400Z 14006KT 9999 FEW015CB FEW016 27/25 Q1010 RMK CB TO S AND SW=
10/02/2021 14:30:00Z	 SAID34 WIJJ 101430	METAR WIJJ 101430Z 15009KT 9999 FEW010CB SCT013 27/25 Q1010 RMK CB TO SE AND SW=
10/02/2021 15:00:00Z	 SAID34 WIJJ 101500	METAR WIJJ 101500Z 13007KT 9999 TS FEW015CB FEW016 26/21 Q1011 RMK CB TO SE AND W=
10/02/2021 15:30:00Z	 SAID34 WIJJ 101530	METAR WIJJ 101530Z 12004KT 9999 FEW015CB FEW016 25/22 Q1010 RMK CB TO W=
10/02/2021 16:00:00Z	 SAID34 WIJJ 101600	METAR WIJJ 101600Z 07003KT 9999 FEW015CB FEW016 25/23 Q1010 RMK CB TO W=
10/02/2021 16:30:00Z	 SAID34 WIJJ 101630	METAR WIJJ 101630Z 12002KT 9999 FEW015CB FEW016 25/22 Q1010 RMK CB TO W=
10/02/2021 17:00:00Z	 SAID34 WIJJ 101700	METAR WIJJ 101700Z 13001KT 9999 FEW015 25/22 Q1010 NOSIG=
10/02/2021 17:30:00Z	 SAID34 WIJJ 101730	METAR WIJJ 101730Z 30002KT 9999 FEW015 25/22 Q1009 NOSIG=
10/02/2021 18:00:00Z	 SAID34 WIJJ 101800	METAR WIJJ 101800Z 29001KT 9999 FEW016 25/22 Q1008 NOSIG=
10/02/2021 18:30:00Z	 SAID34 WIJJ 101830	METAR WIJJ 101830Z 05002KT 9999 FEW016 25/22 Q1008 NOSIG=
10/02/2021 19:00:00Z	 SAID34 WIJJ 101900	METAR WIJJ 101900Z 30005KT 9999 FEW015 25/22 Q1008 NOSIG=
10/02/2021 19:30:00Z	 SAID34 WIJJ 101930	METAR WIJJ 101930Z 31005KT 9999 FEW016 25/22 Q1008 NOSIG=
10/02/2021 20:00:00Z	 SAID34 WIJJ 102000	METAR WIJJ 102000Z 34003KT 9999 FEW015 25/22 Q1008 NOSIG=
10/02/2021 20:30:00Z	 SAID34 WIJJ 102030	METAR WIJJ 102030Z 00000KT 9000 FEW045 25/22 Q1008 NOSIG=
10/02/2021 21:00:00Z	 SAID34 WIJJ 102100	METAR WIJJ 102100Z 14003KT 9000 FEW015 25/23 Q1008 NOSIG=
10/02/2021 21:30:00Z	 SAID34 WIJJ 102130	METAR WIJJ 102130Z 14003KT 8000 SCT014 23/22 Q1008 NOSIG=
10/02/2021 22:13:00Z	 SAID34 WIJJ 102213	METAR WIJJ 102213Z 15004KT 9999 BKN012 24/22 Q1008 NOSIG=
10/02/2021 22:30:00Z	 SAID34 WIJJ 102230	METAR WIJJ 102230Z 17002KT 9999 BKN017 24/22 Q1008 NOSIG=
10/02/2021 23:00:00Z	 SAID34 WIJJ 102300	METAR WIJJ 102300Z 17002KT 9000 -RA BKN013 24/22 Q1009=
10/02/2021 23:30:00Z	 SAID34 WIJJ 102330	METAR WIJJ 102330Z 15002KT 9999 FEW012CB SCT013 24/22 Q1009 RMK CB TO NW=
11/02/2021 00:00:00Z	 SAID34 WIJJ 110000	METAR WIJJ 110000Z 00000KT 9999 FEW015CB SCT016 24/22 Q1009 RMK CB TO NW=
11/02/2021 00:30:00Z	 SAID34 WIJJ 110030	METAR WIJJ 110030Z 33002KT 5000 HZ FEW015CB SCT016 24/23 Q1010 NOSIG RMK CB TO N=
11/02/2021 01:00:00Z	 SAID34 WIJJ 110100	METAR WIJJ 110100Z 33002KT 6000 FEW015CB SCT016 25/23 Q1010 NOSIG RMK CB TO N - NE=
11/02/2021 01:30:00Z	 SAID34 WIJJ 110130	METAR WIJJ 110130Z 33007KT 9999 SCT016 27/22 Q1010 NOSIG=
11/02/2021 02:00:00Z	 SAID34 WIJJ 110200	METAR WIJJ 110200Z 33007KT 9000 BKN017 27/24 Q1011 NOSIG=
11/02/2021 02:30:00Z	 SAID34 WIJJ 110230	METAR WIJJ 110230Z 35007KT 8000 BKN017 27/24 Q1011 NOSIG=
11/02/2021 03:00:00Z	 SAID34 WIJJ 110300	METAR WIJJ 110300Z 32006KT 7000 BKN012 27/25 Q1011 NOSIG=
11/02/2021 03:30:00Z	 SAID34 WIJJ 110330	METAR WIJJ 110330Z 34006KT 8000 BKN012 27/25 Q1011 NOSIG=
11/02/2021 04:00:00Z	 SAID34 WIJJ 110400	METAR WIJJ 110400Z 35007KT 8000 BKN015 29/25 Q1011 NOSIG=
11/02/2021 04:30:00Z	 SAID34 WIJJ 110430	METAR WIJJ 110430Z 35009KT 9999 SCT016 30/24 Q1010 NOSIG=
11/02/2021 05:00:00Z	 SAID34 WIJJ 110500	METAR WIJJ 110500Z 330//KT 9999 SCT016 30/25 Q1010 NOSIG=
11/02/2021 05:30:00Z	 SAID34 WIJJ 110530	METAR WIJJ 110530Z 34006KT 9999 SCT016 31/24 Q1009 NOSIG=
11/02/2021 06:00:00Z	 SAID34 WIJJ 110600	METAR WIJJ 110600Z 34005KT 9999 BKN016 31/25 Q1008 NOSIG=
11/02/2021 06:30:00Z	 SAID34 WIJJ 110630	METAR WIJJ 110630Z 30006KT 9999 SCT016 31/25 Q1008 NOSIG=
11/02/2021 07:00:00Z	 SAID34 WIJJ 110700	METAR WIJJ 110700Z 29005KT 9999 SCT016 31/24 Q1008 NOSIG=
11/02/2021 07:30:00Z	 SAID34 WIJJ 110730	METAR WIJJ 110730Z 33005KT 9999 SCT016 31/24 Q1007 NOSIG=
11/02/2021 08:00:00Z	 SAID34 WIJJ 110800	METAR WIJJ 110800Z 36007KT 9999 BKN016 31/24 Q1006 NOSIG=
11/02/2021 08:30:00Z	 SAID34 WIJJ 110830	METAR WIJJ 110830Z 35008KT 9999 SCT016 31/24 Q1006 NOSIG=
11/02/2021 09:00:00Z	 SAID34 WIJJ 110900	METAR WIJJ 110900Z 34004KT 9999 SCT016 31/25 Q1006 NOSIG=
11/02/2021 09:30:00Z	 SAID34 WIJJ 110930	METAR WIJJ 110930Z 36004KT 9999 SCT016 31/24 Q1006 NOSIG=
11/02/2021 10:00:00Z	 SAID34 WIJJ 111000	METAR WIJJ 111000Z 01007KT 9999 SCT016 31/24 Q1006 NOSIG=
11/02/2021 10:30:00Z	 SAID34 WIJJ 111030	METAR WIJJ 111030Z 02007KT 9999 BKN015 30/24 Q1006 NOSIG=
11/02/2021 11:00:00Z	 SAID34 WIJJ 111100	METAR WIJJ 111100Z 29006KT 2500 -TSRA FEW015CB SCT016 29/25 Q1007 TEMPO FM1120 6000 -RA RMK CB ALL RWY=
11/02/2021 11:30:00Z	 SAID34 WIJJ 111130	METAR WIJJ 111130Z 35003KT 7000 -RA FEW014CB SCT015 27/25 Q1007 RETS NOSIG RMK CB TO NW AND SE=
11/02/2021 12:00:00Z	 SAID34 WIJJ 111200	METAR WIJJ 111200Z 01004KT 9999 FEW015CB SCT016 28/25 Q1007 RERA NOSIG RMK CB TO SW AND W=
11/02/2021 12:30:00Z	 SAID34 WIJJ 111230	METAR WIJJ 111230Z 01006KT 9999 BKN016 27/25 Q1008 NOSIG=
11/02/2021 13:00:00Z	 SAID34 WIJJ 111300	METAR WIJJ 111300Z 02005KT 350V050 9999 BKN015 27/24 Q1008 NOSIG=
11/02/2021 13:30:00Z	 SAID34 WIJJ 111330	METAR WIJJ 111330Z 01003KT 9999 SCT016 27/24 Q1008 NOSIG=
11/02/2021 14:00:00Z	 SAID34 WIJJ 111400	METAR WIJJ 111400Z 01003KT 340V040 9999 SCT016 27/24 Q1009 NOSIG=
11/02/2021 14:30:00Z	 SAID34 WIJJ 111430	METAR WIJJ 111430Z 01002KT 9999 SCT016 26/24 Q1009 NOSIG=
11/02/2021 15:00:00Z	 SAID34 WIJJ 111500	METAR WIJJ 111500Z 02003KT 9999 SCT016 26/24 Q1010 NOSIG=
11/02/2021 15:30:00Z	 SAID34 WIJJ 111530	METAR WIJJ 111530Z 02004KT 9999 SCT016 26/24 Q1010 NOSIG=
11/02/2021 16:00:00Z	 SAID34 WIJJ 111600	METAR WIJJ 111600Z 02003KT 9999 BKN016 26/24 Q1010 NOSIG=
11/02/2021 16:30:00Z	 SAID34 WIJJ 111630	METAR WIJJ 111630Z 03003KT 8000 BKN016 26/24 Q1010 NOSIG=
11/02/2021 17:00:00Z	 SAID34 WIJJ 111700	METAR WIJJ 111700Z 04003KT 360V080 9000 FEW015 26/24 Q1010 NOSIG=
11/02/2021 17:30:00Z	 SAID34 WIJJ 111730	METAR WIJJ 111730Z 04002KT 8000 FEW015 25/24 Q1010 NOSIG=
11/02/2021 18:00:00Z	 SAID34 WIJJ 111800	METAR WIJJ 111800Z 06003KT 8000 FEW016 25/24 Q1009 NOSIG=
11/02/2021 18:30:00Z	 SAID34 WIJJ 111830	METAR WIJJ 111830Z 03004KT 7000 FEW016 25/24 Q1008 NOSIG=
11/02/2021 19:00:00Z	 SAID34 WIJJ 111900	METAR WIJJ 111900Z 02003KT 7000 FEW016 25/24 Q1008 NOSIG=
11/02/2021 19:30:00Z	 SAID34 WIJJ 111930	METAR WIJJ 111930Z 36003KT 7000 FEW016 26/24 Q1008 NOSIG=
11/02/2021 20:00:00Z	 SAID34 WIJJ 112000	METAR WIJJ 112000Z 01003KT 7000 SCT016 25/24 Q1008 NOSIG=
11/02/2021 20:30:00Z	 SAID34 WIJJ 112030	METAR WIJJ 112030Z 36003KT 8000 FEW015 25/24 Q1008 NOSIG=
11/02/2021 21:00:00Z	 SAID34 WIJJ 112100	METAR WIJJ 112100Z 34004KT 9000 FEW015 25/24 Q1008 NOSIG=
11/02/2021 21:30:00Z	 SAID34 WIJJ 112130	METAR WIJJ 112130Z 34004KT 310V010 9999 FEW015 25/24 Q1008 NOSIG=
11/02/2021 22:00:00Z	 SAID34 WIJJ 112200	METAR WIJJ 112200Z 35004KT 9999 FEW015 25/24 Q1009 NOSIG=
11/02/2021 22:30:00Z	 SAID34 WIJJ 112230	METAR WIJJ 112230Z 36003KT 330V030 9999 FEW015 25/24 Q1009 NOSIG=
11/02/2021 23:00:00Z	 SAID34 WIJJ 112300	METAR WIJJ 112300Z 31002KT 4000 HZ FEW015 24/23 Q1009 NOSIG=
11/02/2021 23:30:00Z	 SAID34 WIJJ 112330	METAR WIJJ 112330Z 25003KT 4000 HZ SCT014 24/23 Q1010 NOSIG=
12/02/2021 00:00:00Z	 SAID34 WIJJ 120000	METAR WIJJ 120000Z 31004KT 5000 HZ BKN014 25/24 Q1010 NOSIG=
12/02/2021 00:30:00Z	 SAID34 WIJJ 120030	METAR WIJJ 120030Z 30004KT 260V320 8000 SCT015 26/25 Q1010 NOSIG=
12/02/2021 01:00:00Z	 SAID34 WIJJ 120100	METAR WIJJ 120100Z 30006KT 270V330 9999 SCT012 26/24 Q1012 NOSIG=
12/02/2021 01:30:00Z	 SAID34 WIJJ 120130	METAR WIJJ 120130Z 32005KT 280V360 9999 SCT012 27/24 Q1012 NOSIG=
12/02/2021 02:00:00Z	 SAID34 WIJJ 120200	METAR WIJJ 120200Z 33006KT 300V360 9999 SCT014 28/24 Q1012 NOSIG=
12/02/2021 02:30:00Z	 SAID34 WIJJ 120230	METAR WIJJ 120230Z 36010KT 9999 BKN014 28/24 Q1012 NOSIG=
12/02/2021 03:00:00Z	 SAID34 WIJJ 120300	METAR WIJJ 120300Z 34008KT 9999 SCT015 29/25 Q1012 NOSIG=
12/02/2021 03:30:00Z	 SAID34 WIJJ 120330	METAR WIJJ 120330Z 35008KT 9999 SCT015 29/25 Q1012 NOSIG=
12/02/2021 04:00:00Z	 SAID34 WIJJ 120400	METAR WIJJ 120400Z 36009KT 320V020 9999 -RA BKN015 29/24 Q1012 NOSIG=
12/02/2021 04:30:00Z	 SAID34 WIJJ 120430	METAR WIJJ 120430Z 34009KT 9999 -RA BKN015 28/25 Q1011 NOSIG=
12/02/2021 05:00:00Z	 SAID34 WIJJ 120500	METAR WIJJ 120500Z 32008KT 280V350 9999 SCT015 30/25 Q1010 NOSIG=
12/02/2021 05:30:00Z	 SAID34 WIJJ 120530	METAR WIJJ 120530Z 35008KT 320V030 9999 BKN015 31/24 Q1010 NOSIG=
12/02/2021 06:00:00Z	 SAID34 WIJJ 120600	METAR WIJJ 120600Z 36009KT 9999 BKN015 29/25 Q1010 RERA NOSIG=
12/02/2021 06:30:00Z	 SAID34 WIJJ 120630	METAR WIJJ 120630Z 35012KT 320V030 9999 BKN015 30/24 Q1009 NOSIG=
12/02/2021 07:00:00Z	 SAID34 WIJJ 120700	METAR WIJJ 120700Z 36008KT 310V040 9999 BKN015 31/25 Q1008 NOSIG=
12/02/2021 07:30:00Z	 SAID34 WIJJ 120730	METAR WIJJ 120730Z 34011KT 320V020 6000 -RA BKN015 30/24 Q1008 NOSIG=
12/02/2021 08:00:00Z	 SAID34 WIJJ 120800	METAR WIJJ 120800Z 33012KT 5000 -RA BKN013 30/25 Q1008 NOSIG=
12/02/2021 08:30:00Z	 SAID34 WIJJ 120830	METAR WIJJ 120830Z 31010KT 6000 -RA SCT010 27/24 Q1008 TEMPO TL0850 4000 -RA=
12/02/2021 09:00:00Z	 SAID34 WIJJ 120900	METAR WIJJ 120900Z 36006KT 330V040 9999 SCT015 27/25 Q1008 RERA NOSIG=
12/02/2021 09:30:00Z	 SAID34 WIJJ 120930	METAR WIJJ 120930Z 36005KT 330V030 9999 FEW015CB SCT016 27/25 Q1008 NOSIG RMK CB TO S=
12/02/2021 10:00:00Z	 SAID34 WIJJ 121000	METAR WIJJ 121000Z 36009KT 9999 FEW015CB SCT016 28/23 Q1008 NOSIG=
12/02/2021 10:30:00Z	 SAID34 WIJJ 121030	METAR WIJJ 121030Z 02004KT 9999 FEW015CB SCT016 28/24 Q1008 NOSIG RMK CB TO SE=
12/02/2021 11:00:00Z	 SAID34 WIJJ 121100	METAR WIJJ 121100Z 05003KT 9999 FEW015 SCT016 28/24 Q1009 NOSIG=
12/02/2021 11:30:00Z	 SAID34 WIJJ 121130	METAR WIJJ 121130Z 05004KT 8000 FEW015CB 27/24 Q1009 NOSIG RMK CB TO SE=
12/02/2021 12:00:00Z	 SAID34 WIJJ 121200	METAR WIJJ 121200Z 04003KT 9000 SCT015 28/24 Q1010 NOSIG=
12/02/2021 12:30:00Z	 SAID34 WIJJ 121230	METAR WIJJ 121230Z 07001KT 9999 SCT015 26/25 Q1010 NOSIG=
12/02/2021 13:00:00Z	 SAID34 WIJJ 121300	METAR WIJJ 121300Z 04003KT 9000 SCT016 26/24 Q1010 NOSIG=
12/02/2021 13:30:00Z	 SAID34 WIJJ 121330	METAR WIJJ 121330Z 04003KT 9999 FEW016 26/24 Q1010 NOSIG=
12/02/2021 14:00:00Z	 SAID34 WIJJ 121400	METAR WIJJ 121400Z 03003KT 9999 FEW016 26/24 Q1011 NOSIG=
12/02/2021 14:30:00Z	 SAID34 WIJJ 121430	METAR WIJJ 121430Z 02002KT 9999 FEW016 26/24 Q1011 NOSIG=
12/02/2021 15:00:00Z	 SAID34 WIJJ 121500	METAR WIJJ 121500Z 02003KT 9999 FEW016 26/24 Q1011 NOSIG=
12/02/2021 15:30:00Z	 SAID34 WIJJ 121530	METAR WIJJ 121530Z 03003KT 8000 FEW016 26/24 Q1011 NOSIG=
12/02/2021 16:00:00Z	 SAID34 WIJJ 121600	METAR WIJJ 121600Z 03003KT 9999 FEW017 26/24 Q1011 NOSIG=
12/02/2021 16:30:00Z	 SAID34 WIJJ 121630	METAR WIJJ 121630Z 03002KT 9999 FEW017 26/24 Q1011 NOSIG=
12/02/2021 17:00:00Z	 SAID34 WIJJ 121700	METAR WIJJ 121700Z 05001KT 9000 FEW017 25/24 Q1011 NOSIG=
12/02/2021 18:00:00Z	 SAID34 WIJJ 121800	METAR WIJJ 121800Z 09001KT 5000 BR FEW013 24/24 Q1011 NOSIG=
12/02/2021 18:30:00Z	 SAID34 WIJJ 121830	METAR WIJJ 121830Z 15002KT 4600 BR FEW013 24/24 Q1010 NOSIG=
12/02/2021 19:00:00Z	 SAID34 WIJJ 121900	METAR WIJJ 121900Z 00000KT 3400 BR FEW015 25/24 Q1010 NOSIG=
12/02/2021 19:30:00Z	 SAID34 WIJJ 121930	METAR WIJJ 121930Z 10001KT 2800 BR FEW013 24/23 Q1010 NOSIG=
12/02/2021 20:00:00Z	 SAID34 WIJJ 122000	METAR WIJJ 122000Z 18001KT 1800 BR FEW015 24/24 Q1010 NOSIG=
12/02/2021 20:30:00Z	 SAID34 WIJJ 122030	METAR WIJJ 122030Z 15001KT 1700 BR FEW015 24/24 Q1010 NOSIG=
12/02/2021 21:00:00Z	 SAID34 WIJJ 122100	METAR WIJJ 122100Z 14001KT 1900 BR FEW014 24/24 Q1010 NOSIG=
12/02/2021 21:30:00Z	 SAID34 WIJJ 122130	METAR WIJJ 122130Z 18001KT 2500 BR SCT013 24/24 Q1010 NOSIG=
12/02/2021 22:00:00Z	 SAID34 WIJJ 122200	METAR WIJJ 122200Z 21001KT 3200 BR FEW013 24/24 Q1010 NOSIG=
12/02/2021 22:30:00Z	 SAID34 WIJJ 122230	METAR WIJJ 122230Z 13001KT 3000 BR SCT013 24/24 Q1011 NOSIG=
12/02/2021 23:00:00Z	 SAID34 WIJJ 122300	METAR WIJJ 122300Z 00000KT 3400 BR SCT005 24/24 Q1011 NOSIG=
12/02/2021 23:30:00Z	 SAID34 WIJJ 122330	METAR WIJJ 122330Z 35001KT 3000 BR FEW015CB 24/24 Q1011 NOSIG RMK CB TO S AND SW=
13/02/2021 00:00:00Z	 SAID34 WIJJ 130000	METAR WIJJ 130000Z 05001KT 1800 BR FEW015 24/24 Q1011 NOSIG=
13/02/2021 00:30:00Z	 SAID34 WIJJ 130030	METAR WIJJ 130030Z 32002KT 3200 HZ FEW015 25/24 Q1012=
13/02/2021 01:00:00Z	 SAID34 WIJJ 130100	METAR WIJJ 130100Z 04003KT 6000 FEW015 26/24 Q1012 NOSIG=
13/02/2021 01:30:00Z	 SAID34 WIJJ 130130	METAR WIJJ 130130Z 36005KT 9999 FEW016 27/24 Q1012 NOSIG=
13/02/2021 02:00:00Z	 SAID34 WIJJ 130200	METAR WIJJ 130200Z 36005KT 9999 BKN014 27/24 Q1013 NOSIG=
13/02/2021 02:30:00Z	 SAID34 WIJJ 130230	METAR WIJJ 130230Z 33005KT 9999 SCT018 27/24 Q1013 NOSIG=
13/02/2021 03:00:00Z	 SAID34 WIJJ 130300	METAR WIJJ 130300Z 29005KT 9999 -RA SCT018TCU 28/24 Q1013=
13/02/2021 03:30:00Z	 SAID34 WIJJ 130330	METAR WIJJ 130330Z 28005KT 9999 BKN018 27/24 Q1013 NOSIG=
13/02/2021 04:00:00Z	 SAID34 WIJJ 130400	METAR WIJJ 130400Z 29006KT 9999 SCT016TCU 28/25 Q1012=
13/02/2021 04:30:00Z	 SAID34 WIJJ 130430	METAR WIJJ 130430Z 01004KT 9999 SCT018 30/25 Q1012 NOSIG=
13/02/2021 05:00:00Z	 SAID34 WIJJ 130500	METAR WIJJ 130500Z 01006KT 9999 SCT018 30/24 Q1011 NOSIG=
13/02/2021 05:30:00Z	 SAID34 WIJJ 130530	METAR WIJJ 130530Z 33006KT 9999 SCT018 30/24 Q1011 NOSIG=
13/02/2021 06:00:00Z	 SAID34 WIJJ 130600	METAR WIJJ 130600Z 35007KT 9999 SCT018 31/24 Q1010 NOSIG=
13/02/2021 06:30:00Z	 SAID34 WIJJ 130630	METAR WIJJ 130630Z 36006KT 9999 SCT018 31/24 Q1010 NOSIG=
13/02/2021 07:00:00Z	 SAID34 WIJJ 130700	METAR WIJJ 130700Z 36006KT 9999 FEW016CB FEW018 30/24 Q1010 RMK CB TO N=
13/02/2021 07:30:00Z	 SAID34 WIJJ 130730	METAR WIJJ 130730Z 01007KT 350V050 9999 SCT018 30/24 Q1009 NOSIG=
13/02/2021 08:00:00Z	 SAID34 WIJJ 130800	METAR COR WIJJ 130800Z 36009KT 9999 SCT017 31/24 Q1009 NOSIG=
13/02/2021 08:30:00Z	 SAID34 WIJJ 130830	METAR WIJJ 130830Z 36004KT 310V070 9999 SCT017 31/24 Q1008 NOSIG=
13/02/2021 09:00:00Z	 SAID34 WIJJ 130900	METAR WIJJ 130900Z 02008KT 340V070 9999 -RA BKN015 31/24 Q1008 NOSIG=
13/02/2021 09:30:00Z	 SAID34 WIJJ 130930	METAR WIJJ 130930Z 36005G17KT 310V040 0300 RA FEW010CB BKN011 26/25 Q1009 NOSIG RMK CB ALQDS=
13/02/2021 10:00:00Z	 SAID34 WIJJ 131000	METAR WIJJ 131000Z 05003KT 9999 BKN015 27/24 Q1008 RMK RERA=
13/02/2021 10:30:00Z	 SAID34 WIJJ 131030	METAR WIJJ 131030Z 05002KT 9999 SCT017 28/26 Q1008 NOSIG=
13/02/2021 11:00:00Z	 SAID34 WIJJ 131100	METAR WIJJ 131100Z 36005KT 9999 FEW017 29/27 Q1009 NOSIG=
13/02/2021 11:30:00Z	 SAID34 WIJJ 131130	METAR WIJJ 131130Z 01003KT 9999 FEW017 27/26 Q1009 NOSIG=
13/02/2021 12:00:00Z	 SAID34 WIJJ 131200	METAR WIJJ 131200Z 01004KT 9999 FEW016 27/25 Q1010 NOSIG=
13/02/2021 12:30:00Z	 SAID34 WIJJ 131230	METAR WIJJ 131230Z 01004KT 9999 FEW015 27/25 Q1011 NOSIG=
13/02/2021 13:00:00Z	 SAID34 WIJJ 131300	METAR WIJJ 131300Z 36005KT 9999 FEW016 26/25 Q1010 NOSIG=
13/02/2021 13:30:00Z	 SAID34 WIJJ 131330	METAR WIJJ 131330Z 35004KT 9999 FEW015 26/25 Q1011 NOSIG=
13/02/2021 14:00:00Z	 SAID34 WIJJ 131400	METAR WIJJ 131400Z 36004KT 9999 FEW016 27/25 Q1011 NOSIG=
13/02/2021 14:30:00Z	 SAID34 WIJJ 131430	METAR WIJJ 131430Z 01002KT 9999 FEW016 26/24 Q1011 NOSIG=
13/02/2021 15:00:00Z	 SAID34 WIJJ 131500	METAR WIJJ 131500Z 01002KT 9999 FEW016 26/24 Q1011 NOSIG=
13/02/2021 15:30:00Z	 SAID34 WIJJ 131530	METAR WIJJ 131530Z 02002KT 9999 FEW016 25/24 Q1012 NOSIG=
13/02/2021 16:00:00Z	 SAID34 WIJJ 131600	METAR WIJJ 131600Z 06002KT 9999 FEW016 26/24 Q1012 NOSIG=
13/02/2021 16:30:00Z	 SAID34 WIJJ 131630	METAR WIJJ 131630Z 09002KT 7000 FEW016 26/24 Q1012 NOSIG=
13/02/2021 17:30:00Z	 SAID34 WIJJ 131730	METAR WIJJ 131730Z 16001KT 7000 FEW016 26/24 Q1012 NOSIG=
13/02/2021 18:00:00Z	 SAID34 WIJJ 131800	METAR WIJJ 131800Z 07002KT 6000 SCT016 26/24 Q1012 NOSIG=
13/02/2021 18:30:00Z	 SAID34 WIJJ 131830	METAR WIJJ 131830Z 04002KT 7000 SCT016 26/24 Q1012 NOSIG=
13/02/2021 19:00:00Z	 SAID34 WIJJ 131900	METAR WIJJ 131900Z 04001KT 9000 SCT016 25/24 Q1011 NOSIG=
13/02/2021 19:30:00Z	 SAID34 WIJJ 131930	METAR WIJJ 131930Z VRB02KT 9000 SCT016 25/24 Q1011 NOSIG=
13/02/2021 20:00:00Z	 SAID34 WIJJ 132000	METAR WIJJ 132000Z VRB02KT 8000 SCT016 25/24 Q1011 NOSIG=
13/02/2021 20:30:00Z	 SAID34 WIJJ 132030	METAR WIJJ 132030Z 05001KT 7000 SCT016 25/24 Q1011 NOSIG=
13/02/2021 21:00:00Z	 SAID34 WIJJ 132100	METAR WIJJ 132100Z 07001KT 6000 SCT016 24/24 Q1011=
13/02/2021 21:30:00Z	 SAID34 WIJJ 132130	METAR WIJJ 132130Z 36002KT SCT016 25/24 Q1011 NOSIG=
13/02/2021 22:00:00Z	 SAID34 WIJJ 132200	METAR WIJJ 132200Z 35003KT 9999 SCT016 25/24 Q1011 NOSIG=
13/02/2021 22:30:00Z	 SAID34 WIJJ 132230	METAR WIJJ 132230Z 35004KT 9999 SCT015 25/24 Q1011 NOSIG=
13/02/2021 23:00:00Z	 SAID34 WIJJ 132300	METAR WIJJ 132300Z 01004KT 9000 FEW015 25/24 Q1011 NOSIG=
13/02/2021 23:30:00Z	 SAID34 WIJJ 132330	METAR WIJJ 132330Z 36003KT 6000 FEW015 24/24 Q1011 NOSIG=
14/02/2021 00:00:00Z	 SAID34 WIJJ 140000	METAR WIJJ 140000Z 01003KT 5000 HZ FEW015 25/24 Q1011 NOSIG=
14/02/2021 00:30:00Z	 SAID34 WIJJ 140030	METAR WIJJ 140030Z 36003KT 330V030 9000 FEW015 25/25 Q1012 NOSIG=
14/02/2021 01:00:00Z	 SAID34 WIJJ 140100	METAR WIJJ 140100Z 02004KT 310V050 9999 SCT015 27/26 Q1012 NOSIG=
14/02/2021 01:30:00Z	 SAID34 WIJJ 140130	METAR WIJJ 140130Z 01007KT 340V050 9999 SCT015 27/26 Q1012 NOSIG=
14/02/2021 02:00:00Z	 SAID34 WIJJ 140200	METAR WIJJ 140200Z 02008KT 340V050 9999 BKN014 27/24 Q1013 NOSIG=
14/02/2021 02:30:00Z	 SAID34 WIJJ 140230	METAR WIJJ 140230Z 02009KT 9999 BKN014 28/24 Q1013 NOSIG=
14/02/2021 03:00:00Z	 SAID34 WIJJ 140300	METAR WIJJ 140300Z 01007KT 320V060 9999 BKN015 29/24 Q1013 NOSIG=
14/02/2021 03:30:00Z	 SAID34 WIJJ 140330	METAR WIJJ 140330Z 36008KT 330V030 9999 BKN015 29/24 Q1013 NOSIG=
14/02/2021 04:00:00Z	 SAID34 WIJJ 140400	METAR WIJJ 140400Z 35008KT 320V030 9999 BKN015 29/24 Q1013 NOSIG=
14/02/2021 04:30:00Z	 SAID34 WIJJ 140430	METAR WIJJ 140430Z 36006KT 330V080 9999 BKN014 30/24 Q1012 NOSIG=
14/02/2021 05:00:00Z	 SAID34 WIJJ 140500	METAR WIJJ 140500Z 01008KT 320V050 9999 BKN015 30/24 Q1012 NOSIG=
14/02/2021 05:30:00Z	 SAID34 WIJJ 140530	METAR WIJJ 140530Z 01009KT 330V040 9999 BKN015 30/24 Q1011 NOSIG=
14/02/2021 06:00:00Z	 SAID34 WIJJ 140600	METAR WIJJ 140600Z 35009KT 320V040 9999 BKN015 30/24 Q1011 NOSIG=
14/02/2021 06:30:00Z	 SAID34 WIJJ 140630	METAR WIJJ 140630Z 01008KT 340V050 9999 BKN015 31/24 Q1010 NOSIG=
14/02/2021 07:00:00Z	 SAID34 WIJJ 140700	METAR WIJJ 140700Z 35008KT 300V040 9999 BKN016 32/24 Q1010 NOSIG=
14/02/2021 07:30:00Z	 SAID34 WIJJ 140730	METAR WIJJ 140730Z 35009KT 320V040 9999 BKN014 31/23 Q1009 NOSIG=
14/02/2021 08:00:00Z	 SAID34 WIJJ 140800	METAR WIJJ 140800Z 34010KT 310V010 9999 -RA BKN014 30/24 Q1009 NOSIG=
14/02/2021 08:30:00Z	 SAID34 WIJJ 140830	METAR WIJJ 140830Z 01008KT 9999 BKN015 29/24 Q1009 NOSIG=
14/02/2021 09:00:00Z	 SAID34 WIJJ 140900	METAR WIJJ 140900Z 36007KT 330V040 9999 SCT016 31/24 Q1008 NOSIG=
14/02/2021 09:30:00Z	 SAID34 WIJJ 140930	METAR WIJJ 140930Z 35008KT 9999 SCT017 30/24 Q1008 NOSIG=
14/02/2021 10:00:00Z	 SAID34 WIJJ 141000	METAR WIJJ 141000Z 01010KT 340V040 9999 SCT017 30/23 Q1008 NOSIG=
14/02/2021 10:30:00Z	 SAID34 WIJJ 141030	METAR WIJJ 141030Z 02010KT 9999 SCT017 30/23 Q1008 NOSIG=
14/02/2021 11:00:00Z	 SAID34 WIJJ 141100	METAR WIJJ 141100Z 02008KT 350V050 9999 FEW017 29/23 Q1008 NOSIG=
14/02/2021 11:30:00Z	 SAID34 WIJJ 141130	METAR WIJJ 141130Z 36007KT 330V030 9999 FEW017 28/23 Q1009 NOSIG=
14/02/2021 12:00:00Z	 SAID34 WIJJ 141200	METAR WIJJ 141200Z 36004KT 9999 FEW017 28/23 Q1010 NOSIG=
14/02/2021 12:30:00Z	 SAID34 WIJJ 141230	METAR WIJJ 141230Z 03004KT 9999 FEW017 28/24 Q1010 NOSIG=
14/02/2021 13:00:00Z	 SAID34 WIJJ 141300	METAR WIJJ 141300Z 03003KT 9999 FEW016CB FEW017 28/24 Q1010 NOSIG RMK CB TO SW=
14/02/2021 13:30:00Z	 SAID34 WIJJ 141330	METAR WIJJ 141330Z 02003KT 360V060 9999 FEW016 27/24 Q1011 NOSIG=
14/02/2021 14:00:00Z	 SAID34 WIJJ 141400	METAR WIJJ 141400Z 02003KT 350V050 9000 FEW016 27/24 Q1011 NOSIG=
14/02/2021 14:30:00Z	 SAID34 WIJJ 141430	METAR WIJJ 141430Z 04004KT 9999 FEW015 27/24 Q1011 NOSIG=
14/02/2021 15:00:00Z	 SAID34 WIJJ 141500	METAR WIJJ 141500Z 04004KT 9999 FEW015 27/24 Q1011 NOSIG=
14/02/2021 15:30:00Z	 SAID34 WIJJ 141530	METAR WIJJ 141530Z 05003KT 9999 FEW015 26/24 Q1011 NOSIG=
14/02/2021 16:00:00Z	 SAID34 WIJJ 141600	METAR WIJJ 141600Z 03004KT 9999 FEW015 26/24 Q1012 NOSIG=
14/02/2021 16:30:00Z	 SAID34 WIJJ 141630	METAR WIJJ 141630Z 07002KT 9999 FEW015 26/24 Q1012 NOSIG=
14/02/2021 17:00:00Z	 SAID34 WIJJ 141700	METAR WIJJ 141700Z 05002KT 8000 FEW015 26/24 Q1011 NOSIG=
14/02/2021 17:30:00Z	 SAID34 WIJJ 141730	METAR WIJJ 141730Z 10002KT 9999 FEW014 26/24 Q1011 NOSIG=
14/02/2021 18:00:00Z	 SAID34 WIJJ 141800	METAR WIJJ 141800Z 10002KT 5000 HZ FEW014 25/24 Q1011 NOSIG=
14/02/2021 18:30:00Z	 SAID34 WIJJ 141830	METAR WIJJ 141830Z 03003KT 7000 SCT014 25/24 Q1011 NOSIG=
14/02/2021 19:00:00Z	 SAID34 WIJJ 141900	METAR WIJJ 141900Z 06002KT 8000 FEW014 25/24 Q1011 NOSIG=
14/02/2021 19:30:00Z	 SAID34 WIJJ 141930	METAR WIJJ 141930Z 35002KT 8000 SCT014 25/24 Q1010 NOSIG=
14/02/2021 20:00:00Z	 SAID34 WIJJ 142000	METAR WIJJ 142000Z 01002KT 9999 SCT013 25/24 Q1010 NOSIG=
14/02/2021 20:30:00Z	 SAID34 WIJJ 142030	METAR WIJJ 142030Z 02004KT 350V050 9999 FEW013 25/24 Q1009 NOSIG=
14/02/2021 21:00:00Z	 SAID34 WIJJ 142100	METAR WIJJ 142100Z 03003KT 360V060 9999 SCT013 25/23 Q1010 NOSIG=
14/02/2021 21:30:00Z	 SAID34 WIJJ 142130	METAR WIJJ 142130Z 03003KT 360V060 9999 FEW012 25/23 Q1009 NOSIG=
14/02/2021 22:00:00Z	 SAID34 WIJJ 142200	METAR WIJJ 142200Z 36004KT 9999 FEW012 25/23 Q1010 NOSIG=
14/02/2021 22:30:00Z	 SAID34 WIJJ 142230	METAR WIJJ 142230Z 36003KT 9999 FEW012 24/23 Q1010 NOSIG=
14/02/2021 23:00:00Z	 SAID34 WIJJ 142300	METAR WIJJ 142300Z 26001KT 5000 HZ SCT013 25/23 Q1010 NOSIG=
14/02/2021 23:30:00Z	 SAID34 WIJJ 142330	METAR WIJJ 142330Z 08001KT 5000 HZ SCT013 24/23 Q1010 NOSIG=
15/02/2021 00:00:00Z	 SAID34 WIJJ 150000	METAR WIJJ 150000Z 15001KT 5000 HZ BKN014 26/23 Q1011 NOSIG=
15/02/2021 00:30:00Z	 SAID34 WIJJ 150030	METAR WIJJ 150030Z 03001KT 5000 HZ FEW015 25/24 Q1011 NOSIG=
15/02/2021 01:00:00Z	 SAID34 WIJJ 150100	METAR WIJJ 150100Z 01004KT 8000 FEW015 26/23 Q1011 NOSIG=
15/02/2021 01:30:00Z	 SAID34 WIJJ 150130	METAR WIJJ 150130Z 01007KT 9999 FEW015 27/23 Q1011 NOSIG=
15/02/2021 02:00:00Z	 SAID34 WIJJ 150200	METAR WIJJ 150200Z 01007KT 340V050 9999 SCT016 28/23 Q1012 NOSIG=
15/02/2021 02:30:00Z	 SAID34 WIJJ 150230	METAR WIJJ 150230Z 02007KT 350V060 9999 BKN015 28/23 Q1012 NOSIG=
15/02/2021 03:00:00Z	 SAID34 WIJJ 150300	METAR WIJJ 150300Z 01009KT 340V040 9999 BKN015 28/22 Q1012 NOSIG=
15/02/2021 03:30:00Z	 SAID34 WIJJ 150330	METAR WIJJ 150330Z 36009KT 340V050 9999 BKN016 29/23 Q1011 NOSIG=
15/02/2021 04:00:00Z	 SAID34 WIJJ 150400	METAR WIJJ 150400Z 36010KT 9999 BKN015 29/23 Q1011 NOSIG=
15/02/2021 04:30:00Z	 SAID34 WIJJ 150430	METAR WIJJ 150430Z 01009KT 340V050 9999 BKN015 30/23 Q1011 NOSIG=
15/02/2021 05:00:00Z	 SAID34 WIJJ 150500	METAR WIJJ 150500Z 01008KT 330V050 9999 BKN015 29/22 Q1010 NOSIG=
15/02/2021 05:30:00Z	 SAID34 WIJJ 150530	METAR WIJJ 150530Z 36009KT 9999 BKN016 29/23 Q1010 NOSIG=
15/02/2021 06:00:00Z	 SAID34 WIJJ 150600	METAR WIJJ 150600Z 02008KT 340V060 9999 SCT016 30/23 Q1010 NOSIG=
15/02/2021 06:30:00Z	 SAID34 WIJJ 150630	METAR WIJJ 150630Z 36008KT 330V060 9999 SCT016 30/24 Q1009 NOSIG=
15/02/2021 07:00:00Z	 SAID34 WIJJ 150700	METAR WIJJ 150700Z 02008KT 350V050 9999 SCT017 30/23 Q1008 NOSIG=
15/02/2021 07:30:00Z	 SAID34 WIJJ 150730	METAR WIJJ 150730Z 36010KT 330V040 9999 SCT016 30/23 Q1008 NOSIG=
15/02/2021 08:00:00Z	 SAID34 WIJJ 150800	METAR WIJJ 150800Z 02007KT 360V060 9999 SCT017 30/23 Q1008 NOSIG=
15/02/2021 08:30:00Z	 SAID34 WIJJ 150830	METAR WIJJ 150830Z 01008KT 340V050 9999 SCT015 30/23 Q1007 NOSIG=
15/02/2021 09:00:00Z	 SAID34 WIJJ 150900	METAR WIJJ 150900Z 36009KT 330V030 9999 SCT016 29/23 Q1007 NOSIG=
15/02/2021 09:30:00Z	 SAID34 WIJJ 150930	METAR WIJJ 150930Z 02008KT 350V050 9999 FEW015 29/23 Q1007 NOSIG=
15/02/2021 10:00:00Z	 SAID34 WIJJ 151000	METAR WIJJ 151000Z 01006KT 340V050 9999 FEW016 29/23 Q1007 NOSIG=
15/02/2021 10:30:00Z	 SAID34 WIJJ 151030	METAR WIJJ 151030Z 01008KT 340V040 9999 FEW015 29/23 Q1008 NOSIG=
15/02/2021 11:00:00Z	 SAID34 WIJJ 151100	METAR WIJJ 151100Z 01007KT 340V040 9999 FEW016 29/23 Q1008 NOSIG=
15/02/2021 11:30:00Z	 SAID34 WIJJ 151130	METAR WIJJ 151130Z 03006KT 340V050 9999 FEW017 28/23 Q1008 NOSIG=
15/02/2021 12:00:00Z	 SAID34 WIJJ 151200	METAR WIJJ 151200Z 02003KT 340V040 9999 FEW017 28/23 Q1008 NOSIG=
15/02/2021 12:30:00Z	 SAID34 WIJJ 151230	METAR WIJJ 151230Z 02004KT 9999 FEW017 27/23 Q1009 NOSIG=
15/02/2021 13:00:00Z	 SAID34 WIJJ 151300	METAR WIJJ 151300Z 02005KT 350V050 9999 FEW017 27/23 Q1009 NOSIG=
15/02/2021 13:30:00Z	 SAID34 WIJJ 151330	METAR WIJJ 151330Z 03004KT 9999 FEW017 27/23 Q1009 NOSIG=
15/02/2021 14:00:00Z	 SAID34 WIJJ 151400	METAR WIJJ 151400Z 04003KT 9999 FEW017 27/23 Q1010 NOSIG=
15/02/2021 14:30:00Z	 SAID34 WIJJ 151430	METAR WIJJ 151430Z 03003KT 350V060 9999 SCT017 27/23 Q1010 NOSIG=
15/02/2021 15:00:00Z	 SAID34 WIJJ 151500	METAR WIJJ 151500Z 03003KT 360V060 9999 FEW017 26/23 Q1010 NOSIG=
15/02/2021 15:30:00Z	 SAID34 WIJJ 151530	METAR WIJJ 151530Z 03004KT 9999 SCT017 26/23 Q1010 NOSIG=
15/02/2021 16:00:00Z	 SAID34 WIJJ 151600	METAR WIJJ 151600Z 04004KT 9999 SCT016 26/23 Q1011 NOSIG=
15/02/2021 16:30:00Z	 SAID34 WIJJ 151630	METAR WIJJ 151630Z 04004KT 010V070 9999 SCT017 26/23 Q1011 NOSIG=
15/02/2021 17:00:00Z	 SAID34 WIJJ 151700	METAR WIJJ 151700Z 05003KT 020V090 9999 SCT017 25/23 Q1010 NOSIG=
15/02/2021 17:30:00Z	 SAID34 WIJJ 151730	METAR WIJJ 151730Z 00000KT 9999 SCT016 25/23 Q1010 NOSIG=
15/02/2021 18:00:00Z	 SAID34 WIJJ 151800	METAR WIJJ 151800Z 14002KT 9999 BKN015 25/24 Q1010 NOSIG=
15/02/2021 18:30:00Z	 SAID34 WIJJ 151830	METAR WIJJ 151830Z 09002KT 9000 BKN015 25/24 Q1010 NOSIG=
15/02/2021 19:00:00Z	 SAID34 WIJJ 151900	METAR WIJJ 151900Z 08002KT 9999 SCT016 25/23 Q1009 NOSIG=
15/02/2021 19:30:00Z	 SAID34 WIJJ 151930	METAR WIJJ 151930Z 03003KT 9000 SCT016 24/23 Q1009 NOSIG=
15/02/2021 20:00:00Z	 SAID34 WIJJ 152000	METAR WIJJ 152000Z 00000KT 9999 SCT016 24/23 Q1009 NOSIG=
15/02/2021 20:30:00Z	 SAID34 WIJJ 152030	METAR WIJJ 152030Z 06003KT 020V080 9999 SCT016 25/23 Q1009 NOSIG=
15/02/2021 21:00:00Z	 SAID34 WIJJ 152100	METAR WIJJ 152100Z 05003KT 020V080 9999 SCT016 24/23 Q1008 NOSIG=
15/02/2021 21:30:00Z	 SAID34 WIJJ 152130	METAR WIJJ 152130Z 02003KT 9999 SCT016 24/23 Q1008 NOSIG=
15/02/2021 22:00:00Z	 SAID34 WIJJ 152200	METAR WIJJ 152200Z 01004KT 9999 SCT016 24/22 Q1008 NOSIG=
15/02/2021 22:30:00Z	 SAID34 WIJJ 152230	METAR WIJJ 152230Z 36003KT 330V040 9999 SCT016 24/22 Q1008 NOSIG=
15/02/2021 23:00:00Z	 SAID34 WIJJ 152300	METAR WIJJ 152300Z 05002KT 9999 FEW015 24/22 Q1009 NOSIG=
15/02/2021 23:30:00Z	 SAID34 WIJJ 152330	METAR WIJJ 152330Z 03002KT 9999 FEW016 24/22 Q1009 NOSIG=
16/02/2021 00:00:00Z	 SAID34 WIJJ 160000	METAR WIJJ 160000Z 28002KT 6000 SCT015 24/23 Q1010 NOSIG=
16/02/2021 00:30:00Z	 SAID34 WIJJ 160030	METAR WIJJ 160030Z 36003KT 7000 SCT017 25/23 Q1010 NOSIG=
16/02/2021 01:00:00Z	 SAID34 WIJJ 160100	METAR WIJJ 160100Z 35005KT 8000 FEW017 26/23 Q1011 NOSIG=
16/02/2021 01:30:00Z	 SAID34 WIJJ 160130	METAR WIJJ 160130Z 34005KT 9999 FEW017 26/23 Q1011 NOSIG=
16/02/2021 02:00:00Z	 SAID34 WIJJ 160200	METAR WIJJ 160200Z 34007KT 9999 FEW017 27/23 Q1011 NOSIG=
16/02/2021 02:30:00Z	 SAID34 WIJJ 160230	METAR WIJJ 160230Z 01010KT 9999 FEW017 28/22 Q1011 NOSIG=
16/02/2021 03:00:00Z	 SAID34 WIJJ 160300	METAR WIJJ 160300Z 03007KT 9999 SCT017 29/23 Q1011 NOSIG=
16/02/2021 03:30:00Z	 SAID34 WIJJ 160330	METAR WIJJ 160330Z 36010KT 9999 SCT017 29/23 Q1011 NOSIG=
16/02/2021 04:00:00Z	 SAID34 WIJJ 160400	METAR WIJJ 160400Z 32009KT 9999 SCT017 30/23 Q1011 NOSIG=
16/02/2021 04:30:00Z	 SAID34 WIJJ 160430	METAR WIJJ 160430Z 02008KT 9999 SCT017 30/23 Q1011 NOSIG=
16/02/2021 05:00:00Z	 SAID34 WIJJ 160500	METAR WIJJ 160500Z 36011KT 9999 SCT017 31/23 Q1010 NOSIG=
16/02/2021 05:30:00Z	 SAID34 WIJJ 160530	METAR WIJJ 160530Z 36011KT 9999 SCT017 30/23 Q1009 NOSIG=
16/02/2021 06:00:00Z	 SAID34 WIJJ 160600	METAR WIJJ 160600Z 36009KT 9999 SCT017 31/23 Q1009 NOSIG=
16/02/2021 06:30:00Z	 SAID34 WIJJ 160630	METAR WIJJ 160630Z 01006KT 9999 SCT017 30/23 Q1009 NOSIG=
16/02/2021 07:00:00Z	 SAID34 WIJJ 160700	METAR WIJJ 160700Z 35005KT 9999 SCT017 30/23 Q1008 NOSIG=
16/02/2021 07:30:00Z	 SAID34 WIJJ 160730	METAR WIJJ 160730Z 35010KT 9999 SCT017 30/23 Q1008 NOSIG=
16/02/2021 08:00:00Z	 SAID34 WIJJ 160800	METAR WIJJ 160800Z 01009KT 9999 SCT017 31/23 Q1008 NOSIG=
16/02/2021 08:30:00Z	 SAID34 WIJJ 160830	METAR WIJJ 160830Z 01006KT 9999 SCT017 30/22 Q1008 NOSIG=
16/02/2021 09:00:00Z	 SAID34 WIJJ 160900	METAR WIJJ 160900Z 35008KT 5000 -RA SCT017 29/23 Q1007 NOSIG=
16/02/2021 09:30:00Z	 SAID34 WIJJ 160930	METAR WIJJ 160930Z 36007KT 9999 SCT017 30/23 Q1007 NOSIG=
16/02/2021 10:00:00Z	 SAID34 WIJJ 161000	METAR WIJJ 161000Z 02007KT 9999 FEW017 30/23 Q1007 NOSIG=
16/02/2021 10:30:00Z	 SAID34 WIJJ 161030	METAR WIJJ 161030Z 02006KT 9999 FEW017 30/22 Q1008 NOSIG=
16/02/2021 11:00:00Z	 SAID34 WIJJ 161100	METAR WIJJ 161100Z 01005KT 9999 FEW017 29/23 Q1008 NOSIG=
16/02/2021 11:30:00Z	 SAID34 WIJJ 161130	METAR WIJJ 161130Z 01004KT 6000 FEW017 28/23 Q1008 NOSIG=
16/02/2021 12:00:00Z	 SAID34 WIJJ 161200	METAR WIJJ 161200Z 36004KT 9999 FEW017 28/23 Q1009 NOSIG=
16/02/2021 12:30:00Z	 SAID34 WIJJ 161230	METAR WIJJ 161230Z 34003KT 9000 FEW017 27/23 Q1009 NOSIG=
16/02/2021 13:00:00Z	 SAID34 WIJJ 161300	METAR WIJJ 161300Z 31003KT 9999 FEW016 27/25 Q1009 NOSIG=
16/02/2021 13:30:00Z	 SAID34 WIJJ 161330	METAR WIJJ 161330Z 36002KT 9999 FEW016 27/25 Q1010 NOSIG=
16/02/2021 14:00:00Z	 SAID34 WIJJ 161400	METAR WIJJ 161400Z 36002KT 9000 FEW016 27/23 Q1010 NOSIG=
16/02/2021 14:30:00Z	 SAID34 WIJJ 161430	METAR WIJJ 161430Z 02002KT 8000 FEW016 27/23 Q1010 NOSIG=
16/02/2021 15:00:00Z	 SAID34 WIJJ 161500	METAR WIJJ 161500Z 36002KT 8000 FEW016 26/23 Q1010 NOSIG=
16/02/2021 15:30:00Z	 SAID34 WIJJ 161530	METAR WIJJ 161530Z 05002KT 6000 FEW016 26/23 Q1011 NOSIG=
16/02/2021 16:00:00Z	 SAID34 WIJJ 161600	METAR WIJJ 161600Z 04002KT 7000 FEW016 26/23 Q1010 NOSIG=
16/02/2021 16:30:00Z	 SAID34 WIJJ 161630	METAR WIJJ 161630Z 01002KT 9000 FEW016 26/23 Q1010 NOSIG=
16/02/2021 17:00:00Z	 SAID34 WIJJ 161700	METAR WIJJ 161700Z 01002KT 9999 FEW016 26/23 Q1010 NOSIG=
16/02/2021 17:30:00Z	 SAID34 WIJJ 161730	METAR WIJJ 161730Z 00000KT 9000 FEW016 26/23 Q1010 NOSIG=
16/02/2021 18:00:00Z	 SAID34 WIJJ 161800	METAR WIJJ 161800Z 36002KT 8000 FEW016 26/23 Q1010 NOSIG=
16/02/2021 18:30:00Z	 SAID34 WIJJ 161830	METAR WIJJ 161830Z 36003KT 9999 FEW016 26/23 Q1009 NOSIG=
16/02/2021 19:00:00Z	 SAID34 WIJJ 161900	METAR WIJJ 161900Z 31001KT 9000 FEW016 25/24 Q1009 NOSIG=
16/02/2021 19:30:00Z	 SAID34 WIJJ 161930	METAR WIJJ 161930Z 35002KT 8000 FEW016 25/24 Q1009 NOSIG=
16/02/2021 20:00:00Z	 SAID34 WIJJ 162000	METAR WIJJ 162000Z 36003KT 9000 FEW016 25/24 Q1009 NOSIG=
16/02/2021 20:30:00Z	 SAID34 WIJJ 162030	METAR WIJJ 162030Z 01004KT 9999 FEW016 25/24 Q1009 NOSIG=
16/02/2021 21:00:00Z	 SAID34 WIJJ 162100	METAR WIJJ 162100Z 35003KT 9999 SCT018 25/23 Q1009 NOSIG=
16/02/2021 21:30:00Z	 SAID34 WIJJ 162130	METAR WIJJ 162130Z 36003KT 9999 SCT018 25/23 Q1009 NOSIG=
16/02/2021 22:00:00Z	 SAID34 WIJJ 162200	METAR WIJJ 162200Z 05003KT 9999 FEW018 25/23 Q1010 NOSIG=
16/02/2021 22:30:00Z	 SAID34 WIJJ 162230	METAR WIJJ 162230Z 05002KT 5000 HZ FEW018 25/23 Q1010=
16/02/2021 23:00:00Z	 SAID34 WIJJ 162300	METAR WIJJ 162300Z 00000KT 5000 HZ SCT018 25/23 Q1010=
16/02/2021 23:30:00Z	 SAID34 WIJJ 162330	METAR WIJJ 162330Z 36002KT 6000 SCT018 25/23 Q1011 NOSIG=
17/02/2021 00:00:00Z	 SAID34 WIJJ 170000	METAR WIJJ 170000Z 02002KT 5000 HZ FEW018 25/24 Q1011 NOSIG=
17/02/2021 00:30:00Z	 SAID34 WIJJ 170030	METAR WIJJ 170030Z 04003KT 4300 HZ FEW017 25/24 Q1011 NOSIG=
17/02/2021 01:00:00Z	 SAID34 WIJJ 170100	METAR WIJJ 170100Z 03004KT 350V060 6000 FEW016 26/24 Q1011 NOSIG=
17/02/2021 01:30:00Z	 SAID34 WIJJ 170130	METAR WIJJ 170130Z 03004KT 330V080 9000 FEW016 27/23 Q1012 NOSIG=
17/02/2021 02:00:00Z	 SAID34 WIJJ 170200	METAR WIJJ 170200Z 02007KT 330V060 9999 SCT017 27/23 Q1012 NOSIG=
17/02/2021 02:30:00Z	 SAID34 WIJJ 170230	METAR WIJJ 170230Z 01009KT 9999 SCT019 28/23 Q1012 NOSIG=
17/02/2021 03:00:00Z	 SAID34 WIJJ 170300	METAR WIJJ 170300Z 01008KT 330V040 9999 BKN016 28/24 Q1012 NOSIG=
17/02/2021 03:30:00Z	 SAID34 WIJJ 170330	METAR WIJJ 170330Z 35007KT 300V020 9999 SCT015 29/23 Q1012 NOSIG=
17/02/2021 04:00:00Z	 SAID34 WIJJ 170400	METAR WIJJ 170400Z 02006KT 340V060 9999 BKN015 29/23 Q1012 NOSIG=
17/02/2021 04:30:00Z	 SAID34 WIJJ 170430	METAR WIJJ 170430Z 01005KT 330V040 9999 BKN015 30/23 Q1011 NOSIG=
17/02/2021 05:00:00Z	 SAID34 WIJJ 170500	METAR WIJJ 170500Z 34004KT 300V050 9999 SCT015 30/23 Q1011 NOSIG=
17/02/2021 05:30:00Z	 SAID34 WIJJ 170530	METAR WIJJ 170530Z 32008KT 240V340 9999 SCT015 31/23 Q1010 NOSIG=
17/02/2021 06:00:00Z	 SAID34 WIJJ 170600	METAR WIJJ 170600Z 33008KT 300V010 9999 SCT015 31/23 Q1010 NOSIG=
17/02/2021 06:30:00Z	 SAID34 WIJJ 170630	METAR WIJJ 170630Z 32006KT 230V020 9999 SCT015 31/23 Q1009 NOSIG=
17/02/2021 07:00:00Z	 SAID34 WIJJ 170700	METAR WIJJ 170700Z 34010KT 280V040 9999 SCT015 32/23 Q1009 NOSIG=
17/02/2021 07:30:00Z	 SAID34 WIJJ 170730	METAR WIJJ 170730Z 33008KT 270V350 9999 SCT015 31/23 Q1008 NOSIG=
17/02/2021 08:00:00Z	 SAID34 WIJJ 170800	METAR WIJJ 170800Z 33006KT 240V010 9999 SCT015 31/23 Q1008 NOSIG=
17/02/2021 08:30:00Z	 SAID34 WIJJ 170830	METAR WIJJ 170830Z 35008KT 320V020 9999 SCT015 32/23 Q1007 NOSIG=
17/02/2021 09:00:00Z	 SAID34 WIJJ 170900	METAR WIJJ 170900Z 34009KT 310V020 9999 SCT015 31/23 Q1007 NOSIG=
17/02/2021 09:30:00Z	 SAID34 WIJJ 170930	METAR WIJJ 170930Z 34007KT 310V030 9999 FEW015 31/23 Q1007 NOSIG=
17/02/2021 10:00:00Z	 SAID34 WIJJ 171000	METAR WIJJ 171000Z 01008KT 320V050 9999 FEW015 31/23 Q1007 NOSIG=
17/02/2021 10:30:00Z	 SAID34 WIJJ 171030	METAR WIJJ 171030Z 36008KT 9999 FEW015 30/23 Q1008 NOSIG=
17/02/2021 11:00:00Z	 SAID34 WIJJ 171100	METAR WIJJ 171100Z 01007KT 9999 FEW015 30/24 Q1008 NOSIG=
17/02/2021 11:30:00Z	 SAID34 WIJJ 171130	METAR WIJJ 171130Z 02006KT 9999 FEW015 30/23 Q1009 NOSIG=
17/02/2021 12:00:00Z	 SAID34 WIJJ 171200	METAR WIJJ 171200Z 02006KT 340V050 9000 FEW015 28/23 Q1009 NOSIG=
17/02/2021 12:30:00Z	 SAID34 WIJJ 171230	METAR WIJJ 171230Z 03005KT 360V060 9999 FEW017 28/23 Q1009 NOSIG=
17/02/2021 13:00:00Z	 SAID34 WIJJ 171300	METAR WIJJ 171300Z 04004KT 9999 FEW017 27/22 Q1009 NOSIG=
17/02/2021 13:30:00Z	 SAID34 WIJJ 171330	METAR WIJJ 171330Z 06004KT 010V090 9999 FEW017 27/23 Q1010 NOSIG=
17/02/2021 14:00:00Z	 SAID34 WIJJ 171400	METAR WIJJ 171400Z 06003KT 020V090 9999 FEW016 26/23 Q1010 NOSIG=
17/02/2021 14:30:00Z	 SAID34 WIJJ 171430	METAR WIJJ 171430Z 04006KT 9999 FEW015 26/23 Q1010 NOSIG=
17/02/2021 15:00:00Z	 SAID34 WIJJ 171500	METAR WIJJ 171500Z 05005KT 9999 NSC 26/23 Q1011 NOSIG=
17/02/2021 15:30:00Z	 SAID34 WIJJ 171530	METAR WIJJ 171530Z 06004KT 9000 FEW015CB 25/23 Q1011 NOSIG RMK CB TO S AND SW=
17/02/2021 16:00:00Z	 SAID34 WIJJ 171600	METAR WIJJ 171600Z 06004KT 9999 FEW015CB 25/23 Q1011 NOSIG RMK CB TO S AND SW=
17/02/2021 16:30:00Z	 SAID34 WIJJ 171630	METAR WIJJ 171630Z 06003KT 9999 FEW015CB 25/23 Q1011 NOSIG RMK CB TO SE AND S=
17/02/2021 17:00:00Z	 SAID34 WIJJ 171700	METAR WIJJ 171700Z 07002KT 9999 FEW015 25/23 Q1011 NOSIG=
17/02/2021 17:30:00Z	 SAID34 WIJJ 171730	METAR WIJJ 171730Z 06002KT 9999 FEW015 25/23 Q1011 NOSIG RMK CB TO S AND SW=
17/02/2021 18:00:00Z	 SAID34 WIJJ 171800	METAR WIJJ 171800Z 15001KT 8000 FEW015CB 24/23 Q1011 NOSIG RMK CB TO S=
17/02/2021 18:30:00Z	 SAID34 WIJJ 171830	METAR WIJJ 171830Z 09001KT 8000 FEW015CB 24/23 Q1010 NOSIG RMK CB TO S=
17/02/2021 19:00:00Z	 SAID34 WIJJ 171900	METAR WIJJ 171900Z 27001KT 7000 FEW041 24/23 Q1010 NOSIG RMK CB TO SE ANG S=
17/02/2021 19:30:00Z	 SAID34 WIJJ 171930	METAR WIJJ 171930Z 20004KT 9999 FEW015 24/23 Q1010 NOSIG=
17/02/2021 20:00:00Z	 SAID34 WIJJ 172000	METAR WIJJ 172000Z 18002KT 9999 FEW015 24/23 Q1010 NOSIG=
17/02/2021 20:30:00Z	 SAID34 WIJJ 172030	METAR WIJJ 172030Z 17001KT 6000 -RA SCT015 24/23 Q1010 NOSIG=
17/02/2021 21:00:00Z	 SAID34 WIJJ 172100	METAR WIJJ 172100Z 22001KT 4500 -RA SCT015 24/23 Q1010 NOSIG=
17/02/2021 21:30:00Z	 SAID34 WIJJ 172130	METAR WIJJ 172130Z 17003KT 5000 -RA SCT015 24/23 Q1010 NOSIG=
17/02/2021 22:00:00Z	 SAID34 WIJJ 172200	METAR WIJJ 172200Z 14002KT 6000 -RA SCT015 24/23 Q1010 NOSIG=
17/02/2021 22:30:00Z	 SAID34 WIJJ 172230	METAR WIJJ 172230Z 08002KT 2200 RA SCT015 24/23 Q1011 NOSIG=
17/02/2021 23:00:00Z	 SAID34 WIJJ 172300	METAR WIJJ 172300Z 12002KT 2900 -RA SCT015 24/23 Q1011 NOSIG=
17/02/2021 23:30:00Z	 SAID34 WIJJ 172330	METAR WIJJ 172330Z 18001KT 2000 -RA BKN015 24/23 Q1011 NOSIG=
18/02/2021 00:00:00Z	 SAID34 WIJJ 180000	METAR WIJJ 180000Z 20001KT 3700 -RA BKN006 24/23 Q1011 NOSIG=
18/02/2021 00:30:00Z	 SAID34 WIJJ 180030	METAR WIJJ 180030Z 36002KT 3200 -RA FEW016 24/23 Q1012 NOSIG=
18/02/2021 01:00:00Z	 SAID34 WIJJ 180100	METAR WIJJ 180100Z 36003KT 8000 FEW016 24/23 Q1012 NOSIG=
18/02/2021 01:30:00Z	 SAID34 WIJJ 180130	METAR WIJJ 180130Z 35003KT 9000 FEW016 25/23 Q1013 NOSIG=
18/02/2021 02:00:00Z	 SAID34 WIJJ 180200	METAR WIJJ 180200Z 36002KT 9999 FEW011 25/23 Q1013 NOSIG=
18/02/2021 02:30:00Z	 SAID34 WIJJ 180230	METAR WIJJ 180230Z 02004KT 7000 HZ FEW017 25/23 Q1013=
18/02/2021 03:00:00Z	 SAID34 WIJJ 180300	METAR WIJJ 180300Z 36004KT 8000 -RA FEW016 26/23 Q1013 NOSIG=
18/02/2021 03:30:00Z	 SAID34 WIJJ 180330	METAR WIJJ 180330Z 01005KT 9999 FEW015 27/23 Q1013 NOSIG=
18/02/2021 04:00:00Z	 SAID34 WIJJ 180400	METAR WIJJ 180400Z 35006KT 9999 SCT018 27/23 Q1013 NOSIG=
18/02/2021 04:30:00Z	 SAID34 WIJJ 180430	METAR WIJJ 180430Z 34005KT 5000 -RA BKN019 25/23 Q1013=
18/02/2021 05:00:00Z	 SAID34 WIJJ 180500	METAR WIJJ 180500Z 01004KT 9999 SCT018 26/22 Q1012 NOSIG=
18/02/2021 05:30:00Z	 SAID34 WIJJ 180530	METAR WIJJ 180530Z 01006KT 9999 FEW018 27/23 Q1012 NOSIG=
18/02/2021 06:00:00Z	 SAID34 WIJJ 180600	METAR WIJJ 180600Z 34006KT 9999 SCT018 27/23 Q1011 NOSIG=
18/02/2021 06:30:00Z	 SAID34 WIJJ 180630	METAR WIJJ 180630Z 36008KT 9999 SCT018 28/23 Q1011 NOSIG=
18/02/2021 07:00:00Z	 SAID34 WIJJ 180700	METAR WIJJ 180700Z 33006KT 9999 SCT018 27/22 Q1011 NOSIG=
18/02/2021 07:30:00Z	 SAID34 WIJJ 180730	METAR WIJJ 180730Z 34006KT 8000 SCT018 25/24 Q1010=
18/02/2021 08:00:00Z	 SAID34 WIJJ 180800	METAR WIJJ 180800Z 35004KT 330V030 6000 -RA SCT018 26/23 Q1010=
18/02/2021 08:30:00Z	 SAID34 WIJJ 180830	METAR WIJJ 180830Z 35003KT 8000 SCT018 25/23 Q1010 NOSIG=
18/02/2021 09:00:00Z	 SAID34 WIJJ 180900	METAR WIJJ 180900Z 22006KT 4000 -RA SCT016 25/23 Q1010=
18/02/2021 09:30:00Z	 SAID34 WIJJ 180930	METAR WIJJ 180930Z 20003KT 3100 -RA SCT016 24/23 Q1010=
18/02/2021 10:00:00Z	 SAID34 WIJJ 181000	METAR WIJJ 181000Z 04004KT 6000 -RA FEW016 24/22 Q1010=
18/02/2021 10:30:00Z	 SAID34 WIJJ 181030	METAR WIJJ 181030Z 04004KT 7000 FEW016 24/22 Q1010 NOSIG=
18/02/2021 11:00:00Z	 SAID34 WIJJ 181100	METAR WIJJ 181100Z 06003KT 9999 FEW016 24/23 Q1010 NOSIG=
18/02/2021 11:30:00Z	 SAID34 WIJJ 181130	METAR WIJJ 181130Z 07003KT 9000 FEW016 24/23 Q1011 NOSIG=
18/02/2021 12:00:00Z	 SAID34 WIJJ 181200	METAR WIJJ 181200Z 08003KT 7000 -RA FEW016 24/23 Q1011=
18/02/2021 12:30:00Z	 SAID34 WIJJ 181230	METAR WIJJ 181230Z 16002KT 7000 FEW015 23/23 Q1011 NOSIG=
18/02/2021 13:00:00Z	 SAID34 WIJJ 181300	METAR WIJJ 181300Z 00000KT 6000 FEW015 24/23 Q1012 NOSIG=
18/02/2021 13:30:00Z	 SAID34 WIJJ 181330	METAR WIJJ 181330Z 22002KT 5000 HZ FEW015 23/23 Q1012 NOSIG=
18/02/2021 14:00:00Z	 SAID34 WIJJ 181400	METAR WIJJ 181400Z 00000KT 4500 HZ FEW015 24/23 Q1013 NOSIG=
18/02/2021 14:30:00Z	 SAID34 WIJJ 181430	METAR WIJJ 181430Z 22002KT 3100 BR FEW015 23/23 Q1013 NOSIG=
18/02/2021 15:00:00Z	 SAID34 WIJJ 181500	METAR WIJJ 181500Z 23002KT 3100 BR FEW015 24/23 Q1013 NOSIG=
18/02/2021 15:30:00Z	 SAID34 WIJJ 181530	METAR WIJJ 181530Z 24002KT 3200 BR FEW015 24/23 Q1013 NOSIG=
18/02/2021 16:00:00Z	 SAID34 WIJJ 181600	METAR WIJJ 181600Z 24002KT 3400 BR FEW015 24/23 Q1013 NOSIG=
18/02/2021 16:30:00Z	 SAID34 WIJJ 181630	METAR WIJJ 181630Z 24001KT 4000 HZ FEW015 24/23 Q1012 NOSIG=
18/02/2021 17:00:00Z	 SAID34 WIJJ 181700	METAR WIJJ 181700Z 00000KT 5000 HZ FEW015 24/23 Q1012 NOSIG=
18/02/2021 17:30:00Z	 SAID34 WIJJ 181730	METAR WIJJ 181730Z 32001KT 4500 HZ FEW015 24/23 Q1012 NOSIG=
18/02/2021 18:00:00Z	 SAID34 WIJJ 181800	METAR WIJJ 181800Z 32002KT 4300 HZ FEW015 24/23 Q1011 NOSIG=
18/02/2021 18:30:00Z	 SAID34 WIJJ 181830	METAR WIJJ 181830Z 32001KT 4500 HZ FEW015 24/23 Q1011 NOSIG=
18/02/2021 19:00:00Z	 SAID34 WIJJ 181900	METAR WIJJ 181900Z 00000KT 5000 HZ FEW015 24/23 Q1011 NOSIG=
18/02/2021 19:30:00Z	 SAID34 WIJJ 181930	METAR WIJJ 181930Z 24001KT 5000 HZ FEW015 24/23 Q1011 NOSIG=
18/02/2021 20:00:00Z	 SAID34 WIJJ 182000	METAR WIJJ 182000Z 24002KT 5000 HZ FEW015 24/23 Q1011 NOSIG=
18/02/2021 20:30:00Z	 SAID34 WIJJ 182030	METAR WIJJ 182030Z 25002KT 5000 HZ FEW015 24/23 Q1011 NOSIG=
18/02/2021 21:00:00Z	 SAID34 WIJJ 182100	METAR WIJJ 182100Z 25003KT 5000 HZ FEW015 23/23 Q1011 NOSIG=
18/02/2021 21:30:00Z	 SAID34 WIJJ 182130	METAR WIJJ 182130Z 00000KT 5000 HZ FEW015 23/23 Q1011 NOSIG=
18/02/2021 22:00:00Z	 SAID34 WIJJ 182200	METAR WIJJ 182200Z 00000KT 5000 HZ FEW015 23/23 Q1011 NOSIG=
18/02/2021 22:30:00Z	 SAID34 WIJJ 182230	METAR WIJJ 182230Z 00000KT 4000 HZ FEW015 24/23 Q1011 NOSIG=
18/02/2021 23:00:00Z	 SAID34 WIJJ 182300	METAR WIJJ 182300Z 00000KT 3600 BR FEW017 24/23 Q1011 NOSIG=
18/02/2021 23:30:00Z	 SAID34 WIJJ 182330	METAR WIJJ 182330Z 22002KT 2100 BR FEW015 24/23 Q1011 NOSIG=
19/02/2021 00:00:00Z	 SAID34 WIJJ 190000	METAR WIJJ 190000Z 24003KT 2600 BR FEW015 23/23 Q1012 NOSIG=
19/02/2021 00:30:00Z	 SAID34 WIJJ 190030	METAR WIJJ 190030Z 27002KT 4000 HZ SCT015 24/23 Q1012 NOSIG=
19/02/2021 01:00:00Z	 SAID34 WIJJ 190100	METAR WIJJ 190100Z 32005KT 270V350 9999 SCT015 25/23 Q1012 NOSIG=
19/02/2021 01:30:00Z	 SAID34 WIJJ 190130	METAR WIJJ 190130Z 33006KT 290V360 9999 SCT015 26/23 Q1013 NOSIG=
19/02/2021 02:00:00Z	 SAID34 WIJJ 190200	METAR WIJJ 190200Z 34008KT 300V020 9999 BKN014 27/23 Q1013 NOSIG=
19/02/2021 02:30:00Z	 SAID34 WIJJ 190230	METAR WIJJ 190230Z 34007KT 320V020 9999 BKN014 27/23 Q1013 NOSIG=
19/02/2021 03:00:00Z	 SAID34 WIJJ 190300	METAR WIJJ 190300Z 34008KT 310V010 9999 BKN015 27/23 Q1013 NOSIG=
19/02/2021 03:30:00Z	 SAID34 WIJJ 190330	METAR WIJJ 190330Z 01008KT 320V040 9999 BKN015 28/23 Q1013 NOSIG=
19/02/2021 04:00:00Z	 SAID34 WIJJ 190400	METAR WIJJ 190400Z 01008KT 320V040 9999 BKN015 28/23 Q1013 NOSIG=
19/02/2021 04:30:00Z	 SAID34 WIJJ 190430	METAR WIJJ 190430Z 01011KT 330V050 9999 BKN015 28/22 Q1012 NOSIG=
19/02/2021 05:00:00Z	 SAID34 WIJJ 190500	METAR WIJJ 190500Z 02008KT 340V040 9999 BKN015 28/23 Q1012 NOSIG=
19/02/2021 05:30:00Z	 SAID34 WIJJ 190530	METAR WIJJ 190530Z 36011KT 330V030 9999 BKN015 29/22 Q1012 NOSIG=
19/02/2021 06:00:00Z	 SAID34 WIJJ 190600	METAR WIJJ 190600Z 35010KT 9999 BKN015 28/22 Q1011 NOSIG=
19/02/2021 06:30:00Z	 SAID34 WIJJ 190630	METAR WIJJ 190630Z 35011KT 320V020 9999 BKN015 29/23 Q1011 NOSIG=
19/02/2021 07:00:00Z	 SAID34 WIJJ 190700	METAR WIJJ 190700Z 36010KT 330V040 9999 SCT016 30/23 Q1010 NOSIG=
19/02/2021 07:30:00Z	 SAID34 WIJJ 190730	METAR WIJJ 190730Z 35010KT 310V030 9999 SCT016 31/22 Q1009 NOSIG=
19/02/2021 08:00:00Z	 SAID34 WIJJ 190800	METAR WIJJ 190800Z 36011KT 330V040 9999 SCT016 31/22 Q1009 NOSIG=
19/02/2021 08:30:00Z	 SAID34 WIJJ 190830	METAR WIJJ 190830Z 01009KT 300V050 9999 BKN015 30/22 Q1009 NOSIG=
19/02/2021 09:00:00Z	 SAID34 WIJJ 190900	METAR WIJJ 190900Z 36010KT 330V040 9999 SCT016 30/21 Q1009 NOSIG=
19/02/2021 09:30:00Z	 SAID34 WIJJ 190930	METAR WIJJ 190930Z 01010KT 9999 SCT016 29/21 Q1009 NOSIG=
19/02/2021 10:00:00Z	 SAID34 WIJJ 191000	METAR WIJJ 191000Z 36009KT 330V030 9999 FEW017 29/21 Q1009 NOSIG=
19/02/2021 10:30:00Z	 SAID34 WIJJ 191030	METAR WIJJ 191030Z 36009KT 330V040 9999 FEW017 29/21 Q1009 NOSIG=
19/02/2021 11:00:00Z	 SAID34 WIJJ 191100	METAR WIJJ 191100Z 01007KT 330V050 9999 FEW017 29/21 Q1009 NOSIG=
19/02/2021 11:30:00Z	 SAID34 WIJJ 191130	METAR WIJJ 191130Z 01007KT 9999 FEW017 28/21 Q1009 NOSIG=
19/02/2021 12:00:00Z	 SAID34 WIJJ 191200	METAR WIJJ 191200Z 36005KT 340V040 9999 FEW017 27/22 Q1010 NOSIG=
19/02/2021 12:30:00Z	 SAID34 WIJJ 191230	METAR WIJJ 191230Z 01005KT 9999 FEW015 27/22 Q1010 NOSIG=
19/02/2021 13:00:00Z	 SAID34 WIJJ 191300	METAR WIJJ 191300Z 01004KT 340V040 9999 FEW016 27/22 Q1011 NOSIG=
19/02/2021 13:30:00Z	 SAID34 WIJJ 191330	METAR WIJJ 191330Z 01005KT 9999 FEW016 26/22 Q1011 NOSIG=
19/02/2021 14:00:00Z	 SAID34 WIJJ 191400	METAR WIJJ 191400Z 02004KT 350V060 9999 FEW015 27/22 Q1011 NOSIG=
19/02/2021 14:30:00Z	 SAID34 WIJJ 191430	METAR WIJJ 191430Z 02005KT 9999 FEW015 26/22 Q1012 NOSIG=
19/02/2021 15:00:00Z	 SAID34 WIJJ 191500	METAR WIJJ 191500Z 01006KT 9999 FEW015 26/22 Q1012 NOSIG=
19/02/2021 15:30:00Z	 SAID34 WIJJ 191530	METAR WIJJ 191530Z 35005KT 9999 FEW015 26/22 Q1012 NOSIG=
19/02/2021 16:00:00Z	 SAID34 WIJJ 191600	METAR WIJJ 191600Z 35004KT 9999 FEW014 26/22 Q1012 NOSIG=
19/02/2021 16:30:00Z	 SAID34 WIJJ 191630	METAR WIJJ 191630Z 34003KT 320V020 9999 FEW014 25/22 Q1012 NOSIG=
19/02/2021 17:00:00Z	 SAID34 WIJJ 191700	METAR WIJJ 191700Z 34003KT 9999 FEW014 25/22 Q1012 NOSIG=
19/02/2021 17:30:00Z	 SAID34 WIJJ 191730	METAR WIJJ 191730Z 35002KT 9000 FEW014 25/22 Q1011 NOSIG=
19/02/2021 18:00:00Z	 SAID34 WIJJ 191800	METAR WIJJ 191800Z 33002KT 9000 FEW014 25/23 Q1011 NOSIG=
19/02/2021 18:30:00Z	 SAID34 WIJJ 191830	METAR WIJJ 191830Z 35003KT 9000 FEW013 25/23 Q1011 NOSIG=
19/02/2021 19:00:00Z	 SAID34 WIJJ 191900	METAR WIJJ 191900Z 32004KT 8000 FEW013 25/23 Q1010 NOSIG=
19/02/2021 19:30:00Z	 SAID34 WIJJ 191930	METAR WIJJ 191930Z 30004KT 9999 FEW013 24/22 Q1010 NOSIG=
19/02/2021 20:00:00Z	 SAID34 WIJJ 192000	METAR WIJJ 192000Z 31005KT 9999 FEW013 24/22 Q1010 NOSIG=
19/02/2021 20:30:00Z	 SAID34 WIJJ 192030	METAR WIJJ 192030Z 32005KT 9999 FEW012 24/22 Q1010 NOSIG=
19/02/2021 21:00:00Z	 SAID34 WIJJ 192100	METAR WIJJ 192100Z 32004KT 9000 FEW013 24/22 Q1010 NOSIG=
19/02/2021 21:30:00Z	 SAID34 WIJJ 192130	METAR WIJJ 192130Z 34004KT 9999 FEW013 24/22 Q1010 NOSIG=
19/02/2021 22:00:00Z	 SAID34 WIJJ 192200	METAR WIJJ 192200Z 34004KT 9999 FEW013 24/22 Q1010 NOSIG=
19/02/2021 22:30:00Z	 SAID34 WIJJ 192230	METAR WIJJ 192230Z 35002KT 9000 FEW013 24/22 Q1011 NOSIG=
19/02/2021 23:00:00Z	 SAID34 WIJJ 192300	METAR WIJJ 192300Z 32003KT 9000 SCT013 23/22 Q1011 NOSIG=
19/02/2021 23:30:00Z	 SAID34 WIJJ 192330	METAR WIJJ 192330Z 31005KT 7000 SCT013 24/22 Q1011 NOSIG=
20/02/2021 00:00:00Z	 SAID34 WIJJ 200000	METAR WIJJ 200000Z 31004KT 7000 SCT013 43/22 Q1011 NOSIG=
20/02/2021 00:30:00Z	 SAID34 WIJJ 200030	METAR WIJJ 200030Z 31005KT 7000 FEW013 24/22 Q1012 NOSIG=
20/02/2021 01:00:00Z	 SAID34 WIJJ 200100	METAR WIJJ 200100Z 31006KT 8000 FEW012 25/23 Q1012 NOSIG=
20/02/2021 01:30:00Z	 SAID34 WIJJ 200130	METAR WIJJ 200130Z 33009KT 9999 SCT013 26/23 Q1013 NOSIG=
20/02/2021 02:00:00Z	 SAID34 WIJJ 200200	METAR WIJJ 200200Z 32008KT 290V350 9999 SCT014 27/23 Q1013 NOSIG=
20/02/2021 02:30:00Z	 SAID34 WIJJ 200230	METAR WIJJ 200230Z 32008KT 9999 SCT015 28/23 Q1013 NOSIG=
20/02/2021 03:00:00Z	 SAID34 WIJJ 200300	METAR WIJJ 200300Z 32010KT 9999 BKN015 28/23 Q1013 NOSIG=
20/02/2021 03:30:00Z	 SAID34 WIJJ 200330	METAR WIJJ 200330Z 31010KT 280V340 9999 BKN016 28/23 Q1013 NOSIG=
20/02/2021 04:00:00Z	 SAID34 WIJJ 200400	METAR WIJJ 200400Z 34010KT 320V020 9999 BKN016 29/22 Q1012 NOSIG=
20/02/2021 04:30:00Z	 SAID34 WIJJ 200430	METAR WIJJ 200430Z 33012KT 310V010 9999 BKN016 29/23 Q1012 NOSIG=
20/02/2021 05:00:00Z	 SAID34 WIJJ 200500	METAR WIJJ 200500Z 01012KT 9999 BKN016 28/21 Q1012 NOSIG=
20/02/2021 05:30:00Z	 SAID34 WIJJ 200530	METAR WIJJ 200530Z 35008KT 320V020 9999 BKN016 29/22 Q1011 NOSIG=
20/02/2021 06:00:00Z	 SAID34 WIJJ 200600	METAR WIJJ 200600Z 01009KT 340V050 9999 BKN016 30/23 Q1010 NOSIG=
20/02/2021 06:30:00Z	 SAID34 WIJJ 200630	METAR WIJJ 200630Z 36011KT 330V030 9999 BKN017 31/22 Q1009 NOSIG=
20/02/2021 07:00:00Z	 SAID34 WIJJ 200700	METAR WIJJ 200700Z 36010KT 330V040 9999 BKN017 31/22 Q1009 NOAIG=
20/02/2021 07:30:00Z	 SAID34 WIJJ 200730	METAR WIJJ 200730Z 36012KT 330V030 9999 SCT017 31/21 Q1008 NOSIG=
20/02/2021 08:00:00Z	 SAID34 WIJJ 200800	METAR WIJJ 200800Z 35010KT 330V030 9999 SCT017 31/21 Q1008 NOSIG=
20/02/2021 08:30:00Z	 SAID34 WIJJ 200830	METAR WIJJ 200830Z 35010KT 310V040 9999 SCT017 32/21 Q1008 NOSIG=
20/02/2021 09:00:00Z	 SAID34 WIJJ 200900	METAR WIJJ 200900Z 34011KT 300V360 9999 BKN015 31/22 Q1008 NOSIG=
20/02/2021 09:30:00Z	 SAID34 WIJJ 200930	METAR WIJJ 200930Z 35009KT 320V030 9999 SCT016 29/22 Q1008 NOSIG=
20/02/2021 10:00:00Z	 SAID34 WIJJ 201000	METAR WIJJ 201000Z 35009KT 320V020 9999 SCT017 29/21 Q1008 NOSIG=
20/02/2021 10:30:00Z	 SAID34 WIJJ 201030	METAR WIJJ 201030Z 01009KT 330V040 9999 FEW017 29/21 Q1009 NOSIG=
20/02/2021 11:00:00Z	 SAID34 WIJJ 201100	METAR WIJJ 201100Z 35008KT 9999 FEW018 29/22 Q1009 NOSIG=
20/02/2021 11:30:00Z	 SAID34 WIJJ 201130	METAR WIJJ 201130Z 01007KT 9999 FEW018 28/22 Q1010 NOSIG=
20/02/2021 12:00:00Z	 SAID34 WIJJ 201200	METAR WIJJ 201200Z 36005KT 9999 FEW018 27/22 Q1010 NOSIG=
20/02/2021 12:30:00Z	 SAID34 WIJJ 201230	METAR WIJJ 201230Z 01006KT 9999 FEW017 27/23 Q1010 NOSIG=
20/02/2021 13:00:00Z	 SAID34 WIJJ 201300	METAR WIJJ 201300Z 02005KT 340V050 9999 SCT017 27/23 Q1011 NOSIG=
20/02/2021 13:30:00Z	 SAID34 WIJJ 201330	METAR WIJJ 201330Z 03004KT 9999 FEW017 27/23 Q1011 NOSIG=
20/02/2021 14:00:00Z	 SAID34 WIJJ 201400	METAR WIJJ 201400Z 03005KT 350V070 9999 FEW017 26/23 Q1011 NOSIG=
20/02/2021 14:30:00Z	 SAID34 WIJJ 201430	METAR WIJJ 201430Z 01003KT 340V040 9999 FEW017 26/23 Q1012 NOSIG=
20/02/2021 15:00:00Z	 SAID34 WIJJ 201500	METAR WIJJ 201500Z 02003KT 9999 SCT017 26/23 Q1012 NOSIG=
20/02/2021 15:30:00Z	 SAID34 WIJJ 201530	METAR WIJJ 201530Z 35003KT 320V020 9999 SCT017 26/23 Q1012 NOSIG=
20/02/2021 16:00:00Z	 SAID34 WIJJ 201600	METAR WIJJ 201600Z 02003KT 9999 SCT017 26/23 Q1012 NOSIG=
20/02/2021 16:30:00Z	 SAID34 WIJJ 201630	METAR WIJJ 201630Z 36003KT 330V030 9999 SCT016 26/23 Q1012 NOSIG=
20/02/2021 17:00:00Z	 SAID34 WIJJ 201700	METAR WIJJ 201700Z 03004KT 9999 SCT016 26/23 Q1012 NOSIG=
20/02/2021 17:30:00Z	 SAID34 WIJJ 201730	METAR WIJJ 201730Z 05004KT 9999 SCT016 26/23 Q1011 NOSIG=
20/02/2021 18:00:00Z	 SAID34 WIJJ 201800	METAR WIJJ 201800Z 05004KT 9999 SCT016 25/23 Q1011 NOSIG=
20/02/2021 18:30:00Z	 SAID34 WIJJ 201830	METAR WIJJ 201830Z 07003KT 9999 SCT017 25/23 Q1011 NOSIG=
20/02/2021 19:00:00Z	 SAID34 WIJJ 201900	METAR WIJJ 201900Z 02002KT 9999 SCT016 25/23 Q1011 NOSIG=
20/02/2021 19:30:00Z	 SAID34 WIJJ 201930	METAR WIJJ 201930Z 03002KT 9999 SCT016 25/23 Q1011 NOSIG=
20/02/2021 20:00:00Z	 SAID34 WIJJ 202000	METAR WIJJ 202000Z 34003KT 9999 SCT016 25/23 Q1010 NOSIG=
20/02/2021 20:30:00Z	 SAID34 WIJJ 202030	METAR WIJJ 202030Z 35002KT 9999 SCT016 25/23 Q1011 NOSIG=
20/02/2021 21:00:00Z	 SAID34 WIJJ 202100	METAR WIJJ 202100Z 33002KT 9000 FEW015 24/23 Q1010 NOSIG=
20/02/2021 21:30:00Z	 SAID34 WIJJ 202130	METAR WIJJ 202130Z 32003KT 7000 SCT016 24/23 Q1010 NOSIG=
20/02/2021 22:00:00Z	 SAID34 WIJJ 202200	METAR WIJJ 202200Z 32003KT 7000 FEW015 24/23 Q1010 NOSIG=
20/02/2021 22:30:00Z	 SAID34 WIJJ 202230	METAR WIJJ 202230Z 33002KT 9000 FEW015 24/23 Q1010 NOSIG=
20/02/2021 23:00:00Z	 SAID34 WIJJ 202300	METAR WIJJ 202300Z 31002KT 4000 HZ FEW015 24/23 Q1011 NOSIG=
20/02/2021 23:30:00Z	 SAID34 WIJJ 202330	METAR WIJJ 202330Z 29002KT 6000 FEW015 23/23 Q1011 NOSIG=
21/02/2021 00:00:00Z	 SAID34 WIJJ 210000	METAR WIJJ 210000Z 31002KT 7000 FEW015 24/23 Q1011 NOSIG=
21/02/2021 00:30:00Z	 SAID34 WIJJ 210030	METAR WIJJ 210030Z 28001KT 3600 HZ SCT015 25/23 Q1012 NOSIG=
21/02/2021 01:00:00Z	 SAID34 WIJJ 210100	METAR WIJJ 210100Z 33005KT 7000 SCT015 25/23 Q1012 NOSIG=
21/02/2021 01:30:00Z	 SAID34 WIJJ 210130	METAR WIJJ 210130Z 31004KT 260V340 8000 SCT015 26/24 Q1012 NOSIG=
21/02/2021 02:00:00Z	 SAID34 WIJJ 210200	METAR WIJJ 210200Z 32003KT 250V010 9000 SCT015 27/23 Q1013 NOSIG=
21/02/2021 02:30:00Z	 SAID34 WIJJ 210230	METAR WIJJ 210230Z 33006KT 9999 SCT015 27/23 Q1013 NOSIG=
21/02/2021 03:00:00Z	 SAID34 WIJJ 210300	METAR WIJJ 210300Z 30007KT 9999 BKN015 28/23 Q1013 NOSIG=
21/02/2021 03:30:00Z	 SAID34 WIJJ 210330	METAR WIJJ 210330Z 30005KT 280V340 9999 SCT015 28/24 Q1012 NOSIG=
21/02/2021 04:00:00Z	 SAID34 WIJJ 210400	METAR WIJJ 210400Z 34006KT 320V020 9999 SCT015 28/24 Q1012 NOSIG=
21/02/2021 04:30:00Z	 SAID34 WIJJ 210430	METAR COR WIJJ 210430Z 34010KT 6000 -RA SCT015 28/24 Q1012 NOSIG=
21/02/2021 05:00:00Z	 SAID34 WIJJ 210500	METAR WIJJ 210500Z 33008KT 300V360 9999 BKN015 29/24 Q1011 RERA NOSIG=
21/02/2021 05:30:00Z	 SAID34 WIJJ 210530	METAR WIJJ 210530Z 35011KT 320V030 9999 SCT015 31/23 Q1011 NOSIG=
21/02/2021 06:00:00Z	 SAID34 WIJJ 210600	METAR WIJJ 210600Z 34009KT 310V010 9999 BKN015 30/23 Q1010 NOSIG=
21/02/2021 06:30:00Z	 SAID34 WIJJ 210630	METAR WIJJ 210630Z 35010KT 310V020 9999 BKN015 30/23 Q1009 NOSIG=
21/02/2021 07:00:00Z	 SAID34 WIJJ 210700	METAR WIJJ 210700Z 33011KT 310V020 9999 BKN015 30/23 Q1009 NOSIG=
21/02/2021 07:30:00Z	 SAID34 WIJJ 210730	METAR WIJJ 210730Z 35009KT 310V030 9999 SCT015 31/23 Q1008 NOSIG=
21/02/2021 08:00:00Z	 SAID34 WIJJ 210800	METAR WIJJ 210800Z 32012KT 7000 -RA BKN015 29/23 Q1008 NOSIG=
21/02/2021 08:30:00Z	 SAID34 WIJJ 210830	METAR WIJJ 210830Z 32005KT 9999 BKN015 29/24 Q1008 RERA NOSIG=
21/02/2021 09:00:00Z	 SAID34 WIJJ 210900	METAR WIJJ 210900Z 30007KT 9999 BKN015 29/24 Q1008 NOSIG=
21/02/2021 09:30:00Z	 SAID34 WIJJ 210930	METAR WIJJ 210930Z 33007KT 300V030 9999 SCT015 29/23 Q1008 NOSIG=
21/02/2021 10:00:00Z	 SAID34 WIJJ 211000	METAR WIJJ 211000Z 36008KT 9999 SCT015 29/24 Q1008 NOSIG=
21/02/2021 10:30:00Z	 SAID34 WIJJ 211030	METAR WIJJ 211030Z 01006KT 330V050 9999 SCT015 29/22 Q1008 NOSIG=
21/02/2021 11:00:00Z	 SAID34 WIJJ 211100	METAR WIJJ 211100Z 01006KT 350V060 9999 FEW015 29/23 Q1009 NOSIG=
21/02/2021 11:30:00Z	 SAID34 WIJJ 211130	METAR WIJJ 211130Z 36007KT 9999 FEW015 28/22 Q1009 NOSIG=
21/02/2021 12:00:00Z	 SAID34 WIJJ 211200	METAR WIJJ 211200Z 36005KT 340V040 9999 FEW015 28/22 Q1009 NOSIG=
21/02/2021 12:30:00Z	 SAID34 WIJJ 211230	METAR WIJJ 211230Z 36003KT 9999 FEW016 27/23 Q1010 NOSIG=
21/02/2021 13:00:00Z	 SAID34 WIJJ 211300	METAR WIJJ 211300Z 35003KT 9999 FEW016 27/24 Q1010 NOSIG=
21/02/2021 13:30:00Z	 SAID34 WIJJ 211330	METAR WIJJ 211330Z 02003KT 9999 FEW016 26/24 Q1010 NOSIG=
21/02/2021 14:00:00Z	 SAID34 WIJJ 211400	METAR WIJJ 211400Z 04002KT 9999 FEW016 27/23 Q1010 NOSIG=
21/02/2021 14:30:00Z	 SAID34 WIJJ 211430	METAR WIJJ 211430Z 03002KT 9999 FEW016 26/23 Q1011 NOSIG=
21/02/2021 15:00:00Z	 SAID34 WIJJ 211500	METAR WIJJ 211500Z 04003KT 9999 FEW016 26/23 Q1011 NOSIG=
21/02/2021 15:30:00Z	 SAID34 WIJJ 211530	METAR WIJJ 211530Z 04002KT 9999 SCT018 25/23 Q1011 NOSIG=
21/02/2021 16:00:00Z	 SAID34 WIJJ 211600	METAR WIJJ 211600Z 03001KT 9999 FEW016 26/24 Q1011 NOSIG=
21/02/2021 16:30:00Z	 SAID34 WIJJ 211630	METAR WIJJ 211630Z 12001KT 6000 FEW016 26/24 Q1011 NOSIG=
21/02/2021 17:00:00Z	 SAID34 WIJJ 211700	METAR WIJJ 211700Z 13002KT 5000 HZ FEW016 25/23 Q1011=
21/02/2021 17:30:00Z	 SAID34 WIJJ 211730	METAR WIJJ 211730Z 12001KT 6000 FEW018 25/23 Q1011=
21/02/2021 18:00:00Z	 SAID34 WIJJ 211800	METAR WIJJ 211800Z 12002KT 6000 SCT018 25/23 Q1011=
21/02/2021 18:30:00Z	 SAID34 WIJJ 211830	METAR WIJJ 211830Z 01001KT 5000 HZ SCT017 25/23 Q1010=
21/02/2021 19:00:00Z	 SAID34 WIJJ 211900	METAR WIJJ 211900Z 01001KT 3300 HZ SCT017 24/23 Q1010=
21/02/2021 19:30:00Z	 SAID34 WIJJ 211930	METAR WIJJ 211930Z 30002KT 5000 HZ SCT018 24/23 Q1010=
21/02/2021 20:00:00Z	 SAID34 WIJJ 212000	METAR WIJJ 212000Z 03003KT 8000 FEW018 25/23 Q1010=
21/02/2021 20:30:00Z	 SAID34 WIJJ 212030	METAR WIJJ 212030Z 33002KT 9999 FEW018 25/23 Q1010 NOSIG=
21/02/2021 21:00:00Z	 SAID34 WIJJ 212100	METAR WIJJ 212100Z 01001KT 9000 FEW018 25/23 Q1010 NOSIG=
21/02/2021 21:30:00Z	 SAID34 WIJJ 212130	METAR WIJJ 212130Z 00000KT 8000 SCT018 25/23 Q1010 NOSIG=
21/02/2021 22:00:00Z	 SAID34 WIJJ 212200	METAR WIJJ 212200Z 32002KT 9999 FEW018 24/23 Q1010 NOSIG=
21/02/2021 22:30:00Z	 SAID34 WIJJ 212230	METAR WIJJ 212230Z 34002KT 9999 SCT017 24/23 Q1010 NOSIG=
21/02/2021 23:00:00Z	 SAID34 WIJJ 212300	METAR WIJJ 212300Z 35002KT 9000 FEW017 24/23 Q1010=
21/02/2021 23:30:00Z	 SAID34 WIJJ 212330	METAR WIJJ 212330Z 02002KT 6000 FEW016 24/23 Q1011=
22/02/2021 00:00:00Z	 SAID34 WIJJ 220000	METAR WIJJ 220000Z 36002KT 5000 HZ FEW018 24/23 Q1011=
22/02/2021 00:30:00Z	 SAID34 WIJJ 220030	METAR WIJJ 220030Z 31002KT 4700 HZ FEW017 24/23 Q1012 NOSIG=
22/02/2021 01:00:00Z	 SAID34 WIJJ 220100	METAR WIJJ 220100Z 33004KT 8000 FEW017 26/24 Q1012 NOSIG=
22/02/2021 01:30:00Z	 SAID34 WIJJ 220130	METAR WIJJ 220130Z 33006KT 9000 FEW017 27/24 Q1012 NOSIG=
22/02/2021 02:00:00Z	 SAID34 WIJJ 220200	METAR WIJJ 220200Z 36009KT 9999 FEW017 27/23 Q1012 NOSIG=
22/02/2021 02:30:00Z	 SAID34 WIJJ 220230	METAR WIJJ 220230Z 34007KT 9999 SCT017 28/23 Q1012 NOSIG=
22/02/2021 03:00:00Z	 SAID34 WIJJ 220300	METAR WIJJ 220300Z 35011KT 9999 SCT017 29/23 Q1012 NOSIG=
22/02/2021 03:30:00Z	 SAID34 WIJJ 220330	METAR WIJJ 220330Z 35009KT 9999 SCT015 29/23 Q1011 NOSIG=
22/02/2021 04:00:00Z	 SAID34 WIJJ 220400	METAR WIJJ 220400Z 31009KT 9999 SCT017 30/24 Q1011 NOSIG=
22/02/2021 04:30:00Z	 SAID34 WIJJ 220430	METAR WIJJ 220430Z 36007KT 9999 SCT017 31/23 Q1011 NOSIG=
22/02/2021 05:00:00Z	 SAID34 WIJJ 220500	METAR WIJJ 220500Z 33007KT 9999 BKN017 30/23 Q1010 NOSIG=
22/02/2021 05:30:00Z	 SAID34 WIJJ 220530	METAR WIJJ 220530Z 35008KT 9999 BKN017 31/23 Q1010 NOSIG=
22/02/2021 06:00:00Z	 SAID34 WIJJ 220600	METAR WIJJ 220600Z 36007KT 9999 BKN017 31/23 Q1009 NOSIG=
22/02/2021 06:30:00Z	 SAID34 WIJJ 220630	METAR WIJJ 220630Z 33010KT 9999 BKN017 31/23 Q1009 NOSIG=
22/02/2021 07:00:00Z	 SAID34 WIJJ 220700	METAR WIJJ 220700Z 36007KT 9999 BKN017 31/23 Q1008 NOSIG=
22/02/2021 07:30:00Z	 SAID34 WIJJ 220730	METAR WIJJ 220730Z 33010KT 9999 BKN017 31/24 Q1008 NOSIG=
22/02/2021 08:00:00Z	 SAID34 WIJJ 220800	METAR WIJJ 220800Z 35012KT 9999 SCT017 31/24 Q1007 NOSIG=
22/02/2021 08:30:00Z	 SAID34 WIJJ 220830	METAR WIJJ 220830Z 36009KT 9999 SCT017 31/23 Q1007 NOSIG=
22/02/2021 09:00:00Z	 SAID34 WIJJ 220900	METAR WIJJ 220900Z 35008KT 9999 SCT017 31/23 Q1007 NOSIG=
22/02/2021 09:30:00Z	 SAID34 WIJJ 220930	METAR WIJJ 220930Z AUTO 35009KT 320V020 9999 FEW034 FEW040 SCT049 31/23 Q1007=
22/02/2021 10:00:00Z	 SAID34 WIJJ 221000	METAR WIJJ 221000Z 01008KT 9999 FEW017 31/23 Q1007 NOSIG=
22/02/2021 10:30:00Z	 SAID34 WIJJ 221030	METAR WIJJ 221030Z 01008KT 9999 FEW017 30/23 Q1008 NOSIG=
22/02/2021 11:00:00Z	 SAID34 WIJJ 221100	METAR WIJJ 221100Z 01007KT 9999 FEW017 30/23 Q1008 NOSIG=
22/02/2021 11:30:00Z	 SAID34 WIJJ 221130	METAR WIJJ 221130Z 01006KT 9999 FEW017 29/23 Q1009 NOSIG=
22/02/2021 12:00:00Z	 SAID34 WIJJ 221200	METAR WIJJ 221200Z 36004KT 9999 FEW017 28/23 Q1009 NOSIG=
22/02/2021 12:30:00Z	 SAID34 WIJJ 221230	METAR WIJJ 221230Z 02004KT 9999 FEW017 27/23 Q1009 NOSIG=
22/02/2021 13:00:00Z	 SAID34 WIJJ 221300	METAR WIJJ 221300Z 36005KT 9999 FEW017 27/23 Q1009 NOSIG=
22/02/2021 13:30:00Z	 SAID34 WIJJ 221330	METAR WIJJ 221330Z 36005KT 9999 FEW017 27/23 Q1010 NOSIG=
22/02/2021 14:00:00Z	 SAID34 WIJJ 221400	METAR WIJJ 221400Z 03004KT 9999 FEW017 27/23 Q1010 NOSIG=
22/02/2021 14:30:00Z	 SAID34 WIJJ 221430	METAR WIJJ 221430Z 05003KT 9999 FEW017 26/23 Q1011 NOSIG=
22/02/2021 15:00:00Z	 SAID34 WIJJ 221500	METAR WIJJ 221500Z 03003KT 360V060 9000 NSC 26/23 Q1010 NOSIG=
22/02/2021 15:30:00Z	 SAID34 WIJJ 221530	METAR WIJJ 221530Z 01002KT 9999 FEW007 26/23 Q1011 NOSIG=
22/02/2021 16:00:00Z	 SAID34 WIJJ 221600	METAR WIJJ 221600Z 05003KT 020V080 9999 NSC 26/23 Q1011 NOSIG=
22/02/2021 16:30:00Z	 SAID34 WIJJ 221630	METAR WIJJ 221630Z 16002KT 9000 NSC 25/23 Q1011 NOSIG=
22/02/2021 17:00:00Z	 SAID34 WIJJ 221700	METAR WIJJ 221700Z 08001KT 9000 NSC 25/23 Q1010 NOSIG=
22/02/2021 17:30:00Z	 SAID34 WIJJ 221730	METAR WIJJ 221730Z 03003KT 9999 NSC 25/23 Q1010 NOSIG=
22/02/2021 18:00:00Z	 SAID34 WIJJ 221800	METAR WIJJ 221800Z 02002KT 9999 NSC 25/23 Q1010 NOSIG=
22/02/2021 18:30:00Z	 SAID34 WIJJ 221830	METAR WIJJ 221830Z 08002KT 8000 FEW016 25/23 Q1010 NOSIG=
22/02/2021 19:00:00Z	 SAID34 WIJJ 221900	METAR WIJJ 221900Z 35003KT 320V040 9000 FEW017 24/23 Q1009 NOSIG=
22/02/2021 19:30:00Z	 SAID34 WIJJ 221930	METAR WIJJ 221930Z 36003KT 8000 FEW017 25/23 Q1009 NOSIG=
22/02/2021 20:00:00Z	 SAID34 WIJJ 222000	METAR WIJJ 222000Z 03002KT 8000 FEW016 25/23 Q1009 NOSIG=
22/02/2021 20:30:00Z	 SAID34 WIJJ 222030	METAR WIJJ 222030Z 01003KT 340V060 8000 FEW016 25/23 Q1009 NOSIG=
22/02/2021 21:00:00Z	 SAID34 WIJJ 222100	METAR WIJJ 222100Z 02003KT 340V060 9999 FEW016 25/23 Q1009 NOSIG=
22/02/2021 21:30:00Z	 SAID34 WIJJ 222130	METAR WIJJ 222130Z 01003KT 340V040 9999 FEW015 25/23 Q1008 NOSIG=
22/02/2021 22:00:00Z	 SAID34 WIJJ 222200	METAR WIJJ 222200Z 34004KT 9000 FEW016 25/23 Q1008 NOSIG=
22/02/2021 22:30:00Z	 SAID34 WIJJ 222230	METAR WIJJ 222230Z 34004KT 8000 FEW015 24/23 Q1008 NOSIG=
22/02/2021 23:00:00Z	 SAID34 WIJJ 222300	METAR WIJJ 222300Z 34004KT 7000 NSC 24/23 Q1008 NOSIG=
22/02/2021 23:30:00Z	 SAID34 WIJJ 222330	METAR WIJJ 222330Z 34003KT 7000 NSC 24/23 Q1009 NOSIG=
23/02/2021 00:00:00Z	 SAID34 WIJJ 230000	METAR WIJJ 230000Z 25001KT 5000 HZ FEW015 24/23 Q1010 NOSIG=
23/02/2021 00:30:00Z	 SAID34 WIJJ 230030	METAR WIJJ 230030Z 03001KT 5000 HZ FEW015 25/23 Q1010=
23/02/2021 01:00:00Z	 SAID34 WIJJ 230100	METAR WIJJ 230100Z 36003KT 5000 HZ SCT019 25/23 Q1011=
23/02/2021 01:30:00Z	 SAID34 WIJJ 230130	METAR WIJJ 230130Z 34003KT 8000 FEW019 26/23 Q1011 NOSIG=
23/02/2021 02:00:00Z	 SAID34 WIJJ 230200	METAR WIJJ 230200Z 34004KT 9000 FEW018 27/24 Q1011 NOSIG=
23/02/2021 02:30:00Z	 SAID34 WIJJ 230230	METAR WIJJ 230230Z 34005KT 9999 FEW018 27/24 Q1011 NOSIG=
23/02/2021 03:00:00Z	 SAID34 WIJJ 230300	METAR WIJJ 230300Z 33007KT 9999 FEW018 27/23 Q1011 NOSIG=
23/02/2021 03:30:00Z	 SAID34 WIJJ 230330	METAR WIJJ 230330Z 34006KT 9999 FEW018 28/23 Q1011 NOSIG=
23/02/2021 04:00:00Z	 SAID34 WIJJ 230400	METAR WIJJ 230400Z 35004KT 9999 FEW018 28/24 Q1011 NOSIG=
23/02/2021 04:30:00Z	 SAID34 WIJJ 230430	METAR WIJJ 230430Z 34005KT 9999 SCT018 29/24 Q1010 NOSIG=
23/02/2021 05:00:00Z	 SAID34 WIJJ 230500	METAR WIJJ 230500Z 35005KT 9999 SCT018 30/24 Q1010 NOSIG=
23/02/2021 05:30:00Z	 SAID34 WIJJ 230530	METAR WIJJ 230530Z 31006KT 300V050 9999 SCT018 30/24 Q1009 NOSIG=
23/02/2021 06:00:00Z	 SAID34 WIJJ 230600	METAR WIJJ 230600Z 36003KT 9999 BKN018 30/24 Q1009 NOSIG=
23/02/2021 06:30:00Z	 SAID34 WIJJ 230630	METAR WIJJ 230630Z 33004KT 9999 SCT018 30/24 Q1008 NOSIG=
23/02/2021 07:00:00Z	 SAID34 WIJJ 230700	METAR WIJJ 230700Z 30007KT 9999 SCT018 31/25 Q1007 NOSIG=
23/02/2021 07:30:00Z	 SAID34 WIJJ 230730	METAR WIJJ 230730Z 01005KT 9999 SCT018TCU 31/25 Q1007=
23/02/2021 08:00:00Z	 SAID34 WIJJ 230800	METAR WIJJ 230800Z 33006KT 8000 -RA SCT018 31/24 Q1006=
23/02/2021 08:30:00Z	 SAID34 WIJJ 230830	METAR WIJJ 230830Z 35003KT 6000 -RA SCT018TCU 29/24 Q1006=
23/02/2021 09:00:00Z	 SAID34 WIJJ 230900	METAR WIJJ 230900Z 04004KT 9999 FEW018 31/25 Q1006 NOSIG=
23/02/2021 09:30:00Z	 SAID34 WIJJ 230930	METAR WIJJ 230930Z 36003KT 9999 FEW018 30/25 Q1006 NOSIG=
23/02/2021 10:00:00Z	 SAID34 WIJJ 231000	METAR WIJJ 231000Z 03003KT 9999 FEW018 30/25 Q1006 NOSIG=
23/02/2021 10:30:00Z	 SAID34 WIJJ 231030	METAR WIJJ 231030Z 02005KT 9999 FEW018 31/25 Q1006 NOSIG=
23/02/2021 11:00:00Z	 SAID34 WIJJ 231100	METAR WIJJ 231100Z 02004KT 9999 FEW016CB 30/24 Q1006 RMK CB TO NW=
23/02/2021 11:30:00Z	 SAID34 WIJJ 231130	METAR WIJJ 231130Z 01003KT 9999 FEW016CB 29/24 Q1007 RMK CB TO NW=
23/02/2021 12:00:00Z	 SAID34 WIJJ 231200	METAR WIJJ 231200Z 36005KT 9999 FEW016CB 29/24 Q1007 RMK CB TO W=
23/02/2021 12:30:00Z	 SAID34 WIJJ 231230	METAR WIJJ 231230Z 03006KT 9999 FEW017 28/23 Q1008 NOSIG=
23/02/2021 13:00:00Z	 SAID34 WIJJ 231300	METAR WIJJ 231300Z 01003KT 9999 FEW017 28/23 Q1008 NOSIG=
23/02/2021 13:30:00Z	 SAID34 WIJJ 231330	METAR WIJJ 231330Z 04004KT 9999 FEW017 27/23 Q1008 NOSIG=
23/02/2021 14:00:00Z	 SAID34 WIJJ 231400	METAR WIJJ 231400Z 02003KT 9999 FEW017 27/23 Q1009 NOSIG=
23/02/2021 14:30:00Z	 SAID34 WIJJ 231430	METAR WIJJ 231430Z 01004KT 9999 FEW015CB SCT017 26/23 Q1009 NOSIG RMK CB TO S AND SW=
23/02/2021 15:00:00Z	 SAID34 WIJJ 231500	METAR WIJJ 231500Z 35002KT 9999 FEW015CB SCT017 27/23 Q1010 NOSIG RMK CB TO S AND SW=
23/02/2021 15:30:00Z	 SAID34 WIJJ 231530	METAR WIJJ 231530Z 23010KT 9999 FEW015CB SCT017 26/23 Q1011 NOSIG RMK CB TO S AND SW=
23/02/2021 16:00:00Z	 SAID34 WIJJ 231600	METAR WIJJ 231600Z 27005KT 9999 -RA FEW015CB BKN017 24/21 Q1012 NOSIG RMK CB TO S AND SW=
23/02/2021 16:30:00Z	 SAID34 WIJJ 231630	METAR WIJJ 231630Z 33003KT 9999 FEW015CB BKN017 23/21 Q1011 NOSIG RMK CB TO SE AND S=
23/02/2021 17:00:00Z	 SAID34 WIJJ 231700	METAR WIJJ 231700Z 18004KT 9999 FEW015CB BKN017 23/22 Q1011 NOSIG RMK CB TO N AND S=
23/02/2021 17:30:00Z	 SAID34 WIJJ 231730	METAR WIJJ 231730Z 00000KT 9999 FEW015CB BKN017 23/22 Q1011 NOSIG RMK CB TO E AND N=
23/02/2021 18:00:00Z	 SAID34 WIJJ 231800	METAR WIJJ 231800Z 00000KT 9999 SCT017 23/22 Q1010 NOSIG=
23/02/2021 18:30:00Z	 SAID34 WIJJ 231830	METAR WIJJ 231830Z 15003KT 090V200 9999 SCT017 23/22 Q1009 NOSIG=
23/02/2021 19:00:00Z	 SAID34 WIJJ 231900	METAR WIJJ 231900Z 25004KT 220V320 9999 -RA SCT017 23/22 Q1009 NOSIG=
23/02/2021 21:00:00Z	 SAID34 WIJJ 232100	METAR WIJJ 232100Z 35004KT 9999 SCT015 23/21 Q1009 NOSIG=
23/02/2021 21:30:00Z	 SAID34 WIJJ 232130	METAR WIJJ 232130Z 08002KT 9999 SCT015 23/22 Q1008 NOSIG=
23/02/2021 22:30:00Z	 SAID34 WIJJ 232230	METAR WIJJ 232230Z 00000KT 5000 HZ SCT015 23/21 Q1008 NOSIG=
23/02/2021 23:00:00Z	 SAID34 WIJJ 232300	METAR WIJJ 232300Z 00000KT 4700 HZ SCT015 23/22 Q1008 NOSIG=
23/02/2021 23:30:00Z	 SAID34 WIJJ 232330	METAR WIJJ 232330Z 34003KT 6000 SCT017 23/22 Q1009 NOSIG=
24/02/2021 00:00:00Z	 SAID34 WIJJ 240000	METAR WIJJ 240000Z 32003KT 5000 HZ SCT015 23/22 Q1009 NOSIG=
24/02/2021 00:30:00Z	 SAID34 WIJJ 240030	METAR WIJJ 240030Z 34004KT 300V010 3000 HZ BKN013 23/23 Q1009 NOSIG=
24/02/2021 01:00:00Z	 SAID34 WIJJ 240100	METAR WIJJ 240100Z 36002KT 9999 SCT015 24/23 Q1009 NOSIG=
24/02/2021 01:30:00Z	 SAID34 WIJJ 240130	METAR WIJJ 240130Z 32003KT 270V360 9999 SCT015 25/23 Q1010 NOSIG=
24/02/2021 02:00:00Z	 SAID34 WIJJ 240200	METAR WIJJ 240200Z 31004KT 260V340 9999 SCT016 27/23 Q1010 NOSIG=
24/02/2021 02:30:00Z	 SAID34 WIJJ 240230	METAR WIJJ 240230Z 30004KT 250V350 9999 SCT017 28/22 Q1010 NOSIG=
24/02/2021 03:00:00Z	 SAID34 WIJJ 240300	METAR WIJJ 240300Z 33006KT 280V360 9999 SCT017 29/22 Q1010 NOSIG=
24/02/2021 03:30:00Z	 SAID34 WIJJ 240330	METAR WIJJ 240330Z 30005KT 250V340 9999 SCT017 29/23 Q1010 NOSIG=
24/02/2021 04:00:00Z	 SAID34 WIJJ 240400	METAR WIJJ 240400Z 32005KT 270V360 9999 SCT017 30/24 Q1010 NOSIG=
24/02/2021 04:30:00Z	 SAID34 WIJJ 240430	METAR WIJJ 240430Z 31006KT 260V360 9999 SCT016 30/24 Q1009 NOSIG=
24/02/2021 05:00:00Z	 SAID34 WIJJ 240500	METAR WIJJ 240500Z 29005KT 9999 BKN016 31/24 Q1009 NOSIG=
24/02/2021 05:30:00Z	 SAID34 WIJJ 240530	METAR WIJJ 240530Z 29007KT 260V340 9999 BKN016 32/24 Q1008 NOSIG=
24/02/2021 06:00:00Z	 SAID34 WIJJ 240600	METAR WIJJ 240600Z 31008KT 270V340 9999 BKN016 32/24 Q1008 NOSIG=
24/02/2021 06:30:00Z	 SAID34 WIJJ 240630	METAR WIJJ 240630Z 32008KT 270V340 9999 BKN016 32/23 Q1007 NOSIG=
24/02/2021 07:00:00Z	 SAID34 WIJJ 240700	METAR WIJJ 240700Z 31009KT 270V350 9999 BKN016 31/23 Q1007 NOSIG=
24/02/2021 07:30:00Z	 SAID34 WIJJ 240730	METAR WIJJ 240730Z 32007KT 270V360 9999 SCT016 32/23 Q1006 NOSIG=
24/02/2021 08:00:00Z	 SAID34 WIJJ 240800	METAR WIJJ 240800Z 33008KT 300V360 9999 SCT016 33/23 Q1006 NOSIG=
24/02/2021 08:30:00Z	 SAID34 WIJJ 240830	METAR WIJJ 240830Z 32009KT 290V350 9999 SCT017 33/23 Q1005 NOSIG=
24/02/2021 09:00:00Z	 SAID34 WIJJ 240900	METAR WIJJ 240900Z 33010KT 290V010 9999 SCT016 32/24 Q1005 NOSIG=
24/02/2021 09:30:00Z	 SAID34 WIJJ 240930	METAR WIJJ 240930Z 33007KT 280V020 9999 SCT016 32/24 Q1005 NOSIG=
24/02/2021 10:00:00Z	 SAID34 WIJJ 241000	METAR WIJJ 241000Z 32005KT 280V360 9999 SCT016 32/23 Q1005 NOSIG=
24/02/2021 10:30:00Z	 SAID34 WIJJ 241030	METAR WIJJ 241030Z 01009KT 300V040 9999 SCT016 31/24 Q1005 NOSIG=
24/02/2021 11:00:00Z	 SAID34 WIJJ 241100	METAR WIJJ 241100Z 01010KT 9999 FEW017 29/24 Q1006 NOSIG=
24/02/2021 11:30:00Z	 SAID34 WIJJ 241130	METAR WIJJ 241130Z 01007KT 330V040 9000 FEW017 29/24 Q1006 NOSIG=
24/02/2021 12:00:00Z	 SAID34 WIJJ 241200	METAR WIJJ 241200Z 02006KT 340V050 9999 FEW017 28/24 Q1007 NOSIG=
24/02/2021 12:30:00Z	 SAID34 WIJJ 241230	METAR WIJJ 241230Z AUTO 01006KT 340V060 9999 FEW120 28/24 Q1007=
24/02/2021 13:00:00Z	 SAID34 WIJJ 241300	METAR WIJJ 241300Z 01004KT 9999 SCT017 28/24 Q1008 NOSIG=
24/02/2021 13:30:00Z	 SAID34 WIJJ 241330	METAR WIJJ 241330Z 03005KT 9999 SCT017 27/24 Q1008 NOSIG=
24/02/2021 14:00:00Z	 SAID34 WIJJ 241400	METAR WIJJ 241400Z 36006KT 9999 SCT017 27/24 Q1008 NOSIG=
24/02/2021 14:30:00Z	 SAID34 WIJJ 241430	METAR WIJJ 241430Z 02005KT 9999 SCT017 27/23 Q1009 NOSIG=
24/02/2021 15:00:00Z	 SAID34 WIJJ 241500	METAR WIJJ 241500Z 36006KT 9999 SCT017 27/23 Q1009 NOSIG=
24/02/2021 15:30:00Z	 SAID34 WIJJ 241530	METAR WIJJ 241530Z 02005KT 9999 SCT017 27/24 Q1009 NOSIG=
24/02/2021 16:00:00Z	 SAID34 WIJJ 241600	METAR WIJJ 241600Z 01005KT 9999 SCT017 27/24 Q1009 NOSIG=
24/02/2021 16:30:00Z	 SAID34 WIJJ 241630	METAR WIJJ 241630Z 36005KT 9999 SCT017 27/24 Q1009 NOSIG=
24/02/2021 17:00:00Z	 SAID34 WIJJ 241700	METAR WIJJ 241700Z 34005KT 9999 SCT017 26/24 Q1009 NOSIG=
24/02/2021 17:30:00Z	 SAID34 WIJJ 241730	METAR WIJJ 241730Z 34005KT 7000 SCT017 26/24 Q1009 NOSIG=
24/02/2021 18:00:00Z	 SAID34 WIJJ 241800	METAR WIJJ 241800Z 32005KT 8000 SCT017 26/23 Q1008 NOSIG=
24/02/2021 18:30:00Z	 SAID34 WIJJ 241830	METAR WIJJ 241830Z 33007KT 9999 SCT017 26/23 Q1008 NOSIG=
24/02/2021 21:00:00Z	 SAID34 WIJJ 242100	METAR WIJJ 242100Z 31007KT 9999 SCT017 25/23 Q1007 NOSIG=
24/02/2021 22:00:00Z	 SAID34 WIJJ 242200	METAR WIJJ 242200Z 30006KT 9999 SCT015 25/23 Q1007 NOSIG=
24/02/2021 23:00:00Z	 SAID34 WIJJ 242300	METAR WIJJ 242300Z 30006KT 6000 SCT017 25/23 Q1008 NOSIG=
24/02/2021 23:30:00Z	 SAID34 WIJJ 242330	METAR WIJJ 242330Z 31004KT 5000 HZ SCT017 25/23 Q1008 NOSIG=
25/02/2021 00:00:00Z	 SAID34 WIJJ 250000	METAR WIJJ 250000Z 34006KT 8000 FEW017 25/23 Q1008 NOSIG=
25/02/2021 00:30:00Z	 SAID34 WIJJ 250030	METAR WIJJ 250030Z 32007KT 9000 NSC 26/23 Q1008 NOSIG=
25/02/2021 01:00:00Z	 SAID34 WIJJ 250100	METAR WIJJ 250100Z 33007KT 9999 NSC 27/23 Q1008 NOSIG=
25/02/2021 01:30:00Z	 SAID34 WIJJ 250130	METAR WIJJ 250130Z 34010KT 9999 FEW015 27/23 Q1008 NOSIG=
25/02/2021 02:00:00Z	 SAID34 WIJJ 250200	METAR WIJJ 250200Z 33010KT 300V360 9999 SCT015 28/23 Q1008 NOSIG=
25/02/2021 02:30:00Z	 SAID34 WIJJ 250230	METAR WIJJ 250230Z 34012KT 9999 SCT015 29/23 Q1008 NOSIG=
25/02/2021 03:00:00Z	 SAID34 WIJJ 250300	METAR WIJJ 250300Z 34013KT 9999 SCT016 29/23 Q1008 NOSIG=
25/02/2021 03:30:00Z	 SAID34 WIJJ 250330	METAR WIJJ 250330Z 35011KT 330V030 9999 SCT016 30/23 Q1008 NOSIG=
25/02/2021 04:00:00Z	 SAID34 WIJJ 250400	METAR WIJJ 250400Z 33011KT 290V360 9999 SCT016 31/24 Q1008 NOSIG=
25/02/2021 04:30:00Z	 SAID34 WIJJ 250430	METAR WIJJ 250430Z 35011KT 310V030 9999 SCT016 31/23 Q1007 NOSIG=
25/02/2021 05:00:00Z	 SAID34 WIJJ 250500	METAR WIJJ 250500Z 35010KT 320V050 9999 SCT016 32/23 Q1007 NOSIG=
25/02/2021 05:30:00Z	 SAID34 WIJJ 250530	METAR WIJJ 250530Z 34009KT 310V010 9999 SCT017 32/23 Q1006 NOSIG=
25/02/2021 06:00:00Z	 SAID34 WIJJ 250600	METAR WIJJ 250600Z 34009KT 300V010 9999 SCT017 33/23 Q1006 NOSIG=
25/02/2021 06:30:00Z	 SAID34 WIJJ 250630	METAR WIJJ 250630Z 32011KT 9999 BKN017 32/22 Q1005 NOSIG=
25/02/2021 07:00:00Z	 SAID34 WIJJ 250700	METAR WIJJ 250700Z 30012KT 9999 BKN017 32/22 Q1005 NOSIG=
25/02/2021 07:30:00Z	 SAID34 WIJJ 250730	METAR WIJJ 250730Z 30011KT 270V330 9999 BKN017 33/22 Q1004 NOSIG=
25/02/2021 08:00:00Z	 SAID34 WIJJ 250800	METAR WIJJ 250800Z 32012KT 290V350 9999 BKN017 33/22 Q1004 NOSIG=
25/02/2021 08:30:00Z	 SAID34 WIJJ 250830	METAR WIJJ 250830Z 31013KT 270V340 9999 SCT017 34/22 Q1004 NOSIG=
25/02/2021 09:00:00Z	 SAID34 WIJJ 250900	METAR WIJJ 250900Z 31012KT 280V340 9999 SCT017 34/22 Q1003 NOSIG=
25/02/2021 09:30:00Z	 SAID34 WIJJ 250930	METAR WIJJ 250930Z 31014KT 9999 SCT017 34/22 Q1003 NOSIG=
25/02/2021 10:00:00Z	 SAID34 WIJJ 251000	METAR WIJJ 251000Z 33008KT 290V010 9999 SCT017 33/22 Q1004 NOSIG=
25/02/2021 10:30:00Z	 SAID34 WIJJ 251030	METAR WIJJ 251030Z 31009KT 270V340 9999 FEW018 33/22 Q1004 NOSIG=
25/02/2021 11:00:00Z	 SAID34 WIJJ 251100	METAR WIJJ 251100Z 02009KT 9999 FEW017 31/24 Q1004 NOSIG=
25/02/2021 11:30:00Z	 SAID34 WIJJ 251130	METAR WIJJ 251130Z 36006KT 330V030 9999 FEW018 30/24 Q1005 NOSIG=
25/02/2021 12:00:00Z	 SAID34 WIJJ 251200	METAR WIJJ 251200Z 01005KT 9999 FEW017 29/25 Q1005 NOSIG=
25/02/2021 12:30:00Z	 SAID34 WIJJ 251230	METAR WIJJ 251230Z 36005KT 9999 FEW016 29/25 Q1006 NOSIG=
25/02/2021 13:00:00Z	 SAID34 WIJJ 251300	METAR WIJJ 251300Z 02005KT 9999 FEW016 29/25 Q1006 NOSIG=
25/02/2021 14:00:00Z	 SAID34 WIJJ 251400	METAR WIJJ 251400Z 02004KT 9999 FEW015CB 28/25 Q1007 NOSIG RMK CB TO S=
25/02/2021 14:30:00Z	 SAID34 WIJJ 251430	METAR WIJJ 251430Z 03003KT 9000 FEW015CB 28/25 Q1008 NOSIG RMK CB TO S=
25/02/2021 15:00:00Z	 SAID34 WIJJ 251500	METAR WIJJ 251500Z 01002KT 6000 FEW015CB FEW016 28/25 Q1008 NOSIG RMK CB TO NE=
25/02/2021 15:30:00Z	 SAID34 WIJJ 251530	METAR WIJJ 251530Z 36002KT 7000 FEW016CB 27/25 Q1008 NOSIG RMK CB TO NE=
