01/02/2021 00:00:00Z	 SAID34 WAGG 010000	METAR WAGG 010000Z 01002KT 9000 BKN011 24/23 Q1012=
01/02/2021 00:30:00Z	 SAID34 WAGG 010030	METAR WAGG 010030Z 03003KT 9000 BKN011 25/24 Q1012=
01/02/2021 01:00:00Z	 SAID34 WAGG 010100	METAR WAGG 010100Z 34002KT 9000 BKN010 25/24 Q1013=
01/02/2021 01:30:00Z	 SAID34 WAGG 010130	METAR WAGG 010130Z 02002KT 9000 BKN010 26/25 Q1013=
01/02/2021 02:00:00Z	 SAID34 WAGG 010200	METAR WAGG 010200Z 03004KT 9999 BKN010 26/24 Q1013=
01/02/2021 02:30:00Z	 SAID34 WAGG 010230	METAR WAGG 010230Z 05003KT 9999 BKN010 27/24 Q1013=
01/02/2021 03:00:00Z	 SAID34 WAGG 010300	METAR WAGG 010300Z 04004KT 9999 BKN010 27/24 Q1013=
01/02/2021 03:30:00Z	 SAID34 WAGG 010330	METAR WAGG 010330Z 03003KT 9999 BKN010 28/24 Q1012=
01/02/2021 04:00:00Z	 SAID34 WAGG 010400	METAR WAGG 010400Z 02003KT 9999 BKN010 28/24 Q1012=
01/02/2021 04:30:00Z	 SAID34 WAGG 010430	METAR WAGG 010430Z 04002KT 9999 BKN010 28/24 Q1011=
01/02/2021 05:00:00Z	 SAID34 WAGG 010500	METAR WAGG 010500Z 07002KT 9999 BKN010 29/24 Q1011=
01/02/2021 05:30:00Z	 SAID34 WAGG 010530	METAR WAGG 010530Z 09002KT 9999 BKN010 29/24 Q1011=
01/02/2021 06:00:00Z	 SAID34 WAGG 010600	METAR WAGG 010600Z 07002KT 9999 BKN010 29/24 Q1010=
01/02/2021 06:30:00Z	 SAID34 WAGG 010630	METAR WAGG 010630Z 06003KT 9999 BKN010 30/24 Q1010=
01/02/2021 07:00:00Z	 SAID34 WAGG 010700	METAR WAGG 010700Z 08003KT 9999 SCT010 31/24 Q1009=
01/02/2021 07:30:00Z	 SAID34 WAGG 010730	METAR WAGG 010730Z 07004KT 9999 SCT010 30/24 Q1009=
01/02/2021 08:00:00Z	 SAID34 WAGG 010800	METAR WAGG 010800Z 10004KT 9999 SCT010 30/24 Q1008=
01/02/2021 08:30:00Z	 SAID34 WAGG 010830	METAR WAGG 010830Z 13004KT 9999 SCT010 30/24 Q1008=
01/02/2021 09:00:00Z	 SAID34 WAGG 010900	METAR WAGG 010900Z 12004KT 9999 FEW010TCU SCT011 30/25 Q1009=
01/02/2021 09:30:00Z	 SAID34 WAGG 010930	METAR WAGG 010930Z 12004KT 9999 FEW010TCU SCT011 30/25 Q1009=
01/02/2021 10:00:00Z	 SAID34 WAGG 011000	METAR WAGG 011000Z 11001KT 9999 FEW010TCU SCT011 29/25 Q1009=
01/02/2021 10:30:00Z	 SAID34 WAGG 011030	METAR WAGG 011030Z 11002KT 9000 TS FEW010CB SCT011 28/26 Q1010=
01/02/2021 11:00:00Z	 SAID34 WAGG 011100	METAR WAGG 011100Z 12002KT 9000 TS FEW010CB SCT011 28/25 Q1010=
01/02/2021 11:30:00Z	 SAID34 WAGG 011130	METAR WAGG 011130Z 12002KT 8000 TS SCT010CB SCT011 27/25 Q1010=
01/02/2021 12:00:00Z	 SAID34 WAGG 011200	METAR WAGG 011200Z 08002KT 7000 TS FEW011CB BKN011 27/25 Q1010=
01/02/2021 21:00:00Z	 SAID34 WAGG 012100	METAR WAGG 012100Z 33003KT 7000 SCT012 24/24 Q1010=
01/02/2021 21:30:00Z	 SAID34 WAGG 012130	METAR WAGG 012130Z 34004KT 7000 SCT012 24/24 Q1010=
01/02/2021 22:00:00Z	 SAID34 WAGG 012200	METAR WAGG 012200Z 31002KT 7000 FEW013 24/24 Q1010=
01/02/2021 23:00:00Z	 SAID34 WAGG 012300	METAR WAGG 012300Z 04003KT 5000 HZ FEW013 24/24 Q1011=
01/02/2021 23:30:00Z	 SAID34 WAGG 012330	METAR WAGG 012330Z 04003KT 7000 FEW012 25/24 Q1011=
02/02/2021 00:00:00Z	 SAID34 WAGG 020000	METAR WAGG 020000Z 01003KT 8000 FEW010 26/25 Q1012=
02/02/2021 00:30:00Z	 SAID34 WAGG 020030	METAR WAGG 020030Z 36003KT 9000 FEW010 27/25 Q1012=
02/02/2021 01:00:00Z	 SAID34 WAGG 020100	METAR WAGG 020100Z 01003KT 9000 FEW010 27/25 Q1012=
02/02/2021 01:30:00Z	 SAID34 WAGG 020130	METAR WAGG 020130Z 04003KT 9000 SCT010 28/25 Q1012=
02/02/2021 02:00:00Z	 SAID34 WAGG 020200	METAR WAGG 020200Z 04004KT 9999 SCT011 29/25 Q1012=
02/02/2021 02:30:00Z	 SAID34 WAGG 020230	METAR WAGG 020230Z 02003KT 9999 SCT011 30/25 Q1011=
02/02/2021 03:00:00Z	 SAID34 WAGG 020300	METAR WAGG 020300Z 05003KT 9999 SCT011 30/24 Q1011=
02/02/2021 03:30:00Z	 SAID34 WAGG 020330	METAR WAGG 020330Z 06004KT 9999 SCT011 31/24 Q1011=
02/02/2021 04:00:00Z	 SAID34 WAGG 020400	METAR WAGG 020400Z 07003KT 9999 SCT011 32/24 Q1010=
02/02/2021 04:30:00Z	 SAID34 WAGG 020430	METAR WAGG 020430Z 02003KT 9999 SCT011 31/24 Q1010=
02/02/2021 05:00:00Z	 SAID34 WAGG 020500	METAR WAGG 020500Z 02003KT 9999 BKN011 31/24 Q1009=
02/02/2021 05:30:00Z	 SAID34 WAGG 020530	METAR WAGG 020530Z 04004KT 9999 BKN011 33/24 Q1009=
02/02/2021 06:00:00Z	 SAID34 WAGG 020600	METAR WAGG 020600Z 33003KT 9999 BKN011 33/23 Q1008=
02/02/2021 06:30:00Z	 SAID34 WAGG 020630	METAR WAGG 020630Z 02003KT 9999 BKN011 33/25 Q1008=
02/02/2021 07:00:00Z	 SAID34 WAGG 020700	METAR WAGG 020700Z 02003KT 9999 BKN011 33/24 Q1007=
02/02/2021 07:30:00Z	 SAID34 WAGG 020730	METAR WAGG 020730Z 02004KT 9999 BKN011 33/24 Q1007=
02/02/2021 08:00:00Z	 SAID34 WAGG 020800	METAR WAGG 020800Z 07004KT 9999 SCT012 33/24 Q1006=
02/02/2021 08:30:00Z	 SAID34 WAGG 020830	METAR WAGG 020830Z 08005KT 9999 SCT012 32/24 Q1006=
02/02/2021 09:00:00Z	 SAID34 WAGG 020900	METAR WAGG 020900Z 04003KT 9999 SCT012 32/24 Q1007=
02/02/2021 09:30:00Z	 SAID34 WAGG 020930	METAR WAGG 020930Z 03003KT 9999 SCT012 32/25 Q1007=
02/02/2021 10:00:00Z	 SAID34 WAGG 021000	METAR WAGG 021000Z 06003KT 9000 FEW011TCU SCT012 31/25 Q1007=
02/02/2021 10:30:00Z	 SAID34 WAGG 021030	METAR WAGG 021030Z 07002KT 9000 FEW011TCU SCT012 30/26 Q1008=
02/02/2021 11:00:00Z	 SAID34 WAGG 021100	METAR WAGG 021100Z 05002KT 8000 FEW011TCU SCT012 30/26 Q1008=
02/02/2021 12:00:00Z	 SAID34 WAGG 021200	METAR WAGG 021200Z 10002KT 9000 SCT012 28/25 Q1009=
02/02/2021 15:00:00Z	 SAID34 WAGG 021500	METAR WAGG 021500Z 00000KT 8000 SCT011 26/25 Q1011=
02/02/2021 18:00:00Z	 SAID34 WAGG 021800	METAR WAGG 021800Z 00000KT 5000 TSRA FEW011 BKN011 25/24 Q1010=
02/02/2021 22:30:00Z	 SAID34 WAGG 022230	METAR WAGG 022230Z 10002KT 6000 BKN008 24/23 Q1011=
02/02/2021 23:00:00Z	 SAID34 WAGG 022300	METAR WAGG 022300Z 07003KT 7000 BKN008 23/23 Q1011=
02/02/2021 23:30:00Z	 SAID34 WAGG 022330	METAR WAGG 022330Z 09002KT 8000 BKN008 23/23 Q1011=
02/02/2021 23:30:00Z	 SAID34 WAGG 022330 CCA	METAR WAGG 022330Z 09002KT 5000 -RA BKN008 23/23 Q1011=
03/02/2021 00:00:00Z	 SAID34 WAGG 030000	METAR WAGG 030000Z 23001KT 5000 -RA BKN008 24/24 Q1012=
03/02/2021 00:30:00Z	 SAID34 WAGG 030030	METAR WAGG 030030Z 20003KT 5000 -RA BKN008 24/24 Q1012=
03/02/2021 01:00:00Z	 SAID34 WAGG 030100	METAR WAGG 030100Z 14001KT 5000 -RA BKN008 24/24 Q1012=
03/02/2021 01:30:00Z	 SAID34 WAGG 030130	METAR WAGG 030130Z 08002KT 5000 -RA BKN008 24/24 Q1012=
03/02/2021 02:00:00Z	 SAID34 WAGG 030200	METAR WAGG 030200Z 12002KT 5000 -RA BKN008 24/24 Q1012=
03/02/2021 02:30:00Z	 SAID34 WAGG 030230	METAR WAGG 030230Z 15002KT 5000 -RA BKN008 25/24 Q1012=
03/02/2021 03:00:00Z	 SAID34 WAGG 030300	METAR WAGG 030300Z 21003KT 6000 -RA BKN008 25/24 Q1012=
03/02/2021 03:30:00Z	 SAID34 WAGG 030330	METAR WAGG 030330Z 23001KT 6000 -RA BKN008 25/24 Q1012=
03/02/2021 04:00:00Z	 SAID34 WAGG 030400	METAR WAGG 030400Z 22001KT 6000 -RA BKN009 26/24 Q1011=
03/02/2021 04:30:00Z	 SAID34 WAGG 030430	METAR WAGG 030430Z 05002KT 9000 BKN009 26/24 Q1011 RERA=
03/02/2021 05:00:00Z	 SAID34 WAGG 030500	METAR WAGG 030500Z 32002KT 9000 BKN009 27/23 Q1010=
03/02/2021 05:30:00Z	 SAID34 WAGG 030530	METAR WAGG 030530Z 04003KT 9000 BKN009 27/25 Q1009=
03/02/2021 06:00:00Z	 SAID34 WAGG 030600	METAR WAGG 030600Z 01003KT 9000 BKN009 28/24 Q1009=
03/02/2021 06:30:00Z	 SAID34 WAGG 030630	METAR WAGG 030630Z 05003KT 9000 BKN009 28/24 Q1009=
03/02/2021 07:00:00Z	 SAID34 WAGG 030700	METAR WAGG 030700Z 01003KT 9000 BKN009 28/23 Q1009=
03/02/2021 07:30:00Z	 SAID34 WAGG 030730	METAR WAGG 030730Z 02002KT 8000 BKN009 28/24 Q1009=
03/02/2021 08:00:00Z	 SAID34 WAGG 030800	METAR WAGG 030800Z 23003KT 8000 BKN009 27/24 Q1009=
03/02/2021 08:30:00Z	 SAID34 WAGG 030830	METAR WAGG 030830Z 17003KT 9000 BKN009 28/24 Q1009=
03/02/2021 09:00:00Z	 SAID34 WAGG 030900	METAR WAGG 030900Z 13003KT 9000 BKN010 28/24 Q1009=
03/02/2021 09:30:00Z	 SAID34 WAGG 030930	METAR WAGG 030930Z 10003KT 9000 BKN010 28/24 Q1009=
03/02/2021 10:00:00Z	 SAID34 WAGG 031000	METAR WAGG 031000Z 11002KT 9000 BKN010 28/24 Q1009=
03/02/2021 10:30:00Z	 SAID34 WAGG 031030	METAR WAGG 031030Z 14002KT 9000 BKN010 27/24 Q1010=
03/02/2021 11:00:00Z	 SAID34 WAGG 031100	METAR WAGG 031100Z 18004KT 8000 BKN010 27/25 Q1010=
03/02/2021 22:00:00Z	 SAID34 WAGG 032200	METAR WAGG 032200Z 30005KT 9000 BKN010 24/23 Q1010=
03/02/2021 22:30:00Z	 SAID34 WAGG 032230	METAR WAGG 032230Z 30003KT 9000 BKN010 24/23 Q1011=
03/02/2021 23:00:00Z	 SAID34 WAGG 032300	METAR WAGG 032300Z 30002KT 9000 BKN010 24/24 Q1012=
03/02/2021 23:30:00Z	 SAID34 WAGG 032330	METAR WAGG 032330Z 26004KT 7000 VCSH BKN009 24/24 Q1012=
04/02/2021 00:00:00Z	 SAID34 WAGG 040000	METAR WAGG 040000Z 33005KT 7000 VCSH BKN009 25/24 Q1012=
04/02/2021 00:30:00Z	 SAID34 WAGG 040030	METAR WAGG 040030Z 32007KT 8000 BKN009 25/24 Q1013=
04/02/2021 01:00:00Z	 SAID34 WAGG 040100	METAR WAGG 040100Z 35008KT 9000 BKN010 26/24 Q1013=
04/02/2021 01:30:00Z	 SAID34 WAGG 040130	METAR WAGG 040130Z 27005KT 9999 BKN010 28/24 Q1013=
04/02/2021 02:00:00Z	 SAID34 WAGG 040200	METAR WAGG 040200Z 33008KT 9999 BKN010 29/24 Q1013=
04/02/2021 02:30:00Z	 SAID34 WAGG 040230	METAR WAGG 040230Z 36006KT 9999 BKN010 30/24 Q1012=
04/02/2021 03:00:00Z	 SAID34 WAGG 040300	METAR WAGG 040300Z 34005KT 9999 BKN010 30/24 Q1012=
04/02/2021 03:30:00Z	 SAID34 WAGG 040330	METAR WAGG 040330Z 03006KT 9999 BKN010 30/23 Q1011=
04/02/2021 04:00:00Z	 SAID34 WAGG 040400	METAR WAGG 040400Z 26006KT 9999 BKN010 31/23 Q1011=
04/02/2021 04:30:00Z	 SAID34 WAGG 040430	METAR WAGG 040430Z 36005KT 9999 BKN010 30/24 Q1010=
04/02/2021 05:00:00Z	 SAID34 WAGG 040500	METAR WAGG 040500Z 22005KT 9999 BKN010 31/23 Q1009=
04/02/2021 05:30:00Z	 SAID34 WAGG 040530	METAR WAGG 040530Z 31008KT 9999 BKN010 32/24 Q1009=
04/02/2021 06:00:00Z	 SAID34 WAGG 040600	METAR WAGG 040600Z 36003KT 9999 BKN010 31/24 Q1008=
04/02/2021 06:30:00Z	 SAID34 WAGG 040630	METAR WAGG 040630Z 01003KT 9999 BKN010 32/24 Q1008=
04/02/2021 07:00:00Z	 SAID34 WAGG 040700	METAR WAGG 040700Z 35004KT 5000 -RA BKN010 30/25 Q1008=
04/02/2021 07:30:00Z	 SAID34 WAGG 040730	METAR WAGG 040730Z 12004KT 9999 BKN010 32/25 Q1007=
04/02/2021 08:00:00Z	 SAID34 WAGG 040800	METAR WAGG 040800Z 07003KT 9999 BKN010 32/24 Q1007=
04/02/2021 08:30:00Z	 SAID34 WAGG 040830	METAR WAGG 040830Z 10004KT 9999 BKN010 31/25 Q1007=
04/02/2021 09:00:00Z	 SAID34 WAGG 040900	METAR WAGG 040900Z 08002KT 9999 BKN010 31/25 Q1007=
04/02/2021 09:30:00Z	 SAID34 WAGG 040930	METAR WAGG 040930Z 06007KT 9999 SCT010 30/26 Q1007=
04/02/2021 10:00:00Z	 SAID34 WAGG 041000	METAR WAGG 041000Z 06002KT 9999 SCT010 29/26 Q1008=
04/02/2021 10:30:00Z	 SAID34 WAGG 041030	METAR WAGG 041030Z 06002KT 8000 BKN010 28/26 Q1008=
04/02/2021 11:00:00Z	 SAID34 WAGG 041100	METAR WAGG 041100Z 07002KT 8000 BKN010 28/26 Q1009=
04/02/2021 11:30:00Z	 SAID34 WAGG 041130	METAR WAGG 041130Z 13002KT 8000 VCTS FEW010CB SCT011 28/26 Q1009=
04/02/2021 12:00:00Z	 SAID34 WAGG 041200	METAR WAGG 041200Z 18007KT 8000 TS FEW010CB SCT011 28/26 Q1010=
04/02/2021 21:00:00Z	 SAID34 WAGG 042100	METAR WAGG 042100Z 10007KT 8000 BKN010 24/23 Q1010 RERA=
04/02/2021 21:30:00Z	 SAID34 WAGG 042130	METAR WAGG 042130Z 08001KT 8000 BKN009 24/23 Q1010=
04/02/2021 22:00:00Z	 SAID34 WAGG 042200	METAR WAGG 042200Z 14002KT 8000 BKN009 24/23 Q1010=
04/02/2021 22:30:00Z	 SAID34 WAGG 042230	METAR WAGG 042230Z 11001KT 8000 BKN013 24/23 Q1011=
04/02/2021 23:00:00Z	 SAID34 WAGG 042300	METAR WAGG 042300Z 05002KT 8000 SCT012 24/24 Q1011=
04/02/2021 23:30:00Z	 SAID34 WAGG 042330	METAR WAGG 042330Z 19002KT 9000 SCT009 24/24 Q1011=
05/02/2021 00:00:00Z	 SAID34 WAGG 050000	METAR WAGG 050000Z 10002KT 9999 SCT009 24/23 Q1012=
05/02/2021 00:30:00Z	 SAID34 WAGG 050030	METAR WAGG 050030Z 05003KT 9999 SCT010 26/24 Q1012=
05/02/2021 01:00:00Z	 SAID34 WAGG 050100	METAR WAGG 050100Z 35003KT 9999 SCT009 27/24 Q1012=
05/02/2021 01:30:00Z	 SAID34 WAGG 050130	METAR WAGG 050130Z 24006KT 9999 BKN009 29/25 Q1012=
05/02/2021 02:00:00Z	 SAID34 WAGG 050200	METAR WAGG 050200Z 31007KT 9999 BKN009 28/24 Q1011=
05/02/2021 02:30:00Z	 SAID34 WAGG 050230	METAR WAGG 050230Z 28005KT 9999 BKN009 29/24 Q1011=
05/02/2021 03:00:00Z	 SAID34 WAGG 050300	METAR WAGG 050300Z 22004KT 9999 BKN010 29/24 Q1011=
05/02/2021 03:30:00Z	 SAID34 WAGG 050330	METAR WAGG 050330Z 32005KT 9999 BKN010 30/24 Q1010=
05/02/2021 04:00:00Z	 SAID34 WAGG 050400	METAR WAGG 050400Z 32005KT 9999 BKN010 30/24 Q1010=
05/02/2021 04:30:00Z	 SAID34 WAGG 050430	METAR WAGG 050430Z 35005KT 9999 BKN010 31/25 Q1010=
05/02/2021 05:00:00Z	 SAID34 WAGG 050500	METAR WAGG 050500Z 19003KT 9999 BKN010 30/24 Q1009=
05/02/2021 05:30:00Z	 SAID34 WAGG 050530	METAR WAGG 050530Z 25003KT 9999 BKN010 30/25 Q1009 RERA=
05/02/2021 06:00:00Z	 SAID34 WAGG 050600	METAR WAGG 050600Z 22008KT 7000 FEW010TCU BKN010 30/24 Q1009=
05/02/2021 06:30:00Z	 SAID34 WAGG 050630	METAR WAGG 050630Z 10002KT 7000 FEW010TCU BKN010 30/25 Q1008=
05/02/2021 07:00:00Z	 SAID34 WAGG 050700	METAR WAGG 050700Z 08003KT 7000 FEW010TCU BKN010 30/24 Q1007=
05/02/2021 07:30:00Z	 SAID34 WAGG 050730	METAR WAGG 050730Z 04004KT 7000 FEW010TCU BKN010 31/24 Q1007=
05/02/2021 08:00:00Z	 SAID34 WAGG 050800	METAR WAGG 050800Z 08002KT 7000 FEW010TCU BKN010 31/28 Q1007=
05/02/2021 08:00:00Z	 SAID34 WAGG 050800 CCA	METAR WAGG 050800Z 08002KT 7000 FEW010TCU BKN010 31/25 Q1007=
05/02/2021 08:30:00Z	 SAID34 WAGG 050830	METAR WAGG 050830Z 06004KT 7000 FEW010TCU BKN010 31/25 Q1006=
05/02/2021 09:00:00Z	 SAID34 WAGG 050900	METAR WAGG 050900Z 06003KT 9000 FEW010TCU BKN010 31/26 Q1007=
05/02/2021 09:30:00Z	 SAID34 WAGG 050930	METAR WAGG 050930Z 07003KT 9000 FEW010TCU BKN010 31/25 Q1007=
05/02/2021 10:00:00Z	 SAID34 WAGG 051000	METAR WAGG 051000Z 07002KT 9000 BKN011 30/26 Q1007=
05/02/2021 10:30:00Z	 SAID34 WAGG 051030	METAR WAGG 051030Z 04002KT 9000 BKN011 29/26 Q1008=
05/02/2021 11:00:00Z	 SAID34 WAGG 051100	METAR WAGG 051100Z 04004KT 9000 BKN011 29/26 Q1008=
05/02/2021 11:30:00Z	 SAID34 WAGG 051130	METAR WAGG 051130Z 06002KT 9000 BKN011 28/26 Q1008=
05/02/2021 12:00:00Z	 SAID34 WAGG 051200	METAR WAGG 051200Z 08004KT 9000 VCTS FEW011TCU SCT011 27/25 Q1009=
05/02/2021 15:00:00Z	 SAID34 WAGG 051500	METAR WAGG 051500Z 15003KT 4000 +TSRA FEW009CB BKN009 24/24 Q1011=
05/02/2021 18:00:00Z	 SAID34 WAGG 051800	METAR WAGG 051800Z 02007KT 8000 RA BKN011 24/23 Q1010=
05/02/2021 21:00:00Z	 SAID34 WAGG 052100	METAR WAGG 052100Z 00000KT 8000 VCSH BKN010 23/23 Q1009=
05/02/2021 22:00:00Z	 SAID34 WAGG 052200	METAR WAGG 052200Z 13003KT 8000 VCSH BKN010 23/23 Q1009=
05/02/2021 22:30:00Z	 SAID34 WAGG 052230	METAR WAGG 052230Z 00000KT 8000 0BKN011 23/23 Q1010=
05/02/2021 23:00:00Z	 SAID34 WAGG 052300	METAR WAGG 052300Z 01002KT 9000 SCT013 24/23 Q1010=
05/02/2021 23:30:00Z	 SAID34 WAGG 052330	METAR WAGG 052330Z 05001KT 9000 SCT013 24/24 Q1010=
06/02/2021 00:00:00Z	 SAID34 WAGG 060000	METAR WAGG 060000Z 04002KT 9999 SCT013 26/24 Q1011=
06/02/2021 00:30:00Z	 SAID34 WAGG 060030	METAR WAGG 060030Z 02002KT 9999 SCT013 26/24 Q1011=
06/02/2021 01:00:00Z	 SAID34 WAGG 060100	METAR WAGG 060100Z 02002KT 9999 SCT013 27/24 Q1011=
06/02/2021 01:30:00Z	 SAID34 WAGG 060130	METAR WAGG 060130Z 33001KT 9999 SCT013 29/25 Q1011=
06/02/2021 02:00:00Z	 SAID34 WAGG 060200	METAR WAGG 060200Z 12002KT 9999 SCT012 29/24 Q1011=
06/02/2021 03:00:00Z	 SAID34 WAGG 060300	METAR WAGG 060300Z 09002KT 9999 BKN011 30/24 Q1010=
06/02/2021 03:30:00Z	 SAID34 WAGG 060330	METAR WAGG 060330Z 03003KT 8000 FEW011TCU BKN011 30/24 Q1010=
06/02/2021 04:00:00Z	 SAID34 WAGG 060400	METAR WAGG 060400Z 35002KT 8000 FEW011TCU BKN011 30/25 Q1010 RERA=
06/02/2021 04:30:00Z	 SAID34 WAGG 060430	METAR WAGG 060430Z 01002KT 9000 FEW011TCU BKN011 30/25 Q1009=
06/02/2021 05:00:00Z	 SAID34 WAGG 060500	METAR WAGG 060500Z 16003KT 9000 FEW011TCU BKN011 31/24 Q1009=
06/02/2021 05:30:00Z	 SAID34 WAGG 060530	METAR WAGG 060530Z 03002KT 9000 BKN011 31/24 Q1008=
06/02/2021 06:00:00Z	 SAID34 WAGG 060600	METAR WAGG 060600Z 12002KT 9999 BKN011 32/24 Q1007=
06/02/2021 06:30:00Z	 SAID34 WAGG 060630	METAR WAGG 060630Z 06003KT 9999 BKN011 33/24 Q1007=
06/02/2021 07:00:00Z	 SAID34 WAGG 060700	METAR WAGG 060700Z 04004KT 9999 BKN011 32/24 Q1006=
06/02/2021 07:30:00Z	 SAID34 WAGG 060730	METAR WAGG 060730Z 07003KT 9999 BKN011 32/24 Q1005=
06/02/2021 08:00:00Z	 SAID34 WAGG 060800	METAR WAGG 060800Z 11002KT 9000 FEW010TCU BKN011 31/24 Q1005=
06/02/2021 08:30:00Z	 SAID34 WAGG 060830	METAR WAGG 060830Z 18001KT 9000 FEW010TCU BKN011 31/24 Q1005=
06/02/2021 09:00:00Z	 SAID34 WAGG 060900	METAR WAGG 060900Z 01004KT 9000 FEW010TCU BKN011 31/23 Q1006=
06/02/2021 09:30:00Z	 SAID34 WAGG 060930	METAR WAGG 060930Z 18004KT 9000 FEW010TCU BKN011 30/25 Q1006=
06/02/2021 10:00:00Z	 SAID34 WAGG 061000	METAR WAGG 061000Z 16004KT 9000 FEW010TCU BKN011 29/25 Q1006=
06/02/2021 10:30:00Z	 SAID34 WAGG 061030 CCA	METAR WAGG 061030Z 18004KT 8000 FEW010TCU BKN011 29/25 Q1007=
06/02/2021 10:30:00Z	 SAID34 WAGG 061030	METAR WAGG 061030Z 18004KT 9000 FEW010TCU BKN011 29/25 Q1007=
06/02/2021 11:00:00Z	 SAID34 WAGG 061100	METAR WAGG 061100Z 21003KT 8000 FEW010TCU BKN011 28/25 Q1007=
06/02/2021 11:30:00Z	 SAID34 WAGG 061130	METAR WAGG 061130Z 16003KT 8000 VCTS FEW010CB FEW011 28/25 Q1007=
06/02/2021 12:00:00Z	 SAID34 WAGG 061200	METAR WAGG 061200Z 26003KT 8000 VCTS FEW012CB FEW012 28/25 Q1008=
06/02/2021 21:00:00Z	 SAID34 WAGG 062100	METAR WAGG 062100Z 07002KT 7000 SCT012 25/25 Q1009=
06/02/2021 21:30:00Z	 SAID34 WAGG 062130	METAR WAGG 062130Z 05003KT 7000 SCT012 25/25 Q1009=
06/02/2021 22:00:00Z	 SAID34 WAGG 062200	METAR WAGG 062200Z 11003KT 7000 SCT012 25/25 Q1009=
06/02/2021 22:30:00Z	 SAID34 WAGG 062230	METAR WAGG 062230Z 06003KT 7000 SCT012 25/25 Q1009=
06/02/2021 23:00:00Z	 SAID34 WAGG 062300	METAR WAGG 062300Z 04004KT 8000 SCT010 25/24 Q1009=
06/02/2021 23:30:00Z	 SAID34 WAGG 062330	METAR WAGG 062330Z 03003KT 8000 BKN010 25/24 Q1010=
07/02/2021 00:00:00Z	 SAID34 WAGG 070000	METAR WAGG 070000Z 04002KT 8000 BKN009 25/24 Q1011=
07/02/2021 00:30:00Z	 SAID34 WAGG 070030	METAR WAGG 070030Z 19001KT 8000 BKN009 26/24 Q1011=
07/02/2021 01:00:00Z	 SAID34 WAGG 070100	METAR WAGG 070100Z 12001KT 9000 BKN009 26/24 Q1011=
07/02/2021 01:30:00Z	 SAID34 WAGG 070130	METAR WAGG 070130Z 03003KT 9000 BKN010 27/24 Q1011=
07/02/2021 02:00:00Z	 SAID34 WAGG 070200	METAR WAGG 070200Z 03003KT 9000 BKN010 27/24 Q1011=
07/02/2021 02:30:00Z	 SAID34 WAGG 070230	METAR WAGG 070230Z 05003KT 9000 BKN010 29/24 Q1011=
07/02/2021 03:00:00Z	 SAID34 WAGG 070300	METAR WAGG 070300Z 03004KT 9999 BKN010 29/24 Q1011=
07/02/2021 03:30:00Z	 SAID34 WAGG 070330	METAR WAGG 070330Z 04006KT 9999 BKN010 29/24 Q1010=
07/02/2021 04:00:00Z	 SAID34 WAGG 070400	METAR WAGG 070400Z 05007KT 9000 BKN010 28/25 Q1010=
07/02/2021 04:30:00Z	 SAID34 WAGG 070430	METAR WAGG 070430Z 06003KT 9000 BKN010 29/25 Q1009=
07/02/2021 04:30:00Z	 SAID34 WAGG 070430 CCA	METAR WAGG 070430Z 06003KT 5000 -RA BKN010 29/25 Q1009=
07/02/2021 05:00:00Z	 SAID34 WAGG 070500	METAR WAGG 070500Z 18001KT 8000 FEW009TCU BKN010 28/25 Q1009 RERA=
07/02/2021 05:30:00Z	 SAID34 WAGG 070530	METAR WAGG 070530Z 11005KT 8000 FEW009TCU BKN010 28/25 Q1008=
07/02/2021 06:00:00Z	 SAID34 WAGG 070600	METAR WAGG 070600Z 11005KT 8000 FEW009TCU BKN010 28/25 Q1008=
07/02/2021 06:00:00Z	 SAID34 WAGG 070600 CCA	METAR WAGG 070600Z 11005KT 8000 VCSH FEW009TCU BKN010 28/25 Q1008=
07/02/2021 06:30:00Z	 SAID34 WAGG 070630	METAR WAGG 070630Z 12003KT 8000 VCSH FEW009TCU BKN010 27/25 Q1008=
07/02/2021 07:00:00Z	 SAID34 WAGG 070700	METAR WAGG 070700Z 15002KT 9000 FEW009TCU BKN010 28/25 Q1007=
07/02/2021 07:30:00Z	 SAID34 WAGG 070730	METAR WAGG 070730Z 17002KT 9000 FEW009TCU BKN010 29/25 Q1006=
07/02/2021 08:00:00Z	 SAID34 WAGG 070800	METAR WAGG 070800Z 08002KT 9000 BKN010 29/24 Q1006=
07/02/2021 08:30:00Z	 SAID34 WAGG 070830	METAR WAGG 070830Z 08002KT 9999 BKN010 30/25 Q1006=
07/02/2021 09:00:00Z	 SAID34 WAGG 070900	METAR WAGG 070900Z 08003KT 9999 BKN010 29/25 Q1006=
07/02/2021 09:30:00Z	 SAID34 WAGG 070930	METAR WAGG 070930Z 10003KT 9999 BKN010 29/25 Q1006=
07/02/2021 10:00:00Z	 SAID34 WAGG 071000	METAR WAGG 071000Z 08002KT 9000 BKN010 28/26 Q1007=
07/02/2021 10:30:00Z	 SAID34 WAGG 071030	METAR WAGG 071030Z 08002KT 8000 SCT010 28/26 Q1007=
07/02/2021 11:00:00Z	 SAID34 WAGG 071100	METAR WAGG 071100Z 11002KT 8000 SCT010 28/26 Q1008=
07/02/2021 11:20:00Z	 SAID34 WAGG 071120	METAR WAGG 071120Z 00000KT 8000 SCT011 27/25 Q1008=
07/02/2021 15:00:00Z	 SAID34 WAGG 071500	METAR WAGG 071500Z 00000KT 8000 SCT011 26/25 Q1010=
07/02/2021 18:00:00Z	 SAID34 WAGG 071800	METAR WAGG 071800Z 00000KT 7000 SCT011 25/25 Q1010=
07/02/2021 21:00:00Z	 SAID34 WAGG 072100	METAR WAGG 072100Z 19002KT 8000 -RA BKN009 24/23 Q1008=
07/02/2021 21:30:00Z	 SAID34 WAGG 072130	METAR WAGG 072130Z 15003KT 8000 -RA BKN009 24/23 Q1009=
07/02/2021 22:00:00Z	 SAID34 WAGG 072200	METAR WAGG 072200Z 19003KT 8000 -RA BKN010 24/23 Q1009=
07/02/2021 22:30:00Z	 SAID34 WAGG 072230	METAR WAGG 072230Z 00000KT 8000 -RA BKN010 24/23 Q1009=
07/02/2021 23:00:00Z	 SAID34 WAGG 072300	METAR WAGG 072300Z 16003KT 8000 VCSH BKN010 24/23 Q1010 RERA=
07/02/2021 23:30:00Z	 SAID34 WAGG 072330	METAR WAGG 072330Z 04002KT 8000 BKN010 24/24 Q1010=
08/02/2021 00:00:00Z	 SAID34 WAGG 080000	METAR WAGG 080000Z 06002KT 8000 BKN010 25/24 Q1010=
08/02/2021 00:30:00Z	 SAID34 WAGG 080030	METAR WAGG 080030Z 07001KT 8000 BKN010 25/24 Q1011=
08/02/2021 01:00:00Z	 SAID34 WAGG 080100	METAR WAGG 080100Z 11002KT 8000 BKN010 25/24 Q1011=
08/02/2021 01:30:00Z	 SAID34 WAGG 080130	METAR WAGG 080130Z 10002KT 9000 BKN010 25/24 Q1011=
08/02/2021 02:00:00Z	 SAID34 WAGG 080200	METAR WAGG 080200Z 10002KT 9000 BKN010 26/24 Q1011=
08/02/2021 02:30:00Z	 SAID34 WAGG 080230	METAR WAGG 080230Z 07001KT 9000 BKN010 27/25 Q1011=
08/02/2021 03:00:00Z	 SAID34 WAGG 080300	METAR WAGG 080300Z 33001KT 9000 BKN010 28/24 Q1010=
08/02/2021 03:30:00Z	 SAID34 WAGG 080330	METAR WAGG 080330Z 09001KT 9000 BKN010 28/25 Q1010=
08/02/2021 04:00:00Z	 SAID34 WAGG 080400	METAR WAGG 080400Z 02003KT 9000 BKN010 30/25 Q1010=
08/02/2021 04:30:00Z	 SAID34 WAGG 080430	METAR WAGG 080430Z 34003KT 9000 BKN010 31/25 Q1009=
08/02/2021 05:00:00Z	 SAID34 WAGG 080500	METAR WAGG 080500Z 04004KT 9000 BKN010 30/25 Q1008=
08/02/2021 05:30:00Z	 SAID34 WAGG 080530	METAR WAGG 080530Z 04003KT 9000 BKN010 31/25 Q1008=
08/02/2021 06:00:00Z	 SAID34 WAGG 080600	METAR WAGG 080600Z 08003KT 9999 BKN011 32/25 Q1007=
08/02/2021 06:30:00Z	 SAID34 WAGG 080630	METAR WAGG 080630Z 03002KT 9999 BKN011 32/25 Q1007=
08/02/2021 07:00:00Z	 SAID34 WAGG 080700	METAR WAGG 080700Z 35003KT 9999 BKN011 33/24 Q1006=
08/02/2021 07:30:00Z	 SAID34 WAGG 080730	METAR WAGG 080730Z 35003KT 9999 BKN011 33/24 Q1006=
08/02/2021 08:00:00Z	 SAID34 WAGG 080800	METAR WAGG 080800Z 10003KT 9999 BKN011 32/25 Q1006=
08/02/2021 08:30:00Z	 SAID34 WAGG 080830	METAR WAGG 080830Z 15003KT 9999 BKN011 32/25 Q1006=
08/02/2021 09:00:00Z	 SAID34 WAGG 080900	METAR WAGG 080900Z 08002KT 9999 FEW010TCU BKN011 32/24 Q1006=
08/02/2021 09:30:00Z	 SAID34 WAGG 080930	METAR WAGG 080930Z 36003KT 9999 FEW010TCU BKN011 30/22 Q1006 BECMG TL1015 27012KT 3000 RA FEW010CB BKN011=
08/02/2021 10:00:00Z	 SAID34 WAGG 081000	METAR WAGG 081000Z 04003KT 9999 FEW010TCU SCT011 30/23 Q1006 BECMG TL1015 27012KT 3000 RA FEW010CB BKN011=
08/02/2021 10:30:00Z	 SAID34 WAGG 081030	METAR WAGG 081030Z 17001KT 8000 FEW010TCU SCT011 29/24 Q1007=
08/02/2021 11:00:00Z	 SAID34 WAGG 081100	METAR WAGG 081100Z 08002KT 8000 SCT011 28/25 Q1007=
08/02/2021 12:00:00Z	 SAID34 WAGG 081200	METAR WAGG 081200Z 18002KT 8000 VCTS FEW012CB BKN012 28/25 Q1008=
08/02/2021 21:00:00Z	 SAID34 WAGG 082100	METAR WAGG 082100Z 18002KT 9000 SCT010 25/24 Q1009=
08/02/2021 22:00:00Z	 SAID34 WAGG 082200	METAR WAGG 082200Z 05002KT 9000 BKN010 25/24 Q1009=
08/02/2021 23:00:00Z	 SAID34 WAGG 082300	METAR WAGG 082300Z 17002KT 9000 BKN010 25/25 Q1010=
08/02/2021 23:30:00Z	 SAID34 WAGG 082330	METAR WAGG 082330Z 16002KT 9000 BKN010 26/25 Q1010=
09/02/2021 00:00:00Z	 SAID34 WAGG 090000	METAR WAGG 090000Z 33004KT 9999 BKN010 26/25 Q1010=
09/02/2021 00:30:00Z	 SAID34 WAGG 090030	METAR WAGG 090030Z 32004KT 9999 BKN007 27/25 Q1011=
09/02/2021 01:00:00Z	 SAID34 WAGG 090100	METAR WAGG 090100Z 28003KT 9999 BKN008 28/25 Q1011=
09/02/2021 01:30:00Z	 SAID34 WAGG 090130	METAR WAGG 090130Z 35008KT 9999 BKN008 29/25 Q1010=
09/02/2021 02:00:00Z	 SAID34 WAGG 090200	METAR WAGG 090200Z 36005KT 9999 BKN008 29/25 Q1010=
09/02/2021 02:30:00Z	 SAID34 WAGG 090230	METAR WAGG 090230Z 36006KT 9999 BKN009 30/25 Q1010=
09/02/2021 03:00:00Z	 SAID34 WAGG 090300	METAR WAGG 090300Z 06003KT 9999 BKN009 30/25 Q1010=
09/02/2021 04:00:00Z	 SAID34 WAGG 090400	METAR WAGG 090400Z 35010KT 9999 SCT010 31/25 Q1009=
09/02/2021 04:30:00Z	 SAID34 WAGG 090430	METAR WAGG 090430Z 02008KT 9999 BKN010 32/25 Q1008=
09/02/2021 05:00:00Z	 SAID34 WAGG 090500	METAR WAGG 090500Z 04006KT 9999 BKN010 32/25 Q1008=
09/02/2021 05:30:00Z	 SAID34 WAGG 090530	METAR WAGG 090530Z 33004KT 9999 BKN010 33/24 Q1007=
09/02/2021 06:00:00Z	 SAID34 WAGG 090600	METAR WAGG 090600Z 34003KT 9999 BKN010 32/24 Q1007=
09/02/2021 06:30:00Z	 SAID34 WAGG 090630	METAR WAGG 090630Z 36003KT 9999 BKN010 33/24 Q1006=
09/02/2021 07:00:00Z	 SAID34 WAGG 090700	METAR WAGG 090700Z 04003KT 9999 BKN010 33/25 Q1006=
09/02/2021 07:30:00Z	 SAID34 WAGG 090730	METAR WAGG 090730Z 34002KT 9999 BKN010 33/24 Q1005=
09/02/2021 08:00:00Z	 SAID34 WAGG 090800	METAR WAGG 090800Z 01003KT 9999 BKN010 33/25 Q1005=
09/02/2021 08:30:00Z	 SAID34 WAGG 090830	METAR WAGG 090830Z 07002KT 9999 BKN010 33/25 Q1005=
09/02/2021 09:00:00Z	 SAID34 WAGG 090900	METAR WAGG 090900Z 12001KT 9999 FEW011TCU BKN010 32/25 Q1005=
09/02/2021 09:30:00Z	 SAID34 WAGG 090930	METAR WAGG 090930Z 27002KT 9999 FEW011TCU BKN010 31/25 Q1006=
09/02/2021 10:00:00Z	 SAID34 WAGG 091000	METAR WAGG 091000Z 32003KT 9999 FEW011TCU BKN010 30/24 Q1006=
09/02/2021 10:30:00Z	 SAID34 WAGG 091030	METAR WAGG 091030Z 22007KT 9000 FEW011TCU BKN010 30/24 Q1006=
09/02/2021 11:00:00Z	 SAID34 WAGG 091100	METAR WAGG 091100Z 22002KT 8000 FEW011TCU BKN010 28/25 Q1007=
09/02/2021 11:30:00Z	 SAID34 WAGG 091130	METAR WAGG 091130Z 18002KT 8000 TS FEW010CB BKN011 28/25 Q1007=
09/02/2021 12:00:00Z	 SAID34 WAGG 091200	METAR WAGG 091200Z 25001KT 8000 TS FEW010CB BKN011 28/25 Q1007=
09/02/2021 13:00:00Z	 SAID34 WAGG 091300	METAR WAGG 091300Z 13003KT 8000 FEW010CB BKN011 28/25 Q1008 RETS=
09/02/2021 21:00:00Z	 SAID34 WAGG 092100	METAR WAGG 092100Z 19001KT 8000 SCT011 26/25 Q1008=
09/02/2021 21:30:00Z	 SAID34 WAGG 092130	METAR WAGG 092130Z 13001KT 8000 SCT011 26/25 Q1008=
09/02/2021 22:00:00Z	 SAID34 WAGG 092200	METAR WAGG 092200Z 14001KT 8000 SCT011 26/25 Q1009=
09/02/2021 22:30:00Z	 SAID34 WAGG 092230	METAR WAGG 092230Z 09001KT 8000 SCT011 26/26 Q1009=
10/02/2021 00:00:00Z	 SAID34 WAGG 100000	METAR WAGG 100000Z 11002KT 9000 SCT012 27/26 Q1010=
10/02/2021 00:30:00Z	 SAID34 WAGG 100030	METAR WAGG 100030Z 17003KT 9999 SCT012 28/26 Q1011=
10/02/2021 01:00:00Z	 SAID34 WAGG 100100	METAR WAGG 100100Z 26003KT 9999 BKN010 29/25 Q1011=
10/02/2021 01:30:00Z	 SAID34 WAGG 100130	METAR WAGG 100130Z 18005KT 9999 BKN010 29/25 Q1011=
10/02/2021 02:00:00Z	 SAID34 WAGG 100200	METAR WAGG 100200Z 32004KT 9999 BKN010 30/25 Q1011=
10/02/2021 02:30:00Z	 SAID34 WAGG 100230	METAR WAGG 100230Z 22006KT 9999 BKN010 31/25 Q1011=
10/02/2021 03:00:00Z	 SAID34 WAGG 100300	METAR WAGG 100300Z 26006KT 9999 BKN010 31/25 Q1010=
10/02/2021 03:30:00Z	 SAID34 WAGG 100330	METAR WAGG 100330Z 25004KT 9999 BKN011 31/25 Q1010=
10/02/2021 04:00:00Z	 SAID34 WAGG 100400	METAR WAGG 100400Z 23007KT 9999 BKN010 31/25 Q1010=
10/02/2021 04:30:00Z	 SAID34 WAGG 100430	METAR WAGG 100430Z 20007KT 9999 BKN010 32/25 Q1009=
10/02/2021 05:00:00Z	 SAID34 WAGG 100500	METAR WAGG 100500Z 23006KT 9999 BKN010 32/25 Q1009=
10/02/2021 05:30:00Z	 SAID34 WAGG 100530	METAR WAGG 100530Z 01003KT 9999 BKN010 31/25 Q1008=
10/02/2021 06:00:00Z	 SAID34 WAGG 100600	METAR WAGG 100600Z 34004KT 9999 BKN010 32/25 Q1008=
10/02/2021 06:30:00Z	 SAID34 WAGG 100630	METAR WAGG 100630Z 34003KT 9999 BKN010 32/25 Q1007=
10/02/2021 07:00:00Z	 SAID34 WAGG 100700	METAR WAGG 100700Z 02004KT 9999 BKN010 33/24 Q1007=
10/02/2021 07:30:00Z	 SAID34 WAGG 100730	METAR WAGG 100730Z 27008KT 9999 BKN010 33/24 Q1006=
10/02/2021 08:00:00Z	 SAID34 WAGG 100800	METAR WAGG 100800Z 26005KT 9999 BKN010 34/24 Q1006=
10/02/2021 08:30:00Z	 SAID34 WAGG 100830	METAR WAGG 100830Z 25009KT 7000 TS FEW010CB BKN010 34/24 Q1006=
10/02/2021 09:00:00Z	 SAID34 WAGG 100900	METAR WAGG 100900Z 28005KT 7000 TS FEW010CB BKN010 33/23 Q1006=
10/02/2021 09:30:00Z	 SAID34 WAGG 100930	METAR WAGG 100930Z 28004KT 9000 BKN010 33/24 Q1006 RETS=
10/02/2021 10:00:00Z	 SAID34 WAGG 101000	METAR WAGG 101000Z 01006KT 9000 FEW010CB BKN010 30/26 Q1007=
10/02/2021 10:30:00Z	 SAID34 WAGG 101030	METAR WAGG 101030Z 03003KT 5000 -RA FEW010CB BKN010 29/26 Q1007=
10/02/2021 11:00:00Z	 SAID34 WAGG 101100	METAR WAGG 101100Z 03002KT 5000 VCSH FEW010CB BKN010 28/25 Q1007=
10/02/2021 11:00:00Z	 SAID34 WAGG 101100 CCA	METAR WAGG 101100Z 03002KT 5000 -RA FEW010CB BKN010 28/25 Q1007=
10/02/2021 12:00:00Z	 SAID34 WAGG 101200	METAR WAGG 101200Z 30006KT 8000 TSRA FEW010CB BKN010 27/25 Q1009=
10/02/2021 15:00:00Z	 SAID34 WAGG 101500	METAR WAGG 101500Z 19003KT 9000 BKN011 25/24 Q1010=
10/02/2021 18:00:00Z	 SAID34 WAGG 101800	METAR WAGG 101800Z 00000KT 8000 BKN011 24/23 Q1009=
10/02/2021 21:00:00Z	 SAID34 WAGG 102100	METAR WAGG 102100Z 00000KT 8000 BKN011 25/24 Q1008=
10/02/2021 21:30:00Z	 SAID34 WAGG 102130	METAR WAGG 102130Z 00000KT 8000 BKN011 25/24 Q1009=
10/02/2021 22:00:00Z	 SAID34 WAGG 102200	METAR WAGG 102200Z 00000KT 8000 SCT012 25/24 Q1009=
10/02/2021 22:30:00Z	 SAID34 WAGG 102230	METAR WAGG 102230Z 36003KT 7000 BKN010 24/24 Q1009=
10/02/2021 23:00:00Z	 SAID34 WAGG 102300	METAR WAGG 102300Z 03003KT 0500 FG BKN010 25/25 Q1009=
10/02/2021 23:30:00Z	 SAID34 WAGG 102330	METAR WAGG 102330Z 00000KT 0300 FG BKN010 25/25 Q1010=
11/02/2021 00:00:00Z	 SAID34 WAGG 110000	METAR WAGG 110000Z 31000KT 3000 BR BKN010 26/25 Q1010=
11/02/2021 00:30:00Z	 SAID34 WAGG 110030	METAR WAGG 110030Z 07002KT 8000 FEW013 28/26 Q1010=
11/02/2021 01:00:00Z	 SAID34 WAGG 110100	METAR WAGG 110100Z 18002KT 8000 FEW013 29/26 Q1010=
11/02/2021 01:30:00Z	 SAID34 WAGG 110130	METAR WAGG 110130Z 04004KT 9999 SCT013 30/26 Q1010=
11/02/2021 02:00:00Z	 SAID34 WAGG 110200	METAR WAGG 110200Z 09002KT 9999 BKN012 30/26 Q1010=
11/02/2021 02:30:00Z	 SAID34 WAGG 110230	METAR WAGG 110230Z 06003KT 9999 BKN012 31/26 Q1010=
11/02/2021 03:00:00Z	 SAID34 WAGG 110300	METAR WAGG 110300Z 05003KT 9999 BKN012 31/25 Q1010=
11/02/2021 03:30:00Z	 SAID34 WAGG 110330	METAR WAGG 110330Z 34003KT 9999 BKN012 32/26 Q1010=
11/02/2021 04:00:00Z	 SAID34 WAGG 110400	METAR WAGG 110400Z 32005KT 9999 BKN012 33/24 Q1009=
11/02/2021 04:30:00Z	 SAID34 WAGG 110430	METAR WAGG 110430Z 33003KT 9999 BKN012 32/24 Q1009=
11/02/2021 05:00:00Z	 SAID34 WAGG 110500	METAR WAGG 110500Z 34004KT 8000 FEW011TCU BKN011 34/25 Q1009=
11/02/2021 05:30:00Z	 SAID34 WAGG 110530	METAR WAGG 110530Z 31004KT 9000 FEW011TCU BKN011 34/23 Q1008=
11/02/2021 06:00:00Z	 SAID34 WAGG 110600	METAR WAGG 110600Z 35005KT 9000 FEW011TCU BKN011 33/24 Q1008=
11/02/2021 06:30:00Z	 SAID34 WAGG 110630	METAR WAGG 110630Z 33007KT 9000 FEW011TCU BKN011 34/23 Q1007=
11/02/2021 07:00:00Z	 SAID34 WAGG 110700	METAR WAGG 110700Z 35004KT 9000 FEW011TCU BKN011 34/24 Q1006=
11/02/2021 07:30:00Z	 SAID34 WAGG 110730	METAR WAGG 110730Z 34004KT 9000 FEW011CB BKN011 33/24 Q1006=
11/02/2021 08:00:00Z	 SAID34 WAGG 110800	METAR WAGG 110800Z 34004KT 9000 FEW011CB BKN011 33/24 Q1006=
11/02/2021 08:30:00Z	 SAID34 WAGG 110830	METAR WAGG 110830Z 32004KT 9000 FEW011CB BKN011 32/25 Q1006=
11/02/2021 09:00:00Z	 SAID34 WAGG 110900	METAR WAGG 110900Z 01003KT 9000 FEW011CB BKN011 31/25 Q1006 RETS=
11/02/2021 09:30:00Z	 SAID34 WAGG 110930	METAR WAGG 110930Z 36002KT 9000 FEW011CB BKN011 31/25 Q1006=
11/02/2021 10:00:00Z	 SAID34 WAGG 111000	METAR WAGG 111000Z 35001KT 9000 FEW011CB BKN011 30/25 Q1007=
11/02/2021 10:30:00Z	 SAID34 WAGG 111030	METAR WAGG 111030Z 22003KT 9000 FEW011CB BKN011 30/25 Q1008 RETS=
11/02/2021 11:00:00Z	 SAID34 WAGG 111100	METAR WAGG 111100Z 20007KT 9000 FEW011CB BKN011 28/25 Q1008=
11/02/2021 11:30:00Z	 SAID34 WAGG 111130	METAR WAGG 111130Z 19007KT 9000 FEW011CB BKN011 27/25 Q1009=
11/02/2021 12:00:00Z	 SAID34 WAGG 111200	METAR WAGG 111200Z 17005KT 8000 FEW011CB BKN011 27/25 Q1009=
11/02/2021 21:00:00Z	 SAID34 WAGG 112100	METAR WAGG 112100Z 15002KT 7000 SCT012 25/25 Q1009=
11/02/2021 21:30:00Z	 SAID34 WAGG 112130	METAR WAGG 112130Z 13002KT 7000 SCT012 25/25 Q1009=
11/02/2021 22:00:00Z	 SAID34 WAGG 112200	METAR WAGG 112200Z 12003KT 7000 SCT012 25/24 Q1009=
11/02/2021 22:30:00Z	 SAID34 WAGG 112230	METAR WAGG 112230Z 07002KT 8000 FEW013 25/24 Q1009=
11/02/2021 23:00:00Z	 SAID34 WAGG 112300	METAR WAGG 112300Z 06002KT 9000 FEW013 25/25 Q1009=
11/02/2021 23:30:00Z	 SAID34 WAGG 112330	METAR WAGG 112330Z 04002KT 9000 FEW013 26/25 Q1010=
12/02/2021 00:00:00Z	 SAID34 WAGG 120000	METAR WAGG 120000Z 15001KT 9000 FEW012 26/25 Q1010=
12/02/2021 00:30:00Z	 SAID34 WAGG 120030	METAR WAGG 120030Z 28003KT 9000 FEW012 28/25 Q1011=
12/02/2021 01:00:00Z	 SAID34 WAGG 120100	METAR WAGG 120100Z 25005KT 9999 FEW012 29/25 Q1011=
12/02/2021 01:30:00Z	 SAID34 WAGG 120130	METAR WAGG 120130Z 25006KT 9999 FEW012 29/25 Q1011=
12/02/2021 02:00:00Z	 SAID34 WAGG 120200	METAR WAGG 120200Z 24005KT 9999 FEW012 30/25 Q1011=
12/02/2021 02:30:00Z	 SAID34 WAGG 120230	METAR WAGG 120230Z 29003KT 9999 FEW012 30/25 Q1011=
12/02/2021 03:00:00Z	 SAID34 WAGG 120300	METAR WAGG 120300Z 26004KT 9999 BKN011 31/25 Q1011=
12/02/2021 03:30:00Z	 SAID34 WAGG 120330	METAR WAGG 120330Z 27002KT 9999 BKN010 31/24 Q1011=
12/02/2021 04:00:00Z	 SAID34 WAGG 120400	METAR WAGG 120400Z 17005KT 2000 RA BKN010 26/25 Q1011=
12/02/2021 04:30:00Z	 SAID34 WAGG 120430	METAR WAGG 120430Z 11002KT 5000 -RA FEW010TCU BKN010 27/25 Q1011=
12/02/2021 05:00:00Z	 SAID34 WAGG 120500	METAR WAGG 120500Z 17003KT 8000 FEW010CB BKN010 29/26 Q1010=
12/02/2021 05:00:00Z	 SAID34 WAGG 120500 CCA	METAR WAGG 120500Z 17003KT 8000 FEW010CB BKN010 29/26 Q1010 RERA=
12/02/2021 05:30:00Z	 SAID34 WAGG 120530	METAR WAGG 120530Z 17001KT 8000 FEW010CB BKN010 29/26 Q1010=
12/02/2021 06:00:00Z	 SAID34 WAGG 120600	METAR WAGG 120600Z 32004KT 8000 FEW010CB BKN010 31/25 Q1009=
12/02/2021 06:30:00Z	 SAID34 WAGG 120630	METAR WAGG 120630Z 33007KT 8000 FEW010CB BKN010 31/25 Q1009=
12/02/2021 07:00:00Z	 SAID34 WAGG 120700	METAR WAGG 120700Z 35004KT 8000 FEW010CB BKN010 31/25 Q1008=
12/02/2021 07:30:00Z	 SAID34 WAGG 120730	METAR WAGG 120700Z 35004KT 8000 FEW010CB BKN010 31/25 Q1008=
12/02/2021 08:00:00Z	 SAID34 WAGG 120800	METAR WAGG 120800Z 31003KT 9000 FEW010CB BKN010 31/25 Q1008=
12/02/2021 08:30:00Z	 SAID34 WAGG 120830	METAR WAGG 120830Z 24007KT 9000 FEW010CB BKN010 30/25 Q1008=
12/02/2021 09:00:00Z	 SAID34 WAGG 120900	METAR WAGG 120900Z 20004KT 9000 FEW010CB BKN010 29/26 Q1009=
12/02/2021 09:30:00Z	 SAID34 WAGG 120930	METAR WAGG 120930Z 20004KT 9000 FEW010CB BKN010 29/27 Q1009=
12/02/2021 10:00:00Z	 SAID34 WAGG 121000	METAR WAGG 121000Z 09002KT 9000 FEW010CB BKN010 29/27 Q1009=
12/02/2021 10:30:00Z	 SAID34 WAGG 121030	METAR WAGG 121030Z 08004KT 9000 FEW010CB BKN010 28/27 Q1009=
12/02/2021 11:00:00Z	 SAID34 WAGG 121100	METAR WAGG 121100Z 06002KT 9000 FEW010CB BKN010 27/24 Q1009=
12/02/2021 12:00:00Z	 SAID34 WAGG 121200	METAR WAGG 121200Z 12004KT 8000 VCSH FEW010CB BKN010 26/24 Q1011=
12/02/2021 15:00:00Z	 SAID34 WAGG 121500	METAR WAGG 121500Z 14003KT 8000 SCT012 25/25 Q1012=
12/02/2021 18:00:00Z	 SAID34 WAGG 121800	METAR WAGG 121800Z 16002KT 8000 SCT011 25/24 Q1011=
12/02/2021 21:00:00Z	 SAID34 WAGG 122100	METAR WAGG 122100Z 00000KT 8000 SCT012 24/24 Q1010=
12/02/2021 21:30:00Z	 SAID34 WAGG 122130	METAR WAGG 122130Z 00000KT 8000 SCT012 24/24 Q1011=
12/02/2021 22:00:00Z	 SAID34 WAGG 122200	METAR WAGG 122200Z 00000KT 8000 SCT012 24/24 Q1011=
12/02/2021 22:30:00Z	 SAID34 WAGG 122230	METAR WAGG 122230Z 08002KT 8000 SCT012 24/24 Q1011=
12/02/2021 23:00:00Z	 SAID34 WAGG 122300	METAR WAGG 122300Z 09003KT 8000 SCT012 24/24 Q1011=
12/02/2021 23:30:00Z	 SAID34 WAGG 122330	METAR WAGG 122330Z 11003KT 4000 BR BKN012 24/24 Q1012=
13/02/2021 00:00:00Z	 SAID34 WAGG 130000	METAR WAGG 130000Z 07002KT 1700 BR BKN010 25/24 Q1012=
13/02/2021 00:30:00Z	 SAID34 WAGG 130030	METAR WAGG 130030Z 16001KT 6000 BKN010 26/25 Q1012=
13/02/2021 01:00:00Z	 SAID34 WAGG 130100	METAR WAGG 130100Z 16001KT 9000 BKN010 27/25 Q1012=
13/02/2021 01:30:00Z	 SAID34 WAGG 130130	METAR WAGG 130130Z 23004KT 9000 OVC010 27/25 Q1013=
13/02/2021 02:00:00Z	 SAID34 WAGG 130200	METAR WAGG 130200Z 22004KT 9000 OVC010 28/25 Q1013=
13/02/2021 02:30:00Z	 SAID34 WAGG 130230	METAR WAGG 130230Z 25004KT 9000 BKN010 28/25 Q1012=
13/02/2021 03:00:00Z	 SAID34 WAGG 130300	METAR WAGG 130300Z 24006KT 9000 FEW010TCU BKN010 29/25 Q1012=
13/02/2021 03:30:00Z	 SAID34 WAGG 130330	METAR WAGG 130330Z 28005KT 9000 FEW010TCU BKN010 30/26 Q1012=
13/02/2021 04:00:00Z	 SAID34 WAGG 130400	METAR WAGG 130400Z 26004KT 9000 FEW010TCU BKN010 31/25 Q1012=
13/02/2021 04:30:00Z	 SAID34 WAGG 130430	METAR WAGG 130430Z 23005KT 9000 FEW010TCU BKN010 32/25 Q1011=
13/02/2021 05:00:00Z	 SAID34 WAGG 130500	METAR WAGG 130500Z 23006KT 9000 FEW010TCU BKN010 32/25 Q1011=
13/02/2021 05:30:00Z	 SAID34 WAGG 130530	METAR WAGG 130530Z 21006KT 9000 FEW010TCU BKN010 32/25 Q1010=
13/02/2021 06:00:00Z	 SAID34 WAGG 130600	METAR WAGG 130600Z 23005KT 9000 FEW010TCU BKN010 32/25 Q1009=
13/02/2021 06:30:00Z	 SAID34 WAGG 130630	METAR WAGG 130630Z 23007KT 9000 FEW010CB BKN010 32/24 Q1009=
13/02/2021 07:00:00Z	 SAID34 WAGG 130700	METAR WAGG 130700Z 23005KT 9000 FEW010CB BKN010 32/24 Q1008=
13/02/2021 07:30:00Z	 SAID34 WAGG 130730	METAR WAGG 130730Z 34010G17KT 8000 TS FEW010CB BKN010 29/24 Q1008=
13/02/2021 08:00:00Z	 SAID34 WAGG 130800	METAR WAGG 130800Z 28015KT 0500 +TSRA FEW010CB BKN010 25/24 Q1009=
13/02/2021 08:30:00Z	 SAID34 WAGG 130830	METAR WAGG 130830Z 11003KT 5000 -TSRA FEW010CB BKN010 25/24 Q1008=
13/02/2021 09:00:00Z	 SAID34 WAGG 130900	METAR WAGG 130900Z 04002KT 7000 TS FEW011CB BKN011 26/25 Q1008 RERA=
13/02/2021 09:30:00Z	 SAID34 WAGG 130930	METAR WAGG 130930Z 07003KT 8000 BKN011 26/25 Q1009 RETS=
13/02/2021 10:00:00Z	 SAID34 WAGG 131000	METAR WAGG 131000Z 02002KT 8000 TS FEW011CB BKN011 26/25 Q1009=
13/02/2021 10:30:00Z	 SAID34 WAGG 131030	METAR WAGG 131030Z 05002KT 8000 TS FEW011CB BKN011 26/25 Q1009=
13/02/2021 11:00:00Z	 SAID34 WAGG 131100	METAR WAGG 131100Z 01003KT 8000 TS SCT011CB BKN011 26/25 Q1010=
13/02/2021 11:30:00Z	 SAID34 WAGG 131130	METAR WAGG 131130Z 35005KT 5000 -TSRA BKN010CB 24/23 Q1011=
13/02/2021 12:00:00Z	 SAID34 WAGG 131200	METAR WAGG 131200Z 29003KT 8000 TS BKN010CB 24/23 Q1011 RERA=
13/02/2021 13:00:00Z	 SAID34 WAGG 131300	METAR WAGG 131300Z 20003KT 8000 TS BKN010CB 24/22 Q1012=
14/02/2021 00:00:00Z	 SAID34 WAGG 140000	METAR WAGG 140000Z 02003KT 5000 -RA BKN010 24/23 Q1013=
14/02/2021 00:30:00Z	 SAID34 WAGG 140030	METAR WAGG 140030Z 04004KT 5000 -RA BKN010 24/23 Q1013=
14/02/2021 01:00:00Z	 SAID34 WAGG 140100	METAR WAGG 140100Z 07005KT 5000 -RA BKN010 24/23 Q1014=
14/02/2021 01:30:00Z	 SAID34 WAGG 140130	METAR WAGG 140130Z 03002KT 8000 BKN010 25/23 Q1014 RERA=
14/02/2021 02:00:00Z	 SAID34 WAGG 140200	METAR WAGG 140200Z 07003KT 9000 BKN010 26/24 Q1014=
14/02/2021 02:30:00Z	 SAID34 WAGG 140230	METAR WAGG 140230Z 07002KT 9000 BKN010 27/23 Q1013=
14/02/2021 03:00:00Z	 SAID34 WAGG 140300	METAR WAGG 140300Z 09002KT 9000 BKN010 27/24 Q1013=
14/02/2021 03:30:00Z	 SAID34 WAGG 140330	METAR WAGG 140330Z 36003KT 9000 BKN010 29/24 Q1012=
14/02/2021 04:00:00Z	 SAID34 WAGG 140400	METAR WAGG 140400Z 05003KT 9000 BKN010 29/24 Q1012=
14/02/2021 04:30:00Z	 SAID34 WAGG 140430	METAR WAGG 140430Z 34004KT 9000 BKN010 29/24 Q1012=
14/02/2021 05:00:00Z	 SAID34 WAGG 140500	METAR WAGG 140500Z 36004KT 9000 BKN010 30/24 Q1011=
14/02/2021 05:30:00Z	 SAID34 WAGG 140530	METAR WAGG 140530Z 33008KT 9000 BKN010 30/23 Q1011=
14/02/2021 06:00:00Z	 SAID34 WAGG 140600	METAR WAGG 140600Z 32009KT 9999 BKN010 30/24 Q1011=
14/02/2021 06:30:00Z	 SAID34 WAGG 140630	METAR WAGG 140630Z 34009KT 9999 BKN010 30/24 Q1010=
14/02/2021 07:00:00Z	 SAID34 WAGG 140700	METAR WAGG 140700Z 35011KT 9999 SCT010 30/23 Q1010=
14/02/2021 07:30:00Z	 SAID34 WAGG 140730	METAR WAGG 140730Z 35010KT 9999 SCT010 31/24 Q1010=
14/02/2021 08:00:00Z	 SAID34 WAGG 140800	METAR WAGG 140800Z 33007KT 9999 SCT010 31/24 Q1010=
14/02/2021 08:30:00Z	 SAID34 WAGG 140830	METAR WAGG 140830Z 34010KT 9999 SCT010 31/23 Q1009=
14/02/2021 09:00:00Z	 SAID34 WAGG 140900	METAR WAGG 140900Z 33006KT 9999 SCT011 30/24 Q1009=
14/02/2021 09:30:00Z	 SAID34 WAGG 140930	METAR WAGG 140930Z 02008KT 9999 SCT011 30/24 Q1009=
14/02/2021 10:00:00Z	 SAID34 WAGG 141000	METAR WAGG 141000Z 35006KT 9999 FEW012CB 30/25 Q1009=
14/02/2021 10:30:00Z	 SAID34 WAGG 141030	METAR WAGG 141030Z 35006KT 9999 FEW012CB 29/25 Q1010=
14/02/2021 11:00:00Z	 SAID34 WAGG 141100	METAR WAGG 141100Z 02006KT 9999 FEW012CB 28/25 Q1010=
14/02/2021 12:00:00Z	 SAID34 WAGG 141200	METAR WAGG 141200Z 02003KT 9000 SCT012 27/25 Q1010=
14/02/2021 15:00:00Z	 SAID34 WAGG 141500	METAR WAGG 141500Z 00000KT 8000 VCSH SCT012 25/24 Q1013=
14/02/2021 18:00:00Z	 SAID34 WAGG 141800	METAR WAGG 141800Z 00000KT 8000 VCSH BKN011 23/23 Q1012=
14/02/2021 21:00:00Z	 SAID34 WAGG 142100	METAR WAGG 142100Z 36003KT 8000 VCSH SCT011 23/22 Q1010=
14/02/2021 21:30:00Z	 SAID34 WAGG 142130	METAR WAGG 142130Z 01003KT 8000 VCSH SCT011 23/22 Q1010=
14/02/2021 22:00:00Z	 SAID34 WAGG 142200	METAR WAGG 142200Z 00000KT 8000 VCSH SCT011 23/23 Q1010=
14/02/2021 22:30:00Z	 SAID34 WAGG 142230	METAR WAGG 142230Z 29002KT 8000 SCT011 23/23 Q1010=
14/02/2021 23:00:00Z	 SAID34 WAGG 142300	METAR WAGG 142300Z 29003KT 8000 BKN011 23/23 Q1010=
14/02/2021 23:30:00Z	 SAID34 WAGG 142330	METAR WAGG 142330Z 01002KT 8000 BKN011 24/23 Q1011=
15/02/2021 00:00:00Z	 SAID34 WAGG 150000	METAR WAGG 150000Z 30002KT 9999 FEW013 24/23 Q1011=
15/02/2021 00:30:00Z	 SAID34 WAGG 150030	METAR WAGG 150030Z 31005KT 9999 FEW013 27/24 Q1011=
15/02/2021 01:00:00Z	 SAID34 WAGG 150100	METAR WAGG 150100Z 31005KT 9999 SCT013 27/24 Q1012=
15/02/2021 01:30:00Z	 SAID34 WAGG 150130	METAR WAGG 150130Z 35006KT 9999 SCT011 31/25 Q1012=
15/02/2021 02:30:00Z	 SAID34 WAGG 150230	METAR WAGG 150230Z 05006KT 9999 SCT011 31/25 Q1012=
15/02/2021 03:30:00Z	 SAID34 WAGG 150330	METAR WAGG 150330Z 36006KT 9999 SCT011 30/25 Q1012=
15/02/2021 04:00:00Z	 SAID34 WAGG 150400	METAR WAGG 150400Z 36006KT 9999 SCT011 31/24 Q1011=
15/02/2021 05:00:00Z	 SAID34 WAGG 150500	METAR WAGG 150500Z 11005KT 9999 BKN011 30/24 Q1010=
15/02/2021 05:30:00Z	 SAID34 WAGG 150530	METAR WAGG 150530Z 18002KT 8000 BKN010 30/24 Q1010=
15/02/2021 06:00:00Z	 SAID34 WAGG 150600	METAR WAGG 150600Z 11003KT 8000 BKN010 31/24 Q1009=
15/02/2021 06:30:00Z	 SAID34 WAGG 150630	METAR WAGG 150630Z 13002KT 8000 BKN010 31/24 Q1009=
15/02/2021 07:00:00Z	 SAID34 WAGG 150700	METAR WAGG 150700Z 34006KT 8000 BKN010 31/23 Q1008=
15/02/2021 07:30:00Z	 SAID34 WAGG 150730	METAR WAGG 150730Z 35004KT 8000 BKN010 31/23 Q1008=
15/02/2021 08:00:00Z	 SAID34 WAGG 150800	METAR WAGG 150800Z 30005KT 8000 BKN010 32/23 Q1008=
15/02/2021 08:30:00Z	 SAID34 WAGG 150830	METAR WAGG 150830Z 29006KT 8000 BKN010 31/23 Q1007=
15/02/2021 09:00:00Z	 SAID34 WAGG 150900	METAR WAGG 150900Z 29006KT 8000 BKN012 31/23 Q1007=
15/02/2021 09:30:00Z	 SAID34 WAGG 150930	METAR WAGG 150930Z 29004KT 8000 BKN012 31/23 Q1008=
15/02/2021 10:00:00Z	 SAID34 WAGG 151000	METAR WAGG 151000Z 25003KT 8000 BKN012 30/24 Q1008=
15/02/2021 10:30:00Z	 SAID34 WAGG 151030	METAR WAGG 151030Z 22002KT 8000 BKN012 30/24 Q1009=
15/02/2021 11:00:00Z	 SAID34 WAGG 151100	METAR WAGG 151100Z 10002KT 8000 BKN012 29/26 Q1009=
15/02/2021 11:30:00Z	 SAID34 WAGG 151130	METAR WAGG 151130Z 13002KT 8000 BKN012 29/25 Q1009=
15/02/2021 12:00:00Z	 SAID34 WAGG 151200	METAR WAGG 151200Z 09002KT 9000 FEW011CB BKN011 28/26 Q1010=
15/02/2021 15:00:00Z	 SAID34 WAGG 151500	METAR WAGG 151500Z 36004KT 8000 FEW011CB BKN011 25/25 Q1012=
15/02/2021 22:30:00Z	 SAID34 WAGG 152230	METAR WAGG 152230Z 36004KT 8000 FEW011CB BKN011 25/25 Q1012=
16/02/2021 00:00:00Z	 SAID34 WAGG 160000	METAR WAGG 160000Z 11002KT 9000 BKN010 24/23 Q1011=
16/02/2021 00:30:00Z	 SAID34 WAGG 160030	METAR WAGG 160030Z 06003KT 9000 BKN010 25/23 Q1012=
16/02/2021 01:00:00Z	 SAID34 WAGG 160100	METAR WAGG 160100Z 06003KT 9000 BKN010 25/23 Q1012=
16/02/2021 01:30:00Z	 SAID34 WAGG 160130	METAR WAGG 160130Z 05003KT 9000 BKN010 26/23 Q1012=
16/02/2021 02:00:00Z	 SAID34 WAGG 160200	METAR WAGG 160200Z 35003KT 9000 BKN010 27/24 Q1011=
16/02/2021 02:30:00Z	 SAID34 WAGG 160230	METAR WAGG 160230Z 02002KT 9000 BKN010 27/24 Q1011=
16/02/2021 03:00:00Z	 SAID34 WAGG 160300	METAR WAGG 160300Z 03003KT 9000 BKN010 27/24 Q1011=
16/02/2021 03:30:00Z	 SAID34 WAGG 160330	METAR WAGG 160330Z 36003KT 9999 SCT010 30/25 Q1010=
16/02/2021 04:00:00Z	 SAID34 WAGG 160400	METAR WAGG 160400Z 02003KT 9999 SCT010 30/25 Q1010=
16/02/2021 04:30:00Z	 SAID34 WAGG 160430	METAR WAGG 160430Z 01004KT 9999 BKN012 31/25 Q1009=
16/02/2021 05:00:00Z	 SAID34 WAGG 160500	METAR WAGG 160500Z 02004KT 9999 BKN012 31/25 Q1009=
16/02/2021 05:30:00Z	 SAID34 WAGG 160530	METAR WAGG 160530Z 04005KT 9999 BKN012 32/24 Q1008=
16/02/2021 06:00:00Z	 SAID34 WAGG 160600	METAR WAGG 160600Z 05005KT 9999 BKN012 32/24 Q1008=
16/02/2021 06:30:00Z	 SAID34 WAGG 160630	METAR WAGG 160630Z 01004KT 9999 BKN011 30/24 Q1008=
16/02/2021 07:00:00Z	 SAID34 WAGG 160700	METAR WAGG 160700Z 02003KT 9999 BKN011 31/24 Q1008=
16/02/2021 07:30:00Z	 SAID34 WAGG 160730	METAR WAGG 160730Z 06004KT 9999 FEW011TCU BKN011 31/24 Q1007=
16/02/2021 08:00:00Z	 SAID34 WAGG 160800	METAR WAGG 160800Z 02004KT 9999 FEW011TCU BKN011 32/24 Q1007=
16/02/2021 08:30:00Z	 SAID34 WAGG 160830	METAR WAGG 160830Z 02004KT 8000 FEW011TCU BKN011 31/24 Q1007=
16/02/2021 09:00:00Z	 SAID34 WAGG 160900	METAR WAGG 160900Z 02002KT 8000 VCSH FEW011TCU BKN011 32/25 Q1007=
16/02/2021 09:30:00Z	 SAID34 WAGG 160930	METAR WAGG 160930Z 10005KT 6000 VCSH FEW011TCU BKN011 29/25 Q1007=
16/02/2021 10:00:00Z	 SAID34 WAGG 161000	METAR WAGG 161000Z 09004KT 6000 VCSH FEW011TCU BKN011 29/25 Q1007=
16/02/2021 10:30:00Z	 SAID34 WAGG 161030	METAR WAGG 161030Z 11003KT 6000 VCSH FEW011TCU BKN011 27/24 Q1008=
16/02/2021 11:00:00Z	 SAID34 WAGG 161100	METAR WAGG 161100Z 14002KT 6000 VCSH FEW011TCU BKN011 27/24 Q1008=
16/02/2021 11:30:00Z	 SAID34 WAGG 161130	METAR WAGG 161130Z 04003KT 6000 VCSH FEW011TCU BKN011 27/24 Q1009=
16/02/2021 12:00:00Z	 SAID34 WAGG 161200	METAR WAGG 161200Z 10003KT 8000 VCTS SCT011CB SCT011 27/24 Q1009=
16/02/2021 21:00:00Z	 SAID34 WAGG 162100	METAR WAGG 162100Z 25007KT 3000 RA BKN 24/23 Q1011=
16/02/2021 21:30:00Z	 SAID34 WAGG 162130	METAR WAGG 162130Z 23007KT 5000 -RA BKN010 24/23 Q1010=
16/02/2021 22:00:00Z	 SAID34 WAGG 162200	METAR WAGG 162200Z 22006KT 5000 -RA BKN010 23/23 Q1010=
16/02/2021 22:30:00Z	 SAID34 WAGG 162230	METAR WAGG 162230Z 23004KT 6000 SCT012 24/23 Q1010=
16/02/2021 23:00:00Z	 SAID34 WAGG 162300	METAR WAGG 162300Z 35003KT 7000 SCT012 24/23 Q1011=
16/02/2021 23:30:00Z	 SAID34 WAGG 162330	METAR WAGG 162330Z 03002KT 7000 SCT012 24/23 Q1011=
17/02/2021 00:00:00Z	 SAID34 WAGG 170000	METAR WAGG 170000Z 33003KT 7000 BKN012 25/23 Q1012=
17/02/2021 00:30:00Z	 SAID34 WAGG 170030	METAR WAGG 170030Z 32006KT 7000 BKN012 26/24 Q1012=
17/02/2021 01:00:00Z	 SAID34 WAGG 170100	METAR WAGG 170100Z 28002KT 7000 SCT012 27/24 Q1012=
17/02/2021 01:30:00Z	 SAID34 WAGG 170130	METAR WAGG 170130Z 23002KT 7000 SCT012 28/25 Q1013=
17/02/2021 02:00:00Z	 SAID34 WAGG 170200	METAR WAGG 170200Z 36003KT 7000 SCT012 28/24 Q1012=
17/02/2021 02:30:00Z	 SAID34 WAGG 170230	METAR WAGG 170230Z 04004KT 9000 SCT012 29/25 Q1012=
17/02/2021 03:00:00Z	 SAID34 WAGG 170300	METAR WAGG 170300Z 33004KT 9000 SCT012 30/25 Q1012=
17/02/2021 03:30:00Z	 SAID34 WAGG 170330	METAR WAGG 170330Z 36004KT 9000 SCT012 31/24 Q1012=
17/02/2021 04:00:00Z	 SAID34 WAGG 170400	METAR WAGG 170400Z 34004KT 9000 BKN012 32/25 Q1011=
17/02/2021 04:30:00Z	 SAID34 WAGG 170430	METAR WAGG 170430Z 34004KT 9000 BKN012 32/25 Q1011=
17/02/2021 05:00:00Z	 SAID34 WAGG 170500	METAR WAGG 170500Z 34004KT 9000 BKN012 33/24 Q1010=
17/02/2021 05:30:00Z	 SAID34 WAGG 170530	METAR WAGG 170530Z 34004KT 9999 BKN012 33/23 Q1010=
17/02/2021 06:00:00Z	 SAID34 WAGG 170600	METAR WAGG 170600Z 35003KT 9999 BKN012 32/24 Q1009=
17/02/2021 06:30:00Z	 SAID34 WAGG 170630	METAR WAGG 170630Z 29005KT 9999 BKN012 33/22 Q1009=
17/02/2021 07:00:00Z	 SAID34 WAGG 170700	METAR WAGG 170700Z 27010KT 9999 TS FEW012CB BKN012 32/23 Q1009=
17/02/2021 07:30:00Z	 SAID34 WAGG 170730	METAR WAGG 170730Z 35004KT 9999 TS FEW012CB BKN012 33/23 Q1008=
17/02/2021 08:00:00Z	 SAID34 WAGG 170800	METAR WAGG 170800Z 35003KT 9999 FEW012TCU BKN012 33/24 Q1008 RETS=
17/02/2021 08:30:00Z	 SAID34 WAGG 170830	METAR WAGG 170830Z 32003KT 9999 FEW012TCU BKN012 32/24 Q1008=
17/02/2021 09:00:00Z	 SAID34 WAGG 170900	METAR WAGG 170900Z 24009KT 9999 FEW012CB BKN012 32/24 Q1008=
17/02/2021 09:30:00Z	 SAID34 WAGG 170930	METAR WAGG 170930Z 30007KT 9000 FEW012CB BKN012 31/24 Q1008=
17/02/2021 10:00:00Z	 SAID34 WAGG 171000	METAR WAGG 171000Z 30003KT 9000 FEW012TCU BKN012 29/24 Q1008=
17/02/2021 10:30:00Z	 SAID34 WAGG 171030	METAR WAGG 171030Z 19002KT 9000 FEW012TCU BKN012 29/25 Q1008=
17/02/2021 11:00:00Z	 SAID34 WAGG 171100	METAR WAGG 171100Z 20002KT 9000 FEW012CB BKN012 28/24 Q1009=
17/02/2021 11:00:00Z	 SAID34 WAGG 171100 CCA	METAR WAGG 171100Z 20002KT 9000 FEW012CB SCT012 28/24 Q1009=
17/02/2021 12:00:00Z	 SAID34 WAGG 171200	METAR WAGG 171200Z 20004KT 8000 FEW011CB SCT011 28/24 Q1010=
17/02/2021 21:00:00Z	 SAID34 WAGG 172100	METAR WAGG 172100Z 30003KT 8000 BKN011 25/24 Q1010=
17/02/2021 23:00:00Z	 SAID34 WAGG 172300	METAR WAGG 172300Z 06002KT 9000 SCT011 25/25 Q1011=
18/02/2021 00:00:00Z	 SAID34 WAGG 180000	METAR WAGG 180000Z 36001KT 9000 SCT011 26/25 Q1010=
18/02/2021 00:00:00Z	 SAID34 WAGG 180000 CCA	METAR WAGG 180000Z 36001KT 9000 SCT011 26/25 Q1012=
18/02/2021 00:30:00Z	 SAID34 WAGG 180030	METAR WAGG 180030Z 36002KT 9000 SCT011 26/25 Q1012=
18/02/2021 01:00:00Z	 SAID34 WAGG 180100	METAR WAGG 180100Z 32002KT 9000 SCT011 27/24 Q1013=
18/02/2021 01:30:00Z	 SAID34 WAGG 180130	METAR WAGG 180130Z 28002KT 9000 SCT011 28/25 Q1013=
18/02/2021 02:00:00Z	 SAID34 WAGG 180200	METAR WAGG 180200Z 05004KT 9000 SCT011 28/24 Q1013=
18/02/2021 02:30:00Z	 SAID34 WAGG 180230	METAR WAGG 180230Z 02003KT 9000 SCT011 29/25 Q1013=
18/02/2021 03:00:00Z	 SAID34 WAGG 180300	METAR WAGG 180300Z 35004KT 9000 SCT011 30/25 Q1012=
18/02/2021 03:30:00Z	 SAID34 WAGG 180330	METAR WAGG 180330Z 36005KT 9000 BKN011 30/25 Q1012=
18/02/2021 04:00:00Z	 SAID34 WAGG 180400	METAR WAGG 180400Z 01004KT 9000 BKN011 30/25 Q1012=
18/02/2021 04:30:00Z	 SAID34 WAGG 180430	METAR WAGG 180430Z 02003KT 9000 BKN011 30/24 Q1011=
18/02/2021 05:00:00Z	 SAID34 WAGG 180500	METAR WAGG 180500Z 36002KT 5000 -RA FEW011TCU BKN011 30/24 Q1010=
18/02/2021 05:30:00Z	 SAID34 WAGG 180530	METAR WAGG 180530Z 10003KT 5000 -RA FEW011TCU BKN011 27/25 Q1010=
18/02/2021 06:00:00Z	 SAID34 WAGG 180600	METAR WAGG 180600Z 12003KT 5000 -RA FEW011TCU BKN011 27/25 Q1010=
18/02/2021 06:30:00Z	 SAID34 WAGG 180630	METAR WAGG 180630Z 07003KT 8000 FEW011TCU BKN011 27/26 Q1009 RERA=
18/02/2021 07:00:00Z	 SAID34 WAGG 180700	METAR WAGG 180700Z 23004KT 5000 -RA FEW011TCU BKN011 28/26 Q1009=
18/02/2021 07:30:00Z	 SAID34 WAGG 180730	METAR WAGG 180730Z 35001KT 8000 FEW011CB BKN011 28/25 Q1008 RERA=
18/02/2021 08:00:00Z	 SAID34 WAGG 180800	METAR WAGG 180800Z 04004KT 8000 FEW011CB BKN011 28/26 Q1008=
18/02/2021 08:30:00Z	 SAID34 WAGG 180830	METAR WAGG 180830Z 03005KT 8000 FEW011CB BKN011 27/26 Q1008=
18/02/2021 09:00:00Z	 SAID34 WAGG 180900	METAR WAGG 180900Z 06002KT 8000 FEW011CB BKN011 26/25 Q1009=
18/02/2021 09:30:00Z	 SAID34 WAGG 180930	METAR WAGG 180930Z 05003KT 8000 FEW011TCU BKN011 26/25 Q1009=
18/02/2021 10:00:00Z	 SAID34 WAGG 181000	METAR WAGG 181000Z 06003KT 8000 FEW011TCU BKN011 26/25 Q1009=
18/02/2021 10:30:00Z	 SAID34 WAGG 181030	METAR WAGG 181030Z 09002KT 8000 FEW011TCU BKN011 25/24 Q1010=
18/02/2021 11:00:00Z	 SAID34 WAGG 181100	METAR WAGG 181100Z 08003KT 8000 FEW011TCU BKN011 25/24 Q1010=
18/02/2021 12:00:00Z	 SAID34 WAGG 181200	METAR WAGG 181200Z 04003KT 9000 FEW011TCU BKN011 24/23 Q1010=
18/02/2021 15:00:00Z	 SAID34 WAGG 181500	METAR WAGG 181500Z 07003KT 8000 BKN011 23/23 Q1012=
18/02/2021 18:00:00Z	 SAID34 WAGG 181800	METAR WAGG 181800Z 00000KT 7000 BKN011 23/23 Q1012=
18/02/2021 21:00:00Z	 SAID34 WAGG 182100	METAR WAGG 182100Z 36003KT 7000 RA BKN010 22/22 Q1010=
18/02/2021 21:30:00Z	 SAID34 WAGG 182130	METAR WAGG 182130Z 33005KT 8000 VCSH BKN010 22/22 Q1011 RERA=
18/02/2021 22:00:00Z	 SAID34 WAGG 182200	METAR WAGG 182200Z 04004KT 8000 VCSH BKN010 23/22 Q1011=
18/02/2021 22:30:00Z	 SAID34 WAGG 182230	METAR WAGG 182230Z 10004KT 8000 VCSH BKN010 23/23 Q1011=
18/02/2021 23:00:00Z	 SAID34 WAGG 182300	METAR WAGG 182300Z 00000KT 8000 BKN012 23/23 Q1011=
18/02/2021 23:30:00Z	 SAID34 WAGG 182330	METAR WAGG 182330Z 00000KT 8000 SCT012 23/23 Q1012=
19/02/2021 00:00:00Z	 SAID34 WAGG 190000	METAR WAGG 190000Z 30003KT 9999 FEW013 24/23 Q1012=
19/02/2021 00:30:00Z	 SAID34 WAGG 190030	METAR WAGG 190030Z 33005KT 9999 FEW013 27/24 Q1012=
19/02/2021 01:00:00Z	 SAID34 WAGG 190100	METAR WAGG 190100Z 34007KT 9999 SCT013 26/24 Q1012=
19/02/2021 02:00:00Z	 SAID34 WAGG 190200	METAR WAGG 190200Z 02007KT 9999 SCT010 29/24 Q1012=
19/02/2021 02:30:00Z	 SAID34 WAGG 190230	METAR WAGG 190230Z 04007KT 9999 SCT010 29/23 Q1012=
19/02/2021 03:00:00Z	 SAID34 WAGG 190300	METAR WAGG 190300Z 35006KT 9999 SCT010 30/24 Q1011=
19/02/2021 03:30:00Z	 SAID34 WAGG 190330	METAR WAGG 190330Z 02006KT 9999 SCT010 31/24 Q1011=
19/02/2021 04:00:00Z	 SAID34 WAGG 190400	METAR WAGG 190400Z 01008KT 9999 SCT010 32/25 Q1011=
19/02/2021 04:30:00Z	 SAID34 WAGG 190430	METAR WAGG 190430Z 32011KT 9999 SCT010 31/25 Q1010=
19/02/2021 05:00:00Z	 SAID34 WAGG 190500	METAR WAGG 190500Z 34014KT 9999 BKN010 32/24 Q1010=
19/02/2021 05:30:00Z	 SAID34 WAGG 190530	METAR WAGG 190530Z 34005KT 9999 BKN010 33/24 Q1009=
19/02/2021 06:00:00Z	 SAID34 WAGG 190600	METAR WAGG 190600Z 32006KT 9999 BKN010 32/24 Q1009=
19/02/2021 06:30:00Z	 SAID34 WAGG 190630	METAR WAGG 190630Z 33005KT 9999 FEW010TCU BKN010 34/23 Q1008=
19/02/2021 07:00:00Z	 SAID34 WAGG 190700	METAR WAGG 190700Z 32006KT 9999 FEW010TCU BKN010 32/23 Q1008=
19/02/2021 07:30:00Z	 SAID34 WAGG 190730	METAR WAGG 190730Z 27007KT 9999 FEW010TCU BKN010 30/24 Q1007=
19/02/2021 08:00:00Z	 SAID34 WAGG 190800	METAR WAGG 190800Z 28004KT 9999 FEW010TCU BKN010 30/24 Q1007=
19/02/2021 08:30:00Z	 SAID34 WAGG 190830	METAR WAGG 190830Z 27004KT 9999 FEW010TCU SCT010 33/24 Q1007=
19/02/2021 09:00:00Z	 SAID34 WAGG 190900	METAR WAGG 190900Z 28004KT 9999 FEW010TCU SCT010 32/24 Q1007=
19/02/2021 09:30:00Z	 SAID34 WAGG 190930	METAR WAGG 190930Z 28004KT 9999 FEW010TCU SCT010 31/25 Q1007=
19/02/2021 10:00:00Z	 SAID34 WAGG 191000	METAR WAGG 191000Z 16002KT 9999 FEW010TCU SCT010 29/26 Q1008=
19/02/2021 10:30:00Z	 SAID34 WAGG 191030	METAR WAGG 191030Z 12002KT 8000 FEW010CB SCT010 29/26 Q1008=
19/02/2021 11:00:00Z	 SAID34 WAGG 191100	METAR WAGG 191100Z 18006KT 8000 FEW010CB SCT010 28/25 Q1009=
19/02/2021 11:30:00Z	 SAID34 WAGG 191130	METAR WAGG 191130Z 17006KT 8000 FEW010CB SCT010 27/25 Q1009=
19/02/2021 12:00:00Z	 SAID34 WAGG 191200	METAR WAGG 191200Z 18008KT 9000 VCTS FEW011CB SCT011 26/25 Q1010=
19/02/2021 15:00:00Z	 SAID34 WAGG 191500	METAR WAGG 191500Z 04004KT 8000 VCSH BKN011 25/25 Q1012=
19/02/2021 18:00:00Z	 SAID34 WAGG 191800	METAR WAGG 191800Z 00000KT 7000 RA BKN010 22/22 Q1012=
19/02/2021 21:00:00Z	 SAID34 WAGG 192100	METAR WAGG 192100Z 00000KT 8000 RA BKN010 22/22 Q1010=
19/02/2021 21:30:00Z	 SAID34 WAGG 192130	METAR WAGG 192130Z 16002KT 8000 RA BKN010 22/22 Q1011=
19/02/2021 22:00:00Z	 SAID34 WAGG 192200	METAR WAGG 192200Z 18002KT 8000 RA BKN010 23/22 Q1011=
19/02/2021 23:00:00Z	 SAID34 WAGG 192300	METAR WAGG 192300Z 23003KT 8000 VCRA BKN011 23/22 Q1012=
19/02/2021 23:00:00Z	 SAID34 WAGG 192300 CCA	METAR WAGG 192300Z 23003KT 8000 VCSH BKN011 23/22 Q1012=
19/02/2021 23:30:00Z	 SAID34 WAGG 192330	METAR WAGG 192330Z 23002KT 8000 VCSH BKN010 23/23 Q1012=
20/02/2021 00:00:00Z	 SAID34 WAGG 200000	METAR WAGG 200000Z 07002KT 7000 -RA BKN010 23/23 Q1012=
20/02/2021 00:30:00Z	 SAID34 WAGG 200030	METAR WAGG 200030Z 05005KT 8000 BKN008 24/23 Q1012=
20/02/2021 01:00:00Z	 SAID34 WAGG 200100	METAR WAGG 200100Z 05006KT 8000 BKN008 24/23 Q1013=
20/02/2021 01:30:00Z	 SAID34 WAGG 200130	METAR WAGG 200130Z 09006KT 8000 BKN008 25/24 Q1012=
20/02/2021 02:30:00Z	 SAID34 WAGG 200230	METAR WAGG 200230Z 02004KT 9999 BKN010 26/24 Q1012=
20/02/2021 03:00:00Z	 SAID34 WAGG 200300	METAR WAGG 200300Z 01005KT 9999 BKN009 27/24 Q1012=
20/02/2021 03:30:00Z	 SAID34 WAGG 200330	METAR WAGG 200330Z 03007KT 9999 BKN009 27/24 Q1012=
20/02/2021 04:00:00Z	 SAID34 WAGG 200400	METAR WAGG 200400Z 01003KT 9999 BKN010 27/23 Q1012=
20/02/2021 04:30:00Z	 SAID34 WAGG 200430	METAR WAGG 200430Z 36003KT 9999 BKN010 27/23 Q1011=
20/02/2021 05:00:00Z	 SAID34 WAGG 200500	METAR WAGG 200500Z 01005KT 9999 BKN010 28/24 Q1010=
20/02/2021 05:30:00Z	 SAID34 WAGG 200530	METAR WAGG 200530Z 03002KT 9999 BKN010 29/24 Q1010=
20/02/2021 06:00:00Z	 SAID34 WAGG 200600	METAR WAGG 200600Z 35001KT 9999 BKN010 30/24 Q1009=
20/02/2021 06:30:00Z	 SAID34 WAGG 200630	METAR WAGG 200630Z 11002KT 9999 BKN010 30/24 Q1009=
20/02/2021 07:00:00Z	 SAID34 WAGG 200700	METAR WAGG 200700Z 26001KT 9999 BKN010 31/24 Q1008=
20/02/2021 07:30:00Z	 SAID34 WAGG 200730	METAR WAGG 200730Z 26001KT 9999 SCT011 31/23 Q1008=
20/02/2021 08:00:00Z	 SAID34 WAGG 200800	METAR WAGG 200800Z 25001KT 9999 BKN010 30/23 Q1008=
20/02/2021 08:30:00Z	 SAID34 WAGG 200830	METAR WAGG 200830Z 18003KT 9999 FEW010TCU SCT011 30/24 Q1008=
20/02/2021 09:00:00Z	 SAID34 WAGG 200900	METAR WAGG 200900Z 18003KT 9999 FEW010TCU SCT011 30/24 Q1008=
20/02/2021 09:30:00Z	 SAID34 WAGG 200930	METAR WAGG 200930Z 07010KT 9000 BKN010CB 30/22 Q1008=
20/02/2021 10:00:00Z	 SAID34 WAGG 201000	METAR WAGG 201000Z 17006KT 5000 -RA BKN010CB 25/24 Q1009=
20/02/2021 10:30:00Z	 SAID34 WAGG 201030	METAR WAGG 201030Z 17004KT 8000 FEW010CB SCT011 26/243Q1009 RERA=
20/02/2021 10:30:00Z	 SAID34 WAGG 201030 CCA	METAR WAGG 201030Z 17004KT 8000 FEW010CB SCT011 26/24 Q1009 RERA=
20/02/2021 11:00:00Z	 SAID34 WAGG 201100	METAR WAGG 201100Z 18004KT 8000 FEW010TCU SCT011 25/23 Q1010=
20/02/2021 11:30:00Z	 SAID34 WAGG 201130	METAR WAGG 201130Z 22002KT 8000 FEW010TCU SCT011 26/24 Q1010=
20/02/2021 12:00:00Z	 SAID34 WAGG 201200	METAR WAGG 201200Z 25002KT 8000 FEW010TCU SCT011 26/24 Q1010=
20/02/2021 21:00:00Z	 SAID34 WAGG 202100	METAR WAGG 202100Z 08002KT 3000 BR BKN010 25/25 Q1010=
20/02/2021 21:30:00Z	 SAID34 WAGG 202130	METAR WAGG 202130Z 06002KT 0500 FG BKN010 25/25 Q1010=
20/02/2021 22:00:00Z	 SAID34 WAGG 202200	METAR WAGG 202200Z 35001KT 0500 FG BKN010 25/25 Q1011=
20/02/2021 22:30:00Z	 SAID34 WAGG 202230	METAR WAGG 202230Z 07002KT 0500 FG BKN010 25/25 Q1011=
20/02/2021 23:00:00Z	 SAID34 WAGG 202300	METAR WAGG 202300Z 10001KT 0500 FG BKN010 25/25 Q1011=
20/02/2021 23:30:00Z	 SAID34 WAGG 202330	METAR WAGG 202330Z 21001KT 7000 BKN011 25/25 Q1012=
21/02/2021 00:00:00Z	 SAID34 WAGG 210000	METAR WAGG 210000Z 06002KT 6000 BKN010 25/25 Q1012=
21/02/2021 00:30:00Z	 SAID34 WAGG 210030	METAR WAGG 210030Z 09002KT 7000 BKN008 27/25 Q1013=
21/02/2021 01:00:00Z	 SAID34 WAGG 210100	METAR WAGG 210100Z 13002KT 9000 BKN008 27/25 Q1013=
21/02/2021 01:30:00Z	 SAID34 WAGG 210130	METAR WAGG 210130Z 21003KT 9000 SCT011 28/25 Q1013=
21/02/2021 02:00:00Z	 SAID34 WAGG 210200	METAR WAGG 210200Z 19005KT 9000 BKN011 30/25 Q1012=
21/02/2021 02:30:00Z	 SAID34 WAGG 210230	METAR WAGG 210230Z 18004KT 9000 BKN011 29/25 Q1012=
21/02/2021 03:00:00Z	 SAID34 WAGG 210300	METAR WAGG 210300Z 19005KT 9000 FEW011TCU SCT012 30/26 Q1012=
21/02/2021 03:30:00Z	 SAID34 WAGG 210330	METAR WAGG 210330Z 21003KT 9000 FEW011TCU SCT012 30/25 Q1012=
21/02/2021 04:00:00Z	 SAID34 WAGG 210400	METAR WAGG 210400Z 35004KT 9000 FEW010TCU SCT011 29/27 Q1011 RERA=
21/02/2021 04:30:00Z	 SAID34 WAGG 210430	METAR WAGG 210430Z 27006KT 9000 FEW011TCU SCT012 31/24 Q1010=
21/02/2021 05:00:00Z	 SAID34 WAGG 210500	METAR WAGG 210500Z 31003KT 9000 SCT011 31/25 Q1010=
21/02/2021 05:30:00Z	 SAID34 WAGG 210530	METAR WAGG 210530Z 01003KT 9000 FEW011TCU SCT011 32/25 Q1009=
21/02/2021 06:00:00Z	 SAID34 WAGG 210600	METAR WAGG 210600Z 30003KT 9000 FEW011TCU SCT011 32/25 Q1008=
21/02/2021 06:30:00Z	 SAID34 WAGG 210630	METAR WAGG 210630Z 01004KT 9000 FEW011TCU SCT011 32/24 Q1007=
21/02/2021 07:00:00Z	 SAID34 WAGG 210700	METAR WAGG 210700Z 34003KT 9000 FEW011TCU BKN011 34/24 Q1007=
21/02/2021 07:30:00Z	 SAID34 WAGG 210730	METAR WAGG 210730Z 36004KT 8000 VCSH FEW011TCU BKN011 32/24 Q1007=
21/02/2021 08:00:00Z	 SAID34 WAGG 210800	METAR WAGG 210800Z 34013KT 6000 VCSH FEW011TCU BKN011 31/25 Q1007=
21/02/2021 08:00:00Z	 SAID34 WAGG 210800 CCA	METAR WAGG 210800Z 34013KT 4000 -RA FEW011TCU BKN011 31/25 Q1007=
21/02/2021 08:30:00Z	 SAID34 WAGG 210830	METAR WAGG 210830Z 27009KT 5000 TS FEW011CB BKN011 30/25 Q1008=
21/02/2021 09:00:00Z	 SAID34 WAGG 210900	METAR WAGG 210900Z 10004KT 5000 -TSRA FEW011CB BKN011 28/25 Q1008=
21/02/2021 09:30:00Z	 SAID34 WAGG 210930	METAR WAGG 210930Z 12003KT 5000 -TSRA FEW011CB SCT011 27/24 Q1008=
21/02/2021 10:00:00Z	 SAID34 WAGG 211000	METAR WAGG 211000Z 08003KT 6000 VCSH FEW011CB SCT011 26/25 Q1008=
21/02/2021 10:30:00Z	 SAID34 WAGG 211030	METAR WAGG 211030Z 07002KT 6000 VCSH FEW011CB SCT011 26/25 Q1009=
21/02/2021 11:00:00Z	 SAID34 WAGG 211100	METAR WAGG 211100Z 07002KT 8000 FEW011TCU SCT011 26/25 Q1010=
21/02/2021 11:30:00Z	 SAID34 WAGG 211130	METAR WAGG 211130Z 07002KT 8000 FEW011CB SCT011 26/25 Q1010=
21/02/2021 12:00:00Z	 SAID34 WAGG 211200	METAR WAGG 211200Z 14002KT 8000 TS FEW011CB SCT011 26/25 Q1010=
21/02/2021 21:00:00Z	 SAID34 WAGG 212100	METAR WAGG 212100Z 33008KT 7000 SCT012 25/24 Q1010=
21/02/2021 21:30:00Z	 SAID34 WAGG 212130	METAR WAGG 212130Z 34005KT 7000 SCT012 24/24 Q1010=
21/02/2021 22:00:00Z	 SAID34 WAGG 212200	METAR WAGG 212200Z 02006KT 7000 FEW012 24/24 Q1011=
21/02/2021 22:30:00Z	 SAID34 WAGG 212230	METAR WAGG 212230Z 02006KT 7000 SCT012 24/24 Q1011=
21/02/2021 23:00:00Z	 SAID34 WAGG 212300	METAR WAGG 212300Z 05002KT 8000 SCT012 24/24 Q1011=
21/02/2021 23:30:00Z	 SAID34 WAGG 212330	METAR WAGG 212330Z 12001KT 8000 SCT012 25/24 Q1012=
22/02/2021 00:00:00Z	 SAID34 WAGG 220000	METAR WAGG 220000Z 09001KT 8000 SCT012 25/24 Q1012=
22/02/2021 00:30:00Z	 SAID34 WAGG 220030	METAR WAGG 220030Z 17001KT 9000 SCT012 25/24 Q1012=
22/02/2021 01:00:00Z	 SAID34 WAGG 220100	METAR WAGG 220100Z 08001KT 9000 SCT012 25/24 Q1012=
22/02/2021 01:30:00Z	 SAID34 WAGG 220130	METAR WAGG 220130Z 33002KT 9000 SCT012 27/24 Q1012=
22/02/2021 02:00:00Z	 SAID34 WAGG 220200	METAR WAGG 220200Z 30003KT 9000 SCT012 27/24 Q1011=
22/02/2021 02:30:00Z	 SAID34 WAGG 220230	METAR WAGG 220230Z 29003KT 9000 SCT012 27/25 Q1011=
22/02/2021 03:00:00Z	 SAID34 WAGG 220300	METAR WAGG 220300Z 26006KT 9000 SCT012 28/24 Q1011=
22/02/2021 03:30:00Z	 SAID34 WAGG 220330	METAR WAGG 220330Z 27005KT 9000 BKN012 29/25 Q1011=
22/02/2021 04:00:00Z	 SAID34 WAGG 220400	METAR WAGG 220400Z 27007KT 9000 BKN012 29/25 Q1011=
22/02/2021 04:30:00Z	 SAID34 WAGG 220430	METAR WAGG 220430Z 26004KT 9000 BKN010 30/25 Q1010=
22/02/2021 05:00:00Z	 SAID34 WAGG 220500	METAR WAGG 220500Z 25008KT 9000 BKN010 31/25 Q1009=
22/02/2021 05:30:00Z	 SAID34 WAGG 220530	METAR WAGG 220530Z 26006KT 9000 BKN010 32/25 Q1009=
22/02/2021 06:00:00Z	 SAID34 WAGG 220600	METAR WAGG 220600Z 25008KT 9000 BKN010 32/24 Q1008=
22/02/2021 06:30:00Z	 SAID34 WAGG 220630	METAR WAGG 220630Z 27007KT 9000 BKN010 32/24 Q1007=
22/02/2021 07:00:00Z	 SAID34 WAGG 220700	METAR WAGG 220700Z 29004KT 9000 FEW010TCU BKN010 32/25 Q1007=
22/02/2021 07:30:00Z	 SAID34 WAGG 220730	METAR WAGG 220730Z 36001KT 9000 FEW010TCU BKN010 31/25 Q1007=
22/02/2021 08:00:00Z	 SAID34 WAGG 220800	METAR WAGG 220800Z 05002KT 9000 FEW010CB BKN010 30/25 Q1007=
22/02/2021 08:30:00Z	 SAID34 WAGG 220830	METAR WAGG 220830Z 27011KT 8000 TS FEW010CB BKN010 29/25 Q1007=
22/02/2021 09:00:00Z	 SAID34 WAGG 220900	METAR WAGG 220900Z 24003KT 5000 TSRA FEW010CB BKN010 27/25 Q1007=
22/02/2021 09:30:00Z	 SAID34 WAGG 220930	METAR WAGG 220930Z 27004KT 8000 TS FEW010CB BKN010 27/25 Q1008 RERA=
22/02/2021 10:00:00Z	 SAID34 WAGG 221000	METAR WAGG 221000Z 24005KT 5000 -RA FEW010CB BKN010 27/25 Q1008 RETS=
22/02/2021 10:30:00Z	 SAID34 WAGG 221030	METAR WAGG 221030Z 25005KT 5000 -RA FEW010CB BKN010 26/24 Q1009=
22/02/2021 11:00:00Z	 SAID34 WAGG 221100	METAR WAGG 221100Z 30003KT 8000 VCTS FEW010CB BKN010 26/24 Q1009 RERA=
22/02/2021 12:00:00Z	 SAID34 WAGG 221200	METAR WAGG 221200Z 24004KT 9000 VCSH BKN011 26/25 Q1009=
22/02/2021 15:00:00Z	 SAID34 WAGG 221500	METAR WAGG 221500Z 00000KT 8000 BKN011 25/25 Q1011=
22/02/2021 18:00:00Z	 SAID34 WAGG 221800	METAR WAGG 221800Z 00000KT 8000 BKN011 24/24 Q1011=
22/02/2021 21:00:00Z	 SAID34 WAGG 222100	METAR WAGG 222100Z 00000KT 8000 BKN011 24/24 Q1008=
22/02/2021 21:30:00Z	 SAID34 WAGG 222130	METAR WAGG 222130Z 03002KT 8000 BKN011 24/24 Q1009=
22/02/2021 22:00:00Z	 SAID34 WAGG 222200	METAR WAGG 222200Z 36003KT 8000 BKN011 24/24 Q1009=
22/02/2021 22:30:00Z	 SAID34 WAGG 222230	METAR WAGG 222230Z 32004KT 8000 BKN010 25/24 Q1009=
22/02/2021 23:00:00Z	 SAID34 WAGG 222300	METAR WAGG 222300Z 34004KT 9000 BKN011 25/24 Q1009=
22/02/2021 23:30:00Z	 SAID34 WAGG 222330	METAR WAGG 222330Z 30004KT 9000 BKN011 25/24 Q1010=
23/02/2021 00:00:00Z	 SAID34 WAGG 230000	METAR WAGG 230000Z 31005KT 9000 BKN011 26/24 Q1010=
23/02/2021 00:30:00Z	 SAID34 WAGG 230030	METAR WAGG 230030Z 31004KT 9000 BKN011 27/24 Q1010=
23/02/2021 01:00:00Z	 SAID34 WAGG 230100	METAR WAGG 230100Z 29005KT 9000 BKN011 28/25 Q1010=
23/02/2021 01:30:00Z	 SAID34 WAGG 230130	METAR WAGG 230130Z 29005KT 9000 SCT011 29/25 Q1010=
23/02/2021 02:00:00Z	 SAID34 WAGG 230200	METAR WAGG 230200Z 28006KT 9000 SCT012 30/25 Q1010=
23/02/2021 02:30:00Z	 SAID34 WAGG 230230	METAR WAGG 230230Z 31006KT 9000 SCT012 31/25 Q1010=
23/02/2021 03:00:00Z	 SAID34 WAGG 230300	METAR WAGG 230300Z 28004KT 9000 SCT012 31/24 Q1009=
23/02/2021 03:30:00Z	 SAID34 WAGG 230330	METAR WAGG 230330Z 30007KT 9000 SCT012 32/25 Q1009=
23/02/2021 04:00:00Z	 SAID34 WAGG 230400	METAR WAGG 230400Z 34005KT 9000 SCT012 32/24 Q1008=
23/02/2021 04:30:00Z	 SAID34 WAGG 230430	METAR WAGG 230430Z 31006KT 9000 SCT012 33/24 Q1008=
23/02/2021 05:00:00Z	 SAID34 WAGG 230500	METAR WAGG 230500Z 32003KT 9000 BKN012 32/24 Q1007=
23/02/2021 05:30:00Z	 SAID34 WAGG 230530	METAR WAGG 230530Z 32006KT 9000 BKN012 33/23 Q1007=
23/02/2021 06:00:00Z	 SAID34 WAGG 230600	METAR WAGG 230600Z 29009KT 9999 BKN012 33/24 Q1006=
23/02/2021 06:30:00Z	 SAID34 WAGG 230630	METAR WAGG 230630Z 31011KT 9999 BKN012 33/23 Q1006=
23/02/2021 07:00:00Z	 SAID34 WAGG 230700	METAR WAGG 230700Z 29008KT 9999 BKN012 33/24 Q1006=
23/02/2021 07:30:00Z	 SAID34 WAGG 230730	METAR WAGG 230730Z 26008KT 9999 BKN012 33/23 Q1005=
23/02/2021 08:00:00Z	 SAID34 WAGG 230800	METAR WAGG 230800Z 31004KT 9999 BKN012 32/24 Q1005=
23/02/2021 08:30:00Z	 SAID34 WAGG 230830	METAR WAGG 230830Z 32008KT 9000 BKN012 32/23 Q1005=
23/02/2021 09:00:00Z	 SAID34 WAGG 230900	METAR WAGG 230900Z 28005KT 8000 TS FEW010CB BKN011 32/24 Q1005 TEMPO TL1000 30010G15KT 4000 -TSRA FEW010CB BKN010=
23/02/2021 09:30:00Z	 SAID34 WAGG 230930	METAR WAGG 230930Z 09005KT 5000 -TSRA FEW010CB BKN011 25/24 Q1006 TEMPO TL1000 30010G15KT 4000 -TSRA FEW010CB BKN010=
23/02/2021 10:00:00Z	 SAID34 WAGG 231000	METAR WAGG 231000Z 10004KT 5000 -RA FEW010CB BKN011 25/24 Q1006 RETS=
23/02/2021 10:30:00Z	 SAID34 WAGG 231030	METAR WAGG 231030Z 09003KT 5000 -RA FEW010CB BKN011 25/24 Q1006=
23/02/2021 11:00:00Z	 SAID34 WAGG 231100	METAR WAGG 231100Z 09003KT 5000 -RA FEW010CB BKN011 25/24 Q1007=
23/02/2021 12:00:00Z	 SAID34 WAGG 231200	METAR WAGG 231200Z 32023KT 1000 TSRA FEW010CB BKN011 25/24 Q1009=
23/02/2021 22:00:00Z	 SAID34 WAGG 232200	METAR WAGG 232200Z 04003KT 5000 FG BKN012 24/24 Q1008=
23/02/2021 22:30:00Z	 SAID34 WAGG 232230	METAR WAGG 232230Z 05003KT 3500 FG BKN012 24/24 Q1008=
23/02/2021 23:00:00Z	 SAID34 WAGG 232300	METAR WAGG 232300Z 05002KT 2200 FG BKN012 24/24 Q1009=
24/02/2021 00:00:00Z	 SAID34 WAGG 240000	METAR WAGG 240000Z 03005KT 5000 BKN008 25/24 Q1009=
24/02/2021 00:30:00Z	 SAID34 WAGG 240030	METAR WAGG 240030Z 01005KT 8000 BKN008 26/25 Q1009=
24/02/2021 01:00:00Z	 SAID34 WAGG 240100	METAR WAGG 240100Z 36003KT 9999 SCT010 27/25 Q1010=
24/02/2021 01:30:00Z	 SAID34 WAGG 240130	METAR WAGG 240130Z 33011KT 9999 SCT010 29/25 Q1010=
24/02/2021 02:00:00Z	 SAID34 WAGG 240200	METAR WAGG 240200Z 34011KT 9999 SCT010 29/25 Q1010=
24/02/2021 02:30:00Z	 SAID34 WAGG 240230	METAR WAGG 240230Z 35008KT 9999 BKN010 30/25 Q1010=
24/02/2021 03:00:00Z	 SAID34 WAGG 240300	METAR WAGG 240300Z 33011KT 9999 BKN010 30/25 Q1009=
24/02/2021 04:00:00Z	 SAID34 WAGG 240400	METAR WAGG 240400Z 32012KT 9999 BKN010 32/25 Q1008=
24/02/2021 04:30:00Z	 SAID34 WAGG 240430	METAR WAGG 240430Z 34012KT 9999 BKN010 33/25 Q1007=
24/02/2021 05:00:00Z	 SAID34 WAGG 240500	METAR WAGG 240500Z 35011KT 5000 VCSH BKN010 32/23 Q1007=
24/02/2021 05:30:00Z	 SAID34 WAGG 240530	METAR WAGG 240530Z 30012KT 5000 VCSH BKN010 31/24 Q1006=
24/02/2021 06:00:00Z	 SAID34 WAGG 240600	METAR WAGG 240600Z 30007KT 8000 VCSH BKN010 32/24 Q1006=
24/02/2021 06:30:00Z	 SAID34 WAGG 240630	METAR WAGG 240630Z 32012KT 9000 BKN011 32/23 Q1005=
24/02/2021 07:00:00Z	 SAID34 WAGG 240700	METAR WAGG 240700Z 29005KT 5000 -RA FEW010TCU BKN011 30/25 Q1005=
24/02/2021 07:30:00Z	 SAID34 WAGG 240730	METAR WAGG 240730Z 27006KT 8000 FEW010TCU BKN011 30/25 Q1005 RERA=
24/02/2021 08:00:00Z	 SAID34 WAGG 240800	METAR WAGG 240800Z 30004KT 8000 BKN011 30/25 Q1004=
24/02/2021 08:30:00Z	 SAID34 WAGG 240830	METAR WAGG 240830Z 33004KT 8000 BKN011 30/24 Q1004=
24/02/2021 09:00:00Z	 SAID34 WAGG 240900	METAR WAGG 240900Z 32006KT 8000 BKN011 30/24 Q1005=
24/02/2021 09:30:00Z	 SAID34 WAGG 240930	METAR WAGG 240930Z 33003KT 8000 SCT011 30/24 Q1005=
24/02/2021 10:00:00Z	 SAID34 WAGG 241000	METAR WAGG 241000Z 02003KT 8000 SCT011 29/25 Q1005=
24/02/2021 10:30:00Z	 SAID34 WAGG 241030	METAR WAGG 241030Z 03003KT 8000 SCT011 29/25 Q1006=
24/02/2021 11:00:00Z	 SAID34 WAGG 241100	METAR WAGG 241100Z 07001KT 8000 SCT011 28/25 Q1006=
24/02/2021 11:00:00Z	 SAID34 WAGG 241100 CCA	METAR WAGG 241100Z 07001KT 8000 SCT011 28/26 Q1006=
24/02/2021 12:00:00Z	 SAID34 WAGG 241200	METAR WAGG 241200Z 06002KT 9000 BKN011 27/26 Q1007=
24/02/2021 15:00:00Z	 SAID34 WAGG 241500	METAR WAGG 241500Z 05003KT 9000 BKN011 26/26 Q1009=
24/02/2021 18:00:00Z	 SAID34 WAGG 241800	METAR WAGG 241800Z 00000KT 8000 BKN011 25/25 Q1008=
24/02/2021 21:00:00Z	 SAID34 WAGG 242100	METAR WAGG 242100Z 00000KT 4000 BR BKN010 24/24 Q1007=
24/02/2021 21:30:00Z	 SAID34 WAGG 242130	METAR WAGG 242130Z 17002KT 2000 BR BKN010 24/24 Q1007=
24/02/2021 22:00:00Z	 SAID34 WAGG 242200	METAR WAGG 242200Z 00000KT 4000 BR BKN010 24/24 Q1008=
24/02/2021 22:30:00Z	 SAID34 WAGG 242230	METAR WAGG 242230Z 00000KT 0500 FG SCT012 24/24 Q1008=
24/02/2021 23:00:00Z	 SAID34 WAGG 242300	METAR WAGG 242300Z 00000KT 1000 FG SCT012 24/24 Q1008=
24/02/2021 23:30:00Z	 SAID34 WAGG 242330	METAR WAGG 242330Z 00000KT 0900 FG FEW012 24/24 Q1008=
25/02/2021 00:00:00Z	 SAID34 WAGG 250000	METAR WAGG 250000Z 28002KT 4000 FEW013 25/24 Q1009=
25/02/2021 00:30:00Z	 SAID34 WAGG 250030	METAR WAGG 250030Z 06002KT 9999 FEW013 27/24 Q1009=
25/02/2021 01:00:00Z	 SAID34 WAGG 250100	METAR WAGG 250100Z 10002KT 9999 FEW013 28/24 Q1009=
25/02/2021 01:30:00Z	 SAID34 WAGG 250130	METAR WAGG 250130Z 35004KT 9999 FEW013 28/24 Q1009=
25/02/2021 02:00:00Z	 SAID34 WAGG 250200	METAR WAGG 250200Z 34006KT 9999 FEW013 29/24 Q1009=
25/02/2021 02:30:00Z	 SAID34 WAGG 250230	METAR WAGG 250230Z 02006KT 9999 FEW013 30/25 Q1009=
25/02/2021 03:00:00Z	 SAID34 WAGG 250300	METAR WAGG 250300Z 35008KT 9999 SCT011 30/24 Q1009=
25/02/2021 03:30:00Z	 SAID34 WAGG 250330	METAR WAGG 250330Z 35009KT 9999 SCT011 31/24 Q1009=
25/02/2021 04:00:00Z	 SAID34 WAGG 250400	METAR WAGG 250400Z 34011KT 9999 SCT011 32/23 Q1008=
25/02/2021 04:30:00Z	 SAID34 WAGG 250430	METAR WAGG 250430Z 36011KT 9999 SCT011 32/24 Q1008=
25/02/2021 05:00:00Z	 SAID34 WAGG 250500	METAR WAGG 250500Z 36011KT 9999 SCT011 33/24 Q1007=
25/02/2021 05:30:00Z	 SAID34 WAGG 250530	METAR WAGG 250530Z 36007KT 9999 BKN011 33/24 Q1006=
25/02/2021 06:00:00Z	 SAID34 WAGG 250600	METAR WAGG 250600Z 02002KT 9999 BKN011 33/24 Q1006=
25/02/2021 06:30:00Z	 SAID34 WAGG 250630	METAR WAGG 250630Z 36007KT 9999 BKN011 33/24 Q1006=
25/02/2021 07:00:00Z	 SAID34 WAGG 250700	METAR WAGG 250700Z 36003KT 9999 BKN011 32/23 Q1005=
25/02/2021 07:30:00Z	 SAID34 WAGG 250730	METAR WAGG 250730Z 01004KT 9999 BKN011 32/24 Q1005=
25/02/2021 08:00:00Z	 SAID34 WAGG 250800	METAR WAGG 250800Z 36004KT 9999 BKN011 34/24 Q1005=
25/02/2021 08:30:00Z	 SAID34 WAGG 250830	METAR WAGG 250830Z 33002KT 8000 FEW011TCU BKN011 34/24 Q1005=
25/02/2021 09:00:00Z	 SAID34 WAGG 250900	METAR WAGG 250900Z 01004KT 8000 FEW011CB BKN011 32/24 Q1005=
25/02/2021 09:30:00Z	 SAID34 WAGG 250930	METAR WAGG 250930Z 20006KT 8000 FEW011TCU BKN011 32/24 Q1005=
25/02/2021 10:00:00Z	 SAID34 WAGG 251000	METAR WAGG 251000Z 09003KT 8000 BKN011 30/25 Q1005=
25/02/2021 10:30:00Z	 SAID34 WAGG 251030	METAR WAGG 251030Z 10002KT 8000 SCT011 29/25 Q1005=
25/02/2021 11:00:00Z	 SAID34 WAGG 251100	METAR WAGG 251100Z 13002KT 8000 SCT011 28/25 Q1006=
25/02/2021 11:30:00Z	 SAID34 WAGG 251130	METAR WAGG 251130Z 17002KT 8000 SCT011 28/25 Q1006=
25/02/2021 12:00:00Z	 SAID34 WAGG 251200	METAR WAGG 251200Z 12002KT 8000 SCT011 28/25 Q1006=
