01/06/2022 00:00:00Z	 SAID32 WIPP 010000	METAR WIPP 010000Z 13002KT 7000 FEW010 25/24 Q1008=
01/06/2022 00:30:00Z	 SAID32 WIPP 010030	METAR WIPP 010030Z 13003KT 9999 FEW010 26/24 Q1009 NOSIG=
01/06/2022 01:00:00Z	 SAID32 WIPP 010100	METAR WIPP 010100Z 14005KT 9999 FEW010 27/24 Q1009 NOSIG=
01/06/2022 01:30:00Z	 SAID32 WIPP 010130	METAR WIPP 010130Z 13003KT 9999 FEW010 28/24 Q1009 NOSIG=
01/06/2022 02:00:00Z	 SAID32 WIPP 010200	METAR WIPP 010200Z 14004KT 9999 FEW010 29/25 Q1009 NOSIG=
01/06/2022 02:30:00Z	 SAID32 WIPP 010230	METAR WIPP 010230Z 15005KT 9999 FEW010 30/24 Q1009 NOSIG=
01/06/2022 03:00:00Z	 SAID32 WIPP 010300	METAR WIPP 010300Z 10005KT 9999 FEW010 30/24 Q1009 NOSIG=
01/06/2022 03:30:00Z	 SAID32 WIPP 010330	METAR WIPP 010330Z 12004KT 9999 SCT010 31/24 Q1009 NOSIG=
01/06/2022 04:00:00Z	 SAID32 WIPP 010400	METAR WIPP 010400Z 19003KT 9999 SCT010 32/24 Q1009 NOSIG=
01/06/2022 04:30:00Z	 SAID32 WIPP 010430	METAR WIPP 010430Z 21002KT 9999 SCT010 32/24 Q1009 NOSIG=
01/06/2022 05:00:00Z	 SAID32 WIPP 010500	METAR WIPP 010500Z 14003KT 9999 SCT010 32/24 Q1008 NOSIG=
01/06/2022 05:30:00Z	 SAID32 WIPP 010530	METAR WIPP 010530Z 19005KT 9999 SCT010 32/24 Q1008 NOSIG=
01/06/2022 06:00:00Z	 SAID32 WIPP 010600	METAR WIPP 010600Z 22002KT 9999 BKN010 33/24 Q1007 NOSIG=
01/06/2022 06:30:00Z	 SAID32 WIPP 010630	METAR WIPP 010630Z 16003KT 9999 BKN010 33/24 Q1007 NOSIG=
01/06/2022 07:00:00Z	 SAID32 WIPP 010700	METAR WIPP 010700Z 11006KT 9999 BKN010 33/24 Q1007 NOSIG=
01/06/2022 07:30:00Z	 SAID32 WIPP 010730	METAR WIPP 010730Z 22002KT 9999 BKN010 33/24 Q1006 NOSIG=
01/06/2022 08:00:00Z	 SAID32 WIPP 010800	METAR WIPP 010800Z 04003KT 9999 BKN010 33/24 Q1006 NOSIG=
01/06/2022 08:30:00Z	 SAID32 WIPP 010830	METAR WIPP 010830Z 25003KT 9999 BKN010 34/24 Q1006 NOSIG=
01/06/2022 09:00:00Z	 SAID32 WIPP 010900	METAR WIPP 010900Z 17002KT 9999 SCT010 33/24 Q1005 NOSIG=
01/06/2022 09:30:00Z	 SAID32 WIPP 010930	METAR WIPP 010930Z 23003KT 9999 SCT010 33/24 Q1006 NOSIG=
01/06/2022 10:00:00Z	 SAID32 WIPP 011000	METAR WIPP 011000Z 24003KT 9999 SCT010 32/24 Q1006 NOSIG=
01/06/2022 10:30:00Z	 SAID32 WIPP 011030	METAR WIPP 011030Z 22002KT 9999 SCT010 FEW012CB 32/24 Q1006 RMK CB TO SE=
01/06/2022 11:00:00Z	 SAID32 WIPP 011100	METAR WIPP 011100Z 12005KT 9999 SCT010 FEW012CB 31/23 Q1006 RMK CB TO E=
01/06/2022 11:30:00Z	 SAID32 WIPP 011130	METAR WIPP 011130Z 11005KT 9999 SCT010 30/23 Q1006 NOSIG=
01/06/2022 12:00:00Z	 SAID32 WIPP 011200	METAR WIPP 011200Z 00000KT 9999 SCT010 30/23 Q1006 NOSIG=
01/06/2022 12:30:00Z	 SAID32 WIPP 011230	METAR WIPP 011230Z 00000KT 9999 SCT010 30/23 Q1007 NOSIG=
01/06/2022 13:00:00Z	 SAID32 WIPP 011300	METAR WIPP 011300Z 00000KT 9999 SCT010 29/24 Q1007 NOSIG=
01/06/2022 13:30:00Z	 SAID32 WIPP 011330	METAR WIPP 011330Z 10006KT 9999 SCT010 29/25 Q1008 NOSIG=
01/06/2022 14:00:00Z	 SAID32 WIPP 011400	METAR WIPP 011400Z 11005KT 9999 SCT010 29/25 Q1008 NOSIG=
01/06/2022 14:30:00Z	 SAID32 WIPP 011430	METAR WIPP 011430Z 09004KT 9999 SCT010 28/25 Q1009 NOSIG=
01/06/2022 15:00:00Z	 SAID32 WIPP 011500	METAR WIPP 011500Z 11005KT 9999 FEW010 28/25 Q1008 NOSIG=
01/06/2022 15:30:00Z	 SAID32 WIPP 011530	METAR WIPP 011530Z 09004KT 9999 FEW010 28/25 Q1008 NOSIG=
01/06/2022 16:00:00Z	 SAID32 WIPP 011600	METAR WIPP 011600Z 08004KT 8000 FEW010 28/25 Q1008 NOSIG=
01/06/2022 16:30:00Z	 SAID32 WIPP 011630	METAR WIPP 011630Z 08002KT 6000 FEW010 27/25 Q1008 NOSIG=
01/06/2022 17:00:00Z	 SAID32 WIPP 011700	METAR WIPP 011700Z 09002KT 8000 FEW010 27/25 Q1008 NOSIG=
01/06/2022 17:30:00Z	 SAID32 WIPP 011730	METAR WIPP 011730Z 00000KT 6000 FEW010 27/25 Q1008 NOSIG=
01/06/2022 18:00:00Z	 SAID32 WIPP 011800	METAR WIPP 011800Z 18003KT 5000 HZ FEW010 27/25 Q1008=
01/06/2022 18:30:00Z	 SAID32 WIPP 011830	METAR WIPP 011830Z 16002KT 4000 HZ SCT010 27/25 Q1008=
01/06/2022 19:00:00Z	 SAID32 WIPP 011900	METAR WIPP 011900Z 15002KT 4000 -RA SCT010 27/26 Q1008=
01/06/2022 19:30:00Z	 SAID32 WIPP 011930	METAR WIPP 011930Z AUTO 18003KT 140V210 6000NDV FEW013 SCT026 BKN041 27/27 Q1008=
01/06/2022 20:00:00Z	 SAID32 WIPP 012000	METAR WIPP 012000Z AUTO 18003KT 140V240 5000NDV FEW017 SCT027 BKN042 27/27 Q1008=
01/06/2022 20:30:00Z	 SAID32 WIPP 012030	METAR WIPP 012030Z AUTO 00000KT 5000NDV NCD 26/26 Q1007=
01/06/2022 21:00:00Z	 SAID32 WIPP 012100	METAR WIPP 012100Z 17002KT 5000 BR FEW010 26/25 Q1008=
01/06/2022 21:30:00Z	 SAID32 WIPP 012130	METAR WIPP 012130Z 00000KT 3000 BR FEW010 26/25 Q1008=
01/06/2022 22:00:00Z	 SAID32 WIPP 012200	METAR WIPP 012200Z 00000KT 2000 BR FEW010 26/25 Q1008=
01/06/2022 22:30:00Z	 SAID32 WIPP 012230	METAR WIPP 012230Z 21002KT 2000 BR FEW010 26/25 Q1008=
01/06/2022 23:00:00Z	 SAID32 WIPP 012300	METAR WIPP 012300Z 00000KT 5000 BR FEW010 26/25 Q1008=
01/06/2022 23:30:00Z	 SAID32 WIPP 012330	METAR WIPP 012330Z 17003KT 4000 BR FEW010 26/25 Q1008=
02/06/2022 00:00:00Z	 SAID32 WIPP 020000	METAR WIPP 020000Z 00000KT 3000 BR FEW010 26/25 Q1009=
02/06/2022 00:30:00Z	 SAID32 WIPP 020030	METAR WIPP 020030Z 22002KT 6000 FEW010 27/25 Q1009=
02/06/2022 01:00:00Z	 SAID32 WIPP 020100	METAR WIPP 020100Z 09002KT 8000 FEW010 28/25 Q1009 NOSIG=
02/06/2022 01:30:00Z	 SAID32 WIPP 020130	METAR WIPP 020130Z 11006KT 8000 FEW010 29/25 Q1010 NOSIG=
02/06/2022 02:00:00Z	 SAID32 WIPP 020200	METAR WIPP 020200Z 15005KT 9999 SCT010 30/24 Q1009 NOSIG=
02/06/2022 02:30:00Z	 SAID32 WIPP 020230	METAR WIPP 020230Z 12008KT 9999 SCT010 30/24 Q1009 NOSIG=
02/06/2022 03:00:00Z	 SAID32 WIPP 020300	METAR WIPP 020300Z 11008KT 9999 SCT010 30/23 Q1009 NOSIG=
02/06/2022 03:30:00Z	 SAID32 WIPP 020330	METAR WIPP 020330Z 12008KT 9999 SCT010 30/24 Q1009 NOSIG=
02/06/2022 04:00:00Z	 SAID32 WIPP 020400	METAR WIPP 020400Z 17007KT 9999 SCT010 31/24 Q1009 NOSIG=
02/06/2022 04:30:00Z	 SAID32 WIPP 020430	METAR WIPP 020430Z 17006KT 9999 SCT010 32/23 Q1009 NOSIG=
02/06/2022 05:00:00Z	 SAID32 WIPP 020500	METAR WIPP 020500Z 20004KT 9999 FEW010CB SCT012 31/23 Q1008 RMK CB TO NE AND NW=
02/06/2022 05:30:00Z	 SAID32 WIPP 020530	METAR WIPP 020530Z 19005KT 9999 FEW010CB SCT012 32/23 Q1008 RMK CB TO NE AND NW=
02/06/2022 06:00:00Z	 SAID32 WIPP 020600	METAR WIPP 020600Z 20005KT 9999 FEW010CB SCT012 31/23 Q1008 RMK CB TO N=
02/06/2022 06:30:00Z	 SAID32 WIPP 020630	METAR WIPP 020630Z 21006KT 9999 SCT010 32/25 Q1007 NOSIG=
02/06/2022 07:00:00Z	 SAID32 WIPP 020700	METAR WIPP 020700Z 22007KT 9999 SCT010 32/24 Q1007 NOSIG=
02/06/2022 07:30:00Z	 SAID32 WIPP 020730	METAR WIPP 020730Z 24004KT 9999 SCT010 31/23 Q1007 NOSIG=
02/06/2022 08:00:00Z	 SAID32 WIPP 020800	METAR WIPP 020800Z 26005KT 9999 BKN010 32/22 Q1007 NOSIG=
02/06/2022 08:30:00Z	 SAID32 WIPP 020830	METAR WIPP 020830Z 28002KT 9999 BKN010 31/23 Q1007 NOSIG=
02/06/2022 09:00:00Z	 SAID32 WIPP 020900	METAR WIPP 020900Z 33004KT 9999 BKN010 31/23 Q1007 NOSIG=
02/06/2022 09:30:00Z	 SAID32 WIPP 020930	METAR WIPP 020930Z 35006KT 9999 SCT010 30/25 Q1007 NOSIG=
02/06/2022 10:00:00Z	 SAID32 WIPP 021000	METAR WIPP 021000Z 36007KT 9999 SCT010 30/25 Q1007 NOSIG=
02/06/2022 10:30:00Z	 SAID32 WIPP 021030	METAR WIPP 021030Z 02006KT 9999 SCT010 29/25 Q1007 NOSIG=
02/06/2022 11:00:00Z	 SAID32 WIPP 021100	METAR WIPP 021100Z 36005KT 9999 SCT010 28/24 Q1008 NOSIG=
02/06/2022 11:30:00Z	 SAID32 WIPP 021130	METAR WIPP 021130Z 36004KT 9999 SCT010 27/24 Q1008 NOSIG=
02/06/2022 12:00:00Z	 SAID32 WIPP 021200	METAR WIPP 021200Z 32005KT 9999 SCT010 27/24 Q1009 NOSIG=
02/06/2022 12:30:00Z	 SAID32 WIPP 021230	METAR WIPP 021230Z 35004KT 9999 SCT010 27/24 Q1009 NOSIG=
02/06/2022 13:00:00Z	 SAID32 WIPP 021300	METAR WIPP 021300Z 36004KT 9999 SCT010 27/24 Q1009 NOSIG=
02/06/2022 13:30:00Z	 SAID32 WIPP 021330	METAR WIPP 021330Z 34003KT 9999 SCT010 26/24 Q1009 NOSIG=
02/06/2022 14:00:00Z	 SAID32 WIPP 021400	METAR WIPP 021400Z 35002KT 9999 SCT010 26/24 Q1010 NOSIG=
02/06/2022 14:30:00Z	 SAID32 WIPP 021430	METAR WIPP 021430Z 01002KT 9999 SCT010 26/24 Q1010 NOSIG=
02/06/2022 15:00:00Z	 SAID32 WIPP 021500	METAR WIPP 021500Z 00000KT 9999 SCT010 26/24 Q1010 NOSIG=
02/06/2022 15:30:00Z	 SAID32 WIPP 021530	METAR WIPP 021530Z 35002KT 9999 SCT010 26/24 Q1010 NOSIG=
02/06/2022 16:00:00Z	 SAID32 WIPP 021600	METAR WIPP 021600Z 11003KT 9999 SCT010 26/24 Q1011 NOSIG=
02/06/2022 16:30:00Z	 SAID32 WIPP 021630	METAR WIPP 021630Z 17006KT 9999 SCT010 26/24 Q1011 NOSIG=
02/06/2022 17:00:00Z	 SAID32 WIPP 021700	METAR WIPP 021700Z 12002KT 9999 SCT010 FEW012CB 26/24 Q1011 RMK CB TO SE=
02/06/2022 17:30:00Z	 SAID32 WIPP 021730	METAR WIPP 021730Z 16004KT 9999 SCT010 FEW012CB 26/24 Q1011 RMK CB TO E=
02/06/2022 18:00:00Z	 SAID32 WIPP 021800	METAR WIPP 021800Z 12006KT 6000 -TSRA BKN010 FEW012CB 26/24 Q1011 RMK CB OVER THE FIELD=
02/06/2022 18:30:00Z	 SAID32 WIPP 021830	METAR WIPP 021830Z 10006KT 8000 -RA BKN010 FEW012CB 25/24 Q1011 RMK CB TO N=
02/06/2022 19:00:00Z	 SAID32 WIPP 021900	METAR WIPP 021900Z 05003KT 8000 -RA BKN010 FEW012CB 24/23 Q1010 RMK CB TO E=
02/06/2022 19:30:00Z	 SAID32 WIPP 021930	METAR WIPP 021930Z 15002KT 8000 -RA BKN010 FEW012CB 24/23 Q1009 RMK CB TO E=
02/06/2022 20:00:00Z	 SAID32 WIPP 022000	METAR WIPP 022000Z 16002KT 5000 BR SCT010 24/23 Q1009 REEA=
02/06/2022 20:30:00Z	 SAID32 WIPP 022030	METAR WIPP 022030Z 16002KT 5000 BR SCT010 24/23 Q1009=
02/06/2022 21:00:00Z	 SAID32 WIPP 022100	METAR WIPP 022100Z 19002KT 5000 BR SCT010 24/23 Q1008=
02/06/2022 21:30:00Z	 SAID32 WIPP 022130	METAR WIPP 022130Z 26002KT 5000 BR SCT010 24/23 Q1008=
02/06/2022 22:00:00Z	 SAID32 WIPP 022200	METAR WIPP 022200Z 29002KT 4000 BR SCT010 24/23 Q1008=
02/06/2022 22:30:00Z	 SAID32 WIPP 022230	METAR WIPP 022230Z 25003KT 3000 BR SCT010 24/23 Q1009=
02/06/2022 23:00:00Z	 SAID32 WIPP 022300	METAR WIPP 022300Z 00000KT 3000 BR SCT010 24/23 Q1009=
02/06/2022 23:30:00Z	 SAID32 WIPP 022330	METAR WIPP 022330Z 26003KT 3000 BR FEW010 24/23 Q1009=
03/06/2022 00:00:00Z	 SAID32 WIPP 030000	METAR WIPP 030000Z 25005KT 5000 HZ FEW010 25/24 Q1009=
03/06/2022 00:30:00Z	 SAID32 WIPP 030030	METAR WIPP 030030Z 21003KT 9999 FEW010 25/24 Q1010=
03/06/2022 01:00:00Z	 SAID32 WIPP 030100	METAR WIPP 030100Z 20002KT 9999 FEW010 26/24 Q1010=
03/06/2022 01:30:00Z	 SAID32 WIPP 030130	METAR WIPP 030130Z 18003KT 9999 FEW010 26/24 Q1010 NOSIG=
03/06/2022 02:00:00Z	 SAID32 WIPP 030200	METAR WIPP 030200Z 20003KT 9999 FEW010 27/24 Q1011 NOSIG=
03/06/2022 02:30:00Z	 SAID32 WIPP 030230	METAR WIPP 030230Z 18005KT 9999 FEW010 27/23 Q1011 NOSIG=
03/06/2022 03:00:00Z	 SAID32 WIPP 030300	METAR WIPP 030300Z 21005KT 9999 FEW010 29/24 Q1011 NOSIG=
03/06/2022 03:30:00Z	 SAID32 WIPP 030330	METAR WIPP 030330Z 16003KT 9999 FEW010 29/23 Q1011 NOSIG=
03/06/2022 04:00:00Z	 SAID32 WIPP 030400	METAR WIPP 030400Z 20004KT 9999 SCT010 29/24 Q1010 NOSIG=
03/06/2022 04:30:00Z	 SAID32 WIPP 030430	METAR WIPP 030430Z 20003KT 9999 SCT010 29/23 Q1010 NOSIG=
03/06/2022 05:00:00Z	 SAID32 WIPP 030500	METAR WIPP 030500Z 20005KT 9999 SCT010 30/23 Q1010 NOSIG=
03/06/2022 05:30:00Z	 SAID32 WIPP 030530	METAR WIPP 030530Z 19008KT 9999 SCT010 31/24 Q1009 NOSIG=
03/06/2022 06:00:00Z	 SAID32 WIPP 030600	METAR WIPP 030600Z 16004KT 9999 SCT010 31/23 Q1009 NOSIG=
03/06/2022 06:30:00Z	 SAID32 WIPP 030630	METAR WIPP 030630Z 20006KT 9999 SCT010 31/22 Q1008 NOSIG=
03/06/2022 07:00:00Z	 SAID32 WIPP 030700	METAR WIPP 030700Z 20005KT 9999 SCT010 32/23 Q1008 NOSIG=
03/06/2022 07:30:00Z	 SAID32 WIPP 030730	METAR WIPP 030730Z 18002KT 9999 SCT010 32/23 Q1007 NOSIG=
03/06/2022 08:00:00Z	 SAID32 WIPP 030800	METAR WIPP 030800Z 14003KT 9999 SCT010 31/23 Q1007 NOSIG=
03/06/2022 08:30:00Z	 SAID32 WIPP 030830	METAR WIPP 030830Z 18003KT 9999 SCT010 31/23 Q1007 NOSIG=
03/06/2022 09:00:00Z	 SAID32 WIPP 030900	METAR WIPP 030900Z 00000KT 9999 SCT010 31/23 Q1007 NOSIG=
03/06/2022 09:30:00Z	 SAID32 WIPP 030930	METAR WIPP 030930Z 04007KT 9999 SCT010 31/24 Q1007 NOSIG=
03/06/2022 10:00:00Z	 SAID32 WIPP 031000	METAR WIPP 031000Z 04005KT 9999 SCT010 30/24 Q1007 NOSIG=
03/06/2022 10:30:00Z	 SAID32 WIPP 031030	METAR WIPP 031030Z 09005KT 9999 SCT010 30/24 Q1007 NOSIG=
03/06/2022 11:00:00Z	 SAID32 WIPP 031100	METAR WIPP 031100Z 09005KT 9999 FEW010 29/24 Q1008 NOSIG=
03/06/2022 11:30:00Z	 SAID32 WIPP 031130	METAR WIPP 031130Z 36002KT 9999 FEW010 29/24 Q1008 NOSIG=
03/06/2022 12:00:00Z	 SAID32 WIPP 031200	METAR WIPP 031200Z 08002KT 9999 FEW010 29/24 Q1009 NOSIG=
03/06/2022 12:30:00Z	 SAID32 WIPP 031230	METAR WIPP 031230Z 10004KT 9999 FEW010 28/24 Q1009 NOSIG=
03/06/2022 13:00:00Z	 SAID32 WIPP 031300	METAR WIPP 031300Z 10003KT 9999 SCT010 28/24 Q1009 NOSIG=
03/06/2022 13:30:00Z	 SAID32 WIPP 031330	METAR WIPP 031330Z 10004KT 9999 SCT010 28/24 Q1010 NOSIG=
03/06/2022 14:00:00Z	 SAID32 WIPP 031400	METAR WIPP 031400Z 08003KT 9999 SCT010 28/25 Q1010 NOSIG=
03/06/2022 14:30:00Z	 SAID32 WIPP 031430	METAR WIPP 031430Z 07004KT 9999 SCT010 27/25 Q1010 NOSIG=
03/06/2022 15:00:00Z	 SAID32 WIPP 031500	METAR WIPP 031500Z 07003KT 9999 SCT010 27/25 Q1010 NOSIG=
03/06/2022 15:30:00Z	 SAID32 WIPP 031530	METAR WIPP 031530Z 07002KT 9999 SCT010 27/25 Q1010 NOSIG=
03/06/2022 16:00:00Z	 SAID32 WIPP 031600	METAR WIPP 031600Z 00000KT 9999 SCT010 27/25 Q1010 NOSIG=
03/06/2022 16:30:00Z	 SAID32 WIPP 031630	METAR WIPP 031630Z 04002KT 9999 SCT010 27/25 Q1010 NOSIG=
03/06/2022 17:00:00Z	 SAID32 WIPP 031700	METAR WIPP 031700Z 06002KT 9999 SCT010 26/25 Q1010 NOSIG=
03/06/2022 17:30:00Z	 SAID32 WIPP 031730	METAR WIPP 031730Z 00000KT 9999 SCT010 26/25 Q1010 NOSIG=
03/06/2022 18:00:00Z	 SAID32 WIPP 031800	METAR WIPP 031800Z 00000KT 9999 SCT010 26/24 Q1010 NOSIG=
03/06/2022 18:30:00Z	 SAID32 WIPP 031830	METAR WIPP 031830Z 00000KT 8000 SCT010 26/24 Q1010 NOSIG=
03/06/2022 19:00:00Z	 SAID32 WIPP 031900	METAR WIPP 031900Z 15002KT 8000 SCT010 26/25 Q1010 NOSIG=
03/06/2022 19:30:00Z	 SAID32 WIPP 031930	METAR WIPP 031930Z 18002KT 8000 SCT010 26/25 Q1009 NOSIG=
03/06/2022 20:00:00Z	 SAID32 WIPP 032000	METAR WIPP 032000Z 18002KT 8000 SCT010 26/25 Q1009 NOSIG=
03/06/2022 20:30:00Z	 SAID32 WIPP 032030	METAR WIPP 032030Z 19002KT 5000 HZ SCT010 26/24 Q1010=
03/06/2022 21:00:00Z	 SAID32 WIPP 032100	METAR WIPP 032100Z 26002KT 4000 HZ SCT010 25/24 Q1010=
03/06/2022 21:30:00Z	 SAID32 WIPP 032130	METAR WIPP 032130Z 26002KT 3000 HZ SCT010 25/24 Q1010=
03/06/2022 22:00:00Z	 SAID32 WIPP 032200	METAR WIPP 032200Z 25002KT 2000 BR SCT010 25/24 Q1010=
03/06/2022 22:30:00Z	 SAID32 WIPP 032230	METAR WIPP 032230Z 26002KT 1500 BR SCT010 25/24 Q1010=
03/06/2022 23:00:00Z	 SAID32 WIPP 032300	METAR WIPP 032300Z 26002KT 0800 FG FEW010 25/24 Q1010=
03/06/2022 23:30:00Z	 SAID32 WIPP 032330	METAR WIPP 032330Z 00000KT 1500 BR FEW010 25/24 Q1010=
04/06/2022 00:00:00Z	 SAID32 WIPP 040000	METAR WIPP 040000Z 29002KT 1700 BR FEW010 26/25 Q1010=
04/06/2022 00:30:00Z	 SAID32 WIPP 040030	METAR WIPP 040030Z 30003KT 2000 HZ FEW010 27/25 Q1011=
04/06/2022 01:00:00Z	 SAID32 WIPP 040100	METAR WIPP 040100Z 26003KT 4000 HZ FEW010 27/25 Q1011=
04/06/2022 01:30:00Z	 SAID32 WIPP 040130	METAR WIPP 040130Z 15002KT 8000 FEW010 28/24 Q1011=
04/06/2022 02:00:00Z	 SAID32 WIPP 040200	METAR WIPP 040200Z 10005KT 9999 FEW010 29/25 Q1011 NOSIG=
04/06/2022 02:30:00Z	 SAID32 WIPP 040230	METAR WIPP 040230Z 13003KT 9999 FEW010 29/25 Q1011 NOSIG=
04/06/2022 03:00:00Z	 SAID32 WIPP 040300	METAR WIPP 040300Z 00000KT 9999 FEW010 30/25 Q1011 NOSIG=
04/06/2022 03:30:00Z	 SAID32 WIPP 040330	METAR WIPP 040330Z 08004KT 9999 SCT010 32/24 Q1011 NOSIG=
04/06/2022 04:00:00Z	 SAID32 WIPP 040400	METAR WIPP 040400Z 07006KT 9999 SCT010 32/24 Q1010 NOSIG=
04/06/2022 04:30:00Z	 SAID32 WIPP 040430	METAR WIPP 040430Z 10005KT 9999 SCT010 32/24 Q1010 NOSIG=
04/06/2022 05:00:00Z	 SAID32 WIPP 040500	METAR WIPP 040500Z 14003KT 9999 SCT010 32/23 Q1009 NOSIG=
04/06/2022 05:30:00Z	 SAID32 WIPP 040530	METAR WIPP 040530Z 06003KT 9999 SCT010 33/22 Q1009 NOSIG=
04/06/2022 06:00:00Z	 SAID32 WIPP 040600	METAR WIPP 040600Z 14005KT 9999 SCT010 32/22 Q1008 NOSIG=
04/06/2022 06:30:00Z	 SAID32 WIPP 040630	METAR WIPP 040630Z 09006KT 9999 SCT010 32/23 Q1008 NOSIG=
04/06/2022 07:00:00Z	 SAID32 WIPP 040700	METAR WIPP 040700Z 08009KT 9999 BKN010 33/23 Q1008 NOSIG=
04/06/2022 07:30:00Z	 SAID32 WIPP 040730	METAR WIPP 040730Z 05006KT 9999 BKN010 33/22 Q1007 NOSIG=
04/06/2022 08:00:00Z	 SAID32 WIPP 040800	METAR WIPP 040800Z 08005KT 9999 BKN010 32/23 Q1007 NOSIG=
04/06/2022 08:30:00Z	 SAID32 WIPP 040830	METAR WIPP 040830Z 10008KT 9999 BKN010 32/23 Q1007 NOSIG=
04/06/2022 09:00:00Z	 SAID32 WIPP 040900	METAR WIPP 040900Z 10010KT 9999 FEW010CB SCT012 32/23 Q1007 RMK CB TO SW AND W=
04/06/2022 09:30:00Z	 SAID32 WIPP 040930	METAR WIPP 040930Z 11008KT 9999 FEW010CB SCT012 31/23 Q1007 RMK CB TO W AND NW=
04/06/2022 10:00:00Z	 SAID32 WIPP 041000	METAR WIPP 041000Z 09005KT 9999 FEW010CB SCT012 31/23 Q1007 RMK CB TO SW AND NW=
04/06/2022 10:30:00Z	 SAID32 WIPP 041030	METAR WIPP 041030Z 10005KT 9999 FEW010CB SCT012 31/23 Q1007 RMK CB TO W AND NW=
04/06/2022 11:00:00Z	 SAID32 WIPP 041100	METAR WIPP 041100Z 08004KT 9999 FEW010CB SCT012 30/23 Q1008 RMK CB TO NW=
04/06/2022 11:30:00Z	 SAID32 WIPP 041130	METAR WIPP 041130Z 09002KT 9999 SCT010 30/24 Q1008 NOSIG=
04/06/2022 12:00:00Z	 SAID32 WIPP 041200	METAR WIPP 041200Z 08005KT 9999 SCT010 29/24 Q1008 NOSIG=
04/06/2022 12:30:00Z	 SAID32 WIPP 041230	METAR WIPP 041230Z 10003KT 9999 SCT010 29/23 Q1009 NOSIG=
04/06/2022 13:00:00Z	 SAID32 WIPP 041300	METAR WIPP 041300Z 35002KT 9999 SCT010 29/24 Q1009 NOSIG=
04/06/2022 13:30:00Z	 SAID32 WIPP 041330	METAR WIPP 041330Z 03002KT 9999 SCT010 28/24 Q1010 NOSIG=
04/06/2022 14:00:00Z	 SAID32 WIPP 041400	METAR WIPP 041400Z 29002KT 9999 SCT010 28/24 Q1010 NOSIG=
04/06/2022 14:30:00Z	 SAID32 WIPP 041430	METAR WIPP 041430Z 11002KT 8000 SCT010 28/24 Q1010 NOSIG=
04/06/2022 15:00:00Z	 SAID32 WIPP 041500	METAR WIPP 041500Z 12004KT 8000 SCT010 27/25 Q1010 NOSIG=
04/06/2022 15:30:00Z	 SAID32 WIPP 041530	METAR WIPP 041530Z 08003KT 9999 FEW010 27/24 Q1011 NOSIG=
04/06/2022 16:00:00Z	 SAID32 WIPP 041600	METAR WIPP 041600Z 10003KT 9999 FEW010 27/25 Q1011 NOSIG=
04/06/2022 16:30:00Z	 SAID32 WIPP 041630	METAR WIPP 041630Z 10002KT 9999 FEW010 27/25 Q1011 NOSIG=
04/06/2022 17:00:00Z	 SAID32 WIPP 041700	METAR WIPP 041700Z 11002KT 9999 FEW010 27/25 Q1010 NOSIG=
04/06/2022 17:30:00Z	 SAID32 WIPP 041730	METAR WIPP 041730Z 12002KT 9999 FEW010 27/24 Q1010 NOSIG=
04/06/2022 18:00:00Z	 SAID32 WIPP 041800	METAR WIPP 041800Z AUTO 14002KT 5000NDV FEW060 25/25 Q1010=
04/06/2022 18:30:00Z	 SAID32 WIPP 041830	METAR WIPP 041830Z AUTO 12002KT 7000NDV FEW060 25/25 Q1010=
04/06/2022 19:00:00Z	 SAID32 WIPP 041900	METAR WIPP 041900Z 13004KT 9999 FEW010 26/24 Q1009 NOSIG=
04/06/2022 20:00:00Z	 SAID32 WIPP 042000	METAR WIPP 042000Z 20002KT 9999 FEW010 26/24 Q1009 NOSIG=
04/06/2022 21:00:00Z	 SAID32 WIPP 042100	METAR WIPP 042100Z 22003KT 6000 FEW010 25/24 Q1008 NOSIG=
04/06/2022 21:30:00Z	 SAID32 WIPP 042130	METAR WIPP 042130Z 21002KT 6000 FEW010 25/24 Q1009 NOSIG=
04/06/2022 22:00:00Z	 SAID32 WIPP 042200	METAR WIPP 042200Z 20002KT 6000 FEW010 25/24 Q1009 NOSIG=
04/06/2022 22:30:00Z	 SAID32 WIPP 042230	METAR WIPP 042230Z 23003KT 5000 FEW010 25/24 Q1009 NOSIG=
04/06/2022 23:00:00Z	 SAID32 WIPP 042300	METAR WIPP 042300Z 18003KT 5000 FEW010 25/24 Q1009 NOSIG=
04/06/2022 23:30:00Z	 SAID32 WIPP 042330	METAR WIPP 042330Z 00000KT 5000 BR FEW010 25/24 Q1009 NOSIG=
05/06/2022 00:00:00Z	 SAID32 WIPP 050000	METAR WIPP 050000Z 21003KT 5000 BR FEW010 25/24 Q1010 NOSIG=
05/06/2022 00:30:00Z	 SAID32 WIPP 050030	METAR WIPP 050030Z 23006KT 8000 FEW010 26/25 Q1010 NOSIG=
05/06/2022 01:00:00Z	 SAID32 WIPP 050100	METAR WIPP 050100Z 20002KT 9999 FEW010 27/25 Q1011 NOSIG=
05/06/2022 01:30:00Z	 SAID32 WIPP 050130	METAR WIPP 050130Z 18003KT 9999 FEW010 28/24 Q1011 NOSIG=
05/06/2022 02:00:00Z	 SAID32 WIPP 050200	METAR WIPP 050200Z 25004KT 9999 FEW010 29/25 Q1011 NOSIG=
05/06/2022 02:30:00Z	 SAID32 WIPP 050230	METAR WIPP 050230Z 17004KT 9999 FEW010 29/24 Q1011 NOSIG=
05/06/2022 03:00:00Z	 SAID32 WIPP 050300	METAR WIPP 050300Z 18005KT 9999 FEW010 30/24 Q1011 NOSIG=
05/06/2022 03:30:00Z	 SAID32 WIPP 050330	METAR WIPP 050330Z 16004KT 9999 FEW010 30/24 Q1010 NOSIG=
05/06/2022 04:00:00Z	 SAID32 WIPP 050400	METAR WIPP 050400Z 12003KT 9999 SCT010 30/24 Q1010 NOSIG=
05/06/2022 04:30:00Z	 SAID32 WIPP 050430	METAR WIPP 050430Z 19002KT 9999 SCT010 31/24 Q1009 NOSIG=
05/06/2022 05:00:00Z	 SAID32 WIPP 050500	METAR WIPP 050500Z 11005KT 9999 SCT010 31/24 Q1009 NOSIG=
05/06/2022 05:30:00Z	 SAID32 WIPP 050530	METAR WIPP 050530Z 11002KT 9999 SCT010 31/24 Q1008 NOSIG=
05/06/2022 06:00:00Z	 SAID32 WIPP 050600	METAR WIPP 050600Z 16003KT 9999 SCT010 31/23 Q1008 NOSIG=
05/06/2022 06:30:00Z	 SAID32 WIPP 050630	METAR WIPP 050630Z 19003KT 9999 SCT010 31/24 Q1007 NOSIG=
05/06/2022 07:00:00Z	 SAID32 WIPP 050700	METAR WIPP 050700Z 20004KT 9999 BKN010 32/23 Q1007 NOSIG=
05/06/2022 07:30:00Z	 SAID32 WIPP 050730	METAR WIPP 050730Z 14006KT 9999 BKN010 31/24 Q1007 NOSIG=
05/06/2022 08:00:00Z	 SAID32 WIPP 050800	METAR WIPP 050800Z 13005KT 9999 SCT010 32/23 Q1006 NOSIG=
05/06/2022 08:30:00Z	 SAID32 WIPP 050830	METAR WIPP 050830Z 14004KT 9999 SCT010 31/23 Q1007 NOSIG=
05/06/2022 09:00:00Z	 SAID32 WIPP 050900	METAR WIPP 050900Z 12007KT 9999 SCT010 32/23 Q1006 NOSIG=
05/06/2022 09:30:00Z	 SAID32 WIPP 050930	METAR WIPP 050930Z 12005KT 9999 SCT010 31/23 Q1007 NOSIG=
05/06/2022 10:00:00Z	 SAID32 WIPP 051000	METAR WIPP 051000Z 10007KT 9999 SCT010 31/23 Q1007 NOSIG=
05/06/2022 10:30:00Z	 SAID32 WIPP 051030	METAR WIPP 051030Z 10006KT 9999 FEW010 30/24 Q1007 NOSIG=
05/06/2022 11:00:00Z	 SAID32 WIPP 051100	METAR WIPP 051100Z 09007KT 9999 FEW010 30/24 Q1007 NOSIG=
05/06/2022 11:30:00Z	 SAID32 WIPP 051130	METAR WIPP 051130Z 04005KT 8000 FEW010 29/24 Q1008 NOSIG=
05/06/2022 12:00:00Z	 SAID32 WIPP 051200	METAR WIPP 051200Z 03005KT 9999 FEW010 28/24 Q1008 NOSIG=
05/06/2022 12:30:00Z	 SAID32 WIPP 051230	METAR WIPP 051230Z 01005KT 9999 FEW010 28/25 Q1009 NOSIG=
05/06/2022 13:00:00Z	 SAID32 WIPP 051300	METAR WIPP 051300Z 02002KT 9999 FEW010 27/24 Q1009 NOSIG=
05/06/2022 13:30:00Z	 SAID32 WIPP 051330	METAR WIPP 051330Z 05002KT 9999 FEW010 27/24 Q1009 NOSIG=
05/06/2022 14:00:00Z	 SAID32 WIPP 051400	METAR WIPP 051400Z 00000KT 9999 FEW010 27/24 Q1010 NOSIG=
05/06/2022 14:30:00Z	 SAID32 WIPP 051430	METAR WIPP 051430Z 00000KT 8000 FEW010 27/24 Q1010=
05/06/2022 15:00:00Z	 SAID32 WIPP 051500	METAR WIPP 051500Z 12002KT 7000 FEW010 26/24 Q1010=
05/06/2022 15:30:00Z	 SAID32 WIPP 051530	METAR WIPP 051530Z 04002KT 7000 FEW010 26/24 Q1010=
05/06/2022 16:00:00Z	 SAID32 WIPP 051600	METAR WIPP 051600Z 00000KT 6000 FEW010 26/24 Q1010=
05/06/2022 16:30:00Z	 SAID32 WIPP 051630	METAR WIPP 051630Z 29003KT 6000 FEW010 26/24 Q1010=
05/06/2022 17:00:00Z	 SAID32 WIPP 051700	METAR WIPP 051700Z 31002KT 6000 FEW010 26/24 Q1010=
05/06/2022 17:30:00Z	 SAID32 WIPP 051730	METAR WIPP 051730Z 00000KT 5000 HZ FEW010 26/24 Q1010=
05/06/2022 18:00:00Z	 SAID32 WIPP 051800	METAR WIPP 051800Z 09002KT 5000 HZ FEW010 26/24 Q1010=
05/06/2022 18:30:00Z	 SAID32 WIPP 051830	METAR WIPP 051830Z AUTO 00000KT 1200NDV R11/P2000N R29/P2000N BR VV005 24/24 Q1009=
05/06/2022 19:00:00Z	 SAID32 WIPP 051900	METAR WIPP 051900Z AUTO 00000KT 1400NDV R11/P2000N R29/P2000N BR NCD 24/24 Q1009=
05/06/2022 19:30:00Z	 SAID32 WIPP 051930	METAR WIPP 051930Z AUTO 00000KT 1100NDV R11/P2000N R29/P2000N BR VV005 24/24 Q1008=
05/06/2022 20:00:00Z	 SAID32 WIPP 052000	METAR WIPP 052000Z AUTO 26002KT 1400NDV R11/P2000N R29/P2000N BR OVC180 24/24 Q1008=
05/06/2022 20:30:00Z	 SAID32 WIPP 052030	METAR WIPP 052030Z AUTO 19003KT 1800NDV BR OVC180 24/24 Q1008=
05/06/2022 21:00:00Z	 SAID32 WIPP 052100	METAR WIPP 052100Z AUTO 00000KT 1100NDV R11/P2000N R29/P2000N BR OVC210 25/25 Q1008=
05/06/2022 21:30:00Z	 SAID32 WIPP 052130	METAR WIPP 052130Z 00000KT 3000 HZ SCT010 25/24 Q1008=
05/06/2022 22:00:00Z	 SAID32 WIPP 052200	METAR WIPP 052200Z 00000KT 3000 HZ SCT010 25/24 Q1008=
05/06/2022 22:30:00Z	 SAID32 WIPP 052230	METAR WIPP 052230Z 00000KT 3000 HZ SCT010 25/24 Q1008=
05/06/2022 23:00:00Z	 SAID32 WIPP 052300	METAR WIPP 052300Z 23002KT 1500 BR SCT010 25/24 Q1008=
05/06/2022 23:30:00Z	 SAID32 WIPP 052330	METAR WIPP 052330Z 24002KT 1000 BR SCT010 25/24 Q1008=
06/06/2022 00:00:00Z	 SAID32 WIPP 060000	METAR WIPP 060000Z 21003KT 0500 FG FEW010 25/24 Q1009=
06/06/2022 00:30:00Z	 SAID32 WIPP 060030	METAR WIPP 060030Z 23002KT 1000 BR FEW010 25/24 Q1009 REFG=
06/06/2022 01:00:00Z	 SAID32 WIPP 060100	METAR WIPP 060100Z 15002KT 5000 HZ FEW010 26/25 Q1009=
06/06/2022 01:30:00Z	 SAID32 WIPP 060130	METAR WIPP 060130Z 14006KT 7000 SCT010 28/25 Q1009 NOSIG=
06/06/2022 02:00:00Z	 SAID32 WIPP 060200	METAR WIPP 060200Z 12009KT 9000 SCT010 28/24 Q1010 NOSIG=
06/06/2022 02:30:00Z	 SAID32 WIPP 060230	METAR WIPP 060230Z 12006KT 9999 SCT010 29/24 Q1010 NOSIG=
06/06/2022 03:00:00Z	 SAID32 WIPP 060300	METAR WIPP 060300Z 13006KT 9999 SCT010 29/24 Q1010 NOSIG=
06/06/2022 03:30:00Z	 SAID32 WIPP 060330	METAR WIPP 060330Z 13009KT 9999 SCT010 29/23 Q1010 NOSIG=
06/06/2022 04:00:00Z	 SAID32 WIPP 060400	METAR WIPP 060400Z 14009KT 8000 SCT010 29/24 Q1010 NOSIG=
06/06/2022 04:30:00Z	 SAID32 WIPP 060430	METAR WIPP 060430Z 13006KT 8000 SCT010 23/24 Q1009 NOSIG=
06/06/2022 05:00:00Z	 SAID32 WIPP 060500	METAR WIPP 060500Z 12005KT 9999 SCT010 29/24 Q1009 NOSIG=
06/06/2022 05:30:00Z	 SAID32 WIPP 060530	METAR WIPP 060530Z 10007KT 9999 SCT010 29/24 Q1009 NOSIG=
06/06/2022 06:00:00Z	 SAID32 WIPP 060600	METAR WIPP 060600Z 13009KT 9999 SCT010 29/24 Q1008 NOSIG=
06/06/2022 06:30:00Z	 SAID32 WIPP 060630	METAR WIPP 060630Z 11012KT 9999 BKN010 29/23 Q1008 NOSIG=
06/06/2022 07:00:00Z	 SAID32 WIPP 060700	METAR WIPP 060700Z 11008KT 9999 SCT010 29/23 Q1007 NOSIG=
06/06/2022 07:30:00Z	 SAID32 WIPP 060730	METAR WIPP 060730Z 13008KT 9999 SCT010 29/23 Q1007 NOSIG=
06/06/2022 08:00:00Z	 SAID32 WIPP 060800	METAR WIPP 060800Z 13007KT 9999 SCT010 29/24 Q1007 NOSIG=
06/06/2022 08:30:00Z	 SAID32 WIPP 060830	METAR WIPP 060830Z 13007KT 9999 SCT010 29/24 Q1007 NOSIG=
06/06/2022 09:00:00Z	 SAID32 WIPP 060900	METAR WIPP 060900Z 08008KT 9999 SCT010 29/24 Q1006 NOSIG=
06/06/2022 09:30:00Z	 SAID32 WIPP 060930	METAR WIPP 060930Z 20006KT 9999 SCT010 29/24 Q1006 NOSIG=
06/06/2022 10:00:00Z	 SAID32 WIPP 061000	METAR WIPP 061000Z 10006KT 9999 SCT010 28/24 Q1007 NOSIG=
06/06/2022 10:30:00Z	 SAID32 WIPP 061030	METAR WIPP 061030Z 14004KT 9999 SCT010 28/24 Q1007 NOSIG=
06/06/2022 11:00:00Z	 SAID32 WIPP 061100	METAR WIPP 061100Z 16002KT 9999 FEW010 28/24 Q1007 NOSIG=
06/06/2022 11:30:00Z	 SAID32 WIPP 061130	METAR WIPP 061130Z 19003KT 9999 FEW010 27/24 Q1007 NOSIG=
06/06/2022 12:00:00Z	 SAID32 WIPP 061200	METAR WIPP 061200Z 20002KT 9999 FEW010 27/24 Q1007 NOSIG=
06/06/2022 12:30:00Z	 SAID32 WIPP 061230	METAR WIPP 061230Z 17002KT 8000 FEW010 27/24 Q1008 NOSIG=
06/06/2022 13:00:00Z	 SAID32 WIPP 061300	METAR WIPP 061300Z 11002KT 6000 FEW010 26/24 Q1008 NOSIG=
06/06/2022 13:30:00Z	 SAID32 WIPP 061330	METAR WIPP 061330Z 12004KT 8000 FEW010 26/24 Q1008 NOSIG=
06/06/2022 14:00:00Z	 SAID32 WIPP 061400	METAR WIPP 061400Z 11004KT 9999 SCT010 27/24 Q1009 NOSIG=
06/06/2022 14:30:00Z	 SAID32 WIPP 061430	METAR WIPP 061430Z 09003KT 7000 SCT010 27/24 Q1009 NOSIG=
06/06/2022 15:00:00Z	 SAID32 WIPP 061500	METAR WIPP 061500Z 08003KT 8000 FEW010 27/24 Q1009 NOSIG=
06/06/2022 15:30:00Z	 SAID32 WIPP 061530	METAR WIPP 061530Z 10003KT 8000 FEW010 26/24 Q1009 NOSIG=
06/06/2022 16:00:00Z	 SAID32 WIPP 061600	METAR WIPP 061600Z 07002KT 7000 FEW010 26/24 Q1010 NOSIG=
06/06/2022 16:30:00Z	 SAID32 WIPP 061630	METAR WIPP 061630Z 10002KT 6000 FEW010 26/24 Q1009 NOSIG=
06/06/2022 17:00:00Z	 SAID32 WIPP 061700	METAR WIPP 061700Z 14003KT 6000 FEW010 26/24 Q1009 NOSIG=
06/06/2022 17:30:00Z	 SAID32 WIPP 061730	METAR WIPP 061730Z AUTO 14003KT 9999NDV NCD 25/25 Q1009=
06/06/2022 18:00:00Z	 SAID32 WIPP 061800	METAR WIPP 061800Z AUTO 15003KT 9999NDV FEW200 25/25 Q1008=
06/06/2022 18:30:00Z	 SAID32 WIPP 061830	METAR WIPP 061830Z AUTO 00000KT 5000NDV NCD 25/25 Q1008=
06/06/2022 19:00:00Z	 SAID32 WIPP 061900	METAR WIPP 061900Z 00000KT 4000 HZ FEW010 25/24 Q1008=
06/06/2022 19:30:00Z	 SAID32 WIPP 061930	METAR WIPP 061930Z 24002KT 4000 HZ FEW010 25/24 Q1008=
06/06/2022 20:00:00Z	 SAID32 WIPP 062000	METAR WIPP 062000Z AUTO 23002KT 3000NDV BR OVC220 24/24 Q1007=
06/06/2022 20:30:00Z	 SAID32 WIPP 062030	METAR WIPP 062030Z AUTO 00000KT 1700NDV BR OVC220 24/24 Q1007=
06/06/2022 21:00:00Z	 SAID32 WIPP 062100	METAR WIPP 062100Z AUTO 00000KT 3100NDV BR OVC220 24/24 Q1007=
06/06/2022 21:30:00Z	 SAID32 WIPP 062130	METAR WIPP 062130Z 15002KT 3000 BR FEW010 25/24 Q1007=
06/06/2022 22:00:00Z	 SAID32 WIPP 062200	METAR WIPP 062200Z 00000KT 3000 BR FEW010 25/24 Q1007=
06/06/2022 22:30:00Z	 SAID32 WIPP 062230	METAR WIPP 062230Z 00000KT 3000 BR FEW010 25/24 Q1007=
06/06/2022 23:00:00Z	 SAID32 WIPP 062300	METAR WIPP 062300Z 00000KT 3000 BR SCT010 25/24 Q1008=
06/06/2022 23:30:00Z	 SAID32 WIPP 062330	METAR WIPP 062330Z 00000KT 2000 BR FEW010 25/24 Q1008=
07/06/2022 00:00:00Z	 SAID32 WIPP 070000	METAR WIPP 070000Z 00000KT 4000 BR FEW010 25/24 Q1008=
07/06/2022 00:30:00Z	 SAID32 WIPP 070030	METAR WIPP 070030Z 26002KT 5000 BR FEW010 26/25 Q1009=
07/06/2022 01:00:00Z	 SAID32 WIPP 070100	METAR WIPP 070100Z 20002KT 8000 FEW010 27/25 Q1009 NOSIG=
07/06/2022 01:30:00Z	 SAID32 WIPP 070130	METAR WIPP 070130Z 15006KT 9000 FEW010 28/25 Q1009 NOSIG=
07/06/2022 02:00:00Z	 SAID32 WIPP 070200	METAR WIPP 070200Z 13005KT 8000 SCT010 29/25 Q1009 NOSIG=
07/06/2022 02:30:00Z	 SAID32 WIPP 070230	METAR WIPP 070230Z 13006KT 9999 SCT010 30/24 Q1009 NOSIG=
07/06/2022 03:00:00Z	 SAID32 WIPP 070300	METAR WIPP 070300Z 13004KT 8000 SCT010 30/24 Q1008 NOSIG=
07/06/2022 03:30:00Z	 SAID32 WIPP 070330	METAR WIPP 070330Z 12007KT 9000 SCT010 31/24 Q1008 NOSIG=
07/06/2022 04:00:00Z	 SAID32 WIPP 070400	METAR WIPP 070400Z 12010KT 9999 BKN010 30/24 Q1008 NOSIG=
07/06/2022 04:30:00Z	 SAID32 WIPP 070430	METAR WIPP 070430Z 20004KT 9999 BKN010 32/24 Q1008 NOSIG=
07/06/2022 05:00:00Z	 SAID32 WIPP 070500	METAR WIPP 070500Z 12007KT 9999 BKN010 31/24 Q1008 NOSIG=
07/06/2022 05:30:00Z	 SAID32 WIPP 070530	METAR WIPP 070530Z 11008KT 9999 BKN010 32/24 Q1007 NOSIG=
07/06/2022 06:00:00Z	 SAID32 WIPP 070600	METAR WIPP 070600Z 10008KT 9999 FEWCB010 BKN012 32/23 Q1007 RMK CB TO E=
07/06/2022 06:30:00Z	 SAID32 WIPP 070630	METAR WIPP 070630Z 08009KT 9999 FEWCB010 BKN012 33/23 Q1007 RMK CB TO SE=
07/06/2022 07:00:00Z	 SAID32 WIPP 070700	METAR WIPP 070700Z 06009KT 9999 FEW010CB BKN012 33/23 Q1006 RMK CB TO SE AND S=
07/06/2022 07:30:00Z	 SAID32 WIPP 070730	METAR WIPP 070730Z 10004KT 9999 SCT010 33/22 Q1006 NOSIG=
07/06/2022 08:00:00Z	 SAID32 WIPP 070800	METAR WIPP 070800Z 16005KT 9999 BKN010 32/24 Q1006 NOSIG=
07/06/2022 08:30:00Z	 SAID32 WIPP 070830	METAR WIPP 070830Z 19003KT 9999 BKN010 31/24 Q1006 NOSIG=
07/06/2022 09:00:00Z	 SAID32 WIPP 070900	METAR WIPP 070900Z 00000KT 9999 FEW010CB SCT010 31/24 Q1006 RMK CB TO E=
07/06/2022 09:30:00Z	 SAID32 WIPP 070930	METAR WIPP 070930Z 10024G30KTKT 7000 FEW010CB SCT010 32/24 Q1006 RMK CB OVER THE FIELD=
07/06/2022 10:00:00Z	 SAID32 WIPP 071000	METAR WIPP 071000Z 01006KT 7000 -TSRA FEW010CB SCT010 29/25 Q1006 RMK CB TO SE=
07/06/2022 10:30:00Z	 SAID32 WIPP 071030	METAR WIPP 071030Z 13007KT 9999 FEW010CB BKN010 28/24 Q1006 RETS RMK CB TO SE AND SW=
07/06/2022 11:00:00Z	 SAID32 WIPP 071100	METAR WIPP 071100Z 14005KT 9999 BKN010 28/25 Q1007 NOSIG=
07/06/2022 11:30:00Z	 SAID32 WIPP 071130	METAR WIPP 071130Z 18002KT 9999 SCT010 27/25 Q1007 NOSIG=
07/06/2022 12:00:00Z	 SAID32 WIPP 071200	METAR WIPP 071200Z 07002KT 9999 SCT010 28/25 Q1008 NOSIG=
07/06/2022 12:30:00Z	 SAID32 WIPP 071230	METAR WIPP 071230Z 00000KT 8000 SCT010 28/25 Q1008 NOSIG=
07/06/2022 13:00:00Z	 SAID32 WIPP 071300	METAR WIPP 071300Z 06003KT 8000 SCT010 FEW012CB 27/25 Q1009 RMK CB TO SW=
07/06/2022 13:30:00Z	 SAID32 WIPP 071330	METAR WIPP 071330Z 10002KT 6000 SCT010 FEW012CB 27/25 Q1009 RMK CB TO SW=
07/06/2022 14:00:00Z	 SAID32 WIPP 071400	METAR WIPP 071400Z 00000KT 8000 SCT010 FEW012CB 27/25 Q1009 RMK CB TO SW=
07/06/2022 14:30:00Z	 SAID32 WIPP 071430	METAR WIPP 071430Z 00000KT 8000 SCT010 FEW012CB 27/25 Q1010 RMK CB TO SW=
07/06/2022 15:00:00Z	 SAID32 WIPP 071500	METAR WIPP 071500Z 14002KT 9999 SCT010 FEW012CB 27/25 Q1010 RMK CB TO SW=
07/06/2022 15:30:00Z	 SAID32 WIPP 071530	METAR WIPP 071530Z 15004KT 9999 SCT010 FEW012CB 27/25 Q1010 RMK CB TO SW=
07/06/2022 16:00:00Z	 SAID32 WIPP 071600	METAR WIPP 071600Z 17002KT 9999 SCT010 FEW012CB 27/25 Q1010 RMK CB TO S=
07/06/2022 16:30:00Z	 SAID32 WIPP 071630	METAR WIPP 071630Z 18003KT 9999 SCT010 FEW012CB 26/25 Q1010 RMK CB TO S=
07/06/2022 17:00:00Z	 SAID32 WIPP 071700	METAR WIPP 071700Z 17002KT 9999 SCT010 FEW012CB 26/25 Q1010 RMK CB TO S=
07/06/2022 17:30:00Z	 SAID32 WIPP 071730	METAR WIPP 071730Z 21002KT 9999 SCT010 FEW012CB 26/25 Q1009 RMK CB TO S=
07/06/2022 18:00:00Z	 SAID32 WIPP 071800	METAR WIPP 071800Z 25002KT 9999 SCT010 FEW012CB 26/25 Q1009 RMK CB TO S=
07/06/2022 18:30:00Z	 SAID32 WIPP 071830	METAR WIPP 071830Z 24002KT 9999 SCT010 FEW012CB 26/25 Q1009 RMK CB TO S=
07/06/2022 19:00:00Z	 SAID32 WIPP 071900	METAR WIPP 071900Z 23003KT 9999 SCT010 FEW012CB 26/24 Q1008 RMK CB TO SW=
07/06/2022 19:30:00Z	 SAID32 WIPP 071930	METAR WIPP 071930Z 19003KT 8000 SCT010 FEW012CB 25/24 Q1008 RMK CB TO SW=
07/06/2022 20:00:00Z	 SAID32 WIPP 072000	METAR WIPP 072000Z 22002KT 6000 SCT010 FEW012CB 25/24 Q1008 RMK CB TO SW=
07/06/2022 20:30:00Z	 SAID32 WIPP 072030	METAR WIPP 072030Z 22003KT 6000 SCT010 FEW012CB 25/24 Q1008 RMK CB TO SW=
07/06/2022 21:00:00Z	 SAID32 WIPP 072100	METAR WIPP 072100Z 23004KT 9999 SCT010 25/24 Q1009=
07/06/2022 21:30:00Z	 SAID32 WIPP 072130	METAR WIPP 072130Z 20002KT 9999 SCT010 25/24 Q1009=
07/06/2022 22:00:00Z	 SAID32 WIPP 072200	METAR WIPP 072200Z 18003KT 9999 SCT010 24/23 Q1009=
07/06/2022 22:30:00Z	 SAID32 WIPP 072230	METAR WIPP 072230Z 18002KT 6000 FEW010 24/23 Q1009=
07/06/2022 23:00:00Z	 SAID32 WIPP 072300	METAR WIPP 072300Z 00000KT 8000 FEW010 24/23 Q1009=
07/06/2022 23:30:00Z	 SAID32 WIPP 072330	METAR WIPP 072330Z 00000KT 9999 FEW010 24/23 Q1009 NOSIG=
08/06/2022 00:00:00Z	 SAID32 WIPP 080000	METAR WIPP 080000Z 13002KT 9999 FEW010 25/24 Q1009 NOSIG=
08/06/2022 00:30:00Z	 SAID32 WIPP 080030	METAR WIPP 080030Z 00000KT 9999 FEW010 25/24 Q1009 NOSIG=
08/06/2022 01:00:00Z	 SAID32 WIPP 080100	METAR WIPP 080100Z 11002KT 8000 FEW010 27/24 Q1010 NOSIG=
08/06/2022 01:30:00Z	 SAID32 WIPP 080130	METAR WIPP 080130Z 11002KT 9999 FEW010 28/24 Q1010 NOSIG=
08/06/2022 02:00:00Z	 SAID32 WIPP 080200	METAR WIPP 080200Z 08003KT 9999 FEW010 30/25 Q1010 NOSIG=
08/06/2022 02:30:00Z	 SAID32 WIPP 080230	METAR WIPP 080230Z 06005KT 9999 SCT010 30/25 Q1009 NOSIG=
08/06/2022 03:00:00Z	 SAID32 WIPP 080300	METAR WIPP 080300Z 12005KT 9999 SCT010 31/25 Q1009 NOSIG=
08/06/2022 03:30:00Z	 SAID32 WIPP 080330	METAR WIPP 080330Z 08006KT 9999 BKN010 31/24 Q1009 NOSIG=
08/06/2022 04:00:00Z	 SAID32 WIPP 080400	METAR WIPP 080400Z 09004KT 9999 BKN010 31/24 Q1009 NOSIG=
08/06/2022 04:30:00Z	 SAID32 WIPP 080430	METAR WIPP 080430Z 08003KT 9999 BKN010 32/23 Q1009 NOSIG=
08/06/2022 05:00:00Z	 SAID32 WIPP 080500	METAR WIPP 080500Z 16004KT 9999 BKN010 33/23 Q1008 NOSIG=
08/06/2022 05:30:00Z	 SAID32 WIPP 080530	METAR WIPP 080530Z 28006KT 9999 FEW010CB BKN012 33/24 Q1008 RMK CB TO E AND SE=
08/06/2022 06:00:00Z	 SAID32 WIPP 080600	METAR WIPP 080600Z 32005KT 9999 BKN010 32/24 Q1007 NOSIG=
08/06/2022 06:30:00Z	 SAID32 WIPP 080630	METAR WIPP 080630Z 30004KT 9999 FEW010CB BKN012 33/24 Q1006 RMK CB TO SE=
08/06/2022 07:00:00Z	 SAID32 WIPP 080700	METAR WIPP 080700Z 30006KT 9999 FEW010CB BKN012 33/23 Q1006 RMK CB TO E AND SE=
08/06/2022 07:30:00Z	 SAID32 WIPP 080730	METAR WIPP 080730Z 13002KT 9999 FEW010CB BKN012 33/23 Q1006 RMK CB TO SE=
08/06/2022 08:00:00Z	 SAID32 WIPP 080800	METAR WIPP 080800Z 13012KT 9999 FEW010CB BKN012 31/24 Q1005 RMK CB TO S=
08/06/2022 08:30:00Z	 SAID32 WIPP 080830	METAR WIPP 080830Z 16011KT 2000 RA FEW010CB BKN012 26/23 Q1007 RMK CB OVER THE FIELD=
08/06/2022 09:00:00Z	 SAID32 WIPP 080900	METAR WIPP 080900Z 28007KT 1000 RA FEW010CB BKN012 24/23 Q1007 RMK CB OVER THE FIELD=
08/06/2022 09:30:00Z	 SAID32 WIPP 080930	METAR WIPP 080930Z 33005KT 8000 HZ FEW010CB BKN012 25/24 Q1006 RMK RERA=
08/06/2022 10:00:00Z	 SAID32 WIPP 081000	METAR WIPP 081000Z 03002KT 7000 -RA FEW010CB BKN012 25/23 Q1007 RMK CB TO E=
08/06/2022 10:30:00Z	 SAID32 WIPP 081030	METAR WIPP 081030Z 11005KT 9999 RERA FEW010CB BKN012 25/24 Q1007 RMK CB TO E=
08/06/2022 11:00:00Z	 SAID32 WIPP 081100	METAR WIPP 081100Z 08003KT 9999 FEW010CB SCT012 25/24 Q1007 RMK CB TO E=
08/06/2022 11:30:00Z	 SAID32 WIPP 081130	METAR WIPP 081130Z 13002KT 9999 FEW010CB SCT012 25/24 Q1007 RMK CB TO NW=
08/06/2022 12:00:00Z	 SAID32 WIPP 081200	METAR WIPP 081200Z 00000KT 6000 FEW010CB SCT012 25/24 Q1008 RMK CB TO W=
08/06/2022 12:30:00Z	 SAID32 WIPP 081230	METAR WIPP 081230Z 09002KT 8000 FEW010CB SCT012 25/24 Q1008 RMK CB TO S=
08/06/2022 13:00:00Z	 SAID32 WIPP 081300	METAR WIPP 081300Z 00000KT 9000 BKN010 25/24 Q1009=
08/06/2022 13:30:00Z	 SAID32 WIPP 081330	METAR WIPP 081330Z 10002KT 9999 BKN010 25/24 Q1009 RERA=
08/06/2022 14:00:00Z	 SAID32 WIPP 081400	METAR WIPP 081400Z 12002KT 9999 BKN010 25/24 Q1010 NOSIG=
08/06/2022 14:30:00Z	 SAID32 WIPP 081430	METAR WIPP 081430Z 00000KT 9999 BKN010 25/24 Q1010 NOSIG=
08/06/2022 15:00:00Z	 SAID32 WIPP 081500	METAR WIPP 081500Z 12004KT 9999 SCT010 25/24 Q1010 NOSIG=
08/06/2022 15:30:00Z	 SAID32 WIPP 081530	METAR WIPP 081530Z 14003KT 9999 FEW010CB SCT010 25/24 Q1010 RMK CB TO S=
08/06/2022 16:00:00Z	 SAID32 WIPP 081600	METAR WIPP 081600Z 20002KT 8000 SCT010 25/24 Q1010 NOSIG=
08/06/2022 16:30:00Z	 SAID32 WIPP 081630	METAR WIPP 081630Z 19003KT 7000 SCT010 25/24 Q1010 NOSIG=
08/06/2022 17:00:00Z	 SAID32 WIPP 081700	METAR WIPP 081700Z 15002KT 7000 SCT010 25/24 Q1010 NOSIG=
08/06/2022 17:30:00Z	 SAID32 WIPP 081730	METAR WIPP 081730Z 14002KT 6000 SCT010 25/24 Q1009 NOSIG=
08/06/2022 18:00:00Z	 SAID32 WIPP 081800	METAR WIPP 081800Z 14002KT 6000 SCT010 25/24 Q1009 NOSIG=
08/06/2022 18:30:00Z	 SAID32 WIPP 081830	METAR WIPP 081830Z 05002KT 5000 BR SCT010 25/24 Q1008=
08/06/2022 19:00:00Z	 SAID32 WIPP 081900	METAR WIPP 081900Z 00000KT 4000 BR SCT010 25/24 Q1008=
08/06/2022 19:30:00Z	 SAID32 WIPP 081930	METAR WIPP 081930Z 25002KT 3000 BR SCT010 25/24 Q1008=
08/06/2022 20:00:00Z	 SAID32 WIPP 082000	METAR WIPP 082000Z 00000KT 2000 BR SCT010 25/24 Q1008=
08/06/2022 20:30:00Z	 SAID32 WIPP 082030	METAR WIPP 082030Z 21002KT 2000 BR SCT010 25/24 Q1008=
08/06/2022 21:00:00Z	 SAID32 WIPP 082100	METAR WIPP 082100Z 16002KT 2000 BR SCT010 24/24 Q1008=
08/06/2022 21:30:00Z	 SAID32 WIPP 082130	METAR WIPP 082130Z 22002KT 2000 BR SCT010 24/24 Q1008=
08/06/2022 22:00:00Z	 SAID32 WIPP 082200	METAR WIPP 082200Z 17002KT 2000 BR SCT010 24/24 Q1008=
08/06/2022 22:30:00Z	 SAID32 WIPP 082230	METAR WIPP 082230Z 17002KT 4000 BR SCT010 24/24 Q1009=
08/06/2022 23:00:00Z	 SAID32 WIPP 082300	METAR WIPP 082300Z 17002KT 3000 BR SCT010 24/24 Q1009=
08/06/2022 23:30:00Z	 SAID32 WIPP 082330	METAR WIPP 082330Z 21003KT 2000 BR SCT010 24/24 Q1009=
09/06/2022 00:00:00Z	 SAID32 WIPP 090000	METAR WIPP 090000Z 21002KT 4000 BR FEW010 24/24 Q1009=
09/06/2022 00:30:00Z	 SAID32 WIPP 090030	METAR WIPP 090030Z 14002KT 8000 FEW010 25/24 Q1010 NOSIG=
09/06/2022 01:00:00Z	 SAID32 WIPP 090100	METAR WIPP 090100Z 14003KT 9999 FEW010 26/25 Q1010 NOSIG=
09/06/2022 01:30:00Z	 SAID32 WIPP 090130	METAR WIPP 090130Z 19004KT 9999 FEW010 27/25 Q1011 NOSIG=
09/06/2022 02:00:00Z	 SAID32 WIPP 090200	METAR WIPP 090200Z 15004KT 9999 FEW010 28/25 Q1011 NOSIG=
09/06/2022 02:30:00Z	 SAID32 WIPP 090230	METAR WIPP 090230Z 15005KT 9999 FEW010CB SCT012 29/25 Q1011 RMK CB TO NW=
09/06/2022 03:00:00Z	 SAID32 WIPP 090300	METAR WIPP 090300Z 15007KT 9999 SCT010 29/25 Q1010 NOSIG=
09/06/2022 03:30:00Z	 SAID32 WIPP 090330	METAR WIPP 090330Z 12005KT 9999 BKN010 29/24 Q1010 NOSIG=
09/06/2022 04:00:00Z	 SAID32 WIPP 090400	METAR WIPP 090400Z 12008KT 9999 FEW010CB BKN012 30/24 Q1010 RMK CB TO NW=
09/06/2022 04:30:00Z	 SAID32 WIPP 090430	METAR WIPP 090430Z 16006KT 9999 FEW010CB BKN012 30/24 Q10009 TEMPO FM0440 TL0515 32015G25KT 3000 +TSRA RMK CB TO E AND NW=
09/06/2022 05:00:00Z	 SAID32 WIPP 090500	METAR WIPP 090500Z 06005KT 9999 FEW010CB BKN012 30/24 Q1009 RMK CB TO E AND NW=
09/06/2022 05:30:00Z	 SAID32 WIPP 090530	METAR WIPP 090530Z 07005KT 9999 FEW010CB BKN012 30/24 Q1009 TEMPO FM0545 TL0620 12015G25KT 3000 +TSRA RMK CB TO NE AND E=
09/06/2022 06:00:00Z	 SAID32 WIPP 090600	METAR WIPP 090600Z 09015KT 9999 FEW010CB BKN012 29/24 Q1009 RMK CB OVER THE FIELD=
09/06/2022 06:30:00Z	 SAID32 WIPP 090630	METAR WIPP 090630Z 08008KT 5000 -RA FEW010CB BKN012 26/24 Q1009 TEMPO TL0715 3000 +RA RMK CB OVER THE FIELD=
09/06/2022 07:00:00Z	 SAID32 WIPP 090700	METAR WIPP 090700Z 05009KT 5000 -RA FEW010CB BKN012 25/23 Q1009 RMK CB OVER THE FIELD=
09/06/2022 07:30:00Z	 SAID32 WIPP 090730	METAR WIPP 090730Z 04009KT 2000 TSRA FEW010CB BKN012 24/23 Q1009 RMK CB OVER THE FIELD=
09/06/2022 08:00:00Z	 SAID32 WIPP 090800	METAR WIPP 090800Z 03009KT 2500 TSRA FEW010CB BKN012 24/23 Q1009 RMK CB OVER THE FIELD=
09/06/2022 08:30:00Z	 SAID32 WIPP 090830	METAR WIPP 090830Z 02003KT 3500 -RA FEW010CB BKN012 28/23 Q1009 RETS RMK CB OVER THE FIELD=
09/06/2022 09:00:00Z	 SAID32 WIPP 090900	METAR WIPP 090900Z 30007KT 4000 -RA FEW010CB BKN012 23/23 Q1010 RMK CB OVER THE FIELD=
09/06/2022 09:30:00Z	 SAID32 WIPP 090930	METAR WIPP 090930Z 27004KT 4000 -RA FEW010CB BKN012 23/23 Q1010 RMK CB OVER THE FIELD=
09/06/2022 10:00:00Z	 SAID32 WIPP 091000	METAR WIPP 091000Z 26003KT 2000 -RA FEW010CB BKN012 23/22 Q1009 RMK CB OVER THE FIELD=
09/06/2022 10:30:00Z	 SAID32 WIPP 091030	METAR WIPP 091030Z 23003KT 3000 -RA FEW010CB BKN012 23/23 Q1009 RMK CB OVER THE FIELD=
09/06/2022 11:00:00Z	 SAID32 WIPP 091100	METAR WIPP 091100Z 23003KT 4000 HZ FEW010CB BKN012 23/22 Q1009 RERA RMK CB TO SW=
09/06/2022 11:30:00Z	 SAID32 WIPP 091130	METAR WIPP 091130Z 00000KT 5000 HZ BKN010 23/23 Q1009=
09/06/2022 12:00:00Z	 SAID32 WIPP 091200	METAR WIPP 091200Z 23002KT 4000 HZ SCT010 23/23 Q1009=
09/06/2022 12:30:00Z	 SAID32 WIPP 091230	METAR WIPP 091230Z 18002KT 5000 HZ SCT010 24/23 Q1010=
09/06/2022 13:00:00Z	 SAID32 WIPP 091300	METAR WIPP 091300Z 23005KT 5000 BR SCT010 24/23 Q1010=
09/06/2022 13:30:00Z	 SAID32 WIPP 091330	METAR WIPP 091330Z 23002KT 5000 BR SCT010 24/23 Q1011=
09/06/2022 14:00:00Z	 SAID32 WIPP 091400	METAR WIPP 091400Z 25004KT 5000 BR SCT010 24/23 Q1011=
09/06/2022 14:30:00Z	 SAID32 WIPP 091430	METAR WIPP 091430Z 24005KT 5000 -RA SCT010 24/23 Q1012=
09/06/2022 15:00:00Z	 SAID32 WIPP 091500	METAR WIPP 091500Z 22003KT 5000 RERA SCT010 24/23 Q1011=
09/06/2022 15:30:00Z	 SAID32 WIPP 091530	METAR WIPP 091530Z 22005KT 5000 BR SCT010 24/23 Q1011=
09/06/2022 16:00:00Z	 SAID32 WIPP 091600	METAR WIPP 091600Z 24006KT 5000 BR SCT010 24/23 Q1011=
09/06/2022 16:30:00Z	 SAID32 WIPP 091630	METAR WIPP 091630Z 22004KT 5000 BR SCT010 23/23 Q1011=
09/06/2022 17:00:00Z	 SAID32 WIPP 091700	METAR WIPP 091700Z 24003KT 5000 BR SCT010 23/23 Q1010=
09/06/2022 17:30:00Z	 SAID32 WIPP 091730	METAR WIPP 091730Z 20003KT 5000 BR SCT010 23/23 Q1010=
09/06/2022 18:00:00Z	 SAID32 WIPP 091800	METAR WIPP 091800Z 00000KT 5000 BR SCT010 23/22 Q1009=
09/06/2022 18:30:00Z	 SAID32 WIPP 091830	METAR WIPP 091830Z AUTO VRB02KT 5000NDV SCT170 BKN190 BKN220 23/23 Q1009=
09/06/2022 19:00:00Z	 SAID32 WIPP 091900	METAR WIPP 091900Z AUTO VRB02KT 1500NDV R11/P2000N R29/P2000N BR BKN160 BKN210 OVC230 23/23 Q1008=
09/06/2022 19:30:00Z	 SAID32 WIPP 091930	METAR WIPP 091930Z AUTO VRB02KT 1500NDV R11/P2000N R29/P2000N BR OVC170 23/23 Q1008=
09/06/2022 20:00:00Z	 SAID32 WIPP 092000	METAR WIPP 092000Z AUTO 00000KT 4200NDV BR FEW005 BKN160 OVC180 23/23 Q1008=
09/06/2022 20:30:00Z	 SAID32 WIPP 092030	METAR WIPP 092030Z AUTO 00000KT 1700NDV BR FEW050 OVC170 23/23 Q1008=
09/06/2022 21:00:00Z	 SAID32 WIPP 092100	METAR WIPP 092100Z AUTO VRB02KT 2100NDV BR OVC170 23/23 Q1007=
09/06/2022 21:30:00Z	 SAID32 WIPP 092130	METAR WIPP 092130Z AUTO 00000KT 3500NDV BR FEW160 OVC200 23/23 Q1008=
09/06/2022 22:00:00Z	 SAID32 WIPP 092200	METAR WIPP 092200Z 00000KT 6000 BR FEW010 23/22 Q1008=
09/06/2022 22:30:00Z	 SAID32 WIPP 092230	METAR WIPP 092230Z 13002KT 6000 BR FEW010 23/22 Q1008=
10/06/2022 01:00:00Z	 SAID32 WIPP 100100	METAR WIPP 100100Z 11002KT 9999 FEW010 26/24 Q1009 NOSIG=
10/06/2022 01:30:00Z	 SAID32 WIPP 100130	METAR WIPP 100130Z 08003KT 9999 FEW010 26/24 Q1009 NOSIG=
10/06/2022 02:00:00Z	 SAID32 WIPP 100200	METAR WIPP 100200Z 09002KT 9999 FEW010 28/24 Q1009 NOSIG=
10/06/2022 02:30:00Z	 SAID32 WIPP 100230	METAR WIPP 100230Z 10004KT 9999 FEW010 28/24 Q1009 NOSIG=
10/06/2022 03:00:00Z	 SAID32 WIPP 100300	METAR WIPP 100300Z 08008KT 9999 FEW010 29/23 Q1009 NOSIG=
10/06/2022 03:30:00Z	 SAID32 WIPP 100330	METAR WIPP 100330Z 10009KT 9999 FEW010 30/23 Q1009 NOSIG=
10/06/2022 04:00:00Z	 SAID32 WIPP 100400	METAR WIPP 100400Z 10010KT 9999 FEW010 30/23 Q1009 NOSIG=
10/06/2022 04:30:00Z	 SAID32 WIPP 100430	METAR WIPP 100430Z 11007KT 9999 SCT010 31/23 Q1008 NOSIG=
10/06/2022 05:00:00Z	 SAID32 WIPP 100500	METAR WIPP 100500Z 09008KT 9999 SCT010 31/23 Q1008 NOSIG=
10/06/2022 05:30:00Z	 SAID32 WIPP 100530	METAR WIPP 100530Z 11007KT 9999 BNK010 31/23 Q1008 NOSIG=
10/06/2022 06:00:00Z	 SAID32 WIPP 100600	METAR WIPP 100600Z 08006KT 9999 BNK010 32/22 Q1007 NOSIG=
10/06/2022 06:30:00Z	 SAID32 WIPP 100630	METAR WIPP 100630Z 15002KT 9999 BKN010 32/23 Q1007 NOSIG=
10/06/2022 07:00:00Z	 SAID32 WIPP 100700	METAR WIPP 100700Z 12002KT 9999 BKN010 33/24 Q1007 NOSIG=
10/06/2022 07:30:00Z	 SAID32 WIPP 100730	METAR WIPP 100730Z 23004KT 9999 BKN010 31/24 Q1006 NOSIG=
10/06/2022 08:00:00Z	 SAID32 WIPP 100800	METAR WIPP 100800Z 25003KT 9999 BKN010 31/23 Q1006 NOSIG=
10/06/2022 08:30:00Z	 SAID32 WIPP 100830	METAR WIPP 100830Z 18002KT 9999 BKN010 FEW012CB 32/22 Q1006 RMK CB TO E=
10/06/2022 09:00:00Z	 SAID32 WIPP 100900	METAR WIPP 100900Z 11006KT 9999 BKN010 FEW012CB 32/23 Q1006 RMK CB TO E=
10/06/2022 09:30:00Z	 SAID32 WIPP 100930	METAR WIPP 100930Z 09003KT 9999 BKN010 FEW012CB 31/23 Q1006 RMK CB TO E=
10/06/2022 10:00:00Z	 SAID32 WIPP 101000	METAR WIPP 101000Z 08002KT 9999 BKN010 FEW012CB 31/23 Q1006 RMK CB TO SE=
10/06/2022 10:30:00Z	 SAID32 WIPP 101030	METAR WIPP 101030Z 06003KT 9999 BKN010 FEW012CB 31/23 Q1006 RMK CB TO SE=
10/06/2022 11:00:00Z	 SAID32 WIPP 101100	METAR WIPP 101100Z 11004KT 9999 SCT010 FEW012CB 31/23 Q1007 RMK CB TO SE AND NE=
10/06/2022 11:30:00Z	 SAID32 WIPP 101130	METAR WIPP 101130Z 14005KT 9999 SCT010 FEW012CB 29/24 Q1007 RMK CB TO NE=
10/06/2022 12:00:00Z	 SAID32 WIPP 101200	METAR WIPP 101200Z 12003KT 9999 SCT010 FEW012CB 28/24 Q1008 RMK CB TO NE=
10/06/2022 12:30:00Z	 SAID32 WIPP 101230	METAR WIPP 101230Z 09003KT 9999 SCT010 FEW012CB 28/24 Q1008 RMK CB TO NE=
10/06/2022 13:00:00Z	 SAID32 WIPP 101300	METAR WIPP 101300Z 00000KT 9999 FEW010CB SCT012 28/24 Q1009 RMK CB TO NE=
10/06/2022 13:30:00Z	 SAID32 WIPP 101330	METAR WIPP 101330Z 10003KT 9999 SCT010 27/24 Q1009 NOSIG=
10/06/2022 14:00:00Z	 SAID32 WIPP 101400	METAR WIPP 101400Z 09002KT 9999 SCT010 27/24 Q1009 NOSIG=
10/06/2022 14:30:00Z	 SAID32 WIPP 101430	METAR WIPP 101430Z 10004KT 9999 SCT010 27/24 Q1010 NOSIG=
10/06/2022 15:00:00Z	 SAID32 WIPP 101500	METAR WIPP 101500Z 15002KT 9999 SCT010 26/24 Q1010 NOSIG=
10/06/2022 15:30:00Z	 SAID32 WIPP 101530	METAR WIPP 101530Z 13002KT 9999 SCT010 26/24 Q1010 NOSIG=
10/06/2022 16:00:00Z	 SAID32 WIPP 101600	METAR WIPP 101600Z 00000KT 9999 SCT010 26/24 Q1010 NOSIG=
10/06/2022 16:30:00Z	 SAID32 WIPP 101630	METAR WIPP 101630Z 18002KT 9999 SCT010 26/24 Q1010 NOSIG=
10/06/2022 17:00:00Z	 SAID32 WIPP 101700	METAR WIPP 101700Z 07002KT 9999 FEW010 26/24 Q1010 NOSIG=
10/06/2022 17:30:00Z	 SAID32 WIPP 101730	METAR WIPP 101730Z 27002KT 9999 FEW010 26/24 Q1010 NOSIG=
10/06/2022 18:00:00Z	 SAID32 WIPP 101800	METAR WIPP 101800Z 11002KT 9999 FEW010 26/24 Q1009 NOSIG=
10/06/2022 18:30:00Z	 SAID32 WIPP 101830	METAR WIPP 101830Z AUTO 00000KT 6000NDV FEW060 24/24 Q1009=
10/06/2022 19:00:00Z	 SAID32 WIPP 101900	METAR WIPP 101900Z AUTO 12002KT 3900NDV BR NCD 24/24 Q1008=
10/06/2022 19:30:00Z	 SAID32 WIPP 101930	METAR WIPP 101930Z AUTO VRB02KT 3500NDV BR SCT044 24/24 Q1008=
10/06/2022 20:00:00Z	 SAID32 WIPP 102000	METAR WIPP 102000Z AUTO 00000KT 3900NDV BR BKN045 OVC050 24/24 Q1008=
10/06/2022 20:30:00Z	 SAID32 WIPP 102030	METAR WIPP 102030Z AUTO VRB02KT 3700NDV BR BKN048 25/25 Q1008=
10/06/2022 21:00:00Z	 SAID32 WIPP 102100	METAR WIPP 102100Z AUTO VRB02KT 3200NDV BR NCD 24/24 Q1008=
10/06/2022 21:30:00Z	 SAID32 WIPP 102130	METAR WIPP 102130Z 21002KT 6000 FEW010 24/23 Q1008=
10/06/2022 22:00:00Z	 SAID32 WIPP 102200	METAR WIPP 102200Z 19002KT 6000 FEW010 24/23 Q1008=
10/06/2022 22:30:00Z	 SAID32 WIPP 102230	METAR WIPP 102230Z 00000KT 8000 FEW010 24/23 Q1008=
10/06/2022 23:00:00Z	 SAID32 WIPP 102300	METAR WIPP 102300Z 00000KT 9000 FEW010 24/23 Q1009=
10/06/2022 23:30:00Z	 SAID32 WIPP 102330	METAR WIPP 102330Z 00000KT 7000 FEW010 24/23 Q1009=
11/06/2022 00:00:00Z	 SAID32 WIPP 110000	METAR WIPP 110000Z 00000KT 7000 FEW010 25/24 Q1009=
11/06/2022 00:30:00Z	 SAID32 WIPP 110030	METAR WIPP 110030Z 23003KT 9999 FEW010 26/24 Q1010 NOSIG=
11/06/2022 01:00:00Z	 SAID32 WIPP 110100	METAR WIPP 110100Z 22002KT 9999 FEW010 27/24 Q1010 NOSIG=
11/06/2022 01:30:00Z	 SAID32 WIPP 110130	METAR WIPP 110130Z 15002KT 9999 FEW010 28/25 Q1010 NOSIG=
11/06/2022 02:00:00Z	 SAID32 WIPP 110200	METAR WIPP 110200Z 13005KT 9999 FEW010 29/25 Q1010 NOSIG=
11/06/2022 02:30:00Z	 SAID32 WIPP 110230	METAR WIPP 110230Z 12004KT 9999 FEW010 29/25 Q1010 NOSIG=
11/06/2022 03:00:00Z	 SAID32 WIPP 110300	METAR WIPP 110300Z 14004KT 9999 FEW010 30/24 Q1010 NOSIG=
11/06/2022 03:30:00Z	 SAID32 WIPP 110330	METAR WIPP 110330Z 12006KT 9999 SCT010 30/24 Q1010 NOSIG=
11/06/2022 04:00:00Z	 SAID32 WIPP 110400	METAR WIPP 110400Z 16003KT 9999 SCT010 31/24 Q1010 NOSIG=
11/06/2022 04:30:00Z	 SAID32 WIPP 110430	METAR WIPP 110430Z 14005KT 9999 SCT010 31/24 Q1009 NOSIG=
11/06/2022 05:00:00Z	 SAID32 WIPP 110500	METAR WIPP 110500Z 15005KT 9999 SCT010 32/23 Q1009 NOSIG=
11/06/2022 05:30:00Z	 SAID32 WIPP 110530	METAR WIPP 110530Z 18006KT 9999 SCT010 31/23 Q1008 NOSIG=
11/06/2022 06:00:00Z	 SAID32 WIPP 110600	METAR WIPP 110600Z 13006KT 9999 SCT010 32/23 Q1008 NOSIG=
11/06/2022 06:30:00Z	 SAID32 WIPP 110630	METAR WIPP 110630Z 20003KT 9999 SCT010 32/24 Q1007 NOSIG=
11/06/2022 07:00:00Z	 SAID32 WIPP 110700	METAR WIPP 110700Z 24002KT 9999 SCT010 33/23 Q1006 NOSIG=
11/06/2022 07:30:00Z	 SAID32 WIPP 110730	METAR WIPP 110730Z 23004KT 9999 SCT010 33/23 Q1006 NOSIG=
11/06/2022 08:00:00Z	 SAID32 WIPP 110800	METAR WIPP 110800Z 07002KT 9999 FEW010CB SCT010 33/22 Q1006 RMK CB TO E AND SE=
11/06/2022 08:30:00Z	 SAID32 WIPP 110830	METAR WIPP 110830Z 10020KT 2000 -TSRA FEW010CB BKN010 30/26 Q1007 TEMPO FM0835 10007G25KT 3000 TSRA RMK CB OVER THE FIELD=
11/06/2022 09:00:00Z	 SAID32 WIPP 110900	METAR WIPP 110900Z 07010KT 2000 TSRA FEW010CB BKN010 26/24 Q1007 RMK CB OVER THE FIELD=
11/06/2022 09:30:00Z	 SAID32 WIPP 110930	METAR WIPP 110930Z 10007KT 8000 BKN010 27/25 Q1007 RERA=
11/06/2022 10:00:00Z	 SAID32 WIPP 111000	METAR WIPP 111000Z 12005KT 9999 BKN010 27/24 Q1007 NOSIG=
11/06/2022 10:30:00Z	 SAID32 WIPP 111030	METAR WIPP 111030Z 07004KT 9999 SCT010 27/24 Q1007 NOSIG=
11/06/2022 11:00:00Z	 SAID32 WIPP 111100	METAR WIPP 111100Z 00000KT 9999 SCT010 27/24 Q1008 NOSIG=
11/06/2022 11:30:00Z	 SAID32 WIPP 111130	METAR WIPP 111130Z 00000KT 9999 SCT010 26/24 Q1008 NOSIG=
11/06/2022 12:00:00Z	 SAID32 WIPP 111200	METAR WIPP 111200Z 34006KT 9999 SCT010 26/25 Q1009 NOSIG=
11/06/2022 12:30:00Z	 SAID32 WIPP 111230	METAR WIPP 111230Z 31005KT 9999 SCT010 26/24 Q1009 NOSIG=
11/06/2022 13:00:00Z	 SAID32 WIPP 111300	METAR WIPP 111300Z 32003KT 9999 SCT010 26/24 Q1010 NOSIG=
11/06/2022 13:30:00Z	 SAID32 WIPP 111330	METAR WIPP 111330Z 35002KT 6000 SCT010 26/24 Q1010 NOSIG=
11/06/2022 14:00:00Z	 SAID32 WIPP 111400	METAR WIPP 111400Z 27002KT 6000 SCT010 26/24 Q1011 NOSIG=
11/06/2022 14:30:00Z	 SAID32 WIPP 111430	METAR WIPP 111430Z 30002KT 6000 SCT010 26/24 Q1011 NOSIG=
11/06/2022 15:00:00Z	 SAID32 WIPP 111500	METAR WIPP 111500Z 20002KT 5000 HZ SCT010 26/24 Q1011=
11/06/2022 15:30:00Z	 SAID32 WIPP 111530	METAR WIPP 111530Z 03003KT 5000 HZ SCT010 26/24 Q1011=
11/06/2022 16:00:00Z	 SAID32 WIPP 111600	METAR WIPP 111600Z 00000KT 5000 HZ SCT010 26/24 Q1011=
11/06/2022 16:30:00Z	 SAID32 WIPP 111630	METAR WIPP 111630Z 13002KT 4000 HZ SCT010 26/25 Q1011=
11/06/2022 17:00:00Z	 SAID32 WIPP 111700	METAR WIPP 111700Z 24003KT 5000 HZ SCT010 26/25 Q1011=
11/06/2022 17:30:00Z	 SAID32 WIPP 111730	METAR WIPP 111730Z 24004KT 9999 SCT010 25/24 Q1011=
11/06/2022 18:00:00Z	 SAID32 WIPP 111800	METAR WIPP 111800Z 25005KT 9999 BKN010 25/24 Q1010=
11/06/2022 18:30:00Z	 SAID32 WIPP 111830	METAR WIPP 111830Z 23002KT 9999 BKN010 25/24 Q1010=
11/06/2022 19:00:00Z	 SAID32 WIPP 111900	METAR WIPP 111900Z 22004KT 9999 BKN010 25/23 Q1010=
11/06/2022 19:30:00Z	 SAID32 WIPP 111930	METAR WIPP 111930Z 23003KT 9999 BKN010 25/24 Q1010=
11/06/2022 20:00:00Z	 SAID32 WIPP 112000	METAR WIPP 112000Z 23003KT 6000 -RA BKN010 FEW012CB 25/24 Q1009 RMK CB TO W=
11/06/2022 20:30:00Z	 SAID32 WIPP 112030	METAR WIPP 112030Z 23003KT 6000 -RA BKN010 FEW012CB 25/24 Q1009 RMK CB TO W=
11/06/2022 21:00:00Z	 SAID32 WIPP 112100	METAR WIPP 112100Z 22004KT 6000 SCT010 FEW012CB 24/23 Q1009 RMK CB TO SW=
11/06/2022 21:30:00Z	 SAID32 WIPP 112130	METAR WIPP 112130Z 21004KT 6000 SCT010 24/23 Q1010=
11/06/2022 22:00:00Z	 SAID32 WIPP 112200	METAR WIPP 112200Z 22003KT 6000 SCT010 24/23 Q1010=
11/06/2022 22:30:00Z	 SAID32 WIPP 112230	METAR WIPP 112230Z 21003KT 5000 BR SCT010 24/23 Q1009=
11/06/2022 23:00:00Z	 SAID32 WIPP 112300	METAR WIPP 112300Z 20005KT 5000 BR FEW010 24/23 Q1009=
11/06/2022 23:30:00Z	 SAID32 WIPP 112330	METAR WIPP 112330Z 22002KT 4000 BR FEW010 24/23 Q1010=
12/06/2022 01:00:00Z	 SAID32 WIPP 120100	METAR WIPP 120100Z 18003KT 8000 SCT010 25/24 Q1010 NOSIG=
12/06/2022 01:30:00Z	 SAID32 WIPP 120130	METAR WIPP 120130Z 20003KT 9999 SCT010 26/24 Q1011 NOSIG=
12/06/2022 02:00:00Z	 SAID32 WIPP 120200	METAR WIPP 120200Z 19002KT 9999 SCT010 27/24 Q1011 NOSIG=
12/06/2022 02:30:00Z	 SAID32 WIPP 120230	METAR WIPP 120230Z 23003KT 9999 FEW010 27/24 Q1011 NOSIG=
12/06/2022 03:00:00Z	 SAID32 WIPP 120300	METAR WIPP 120300Z 22005KT 9999 FEW010 29/24 Q1011 NOSIG=
12/06/2022 03:30:00Z	 SAID32 WIPP 120330	METAR WIPP 120330Z 18003KT 9999 FEW010 29/24 Q1011 NOSIG=
12/06/2022 04:00:00Z	 SAID32 WIPP 120400	METAR WIPP 120400Z 19004KT 9999 SCT010 30/24 Q1011 NOSIG=
12/06/2022 04:30:00Z	 SAID32 WIPP 120430	METAR WIPP 120430Z 20005KT 9999 SCT010 30/24 Q1010 NOSIG=
12/06/2022 05:00:00Z	 SAID32 WIPP 120500	METAR WIPP 120500Z 14006KT 9999 SCT010 30/25 Q1010 NOSIG=
12/06/2022 05:30:00Z	 SAID32 WIPP 120530	METAR WIPP 120530Z 21005KT 9999 SCT010 31/24 Q1009 NOSIG=
12/06/2022 06:00:00Z	 SAID32 WIPP 120600	METAR WIPP 120600Z 18003KT 9999 SCT010 31/24 Q1008 NOSIG=
12/06/2022 06:30:00Z	 SAID32 WIPP 120630	METAR WIPP 120630Z 21005KT 9999 SCT010 32/24 Q1008 NOSIG=
12/06/2022 07:00:00Z	 SAID32 WIPP 120700	METAR WIPP 120700Z 16002KT 9999 FEW010 32/24 Q1007 NOSIG=
12/06/2022 07:30:00Z	 SAID32 WIPP 120730	METAR WIPP 120730Z 22004KT 9999 SCT010 32/23 Q1006 NOSIG=
12/06/2022 08:00:00Z	 SAID32 WIPP 120800	METAR WIPP 120800Z 33003KT 9999 SCT010 32/23 Q1006 NOSIG=
12/06/2022 08:30:00Z	 SAID32 WIPP 120830	METAR WIPP 120830Z 05005KT 9999 SCT010 33/24 Q1007 NOSIG=
12/06/2022 09:00:00Z	 SAID32 WIPP 120900	METAR WIPP 120900Z 04005KT 9999 FEW010CB BKN010 32/24 Q1007 TEMPO 5000 RA FEW010CB RMK CB TO W=
12/06/2022 09:30:00Z	 SAID32 WIPP 120930	METAR WIPP 120930Z 31011KT 9999 FEW010CB BKN010 29/23 Q1007 RMK CB TO NE AND NW=
12/06/2022 10:00:00Z	 SAID32 WIPP 121000	METAR WIPP 121000Z 08016KT 3000 +TSRA FEW010CB BKN010 26/23 Q1008 RMK CB OVER THE FIELD=
12/06/2022 10:30:00Z	 SAID32 WIPP 121030	METAR WIPP 121030Z 27004KT 3000 TSRA FEW010CB BKN010 24/23 Q1008 RMK CB TO SW=
12/06/2022 11:00:00Z	 SAID32 WIPP 121100	METAR WIPP 121100Z 34004KT 8000 FEW010CB BKN010 25/24 Q1008 RMK CB TO SW AND NW=
12/06/2022 11:30:00Z	 SAID32 WIPP 121130	METAR WIPP 121130Z 10003KT 9999 FEW010CB BKN010 25/24 Q1008 RMK CB TO SW AND NW=
12/06/2022 12:00:00Z	 SAID32 WIPP 121200	METAR WIPP 121200Z 05004KT 9999 FEW010CB BKN010 25/24 Q1009 RMK CB TO SW AND NW=
12/06/2022 12:30:00Z	 SAID32 WIPP 121230	METAR WIPP 121230Z 22003KT 7000 FEW010CB BKN010 26/24 Q1009 RMK CB TO SW AND W=
12/06/2022 13:00:00Z	 SAID32 WIPP 121300	METAR WIPP 121300Z 32009KT 7000 FEW010CB BKN010 26/24 Q1010 RMK CB TO W=
12/06/2022 13:30:00Z	 SAID32 WIPP 121330	METAR WIPP 121330Z 33007KT 8000 FEW010CB BKN010 25/23 Q1011 RMK CB TO W AND E=
12/06/2022 14:00:00Z	 SAID32 WIPP 121400	METAR WIPP 121400Z 09005KT 2000 RA FEW010CB BKN010 25/23 Q1011 RMK CB OVER THE FIELD=
12/06/2022 14:30:00Z	 SAID32 WIPP 121430	METAR WIPP 121430Z 10004KT 3000 RA FEW010CB BKN010 25/24 Q1011 RMK CB OVER THE FIELD=
12/06/2022 15:00:00Z	 SAID32 WIPP 121500	METAR WIPP 121500Z 36005KT 4000 -RA FEW010CB BKN010 24/24 Q1011 RMK CB OVER THE FIELD=
12/06/2022 15:30:00Z	 SAID32 WIPP 121530	METAR WIPP 121530Z 03003KT 6000 -RA FEW010CB BKN010 24/23 Q1011 RMK CB TO S=
12/06/2022 16:00:00Z	 SAID32 WIPP 121600	METAR WIPP 121600Z 22003KT 5000 BR BKN010 24/23 Q1011 RERA=
12/06/2022 16:30:00Z	 SAID32 WIPP 121630	METAR WIPP 121630Z 22004KT 3000 BR BKN010 24/23 Q1011=
12/06/2022 17:00:00Z	 SAID32 WIPP 121700	METAR WIPP 121700Z AUTO 23003KT 190V280 2900NDV BR OVC042 24/24 Q1011=
12/06/2022 17:30:00Z	 SAID32 WIPP 121730	METAR WIPP 121730Z AUTO 00000KT 4000NDV BR BKN045 BKN055 BKN090 24/24 Q1011=
12/06/2022 18:00:00Z	 SAID32 WIPP 121800	METAR WIPP 121800Z AUTO 22003KT 190V260 4500NDV BR FEW007 FEW033 BKN045 24/24 Q1011=
12/06/2022 18:30:00Z	 SAID32 WIPP 121830	METAR WIPP 121830Z AUTO 23005KT 190V270 9999NDV SCT007 BKN012 BKN035 24/24 Q1011=
12/06/2022 19:00:00Z	 SAID32 WIPP 121900	METAR WIPP 121900Z 25007KT 6000 BKN010 24/23 Q1011=
12/06/2022 19:30:00Z	 SAID32 WIPP 121930	METAR WIPP 121930Z AUTO 24004KT 200V270 9999NDV FEW019 BKN032 OVC180 23/23 Q1010=
12/06/2022 20:00:00Z	 SAID32 WIPP 122000	METAR WIPP 122000Z AUTO 00000KT 7000NDV RA FEW038 SCT055 BKN085 23/23 Q1009=
12/06/2022 20:30:00Z	 SAID32 WIPP 122030	METAR WIPP 122030Z AUTO VRB02KT 7000NDV -RA FEW029 FEW037 SCT080 23/23 Q1009=
12/06/2022 21:00:00Z	 SAID32 WIPP 122100	METAR WIPP 122100Z AUTO VRB02KT 5000NDV FEW060 FEW100 SCT170 23/23 Q1009=
12/06/2022 21:30:00Z	 SAID32 WIPP 122130	METAR WIPP 122130Z 30002KT 5000 -RA BKN010 23/22 Q1009=
12/06/2022 22:00:00Z	 SAID32 WIPP 122200	METAR WIPP 122200Z 18003KT 5000 BR BKN010 23/22 Q1010 RERA=
12/06/2022 22:30:00Z	 SAID32 WIPP 122230	METAR WIPP 122230Z 15003KT 6000 SCT010 23/22 Q1010 NOSIG=
12/06/2022 23:00:00Z	 SAID32 WIPP 122300	METAR WIPP 122300Z 17003KT 6000 SCT010 23/22 Q1010 NOSIG=
12/06/2022 23:30:00Z	 SAID32 WIPP 122330	METAR WIPP 122330Z 18002KT 2000 BR FEW010 23/22 Q1010=
13/06/2022 00:00:00Z	 SAID32 WIPP 130000	METAR WIPP 130000Z 00000KT 1000 BR FEW010 23/22 Q1010=
13/06/2022 00:30:00Z	 SAID32 WIPP 130030	METAR WIPP 130030Z 14004KT 2000 BR FEW010 24/23 Q1010=
13/06/2022 01:00:00Z	 SAID32 WIPP 130100	METAR WIPP 130100Z 17003KT 5000 BR FEW010 25/24 Q1010=
13/06/2022 01:30:00Z	 SAID32 WIPP 130130	METAR WIPP 130130Z 20004KT 8000 FEW010 26/24 Q1011 NOSIG=
13/06/2022 02:00:00Z	 SAID32 WIPP 130200	METAR WIPP 130200Z 21006KT 9999 FEW010 27/24 Q1011 NOSIG=
13/06/2022 02:30:00Z	 SAID32 WIPP 130230	METAR WIPP 130230Z 19003KT 9999 FEW010 28/24 Q1011 NOSIG=
13/06/2022 03:00:00Z	 SAID32 WIPP 130300	METAR WIPP 130300Z 20004KT 9999 FEW010 29/24 Q1011 NOSIG=
13/06/2022 03:30:00Z	 SAID32 WIPP 130330	METAR WIPP 130330Z 23003KT 9999 FEW010 29/23 Q1011 NOSIG=
13/06/2022 04:00:00Z	 SAID32 WIPP 130400	METAR WIPP 130400Z 20004KT 9999 FEW010 30/23 Q1010 NOSIG=
13/06/2022 04:30:00Z	 SAID32 WIPP 130430	METAR WIPP 130430Z 22005KT 9999 FEW010 31/24 Q1010 NOSIG=
13/06/2022 05:00:00Z	 SAID32 WIPP 130500	METAR WIPP 130500Z 24005KT 9999 FEW010 31/24 Q1009 NOSIG=
13/06/2022 05:30:00Z	 SAID32 WIPP 130530	METAR WIPP 130530Z 20007KT 9999 SCT010 32/24 Q1009 NOSIG=
13/06/2022 06:00:00Z	 SAID32 WIPP 130600	METAR WIPP 130600Z 18003KT 9999 SCT010 32/24 Q1008 NOSIG=
13/06/2022 06:30:00Z	 SAID32 WIPP 130630	METAR WIPP 130630Z 23005KT 9999 FEW010CB SCT012 32/24 Q1008 RMK CB TO NE=
13/06/2022 07:00:00Z	 SAID32 WIPP 130700	METAR WIPP 130700Z 21007KT 9999 BKN010 32/24 Q1008 NOSIG=
13/06/2022 07:30:00Z	 SAID32 WIPP 130730	METAR WIPP 130730Z 27003KT 9999 BKN010 32/23 Q1007 NOSIG=
13/06/2022 08:00:00Z	 SAID32 WIPP 130800	METAR WIPP 130800Z 23003KT 9999 BKN010 32/23 Q1007 NOSIG=
13/06/2022 08:30:00Z	 SAID32 WIPP 130830	METAR WIPP 130830Z 24004KT 9999 FEW010CB BKN012 33/23 Q1006 RMK CB TO NE=
13/06/2022 09:00:00Z	 SAID32 WIPP 130900	METAR WIPP 130900Z 17004KT 9999 FEW010CB BKN012 32/24 Q1006 RMK CB TO E=
13/06/2022 09:30:00Z	 SAID32 WIPP 130930	METAR WIPP 130930Z 19004KT 9999 FEW010CB BKN012 31/23 Q1007 RMK CB TO E=
13/06/2022 10:00:00Z	 SAID32 WIPP 131000	METAR WIPP 131000Z 10014KT 9999 TS FEW010CB BKN012 30/23 Q1007 RMK CB OVER THE FIELD=
13/06/2022 10:30:00Z	 SAID32 WIPP 131030	METAR WIPP 131030Z 09007KT 9999 TS FEW010CB BKN012 27/23 Q1008 RMK CB TO N=
13/06/2022 11:00:00Z	 SAID32 WIPP 131100	METAR WIPP 131100Z 07008KT 9999 BKN010 27/23 Q1008 RETS=
13/06/2022 11:30:00Z	 SAID32 WIPP 131130	METAR WIPP 131130Z 10009KT 7000 -RA BKN010 26/23 Q1008=
13/06/2022 12:00:00Z	 SAID32 WIPP 131200	METAR WIPP 131200Z 08005KT 7000 -RA BKN010 26/24 Q1009=
13/06/2022 12:30:00Z	 SAID32 WIPP 131230	METAR WIPP 131230Z 10004KT 7000 -RA BKN010 25/24 Q1009=
13/06/2022 13:00:00Z	 SAID32 WIPP 131300	METAR WIPP 131300Z 08003KT 8000 -RA BKN010 25/24 Q1009=
13/06/2022 13:30:00Z	 SAID32 WIPP 131330	METAR WIPP 131330Z 11005KT 9000 -RA BKN010 25/24 Q1009=
13/06/2022 14:00:00Z	 SAID32 WIPP 131400	METAR WIPP 131400Z 07003KT 9999 BKN010 25/24 Q1010 RERA=
13/06/2022 14:30:00Z	 SAID32 WIPP 131430	METAR WIPP 131430Z 09002KT 9999 BKN010 25/24 Q1010=
13/06/2022 15:00:00Z	 SAID32 WIPP 131500	METAR WIPP 131500Z 11002KT 9999 BKN010 25/24 Q1010=
13/06/2022 15:30:00Z	 SAID32 WIPP 131530	METAR WIPP 131530Z 11002KT 9999 SCT010 25/24 Q1010=
13/06/2022 16:00:00Z	 SAID32 WIPP 131600	METAR WIPP 131600Z 10002KT 9999 SCT010 25/24 Q1010 NOSIG=
13/06/2022 16:30:00Z	 SAID32 WIPP 131630	METAR WIPP 131630Z 00000KT 8000 SCT010 25/24 Q1010 NOSIG=
13/06/2022 17:00:00Z	 SAID32 WIPP 131700	METAR WIPP 131700Z 00000KT 5000 HZ SCT010 25/24 Q1010=
13/06/2022 17:30:00Z	 SAID32 WIPP 131730	METAR WIPP 131730Z 22002KT 4000 HZ SCT010 25/24 Q1010=
13/06/2022 18:00:00Z	 SAID32 WIPP 131800	METAR WIPP 131800Z 29002KT 4000 HZ SCT010 25/24 Q1009=
13/06/2022 18:30:00Z	 SAID32 WIPP 131830	METAR WIPP 131830Z 00000KT 3000 HZ SCT010 25/24 Q1009=
13/06/2022 19:00:00Z	 SAID32 WIPP 131900	METAR WIPP 131900Z 00000KT 2000 HZ SCT010 25/24 Q1009=
13/06/2022 19:30:00Z	 SAID32 WIPP 131930	METAR WIPP 131930Z 00000KT 2000 HZ SCT010 25/24 Q1009=
13/06/2022 20:00:00Z	 SAID32 WIPP 132000	METAR WIPP 132000Z 31002KT 2000 BR SCT010 25/24 Q1009=
13/06/2022 20:30:00Z	 SAID32 WIPP 132030	METAR WIPP 132030Z 00000KT 1500 BR SCT010 25/24 Q1009=
13/06/2022 21:30:00Z	 SAID32 WIPP 132130	METAR WIPP 132130Z 26002KT 1000 BR SCT010 25/24 Q1009=
13/06/2022 22:00:00Z	 SAID32 WIPP 132200	METAR WIPP 132200Z 27003KT 1000 BR SCT010 25/24 Q1010=
13/06/2022 22:30:00Z	 SAID32 WIPP 132230	METAR WIPP 132230Z 28003KT 3000 BR SCT010 25/24 Q1010=
13/06/2022 23:00:00Z	 SAID32 WIPP 132300	METAR WIPP 132300Z 28003KT 3000 BR SCT010 25/24 Q1010=
13/06/2022 23:30:00Z	 SAID32 WIPP 132330	METAR WIPP 132330Z 29003KT 1500 BR FEW010 24/24 Q1010=
14/06/2022 00:00:00Z	 SAID32 WIPP 140000	METAR WIPP 140000Z 23002KT 1300 BR FEW010 25/24 Q1010=
14/06/2022 00:30:00Z	 SAID32 WIPP 140030	METAR WIPP 140030Z 26003KT 2000 BR FEW010 25/24 Q1011=
14/06/2022 01:00:00Z	 SAID32 WIPP 140100	METAR WIPP 140100Z 27005KT 5000 HZ FEW010 26/25 Q1010=
14/06/2022 01:30:00Z	 SAID32 WIPP 140130	METAR WIPP 140130Z 27004KT 8000 FEW010 27/25 Q1011 NOSIG=
14/06/2022 02:00:00Z	 SAID32 WIPP 140200	METAR WIPP 140200Z 25005KT 9999 FEW010 28/25 Q1011 NOSIG=
14/06/2022 02:30:00Z	 SAID32 WIPP 140230	METAR WIPP 140230Z 23004KT 9999 SCT010 28/24 Q1011 NOSIG=
14/06/2022 03:00:00Z	 SAID32 WIPP 140300	METAR WIPP 140300Z 16006KT 9999 SCT010 29/24 Q1011 NOSIG=
14/06/2022 03:30:00Z	 SAID32 WIPP 140330	METAR WIPP 140330Z 21005KT 9999 SCT010 30/24 Q1010 NOSIG=
14/06/2022 04:00:00Z	 SAID32 WIPP 140400	METAR WIPP 140400Z 21008KT 9999 SCT010 30/24 Q1010 NOSIG=
14/06/2022 04:30:00Z	 SAID32 WIPP 140430	METAR WIPP 140430Z 20005KT 9999 SCT010 30/24 Q1010 NOSIG=
14/06/2022 05:00:00Z	 SAID32 WIPP 140500	METAR WIPP 140500Z 21004KT 9999 SCT010 31/24 Q1009 NOSIG=
14/06/2022 05:30:00Z	 SAID32 WIPP 140530	METAR WIPP 140530Z 18007KT 9999 SCT010 31/24 Q1009 NOSIG=
14/06/2022 06:00:00Z	 SAID32 WIPP 140600	METAR WIPP 140600Z 18007KT 9999 SCT010 31/23 Q1008 NOSIG=
14/06/2022 06:30:00Z	 SAID32 WIPP 140630	METAR WIPP 140630Z 18005KT 9999 SCT010 32/23 Q1008 NOSIG=
14/06/2022 07:00:00Z	 SAID32 WIPP 140700	METAR WIPP 140700Z 18004KT 9999 SCT010 32/23 Q1007 NOSIG=
14/06/2022 07:30:00Z	 SAID32 WIPP 140730	METAR WIPP 140730Z 15006KT 9999 SCT010 32/22 Q1007 NOSIG=
14/06/2022 08:00:00Z	 SAID32 WIPP 140800	METAR WIPP 140800Z 13004KT 9999 SCT010 32/22 Q1006 NOSIG=
14/06/2022 08:30:00Z	 SAID32 WIPP 140830	METAR WIPP 140830Z 16005KT 9999 SCT010 32/22 Q1006 NOSIG=
14/06/2022 09:00:00Z	 SAID32 WIPP 140900	METAR WIPP 140900Z 16006KT 9999 SCT010 32/22 Q1006 NOSIG=
14/06/2022 09:30:00Z	 SAID32 WIPP 140930	METAR WIPP 140930Z 16004KT 9999 SCT010 32/22 Q1007 NOSIG=
14/06/2022 10:00:00Z	 SAID32 WIPP 141000	METAR WIPP 141000Z 12006KT 9999 SCT010 32/23 Q1007 NOSIG=
14/06/2022 10:30:00Z	 SAID32 WIPP 141030	METAR WIPP 141030Z 11013KT 7000 -RA BKN010 32/24 Q1007=
14/06/2022 11:00:00Z	 SAID32 WIPP 141100	METAR WIPP 141100Z 13007KT 8000 TS FEW010CB BKN012 29/25 Q1007 RERA RMK CB TO NW=
14/06/2022 11:30:00Z	 SAID32 WIPP 141130	METAR WIPP 141130Z 12003KT 9000 SCT010 28/24 Q1008=
14/06/2022 12:00:00Z	 SAID32 WIPP 141200	METAR WIPP 141200Z 13006KT 9999 SCT010 28/24 Q1008 NOSIG=
14/06/2022 12:30:00Z	 SAID32 WIPP 141230	METAR WIPP 141230Z 13005KT 9999 SCT010 27/24 Q1008 NOSIG=
14/06/2022 13:00:00Z	 SAID32 WIPP 141300	METAR WIPP 141300Z 13006KT 9999 SCT010 27/25 Q1009 NOSIG=
14/06/2022 13:30:00Z	 SAID32 WIPP 141330	METAR WIPP 141330Z 14004KT 9999 SCT010 27/25 Q1009 NOSIG=
14/06/2022 14:00:00Z	 SAID32 WIPP 141400	METAR WIPP 141400Z 12007KT 9999 FEW010 27/25 Q1009 NOSIG=
14/06/2022 14:30:00Z	 SAID32 WIPP 141430	METAR WIPP 141430Z 13005KT 9999 FEW010 27/25 Q1010 NOSIG=
14/06/2022 15:00:00Z	 SAID32 WIPP 141500	METAR WIPP 141500Z 15005KT 9999 FEW010 27/25 Q1010 NOSIG=
14/06/2022 15:30:00Z	 SAID32 WIPP 141530	METAR WIPP 141530Z 12004KT 9999 FEW010 27/25 Q1010 NOSIG=
14/06/2022 16:00:00Z	 SAID32 WIPP 141600	METAR WIPP 141600Z 16003KT 9999 FEW010 27/25 Q1010 NOSIG=
14/06/2022 16:30:00Z	 SAID32 WIPP 141630	METAR WIPP 141630Z 14006KT 9999 FEW010 26/24 Q1010 NOSIG=
14/06/2022 17:00:00Z	 SAID32 WIPP 141700	METAR WIPP 141700Z 17004KT 9999 FEW010 26/24 Q1010 NOSIG=
14/06/2022 17:30:00Z	 SAID32 WIPP 141730	METAR WIPP 141730Z 19003KT 9999 FEW010 26/24 Q1010 NOSIG=
14/06/2022 18:00:00Z	 SAID32 WIPP 141800	METAR WIPP 141800Z 00000KT 9999 FEW010 26/24 Q1009 NOSIG=
14/06/2022 18:30:00Z	 SAID32 WIPP 141830	METAR WIPP 141830Z 16003KT 9999 FEW010 25/24 Q1009 NOSIG=
14/06/2022 19:00:00Z	 SAID32 WIPP 141900	METAR WIPP 141900Z 18002KT 9999 FEW010 25/24 Q1009 NOSIG=
14/06/2022 19:30:00Z	 SAID32 WIPP 141930	METAR WIPP 141930Z 00000KT 9999 FEW010 25/24 Q1009 NOSIG=
14/06/2022 20:00:00Z	 SAID32 WIPP 142000	METAR WIPP 142000Z AUTO 18003KT 140V210 3600NDV BR NCD 25/25 Q1008=
14/06/2022 20:30:00Z	 SAID32 WIPP 142030	METAR WIPP 142030Z AUTO VRB02KT 3900NDV BR BKN190 25/25 Q1008=
14/06/2022 21:00:00Z	 SAID32 WIPP 142100	METAR WIPP 142100Z AUTO VRB02KT 3300NDV BR OVC190 25/25 Q1008=
14/06/2022 21:30:00Z	 SAID32 WIPP 142130	METAR WIPP 142130Z AUTO VRB02KT 3000NDV BR OVC190 24/24 Q1008=
14/06/2022 22:00:00Z	 SAID32 WIPP 142200	METAR WIPP 142200Z 19003KT 8000 FEW010 24/24 Q1008 NOSIG=
14/06/2022 22:30:00Z	 SAID32 WIPP 142230	METAR WIPP 142230Z 20002KT 6000 FEW010 24/23 Q1009 NOSIG=
14/06/2022 23:00:00Z	 SAID32 WIPP 142300	METAR WIPP 142300Z 00000KT 5000 FEW010 24/23 Q1009 NOSIG=
14/06/2022 23:30:00Z	 SAID32 WIPP 142330	METAR WIPP 142330Z 22002KT 5000 FEW010 24/23 Q1009 NOSIG=
15/06/2022 00:00:00Z	 SAID32 WIPP 150000	METAR WIPP 150000Z 24002KT 7000 FEW010 25/24 Q1009 NOSIG=
15/06/2022 00:30:00Z	 SAID32 WIPP 150030	METAR WIPP 150030Z 17005KT 8000 FEW010 25/24 Q1010 NOSIG=
15/06/2022 01:00:00Z	 SAID32 WIPP 150100	METAR WIPP 150100Z 19003KT 8000 FEW010 26/24 Q1010 NOSIG=
15/06/2022 01:30:00Z	 SAID32 WIPP 150130	METAR WIPP 150130Z 15005KT 8000 FEW010 27/25 Q1010 NOSIG=
15/06/2022 02:00:00Z	 SAID32 WIPP 150200	METAR WIPP 150200Z 20008KT 9999 FEW010 28/24 Q1010 NOSIG=
15/06/2022 02:30:00Z	 SAID32 WIPP 150230	METAR WIPP 150230Z 17007KT 9999 FEW010 29/24 Q1011 NOSIG=
15/06/2022 03:00:00Z	 SAID32 WIPP 150300	METAR WIPP 150300Z 17007KT 9999 SCT010 29/24 Q1011 NOSIG=
15/06/2022 03:30:00Z	 SAID32 WIPP 150330	METAR WIPP 150330Z 21005KT 9999 SCT010 29/24 Q1011 NOSIG=
15/06/2022 04:00:00Z	 SAID32 WIPP 150400	METAR WIPP 150400Z 17007KT 9999 BKN010 30/24 Q1010 NOSIG=
15/06/2022 04:30:00Z	 SAID32 WIPP 150430	METAR WIPP 150430Z 17010KT 9999 BKN010 30/24 Q1010 NOSIG=
15/06/2022 05:00:00Z	 SAID32 WIPP 150500	METAR WIPP 150500Z 17011KT 9999 SCT010 31/24 Q1009 NOSIG=
15/06/2022 05:30:00Z	 SAID32 WIPP 150530	METAR WIPP 150530Z 17012KT 9999 BKN010 30/24 Q1009 NOSIG=
15/06/2022 06:00:00Z	 SAID32 WIPP 150600	METAR WIPP 150600Z 17008KT 9999 BKN010 30/24 Q1009 NOSIG=
15/06/2022 06:30:00Z	 SAID32 WIPP 150630	METAR WIPP 150630Z 19011KT 9999 BKN010 31/24 Q1009 NOSIG=
15/06/2022 07:00:00Z	 SAID32 WIPP 150700	METAR WIPP 150700Z 18006KT 9999 BKN010 31/24 Q1008 NOSIG=
15/06/2022 07:30:00Z	 SAID32 WIPP 150730	METAR WIPP 150730Z 15009KT 9999 BKN010 31/24 Q1008 NOSIG=
15/06/2022 08:00:00Z	 SAID32 WIPP 150800	METAR WIPP 150800Z 14007KT 9999 BKN010 30/23 Q1008 NOSIG=
15/06/2022 08:30:00Z	 SAID32 WIPP 150830	METAR WIPP 150830Z 13008KT 9999 BKN010 29/23 Q1008 NOSIG=
15/06/2022 09:00:00Z	 SAID32 WIPP 150900	METAR WIPP 150900Z 13007KT 9999 SCT010 29/23 Q1008 NOSIG=
15/06/2022 09:30:00Z	 SAID32 WIPP 150930	METAR WIPP 150930Z 13005KT 9999 FEW010CB BKN011 28/24 Q1008 RERA RMK CB TO NW=
15/06/2022 10:00:00Z	 SAID32 WIPP 151000	METAR WIPP 151000Z 13006KT 9999 BKN010 28/24 Q1008 NOSIG=
15/06/2022 10:30:00Z	 SAID32 WIPP 151030	METAR WIPP 151030Z 13006KT 9999 SCT010 28/24 Q1008 NOSIG=
15/06/2022 11:00:00Z	 SAID32 WIPP 151100	METAR WIPP 151100Z 13005KT 9999 SCT010 27/24 Q1008 NOSIG=
15/06/2022 11:30:00Z	 SAID32 WIPP 151130	METAR WIPP 151130Z 13004KT 9999 SCT010 27/24 Q1008 NOSIG=
15/06/2022 12:00:00Z	 SAID32 WIPP 151200	METAR WIPP 151200Z 16003KT 9999 SCT010 27/24 Q1009 NOSIG=
15/06/2022 12:30:00Z	 SAID32 WIPP 151230	METAR WIPP 151230Z 14002KT 9999 SCT010 27/24 Q1009 NOSIG=
15/06/2022 13:00:00Z	 SAID32 WIPP 151300	METAR WIPP 151300Z 13003KT 9999 SCT010 26/24 Q1010 NOSIG=
15/06/2022 13:30:00Z	 SAID32 WIPP 151330	METAR WIPP 151330Z 13002KT 9999 SCT010 26/24 Q1010 NOSIG=
15/06/2022 14:00:00Z	 SAID32 WIPP 151400	METAR WIPP 151400Z 15003KT 9999 SCT010 26/24 Q1010 NOSIG=
15/06/2022 14:30:00Z	 SAID32 WIPP 151430	METAR WIPP 151430Z 17002KT 9999 SCT010 26/24 Q1011 NOSIG=
15/06/2022 15:00:00Z	 SAID32 WIPP 151500	METAR WIPP 151500Z 16002KT 9999 SCT010 26/24 Q1011 NOSIG=
15/06/2022 15:30:00Z	 SAID32 WIPP 151530	METAR WIPP 151530Z 22002KT 9999 FEW010 25/24 Q1011 NOSIG=
15/06/2022 16:00:00Z	 SAID32 WIPP 151600	METAR WIPP 151600Z 16002KT 9999 FEW010 25/24 Q1011 NOSIG=
15/06/2022 16:30:00Z	 SAID32 WIPP 151630	METAR WIPP 151630Z 18002KT 8000 FEW010 25/24 Q1011 NOSIG=
15/06/2022 17:00:00Z	 SAID32 WIPP 151700	METAR WIPP 151700Z 25002KT 8000 FEW010 25/24 Q1011 NOSIG=
15/06/2022 17:30:00Z	 SAID32 WIPP 151730	METAR WIPP 151730Z 17002KT 8000 FEW010 25/24 Q1011 NOSIG=
15/06/2022 18:00:00Z	 SAID32 WIPP 151800	METAR WIPP 151800Z 17002KT 7000 FEW010 25/24 Q1011 NOSIG=
15/06/2022 18:30:00Z	 SAID32 WIPP 151830	METAR WIPP 151830Z AUTO 00000KT 4500NDV BR NCD 24/24 Q1010=
15/06/2022 19:00:00Z	 SAID32 WIPP 151900	METAR WIPP 151900Z AUTO 29002KT 2200NDV BR NCD 24/24 Q1010=
15/06/2022 19:30:00Z	 SAID32 WIPP 151930	METAR WIPP 151930Z AUTO 26002KT 0800NDV R11/1900D R29/P2000N FG VV000 24/24 Q1010=
15/06/2022 20:00:00Z	 SAID32 WIPP 152000	METAR WIPP 152000Z AUTO 00000KT 1500NDV R11/P2000N R29/P2000N BR VV005 24/24 Q1009=
15/06/2022 20:30:00Z	 SAID32 WIPP 152030	METAR WIPP 152030Z AUTO 00000KT 0900NDV R11/P2000N R29/P2000N FG VV002 23/24 Q1009=
15/06/2022 21:00:00Z	 SAID32 WIPP 152100	METAR WIPP 152100Z AUTO 00000KT 2800NDV BR NCD 23/24 Q1009=
15/06/2022 21:30:00Z	 SAID32 WIPP 152130	METAR WIPP 152130Z 00000KT 3000 BR FEW010 24/23 Q1009=
15/06/2022 22:00:00Z	 SAID32 WIPP 152200	METAR WIPP 152200Z 32002KT 3000 BR FEW010 24/23 Q1009=
15/06/2022 22:30:00Z	 SAID32 WIPP 152230	METAR WIPP 152230Z 00000KT 3000 BR FEW010 24/23 Q1009=
15/06/2022 23:00:00Z	 SAID32 WIPP 152300	METAR WIPP 152300Z 00000KT 2000 BR FEW010 24/23 Q1010=
15/06/2022 23:30:00Z	 SAID32 WIPP 152330	METAR WIPP 152330Z 00000KT 1500 BR FEW010 24/23 Q1010=
16/06/2022 00:00:00Z	 SAID32 WIPP 160000	METAR WIPP 160000Z 00000KT 2000 BR FEW010 24/23 Q1010=
16/06/2022 00:30:00Z	 SAID32 WIPP 160030	METAR WIPP 160030Z 18002KT 4000 HZ FEW010 25/24 Q1010=
16/06/2022 01:00:00Z	 SAID32 WIPP 160100	METAR WIPP 160100Z 20003KT 6000 FEW010 25/24 Q1011=
16/06/2022 01:30:00Z	 SAID32 WIPP 160130	METAR WIPP 160130Z 16004KT 8000 FEW010 26/24 Q1011=
16/06/2022 02:00:00Z	 SAID32 WIPP 160200	METAR WIPP 160200Z 16007KT 9999 FEW010 27/24 Q1011 NOSIG=
16/06/2022 02:30:00Z	 SAID32 WIPP 160230	METAR WIPP 160230Z 16008KT 9999 FEW010 28/24 Q1011 NOSIG=
16/06/2022 03:00:00Z	 SAID32 WIPP 160300	METAR WIPP 160300Z 21003KT 9999 FEW010 29/23 Q1011 NOSIG=
16/06/2022 03:30:00Z	 SAID32 WIPP 160330	METAR WIPP 160330Z 17005KT 9999 FEW010 29/23 Q1011 NOSIG=
16/06/2022 04:00:00Z	 SAID32 WIPP 160400	METAR WIPP 160400Z 19007KT 9999 FEW010 30/23 Q1011 NOSIG=
16/06/2022 04:30:00Z	 SAID32 WIPP 160430	METAR WIPP 160430Z 15003KT 9999 FEW010 30/24 Q1011 NOSIG=
16/06/2022 05:00:00Z	 SAID32 WIPP 160500	METAR WIPP 160500Z 13003KT 9999 SCT010 30/23 Q1010 NOSIG=
16/06/2022 05:30:00Z	 SAID32 WIPP 160530	METAR WIPP 160530Z 18002KT 9999 SCT010 30/23 Q1010 NOSIG=
16/06/2022 06:00:00Z	 SAID32 WIPP 160600	METAR WIPP 160600Z 12004KT 9999 BKN010 30/23 Q1009 NOSIG=
16/06/2022 06:30:00Z	 SAID32 WIPP 160630	METAR WIPP 160630Z 10006KT 9999 BKN010 30/23 Q1009 NOSIG=
16/06/2022 07:00:00Z	 SAID32 WIPP 160700	METAR WIPP 160700Z 12004KT 9999 BKN010 30/23 Q1008 NOSIG=
16/06/2022 07:30:00Z	 SAID32 WIPP 160730	METAR WIPP 160730Z 09006KT 9999 BKN010 30/23 Q1008 NOSIG=
16/06/2022 08:00:00Z	 SAID32 WIPP 160800	METAR WIPP 160800Z 11005KT 9999 BKN010 30/23 Q1008 NOSIG=
16/06/2022 08:30:00Z	 SAID32 WIPP 160830	METAR WIPP 160830Z 09005KT 9999 BKN010 30/24 Q1008 NOSIG=
16/06/2022 09:00:00Z	 SAID32 WIPP 160900	METAR WIPP 160900Z 11004KT 9999 BKN010 FEW012CB 30/23 Q1008 RMK CB TO SE=
16/06/2022 09:30:00Z	 SAID32 WIPP 160930	METAR WIPP 160930Z 10004KT 9999 BKN010 FEW012CB 30/23 Q1008 RMK CB TO SE=
16/06/2022 10:00:00Z	 SAID32 WIPP 161000	METAR WIPP 161000Z 15015KT 9999 BKN010 FEW012CB 30/24 Q1008 RMK CB OVER THE FIELD=
16/06/2022 10:30:00Z	 SAID32 WIPP 161030	METAR WIPP 161030Z 11007KT 9999 BKN010 FEW012CB 28/22 Q1008 RMK CB TO W=
16/06/2022 11:00:00Z	 SAID32 WIPP 161100	METAR WIPP 161100Z 10002KT 9999 SCT010 27/23 Q1008=
16/06/2022 11:30:00Z	 SAID32 WIPP 161130	METAR WIPP 161130Z 09003KT 9999 SCT010 27/23 Q1009=
16/06/2022 12:00:00Z	 SAID32 WIPP 161200	METAR WIPP 161200Z 13002KT 9999 SCT010 27/23 Q1009=
16/06/2022 12:30:00Z	 SAID32 WIPP 161230	METAR WIPP 161230Z 00000KT 9999 SCT010 26/23 Q1010=
16/06/2022 13:00:00Z	 SAID32 WIPP 161300	METAR WIPP 161300Z 04002KT 9999 SCT010 26/23 Q1010=
16/06/2022 13:30:00Z	 SAID32 WIPP 161330	METAR WIPP 161330Z 13003KT 8000 SCT010 26/23 Q1011 NOSIG=
16/06/2022 14:00:00Z	 SAID32 WIPP 161400	METAR WIPP 161400Z 09004KT 8000 SCT010 26/24 Q1011 NOSIG=
16/06/2022 14:30:00Z	 SAID32 WIPP 161430	METAR WIPP 161430Z 11003KT 8000 SCT010 26/24 Q1011 NOSIG=
16/06/2022 15:00:00Z	 SAID32 WIPP 161500	METAR WIPP 161500Z 06002KT 8000 SCT010 26/24 Q1012 NOSIG=
16/06/2022 15:30:00Z	 SAID32 WIPP 161530	METAR WIPP 161530Z 31004KT 8000 SCT010 26/24 Q1012 NOSIG=
16/06/2022 16:00:00Z	 SAID32 WIPP 161600	METAR WIPP 161600Z 30006KT 7000 FEW010 25/24 Q1012 NOSIG=
16/06/2022 16:30:00Z	 SAID32 WIPP 161630	METAR WIPP 161630Z 29002KT 7000 FEW010 25/23 Q1012 NOSIG=
16/06/2022 17:00:00Z	 SAID32 WIPP 161700	METAR WIPP 161700Z 15002KT 7000 FEW010 25/23 Q1012 NOSIG=
16/06/2022 17:30:00Z	 SAID32 WIPP 161730	METAR WIPP 161730Z 00000KT 7000 FEW010 25/24 Q1011 NOSIG=
16/06/2022 18:00:00Z	 SAID32 WIPP 161800	METAR WIPP 161800Z 00000KT 6000 FEW010 25/24 Q1011 NOSIG=
16/06/2022 18:30:00Z	 SAID32 WIPP 161830	METAR WIPP 161830Z 00000KT 6000 FEW010 25/24 Q1011 NOSIG=
16/06/2022 19:00:00Z	 SAID32 WIPP 161900	METAR WIPP 161900Z 30005KT 6000 FEW010 25/24 Q1011 NOSIG=
16/06/2022 19:30:00Z	 SAID32 WIPP 161930	METAR WIPP 161930Z 30005KT 6000 FEW010 25/24 Q1011 NOSIG=
16/06/2022 20:00:00Z	 SAID32 WIPP 162000	METAR WIPP 162000Z 28002KT 6000 FEW010 25/24 Q1010 NOSIG=
16/06/2022 20:30:00Z	 SAID32 WIPP 162030 CCA	METAR COR WIPP 162030Z 20002KT 6000 FEW010 24/23 Q1010 NOSIG=
16/06/2022 21:00:00Z	 SAID32 WIPP 162100	METAR WIPP 162100Z 00000KT 5000 HZ FEW010 24/23 Q1010=
16/06/2022 21:30:00Z	 SAID32 WIPP 162130	METAR WIPP 162130Z 00000KT 5000 HZ FEW010 24/23 Q1010=
16/06/2022 22:00:00Z	 SAID32 WIPP 162200	METAR WIPP 162200Z 00000KT 5000 HZ FEW010 24/23 Q1010=
16/06/2022 22:30:00Z	 SAID32 WIPP 162230	METAR WIPP 162230Z 19002KT 4000 HZ FEW010 24/23 Q1010=
16/06/2022 23:00:00Z	 SAID32 WIPP 162300	METAR WIPP 162300Z 19003KT 7000 FEW010 24/23 Q1010 NOSIG=
16/06/2022 23:30:00Z	 SAID32 WIPP 162330	METAR WIPP 162330Z 19002KT 8000 FEW010 24/23 Q1010 NOSIG=
17/06/2022 00:00:00Z	 SAID32 WIPP 170000	METAR WIPP 170000Z 17003KT 8000 FEW010 24/23 Q1010 NOSIG=
17/06/2022 00:30:00Z	 SAID32 WIPP 170030	METAR WIPP 170030Z 18003KT 7000 FEW010 25/24 Q1010 NOSIG=
17/06/2022 01:00:00Z	 SAID32 WIPP 170100	METAR WIPP 170100Z 21005KT 7000 FEW010 25/24 Q1011 NOSIG=
17/06/2022 01:30:00Z	 SAID32 WIPP 170130	METAR WIPP 170130Z 19006KT 8000 FEW010 26/24 Q1010 NOSIG=
17/06/2022 02:00:00Z	 SAID32 WIPP 170200	METAR WIPP 170200Z 21005KT 9999 FEW010 28/24 Q1011 NOSIG=
17/06/2022 02:30:00Z	 SAID32 WIPP 170230	METAR WIPP 170230Z 18005KT 9999 SCT010 28/24 Q1011 NOSIG=
17/06/2022 03:00:00Z	 SAID32 WIPP 170300	METAR WIPP 170300Z 17002KT 9999 SCT010 28/24 Q1011 NOSIG=
17/06/2022 03:30:00Z	 SAID32 WIPP 170330	METAR WIPP 170330Z 17003KT 9999 SCT010 29/24 Q1011 NOSIG=
17/06/2022 04:00:00Z	 SAID32 WIPP 170400	METAR WIPP 170400Z 22003KT 9999 SCT010 30/24 Q1011 NOSIG=
17/06/2022 04:30:00Z	 SAID32 WIPP 170430	METAR WIPP 170430Z 10002KT 9999 SCT010 30/24 Q1010 NOSIG=
17/06/2022 05:00:00Z	 SAID32 WIPP 170500	METAR WIPP 170500Z 19004KT 9999 BKN010 30/24 Q1010 NOSIG=
17/06/2022 05:30:00Z	 SAID32 WIPP 170530	METAR WIPP 170530Z 18004KT 9999 BKN010 30/24 Q1010 NOSIG=
17/06/2022 06:00:00Z	 SAID32 WIPP 170600	METAR WIPP 170600Z 18004KT 9999 BKN010 30/24 Q1010 NOSIG=
17/06/2022 06:30:00Z	 SAID32 WIPP 170630	METAR WIPP 170630Z 16003KT 9999 FEW010CB BKN012 30/23 Q1010 RMK CB TO NW=
17/06/2022 07:00:00Z	 SAID32 WIPP 170700	METAR WIPP 170700Z 15004KT 9999 FEW010CB BKN012 30/23 Q1010 RMK CB TO NE AND NW=
17/06/2022 07:30:00Z	 SAID32 WIPP 170730	METAR WIPP 170730Z 12009KT 9999 BKN010 FEW012CB 30/23 Q1009 RMK CB TO NE AND NW=
17/06/2022 08:00:00Z	 SAID32 WIPP 170800	METAR WIPP 170800Z 12006KT 9999 SCT010 FEW012CB 30/22 Q1009 RMK CB TO NW=
17/06/2022 08:30:00Z	 SAID32 WIPP 170830	METAR WIPP 170830Z 13007KT 9999 SCT010 FEW012CB 30/23 Q1008 RMK CB TO NW=
17/06/2022 09:00:00Z	 SAID32 WIPP 170900	METAR WIPP 170900Z 11007KT 9999 SCT010 30/22 Q1008 NOSIG=
17/06/2022 09:30:00Z	 SAID32 WIPP 170930	METAR WIPP 170930Z 11005KT 9999 SCT010 30/23 Q1008 NOSIG=
17/06/2022 10:00:00Z	 SAID32 WIPP 171000	METAR WIPP 171000Z 13003KT 9999 SCT010 30/23 Q1008 NOSIG=
17/06/2022 10:30:00Z	 SAID32 WIPP 171030	METAR WIPP 171030Z 15004KT 9999 SCT010 29/23 Q1009 NOSIG=
17/06/2022 11:00:00Z	 SAID32 WIPP 171100	METAR WIPP 171100Z 13005KT 9999 FEW010 28/23 Q1009 NOSIG=
17/06/2022 11:30:00Z	 SAID32 WIPP 171130	METAR WIPP 171130Z 18002KT 9999 FEW010 28/23 Q1009 NOSIG=
17/06/2022 12:00:00Z	 SAID32 WIPP 171200	METAR WIPP 171200Z 22002KT 9999 FEW010 28/23 Q1009 NOSIG=
17/06/2022 12:30:00Z	 SAID32 WIPP 171230	METAR WIPP 171230Z 00000KT 6000 FEW010 28/23 Q1009 NOSIG=
17/06/2022 13:00:00Z	 SAID32 WIPP 171300	METAR WIPP 171300Z 00000KT 5000 HZ FEW010 27/24 Q1010=
17/06/2022 13:30:00Z	 SAID32 WIPP 171330	METAR WIPP 171330Z 18002KT 5000 HZ FEW010 27/24 Q1010=
17/06/2022 14:00:00Z	 SAID32 WIPP 171400	METAR WIPP 171400Z 00000KT 5000 HZ FEW010 27/24 Q1010=
17/06/2022 14:30:00Z	 SAID32 WIPP 171430	METAR WIPP 171430Z 00000KT 6000 HZ FEW010 27/24 Q1010=
17/06/2022 15:00:00Z	 SAID32 WIPP 171500	METAR WIPP 171500Z 15002KT 6000 FEW010 26/24 Q1010=
17/06/2022 15:30:00Z	 SAID32 WIPP 171530	METAR WIPP 171530Z 17002KT 8000 FEW010 26/23 Q1010=
17/06/2022 16:00:00Z	 SAID32 WIPP 171600	METAR WIPP 171600Z 18002KT 8000 SCT010 26/23 Q1010=
17/06/2022 16:30:00Z	 SAID32 WIPP 171630	METAR WIPP 171630Z 00000KT 8000 SCT010 26/23 Q1010=
17/06/2022 17:00:00Z	 SAID32 WIPP 171700	METAR WIPP 171700Z 00000KT 8000 SCT010 26/23 Q1010=
17/06/2022 17:30:00Z	 SAID32 WIPP 171730	METAR WIPP 171730Z 20002KT 7000 SCT010 26/24 Q1010=
17/06/2022 18:00:00Z	 SAID32 WIPP 171800	METAR WIPP 171800Z 23002KT 7000 SCT010 25/24 Q1010=
17/06/2022 18:30:00Z	 SAID32 WIPP 171830	METAR WIPP 171830Z 24003KT 7000 SCT010 25/24 Q1010=
17/06/2022 19:30:00Z	 SAID32 WIPP 171930	METAR WIPP 171930Z 00000KT 8000 SCT010 25/24 Q1010=
17/06/2022 20:00:00Z	 SAID32 WIPP 172000	METAR WIPP 172000Z 00000KT 8000 SCT010 25/24 Q1010=
17/06/2022 20:30:00Z	 SAID32 WIPP 172030	METAR WIPP 172030Z 00000KT 8000 SCT010 25/24 Q1009=
17/06/2022 21:00:00Z	 SAID32 WIPP 172100	METAR WIPP 172100Z 15002KT 7000 SCT010 25/24 Q1010=
17/06/2022 21:30:00Z	 SAID32 WIPP 172130	METAR WIPP 172130Z 00000KT 6000 SCT010 25/24 Q1010=
17/06/2022 22:00:00Z	 SAID32 WIPP 172200	METAR WIPP 172200Z 21002KT 4000 HZ FEW010 25/24 Q1010=
17/06/2022 22:30:00Z	 SAID32 WIPP 172230	METAR WIPP 172230Z 22002KT 3000 HZ FEW010 24/23 Q1010=
17/06/2022 23:00:00Z	 SAID32 WIPP 172300	METAR WIPP 172300Z 21002KT 1500 BR FEW010 24/23 Q1010=
17/06/2022 23:30:00Z	 SAID32 WIPP 172330	METAR WIPP 172330Z 00000KT 2000 BR FEW010 24/23 Q1011=
18/06/2022 00:00:00Z	 SAID32 WIPP 180000	METAR WIPP 180000Z 23002KT 2000 BR FEW010 25/24 Q1011=
18/06/2022 00:30:00Z	 SAID32 WIPP 180030	METAR WIPP 180030Z 25002KT 2000 HZ FEW010 25/24 Q1011=
18/06/2022 01:00:00Z	 SAID32 WIPP 180100	METAR WIPP 180100Z 27002KT 9999 FEW010 26/24 Q1011=
18/06/2022 01:30:00Z	 SAID32 WIPP 180130	METAR WIPP 180130Z 13003KT 9999 FEW010 28/24 Q1011=
18/06/2022 02:00:00Z	 SAID32 WIPP 180200	METAR WIPP 180200Z 12005KT 9999 FEW010 29/24 Q1011=
18/06/2022 02:30:00Z	 SAID32 WIPP 180230	METAR WIPP 180230Z 09005KT 9999 FEW010 29/23 Q1011=
18/06/2022 03:00:00Z	 SAID32 WIPP 180300	METAR WIPP 180300Z 16006KT 9999 FEW010 29/23 Q1011=
18/06/2022 03:30:00Z	 SAID32 WIPP 180330	METAR WIPP 180330Z 14004KT 9999 FEW010 30/23 Q1011=
18/06/2022 04:00:00Z	 SAID32 WIPP 180400	METAR WIPP 180400Z 12002KT 9999 FEW010 31/23 Q1011=
18/06/2022 04:30:00Z	 SAID32 WIPP 180430	METAR WIPP 180430Z 19005KT 9999 FEW010 31/23 Q1011=
18/06/2022 05:00:00Z	 SAID32 WIPP 180500	METAR WIPP 180500Z 17003KT 9999 SCT010 31/23 Q1010 NOSIG=
18/06/2022 05:30:00Z	 SAID32 WIPP 180530	METAR WIPP 180530Z 16005KT 9999 SCT010 31/22 Q1010 NOSIG=
18/06/2022 06:00:00Z	 SAID32 WIPP 180600	METAR WIPP 180600Z 14006KT 9999 SCT010 31/22 Q1010 NOSIG=
18/06/2022 06:30:00Z	 SAID32 WIPP 180630	METAR WIPP 180630Z 21004KT 9999 SCT010 31/22 Q1009 NOSIG=
18/06/2022 07:00:00Z	 SAID32 WIPP 180700	METAR WIPP 180700Z 26003KT 9999 SCT010 32/21 Q1008 NOSIG=
18/06/2022 07:30:00Z	 SAID32 WIPP 180730	METAR WIPP 180730Z 06004KT 9999 SCT010 32/21 Q1008 NOSIG=
18/06/2022 08:00:00Z	 SAID32 WIPP 180800	METAR WIPP 180800Z 00000KT 9999 SCT010 32/22 Q1007 NOSIG=
18/06/2022 08:30:00Z	 SAID32 WIPP 180830	METAR WIPP 180830Z 20002KT 9999 SCT010 32/22 Q1007 NOSIG=
18/06/2022 09:00:00Z	 SAID32 WIPP 180900	METAR WIPP 180900Z 22003KT 9999 SCT010 33/22 Q1007 NOSIG=
18/06/2022 09:30:00Z	 SAID32 WIPP 180930	METAR WIPP 180930Z 14005KT 9999 FEW012CB SCT012 32/21 Q1007 RMK CB TO SE=
18/06/2022 10:00:00Z	 SAID32 WIPP 181000	METAR WIPP 181000Z 18007KT 9999 FEW012CB SCT012 32/21 Q1008 RMK CB TO E=
18/06/2022 10:30:00Z	 SAID32 WIPP 181030	METAR WIPP 181030Z 15003KT 9999 FEW012CB SCT012 32/21 Q1008 RMK CB TO E=
18/06/2022 11:00:00Z	 SAID32 WIPP 181100	METAR WIPP 181100Z 11008KT 9999 FEW012CB SCT012 30/23 Q1008 RMK CB TO S=
18/06/2022 11:30:00Z	 SAID32 WIPP 181130	METAR WIPP 181130Z 13004KT 9999 FEW012CB SCT012 30/23 Q1009 RMK CB TO S=
18/06/2022 12:00:00Z	 SAID32 WIPP 181200	METAR WIPP 181200Z 11007KT 9999 SCT010 30/23 Q1009=
18/06/2022 12:30:00Z	 SAID32 WIPP 181230	METAR WIPP 181230Z 13005KT 9999 SCT010 29/22 Q1010=
18/06/2022 13:00:00Z	 SAID32 WIPP 181300	METAR WIPP 181300Z 17004KT 9999 SCT010 28/23 Q1010=
18/06/2022 13:30:00Z	 SAID32 WIPP 181330	METAR WIPP 181330Z 17004KT 9999 SCT010 27/24 Q1010=
18/06/2022 14:00:00Z	 SAID32 WIPP 181400	METAR WIPP 181400Z 17005KT 9999 SCT010 27/23 Q1011=
18/06/2022 14:30:00Z	 SAID32 WIPP 181430	METAR WIPP 181430Z 17003KT 9999 SCT010 26/23 Q1011=
18/06/2022 15:00:00Z	 SAID32 WIPP 181500	METAR WIPP 181500Z 21002KT 9999 SCT010 26/23 Q1011=
18/06/2022 15:30:00Z	 SAID32 WIPP 181530	METAR WIPP 181530Z 00000KT 8000 SCT010 26/23 Q1011=
18/06/2022 16:00:00Z	 SAID32 WIPP 181600	METAR WIPP 181600Z 01002KT 9000 FEW010 26/24 Q1011=
18/06/2022 16:30:00Z	 SAID32 WIPP 181630	METAR WIPP 181630Z 01002KT 7000 FEW010 26/24 Q1011=
18/06/2022 17:00:00Z	 SAID32 WIPP 181700	METAR WIPP 181700Z 00000KT 5000 HZ FEW010 26/24 Q1011=
18/06/2022 17:30:00Z	 SAID32 WIPP 181730	METAR WIPP 181730Z 00000KT 4000 HZ FEW010 26/24 Q1010=
18/06/2022 18:00:00Z	 SAID32 WIPP 181800	METAR WIPP 181800Z 00000KT 3000 HZ FEW010 25/24 Q1010=
18/06/2022 18:30:00Z	 SAID32 WIPP 181830	METAR WIPP 181830Z 00000KT 3000 HZ FEW010 25/24 Q1010=
18/06/2022 19:00:00Z	 SAID32 WIPP 181900	METAR WIPP 181900Z 00000KT 3000 HZ FEW010 25/24 Q1009=
18/06/2022 19:30:00Z	 SAID32 WIPP 181930	METAR WIPP 181930Z 00000KT 3000 HZ FEW010 25/24 Q1009=
18/06/2022 20:00:00Z	 SAID32 WIPP 182000	METAR WIPP 182000Z 00000KT 3000 HZ FEW010 25/24 Q1009=
18/06/2022 20:30:00Z	 SAID32 WIPP 182030	METAR WIPP 182030Z 00000KT 3000 HZ SCT010 25/24 Q1009=
18/06/2022 21:00:00Z	 SAID32 WIPP 182100	METAR WIPP 182100Z 00000KT 3000 HZ SCT010 25/24 Q1009=
18/06/2022 21:30:00Z	 SAID32 WIPP 182130	METAR WIPP 182130Z 00000KT 2000 HZ SCT010 25/24 Q1009=
18/06/2022 22:00:00Z	 SAID32 WIPP 182200	METAR WIPP 182200Z 25003KT 4000 HZ SCT010 25/24 Q1009=
18/06/2022 22:30:00Z	 SAID32 WIPP 182230	METAR WIPP 182230Z 21002KT 4000 HZ SCT010 24/23 Q1009=
18/06/2022 23:00:00Z	 SAID32 WIPP 182300	METAR WIPP 182300Z 24002KT 2000 HZ FEW010 24/23 Q1009=
18/06/2022 23:30:00Z	 SAID32 WIPP 182330	METAR WIPP 182330Z 22003KT 2000 HZ FEW010 24/23 Q1009=
19/06/2022 00:00:00Z	 SAID32 WIPP 190000	METAR WIPP 190000Z 23003KT 4000 HZ FEW010 24/23 Q1009=
19/06/2022 00:30:00Z	 SAID32 WIPP 190030	METAR WIPP 190030Z 23004KT 6000 FEW010 25/24 Q1010 NOSIG=
19/06/2022 01:00:00Z	 SAID32 WIPP 190100	METAR WIPP 190100Z 26003KT 9000 FEW010 26/24 Q1010 NOSIG=
19/06/2022 01:30:00Z	 SAID32 WIPP 190130	METAR WIPP 190130Z 21004KT 9999 FEW010 27/24 Q1010 NOSIG=
19/06/2022 02:00:00Z	 SAID32 WIPP 190200	METAR WIPP 190200Z 00000KT 9999 FEW010 27/24 Q1010 NOSIG=
19/06/2022 02:30:00Z	 SAID32 WIPP 190230	METAR WIPP 190230Z 16002KT 9999 SCT010 28/24 Q1011 NOSIG=
19/06/2022 03:00:00Z	 SAID32 WIPP 190300	METAR WIPP 190300Z 08002KT 9999 SCT010 28/24 Q1011 NOSIG=
19/06/2022 03:30:00Z	 SAID32 WIPP 190330	METAR WIPP 190330Z 08004KT 9999 SCT010 29/23 Q1010 NOSIG=
19/06/2022 04:00:00Z	 SAID32 WIPP 190400	METAR WIPP 190400Z 10004KT 9999 SCT010 30/23 Q1010 NOSIG=
19/06/2022 04:30:00Z	 SAID32 WIPP 190430	METAR WIPP 190430Z 08004KT 9999 SCT010 31/22 Q1009 NOSIG=
19/06/2022 05:00:00Z	 SAID32 WIPP 190500	METAR WIPP 190500Z 04004KT 9999 SCT010 32/23 Q1009 NOSIG=
19/06/2022 05:30:00Z	 SAID32 WIPP 190530	METAR WIPP 190530Z 17002KT 9999 SCT010 32/23 Q1008 NOSIG=
19/06/2022 06:00:00Z	 SAID32 WIPP 190600	METAR WIPP 190600Z 14004KT 9999 SCT010 31/22 Q1008 NOSIG=
19/06/2022 06:30:00Z	 SAID32 WIPP 190630	METAR WIPP 190630Z 10003KT 9999 FEW010CB BKN012 32/23 Q1007 RMK CB TO E AND SE=
19/06/2022 07:00:00Z	 SAID32 WIPP 190700	METAR WIPP 190700Z 10004KT 9999 -RA FEW010CB BKN012 31/24 Q1007 RMK CB TO SE AND S=
19/06/2022 07:30:00Z	 SAID32 WIPP 190730	METAR WIPP 190730Z 16009KT 9999 FEW010CB BKN012 28/23 Q1007 RERA RMK CB TO NE AND SW=
19/06/2022 08:00:00Z	 SAID32 WIPP 190800	METAR WIPP 190800Z 15004KT 9999 TS FEW010CB BKN012 27/23 Q1008 RMK CB OVER THE FIELD=
19/06/2022 08:30:00Z	 SAID32 WIPP 190830	METAR WIPP 190830Z 18003KT 9999 FEW010CB BKN012 26/23 Q1008 RETS RMK CB TO W AND NW=
19/06/2022 09:00:00Z	 SAID32 WIPP 190900	METAR WIPP 190900Z 15003KT 9999 FEW010CB BKN012 27/23 Q1008 RMK CB TO E AND NW=
19/06/2022 09:30:00Z	 SAID32 WIPP 190930	METAR WIPP 190930Z 17003KT 9999 BKN010 26/23 Q1008 NOSIG=
19/06/2022 10:00:00Z	 SAID32 WIPP 191000	METAR WIPP 191000Z 13003KT 9999 BKN010 27/23 Q1008 NOSIG=
19/06/2022 10:30:00Z	 SAID32 WIPP 191030	METAR WIPP 191030Z 00000KT 9999 SCT010 27/24 Q1008 NOSIG=
19/06/2022 11:00:00Z	 SAID32 WIPP 191100	METAR WIPP 191100Z 08005KT 9999 SCT010 27/24 Q1009 NOSIG=
19/06/2022 11:30:00Z	 SAID32 WIPP 191130	METAR WIPP 191130Z 11008KT 9999 SCT010 26/24 Q1009 NOSIG=
19/06/2022 12:00:00Z	 SAID32 WIPP 191200	METAR WIPP 191200Z 11006KT 9999 SCT010 26/23 Q1008 NOSIG=
19/06/2022 12:30:00Z	 SAID32 WIPP 191230	METAR WIPP 191230Z 13004KT 9999 SCT010 25/23 Q1009 NOSIG=
19/06/2022 13:00:00Z	 SAID32 WIPP 191300	METAR WIPP 191300Z 00000KT 9999 SCT010 26/22 Q1009 NOSIG=
19/06/2022 13:30:00Z	 SAID32 WIPP 191330	METAR WIPP 191330Z 29002KT 9999 SCT010 25/22 Q1009 NOSIG=
19/06/2022 14:00:00Z	 SAID32 WIPP 191400	METAR WIPP 191400Z 00000KT 9999 SCT010 25/23 Q1010 NOSIG=
19/06/2022 14:30:00Z	 SAID32 WIPP 191430	METAR WIPP 191430Z 14002KT 9999 FEW010 25/23 Q1010 NOSIG=
19/06/2022 15:00:00Z	 SAID32 WIPP 191500	METAR WIPP 191500Z 00000KT 9999 FEW010 25/23 Q1010 NOSIG=
19/06/2022 15:30:00Z	 SAID32 WIPP 191530	METAR WIPP 191530Z 16002KT 9999 FEW010 25/23 Q1010 NOSIG=
19/06/2022 16:00:00Z	 SAID32 WIPP 191600	METAR WIPP 191600Z 16004KT 9999 FEW010 25/23 Q1010 NOSIG=
19/06/2022 16:30:00Z	 SAID32 WIPP 191630	METAR WIPP 191630Z 21003KT 9999 FEW010 25/23 Q1010 NOSIG=
19/06/2022 17:00:00Z	 SAID32 WIPP 191700	METAR WIPP 191700Z 20002KT 9999 FEW010 25/23 Q1010 NOSIG=
19/06/2022 17:30:00Z	 SAID32 WIPP 191730	METAR WIPP 191730Z 21003KT 9999 FEW010 25/23 Q1010 NOSIG=
19/06/2022 18:00:00Z	 SAID32 WIPP 191800	METAR WIPP 191800Z 21003KT 9999 FEW010 24/23 Q1009 NOSIG=
19/06/2022 18:30:00Z	 SAID32 WIPP 191830	METAR WIPP 191830Z AUTO VRB02KT 6000NDV FEW110 BKN150 BKN170 24/24 Q1009=
19/06/2022 19:00:00Z	 SAID32 WIPP 191900	METAR WIPP 191900Z AUTO 00000KT 6000NDV BKN110 OVC170 24/24 Q1009=
19/06/2022 19:30:00Z	 SAID32 WIPP 191930	METAR WIPP 191930Z AUTO 00000KT 6000NDV OVC100 24/24 Q1008=
19/06/2022 20:00:00Z	 SAID32 WIPP 192000	METAR WIPP 192000Z AUTO 00000KT 9999NDV OVC110 24/24 Q1008=
19/06/2022 20:30:00Z	 SAID32 WIPP 192030	METAR WIPP 192030Z AUTO 00000KT 8000NDV BKN110 OVC170 24/24 Q1008=
19/06/2022 21:00:00Z	 SAID32 WIPP 192100	METAR WIPP 192100Z AUTO 00000KT 9999NDV OVC110 24/24 Q1008=
19/06/2022 21:30:00Z	 SAID32 WIPP 192130	METAR WIPP 192130Z AUTO 00000KT 6000NDV FEW027 FEW050 OVC100 24/24 Q1008=
19/06/2022 22:00:00Z	 SAID32 WIPP 192200	METAR WIPP 192200Z AUTO VRB02KT 9999NDV SCT022 BKN027 OVC095 24/24 Q1008=
19/06/2022 22:30:00Z	 SAID32 WIPP 192230	METAR WIPP 192230Z 21003KT 9999 FEW010 24/23 Q1008 NOSIG=
19/06/2022 23:00:00Z	 SAID32 WIPP 192300	METAR WIPP 192300Z 20002KT 9999 FEW010 24/23 Q1008 NOSIG=
19/06/2022 23:30:00Z	 SAID32 WIPP 192330	METAR WIPP 192330Z 18003KT 9999 FEW010 24/23 Q1009 NOSIG=
20/06/2022 00:00:00Z	 SAID32 WIPP 200000	METAR WIPP 200000Z 21003KT 9999 FEW010 25/23 Q1009 NOSIG=
20/06/2022 00:30:00Z	 SAID32 WIPP 200030	METAR WIPP 200030Z 23003KT 9999 FEW010 25/23 Q1009 NOSIG=
20/06/2022 01:00:00Z	 SAID32 WIPP 200100	METAR WIPP 200100Z 20005KT 9999 FEW010 26/23 Q1010 NOSIG=
20/06/2022 01:30:00Z	 SAID32 WIPP 200130	METAR WIPP 200130Z 21004KT 9999 FEW010 26/23 Q1010 NOSIG=
20/06/2022 02:00:00Z	 SAID32 WIPP 200200	METAR WIPP 200200Z 25007KT 9999 FEW010 28/24 Q1010 NOSIG=
20/06/2022 02:30:00Z	 SAID32 WIPP 200230	METAR WIPP 200230Z 18007KT 9999 FEW010 29/24 Q1010 NOSIG=
20/06/2022 03:00:00Z	 SAID32 WIPP 200300	METAR WIPP 200300Z 18007KT 9999 FEW010 30/24 Q1009 NOSIG=
20/06/2022 03:30:00Z	 SAID32 WIPP 200330	METAR WIPP 200330Z 24004KT 9999 FEW010 30/24 Q1009 NOSIG=
20/06/2022 04:00:00Z	 SAID32 WIPP 200400	METAR WIPP 200400Z 22008KT 9999 SCT010 31/24 Q1009 NOSIG=
20/06/2022 04:30:00Z	 SAID32 WIPP 200430	METAR WIPP 200430Z 20003KT 9999 SCT010 31/23 Q1008 NOSIG=
20/06/2022 05:00:00Z	 SAID32 WIPP 200500	METAR WIPP 200500Z 14004KT 9999 SCT010 31/23 Q1008 NOSIG=
20/06/2022 05:30:00Z	 SAID32 WIPP 200530	METAR WIPP 200530Z 16003KT 9999 SCT010 31/23 Q1007 NOSIG=
20/06/2022 06:00:00Z	 SAID32 WIPP 200600	METAR WIPP 200600Z 17006KT 9999 SCT010 32/23 Q1007 NOSIG=
20/06/2022 06:30:00Z	 SAID32 WIPP 200630	METAR WIPP 200630Z 24004KT 9999 FEW012CB SCT010 32/23 Q1006 RMK CB TO NE=
20/06/2022 07:00:00Z	 SAID32 WIPP 200700	METAR WIPP 200700Z 09005KT 9999 FEW012CB BKN010 32/22 Q1006 RMK CB TO NE=
20/06/2022 07:30:00Z	 SAID32 WIPP 200730	METAR WIPP 200730Z 08009KT 9999 FEW012CB BKN010 30/23 Q1006 RMK CB TO N=
20/06/2022 08:00:00Z	 SAID32 WIPP 200800	METAR WIPP 200800Z 07006KT 9999 FEW012CB BKN010 29/22 Q1006 RMK CB TO N AND S=
20/06/2022 08:30:00Z	 SAID32 WIPP 200830	METAR WIPP 200830Z 31006KT 9999 TS FEW010CB BKN010 28/22 Q1006 RMK CB TO W=
20/06/2022 09:00:00Z	 SAID32 WIPP 200900	METAR WIPP 200900Z 08005KT 9999 SCT010 28/23 Q1006 RETS=
20/06/2022 09:30:00Z	 SAID32 WIPP 200930	METAR WIPP 200930Z 05004KT 9999 SCT010 29/23 Q1006 NOSIG=
20/06/2022 10:00:00Z	 SAID32 WIPP 201000	METAR WIPP 201000Z 09005KT 9999 SCT010 29/23 Q1006 NOSIG=
20/06/2022 10:30:00Z	 SAID32 WIPP 201030	METAR WIPP 201030Z 11009KT 9999 SCT010 27/23 Q1007 NOSIG=
20/06/2022 11:00:00Z	 SAID32 WIPP 201100	METAR WIPP 201100Z 10009KT 9999 SCT010 27/23 Q1007 NOSIG=
20/06/2022 11:30:00Z	 SAID32 WIPP 201130	METAR WIPP 201130Z 09005KT 9999 SCT010 26/23 Q1007 NOSIG=
20/06/2022 12:00:00Z	 SAID32 WIPP 201200	METAR WIPP 201200Z 13004KT 9999 SCT010 26/23 Q1007 NOSIG=
20/06/2022 12:30:00Z	 SAID32 WIPP 201230	METAR WIPP 201230Z 07003KT 9999 SCT010 26/23 Q1007 NOSIG=
20/06/2022 13:00:00Z	 SAID32 WIPP 201300	METAR WIPP 201300Z 12002KT 9999 SCT010 26/23 Q1008 NOSIG=
20/06/2022 13:30:00Z	 SAID32 WIPP 201330	METAR WIPP 201330Z 20002KT 9999 SCT010 26/23 Q1008 NOSIG=
20/06/2022 14:00:00Z	 SAID32 WIPP 201400	METAR WIPP 201400Z 00000KT 9999 SCT010 25/23 Q1009 NOSIG=
20/06/2022 14:30:00Z	 SAID32 WIPP 201430	METAR WIPP 201430Z 19002KT 9999 SCT010 25/23 Q1009 NOSIG=
20/06/2022 15:00:00Z	 SAID32 WIPP 201500	METAR WIPP 201500Z 00000KT 9999 SCT010 25/23 Q1009 NOSIG=
20/06/2022 15:30:00Z	 SAID32 WIPP 201530	METAR WIPP 201530Z 00000KT 8000 SCT010 25/23 Q1009 NOSIG=
20/06/2022 16:00:00Z	 SAID32 WIPP 201600	METAR WIPP 201600Z 19002KT 7000 SCT010 25/23 Q1008=
20/06/2022 16:30:00Z	 SAID32 WIPP 201630	METAR WIPP 201630Z 20002KT 9000 SCT010 25/23 Q1008=
20/06/2022 17:00:00Z	 SAID32 WIPP 201700	METAR WIPP 201700Z 20002KT 8000 SCT010 25/23 Q1008=
20/06/2022 17:30:00Z	 SAID32 WIPP 201730	METAR WIPP 201730Z 00000KT 8000 SCT010 25/23 Q1008=
20/06/2022 18:00:00Z	 SAID32 WIPP 201800	METAR WIPP 201800Z 25002KT 9000 SCT010 25/23 Q1008=
20/06/2022 18:30:00Z	 SAID32 WIPP 201830	METAR WIPP 201830Z AUTO VRB02KT 6000NDV SCT170 OVC190 24/24 Q1008=
20/06/2022 19:00:00Z	 SAID32 WIPP 201900	METAR WIPP 201900Z AUTO 22003KT 4300NDV BR OVC180 24/24 Q1007=
20/06/2022 19:30:00Z	 SAID32 WIPP 201930	METAR WIPP 201930Z AUTO VRB02KT 4200NDV BR OVC200 24/24 Q1007=
20/06/2022 20:00:00Z	 SAID32 WIPP 202000	METAR WIPP 202000Z AUTO VRB02KT 5000NDV SCT200 OVC230 24/24 Q1007=
20/06/2022 20:30:00Z	 SAID32 WIPP 202030	METAR WIPP 202030Z AUTO 17003KT 130V210 7000NDV OVC230 24/24 Q1007=
20/06/2022 21:00:00Z	 SAID32 WIPP 202100	METAR WIPP 202100Z AUTO VRB02KT 7000NDV SCT180 BKN200 BKN240 24/24 Q1007=
20/06/2022 21:30:00Z	 SAID32 WIPP 202130	METAR WIPP 202130Z 17003KT 9000 FEW010 24/23 Q1007=
20/06/2022 22:00:00Z	 SAID32 WIPP 202200	METAR WIPP 202200Z 17002KT 9000 FEW010 24/23 Q1007=
20/06/2022 22:30:00Z	 SAID32 WIPP 202230	METAR WIPP 202230Z 17004KT 8000 FEW010 24/23 Q1007=
20/06/2022 23:00:00Z	 SAID32 WIPP 202300	METAR WIPP 202300Z 18003KT 7000 FEW010 24/23 Q1007=
20/06/2022 23:30:00Z	 SAID32 WIPP 202330	METAR WIPP 202330Z 18002KT 7000 FEW010 24/23 Q1008=
21/06/2022 00:00:00Z	 SAID32 WIPP 210000	METAR WIPP 210000Z 19003KT 7000 FEW010 24/23 Q1008=
21/06/2022 00:30:00Z	 SAID32 WIPP 210030	METAR WIPP 210030Z 00000KT 8000 FEW010 25/23 Q1008=
21/06/2022 01:00:00Z	 SAID32 WIPP 210100	METAR WIPP 210100Z 20004KT 8000 FEW010 25/24 Q1008=
21/06/2022 01:30:00Z	 SAID32 WIPP 210130	METAR WIPP 210130Z 18005KT 9999 FEW010 26/24 Q1009 NOSIG=
21/06/2022 02:00:00Z	 SAID32 WIPP 210200	METAR WIPP 210200Z 18004KT 9999 FEW010 26/24 Q1009 NOSIG=
21/06/2022 02:30:00Z	 SAID32 WIPP 210230	METAR WIPP 210230Z 19003KT 9999 FEW010 27/24 Q1009 NOSIG=
21/06/2022 03:00:00Z	 SAID32 WIPP 210300	METAR WIPP 210300Z 14007KT 9999 FEW010 29/25 Q1009 NOSIG=
21/06/2022 03:30:00Z	 SAID32 WIPP 210330	METAR WIPP 210330Z 16009KT 9999 FEW010CB SCT012 30/24 Q1009 RMK CB TO SE=
21/06/2022 04:00:00Z	 SAID32 WIPP 210400	METAR WIPP 210400Z 16009KT 9999 FEW010CB BKN012 30/24 Q1008 RMK CB TO S=
21/06/2022 04:30:00Z	 SAID32 WIPP 210430	METAR WIPP 210430Z 17010KT 9999 FEW010CB BKN012 30/24 Q1008 TEMPO FM0440 TL0515 22015G25KT 3000 +RA RMK CB TO W=
21/06/2022 05:00:00Z	 SAID32 WIPP 210500	METAR WIPP 210500Z 18008KT 9999 FEW010CB BKN012 29/24 Q1007 RMK CB OVER THE FIELD=
21/06/2022 05:30:00Z	 SAID32 WIPP 210530	METAR WIPP 210530Z 16006KT 9999 -RA FEW010CB BKN012 29/24 Q1007 RMK CB OVER THE FIELD=
21/06/2022 06:00:00Z	 SAID32 WIPP 210600	METAR WIPP 210600Z 19006KT 9999 FEW010CB BKN011 30/24 Q1006 RERA RMK CB TO N=
21/06/2022 06:30:00Z	 SAID32 WIPP 210630	METAR WIPP 210630Z 21007KT 9999 FEW010CB BKN011 30/25 Q1006 RMK CB OVER THE FIELD=
21/06/2022 07:00:00Z	 SAID32 WIPP 210700	METAR WIPP 210700Z 12008KT 9999 TS FEW010CB BKN011 30/23 Q1006 TEMPO FM0710 TL0800 20015G25KT 2000 +RA RMK CB OVER THE FIELD=
21/06/2022 07:30:00Z	 SAID32 WIPP 210730	METAR WIPP 210730Z 11018KT 6000 -TSRA FEW010CB BKN011 27/23 Q1006 TEMPO FM0735 TL0815 11018G28KT 2000 +RA RMK CB OVER THE FIELD=
21/06/2022 08:00:00Z	 SAID32 WIPP 210800	METAR WIPP 210800Z 12010KT 5000 -TSRA FEW010CB BKN011 25/23 Q1006 RMK CB OVER THE FIELD=
21/06/2022 08:30:00Z	 SAID32 WIPP 210830	METAR WIPP 210830Z 12004KT 8000 -RA FEW010CB BKN011 25/23 Q1006 RETS RMK CB OVER THE FIELD=
21/06/2022 09:00:00Z	 SAID32 WIPP 210900	METAR WIPP 210900Z 07004KT 8000 -RA FEW010CB SCT011 26/24 Q1006 RMK CB OVER THE FIELD=
21/06/2022 09:30:00Z	 SAID32 WIPP 210930	METAR WIPP 210930Z 06003KT 9999 SCT010 26/24 Q1006 RERA=
21/06/2022 10:00:00Z	 SAID32 WIPP 211000	METAR WIPP 211000Z 04003KT 9999 FEW010 26/24 Q1007 NOSIG=
21/06/2022 10:30:00Z	 SAID32 WIPP 211030	METAR WIPP 211030Z 36002KT 9999 FEW010 26/24 Q1007 NOSIG=
21/06/2022 11:00:00Z	 SAID32 WIPP 211100	METAR WIPP 211100Z 34002KT 8000 FEW010 26/24 Q1007=
21/06/2022 11:30:00Z	 SAID32 WIPP 211130	METAR WIPP 211130Z 32002KT 6000 FEW010 25/24 Q1008=
21/06/2022 12:00:00Z	 SAID32 WIPP 211200	METAR WIPP 211200Z 00000KT 6000 FEW010 25/24 Q1008=
21/06/2022 12:30:00Z	 SAID32 WIPP 211230	METAR WIPP 211230Z 00000KT 6000 FEW010 25/24 Q1009=
21/06/2022 13:00:00Z	 SAID32 WIPP 211300	METAR WIPP 211300Z 00000KT 5000 HZ FEW010 25/24 Q1009=
21/06/2022 13:30:00Z	 SAID32 WIPP 211330	METAR WIPP 211330Z 00000KT 7000 FEW010 25/24 Q1009 NOSIG=
21/06/2022 14:00:00Z	 SAID32 WIPP 211400	METAR WIPP 211400Z 35002KT 7000 FEW010 25/24 Q1009 NOSIG=
21/06/2022 14:30:00Z	 SAID32 WIPP 211430	METAR WIPP 211430Z 00000KT 7000 FEW010 25/24 Q1009 NOSIG=
21/06/2022 15:00:00Z	 SAID32 WIPP 211500	METAR WIPP 211500Z 00000KT 4000 BR FEW010 25/24 Q1009=
21/06/2022 15:30:00Z	 SAID32 WIPP 211530	METAR WIPP 211530Z 26002KT 4000 BR FEW010 25/24 Q1009=
21/06/2022 16:00:00Z	 SAID32 WIPP 211600	METAR WIPP 211600Z 25002KT 4000 BR FEW010 25/24 Q1009=
21/06/2022 16:30:00Z	 SAID32 WIPP 211630	METAR WIPP 211630Z 21002KT 4000 BR FEW010 24/24 Q1009=
21/06/2022 17:00:00Z	 SAID32 WIPP 211700	METAR WIPP 211700Z 18002KT 3000 BR FEW010 24/24 Q1009=
21/06/2022 17:30:00Z	 SAID32 WIPP 211730	METAR WIPP 211730Z 21002KT 3000 BR FEW010 24/23 Q1009=
21/06/2022 18:00:00Z	 SAID32 WIPP 211800	METAR WIPP 211800Z 22002KT 3000 BR FEW010 24/23 Q1009=
21/06/2022 18:30:00Z	 SAID32 WIPP 211830	METAR WIPP 211830Z 24002KT 3000 BR FEW010 24/23 Q1009=
21/06/2022 19:00:00Z	 SAID32 WIPP 211900	METAR WIPP 211900Z 23003KT 3000 BR FEW010 24/23 Q1008=
21/06/2022 19:30:00Z	 SAID32 WIPP 211930	METAR WIPP 211930Z 24004KT 3000 BR FEW010 24/23 Q1008=
21/06/2022 20:00:00Z	 SAID32 WIPP 212000	METAR WIPP 212000Z 22004KT 3000 BR FEW010 24/23 Q1008=
21/06/2022 20:30:00Z	 SAID32 WIPP 212030	METAR WIPP 212030Z 22002KT 3000 BR FEW010 24/23 Q1008=
21/06/2022 21:00:00Z	 SAID32 WIPP 212100	METAR WIPP 212100Z 24004KT 3000 BR FEW010 24/23 Q1007=
21/06/2022 21:30:00Z	 SAID32 WIPP 212130	METAR WIPP 212130Z 23002KT 3000 BR FEW010 23/23 Q1008=
21/06/2022 22:00:00Z	 SAID32 WIPP 212200	METAR WIPP 212200Z 19002KT 3000 BR FEW010 24/23 Q1008=
21/06/2022 22:30:00Z	 SAID32 WIPP 212230	METAR WIPP 212230Z 00000KT 3000 BR FEW010 23/23 Q1008=
21/06/2022 23:00:00Z	 SAID32 WIPP 212300	METAR WIPP 212300Z 22002KT 2000 BR FEW010 23/23 Q1008=
21/06/2022 23:30:00Z	 SAID32 WIPP 212330	METAR WIPP 212330Z 15002KT 3000 BR FEW010 23/23 Q1008=
22/06/2022 00:00:00Z	 SAID32 WIPP 220000	METAR WIPP 220000Z 00000KT 5000 BR FEW010 24/23 Q1009=
22/06/2022 00:30:00Z	 SAID32 WIPP 220030	METAR WIPP 220030Z 16002KT 6000 FEW010 25/24 Q1010=
22/06/2022 01:00:00Z	 SAID32 WIPP 220100	METAR WIPP 220100Z 13003KT 8000 FEW010 26/24 Q1010 NOSIG=
22/06/2022 01:30:00Z	 SAID32 WIPP 220130	METAR WIPP 220130Z 15005KT 9999 FEW010 27/25 Q1010 NOSIG=
22/06/2022 02:00:00Z	 SAID32 WIPP 220200	METAR WIPP 220200Z 17004KT 9999 FEW010 28/25 Q1010 NOSIG=
22/06/2022 02:30:00Z	 SAID32 WIPP 220230	METAR WIPP 220230Z 13007KT 9999 FEW010 29/24 Q1010 NOSIG=
22/06/2022 03:00:00Z	 SAID32 WIPP 220300	METAR WIPP 220300Z 10012KT 9999 SCT010 30/24 Q1010 NOSIG=
22/06/2022 03:30:00Z	 SAID32 WIPP 220330	METAR WIPP 220330Z 12009KT 9999 SCT010 30/24 Q1010 NOSIG=
22/06/2022 04:00:00Z	 SAID32 WIPP 220400	METAR WIPP 220400Z 14011KT 9999 SCT010 31/23 Q1009 NOSIG=
22/06/2022 04:30:00Z	 SAID32 WIPP 220430	METAR WIPP 220430Z 13013KT 9999 BKN010 31/24 Q1009 NOSIG=
22/06/2022 05:00:00Z	 SAID32 WIPP 220500	METAR WIPP 220500Z 10011KT 9999 FEW010CB BKN010 32/24 Q1009 RMK CB TO SE AND S=
22/06/2022 05:30:00Z	 SAID32 WIPP 220530	METAR WIPP 220530Z 10008KT 9999 FEW010CB BKN010 32/23 Q1008 RMK CB TO SE AND SW=
22/06/2022 06:00:00Z	 SAID32 WIPP 220600	METAR WIPP 220600Z 11008KT 9999 TS FEW010CB BKN010 32/23 Q1008 RMK CB TO E AND S=
22/06/2022 06:30:00Z	 SAID32 WIPP 220630	METAR WIPP 220630Z 12011KT 3000 -TSRA FEW010CB BKN010 27/24 Q1009 RMK CB OVER THE FIELD=
22/06/2022 07:00:00Z	 SAID32 WIPP 220700	METAR WIPP 220700Z 06004KT 8000 -TSRA FEW010CB BKN010 26/24 Q1008 RMK CB OVER THE FIELD=
22/06/2022 07:30:00Z	 SAID32 WIPP 220730	METAR WIPP 220730Z 03004KT 9000 -RA FEW010CB BKN010 25/24 Q1008 RETS RMK CB TO SW AND NW=
22/06/2022 08:00:00Z	 SAID32 WIPP 220800	METAR WIPP 220800Z 05004KT 9999 FEW010CB BKN010 25/24 Q1007 RERA RMK CB TO W AND NW=
22/06/2022 08:30:00Z	 SAID32 WIPP 220830	METAR WIPP 220830Z 10004KT 9999 BKN010 26/24 Q1007=
22/06/2022 09:00:00Z	 SAID32 WIPP 220900	METAR WIPP 220900Z 11002KT 9999 BKN010 26/24 Q1007=
22/06/2022 09:30:00Z	 SAID32 WIPP 220930	METAR WIPP 220930Z 08002KT 9999 BKN010 26/24 Q1007=
22/06/2022 10:00:00Z	 SAID32 WIPP 221000	METAR WIPP 221000Z 00000KT 9999 BKN010 26/24 Q1008=
22/06/2022 10:30:00Z	 SAID32 WIPP 221030	METAR WIPP 221030Z 13003KT 9999 BKN010 27/24 Q1008=
22/06/2022 11:00:00Z	 SAID32 WIPP 221100	METAR WIPP 221100Z 14002KT 9000 BKN010 26/24 Q1009=
22/06/2022 11:30:00Z	 SAID32 WIPP 221130	METAR WIPP 221130Z 00000KT 8000 SCT010 26/24 Q1009=
22/06/2022 12:00:00Z	 SAID32 WIPP 221200	METAR WIPP 221200Z 00000KT 4000 HZ SCT010 26/24 Q1009=
22/06/2022 12:30:00Z	 SAID32 WIPP 221230	METAR WIPP 221230Z 29002KT 3000 HZ SCT010 26/24 Q1009=
22/06/2022 13:00:00Z	 SAID32 WIPP 221300	METAR WIPP 221300Z 31006KT 3000 HZ SCT010 26/25 Q1010=
22/06/2022 13:30:00Z	 SAID32 WIPP 221330	METAR WIPP 221330Z 00000KT 3000 HZ SCT010 26/24 Q1010=
22/06/2022 14:00:00Z	 SAID32 WIPP 221400	METAR WIPP 221400Z 00000KT 2000 HZ SCT010 26/24 Q1010=
22/06/2022 14:30:00Z	 SAID32 WIPP 221430	METAR WIPP 221430Z 00000KT 2000 HZ SCT010 26/24 Q1011=
22/06/2022 15:00:00Z	 SAID32 WIPP 221500	METAR WIPP 221500Z 22002KT 2000 HZ SCT010 25/24 Q1011=
22/06/2022 15:30:00Z	 SAID32 WIPP 221530	METAR WIPP 221530Z 00000KT 2000 BR SCT010 25/24 Q1011=
22/06/2022 16:00:00Z	 SAID32 WIPP 221600	METAR WIPP 221600Z 22002KT 3000 BR SCT010 25/24 Q1011=
22/06/2022 16:30:00Z	 SAID32 WIPP 221630	METAR WIPP 221630Z 25002KT 3000 BR SCT010 25/24 Q1011=
22/06/2022 17:00:00Z	 SAID32 WIPP 221700	METAR WIPP 221700Z 25003KT 3000 BR SCT010 25/24 Q1011=
22/06/2022 17:30:00Z	 SAID32 WIPP 221730	METAR WIPP 221730Z 23002KT 3000 BR SCT010 25/24 Q1011=
22/06/2022 18:00:00Z	 SAID32 WIPP 221800	METAR WIPP 221800Z 22002KT 3000 BR SCT010 25/24 Q1010=
22/06/2022 18:30:00Z	 SAID32 WIPP 221830	METAR WIPP 221830Z 19002KT 3000 BR SCT010 25/24 Q1010=
22/06/2022 19:00:00Z	 SAID32 WIPP 221900	METAR WIPP 221900Z 19002KT 3000 BR SCT010 25/24 Q1010=
22/06/2022 19:30:00Z	 SAID32 WIPP 221930	METAR WIPP 221930Z 18002KT 3000 BR SCT010 25/24 Q1009=
22/06/2022 20:00:00Z	 SAID32 WIPP 222000	METAR WIPP 222000Z 27002KT 3000 BR SCT010 24/24 Q1010=
22/06/2022 20:30:00Z	 SAID32 WIPP 222030	METAR WIPP 222030Z 20002KT 3000 BR SCT010 24/24 Q1010=
22/06/2022 21:00:00Z	 SAID32 WIPP 222100	METAR WIPP 222100Z 20002KT 3000 BR SCT010 24/24 Q1010=
22/06/2022 21:30:00Z	 SAID32 WIPP 222130	METAR WIPP 222130Z 17002KT 3000 BR SCT010 24/24 Q1010=
22/06/2022 22:00:00Z	 SAID32 WIPP 222200	METAR WIPP 222200Z 18002KT 2000 BR SCT010 24/23 Q1010=
22/06/2022 22:30:00Z	 SAID32 WIPP 222230	METAR WIPP 222230Z 22002KT 3000 BR SCT010 24/23 Q1010=
22/06/2022 23:00:00Z	 SAID32 WIPP 222300	METAR WIPP 222300Z 00000KT 2000 BR SCT010 24/23 Q1010=
22/06/2022 23:30:00Z	 SAID32 WIPP 222330	METAR WIPP 222330Z 21002KT 2000 BR SCT010 24/23 Q1011=
23/06/2022 00:00:00Z	 SAID32 WIPP 230000	METAR WIPP 230000Z 20002KT 3000 BR SCT010 24/24 Q1011=
23/06/2022 00:30:00Z	 SAID32 WIPP 230030	METAR WIPP 230030Z 18004KT 4000 BR FEW010 25/24 Q1011=
23/06/2022 01:00:00Z	 SAID32 WIPP 230100	METAR WIPP 230100Z 16009KT 9999 FEW010 26/24 Q1012 NOSIG=
23/06/2022 01:30:00Z	 SAID32 WIPP 230130	METAR WIPP 230130Z 14009KT 9999 FEW010 26/24 Q1012 NOSIG=
23/06/2022 02:00:00Z	 SAID32 WIPP 230200	METAR WIPP 230200Z 13005KT 9999 FEW010 27/23 Q1012 NOSIG=
23/06/2022 02:30:00Z	 SAID32 WIPP 230230	METAR WIPP 230230Z 14006KT 9999 FEW010 28/24 Q1011 NOSIG=
23/06/2022 03:00:00Z	 SAID32 WIPP 230300	METAR WIPP 230300Z 15009KT 9999 SCT010 28/23 Q1011 NOSIG=
23/06/2022 03:30:00Z	 SAID32 WIPP 230330	METAR WIPP 230330Z 17005KT 9999 BKN010 28/23 Q1011 NOSIG=
23/06/2022 04:00:00Z	 SAID32 WIPP 230400	METAR WIPP 230400Z 15006KT 9999 BKN010 28/23 Q1011 NOSIG=
23/06/2022 04:30:00Z	 SAID32 WIPP 230430	METAR WIPP 230430Z 16004KT 9999 BKN010 27/23 Q1011 NOSIG=
23/06/2022 05:00:00Z	 SAID32 WIPP 230500	METAR WIPP 230500Z 18005KT 9999 SCT010 28/23 Q1010 NOSIG=
23/06/2022 05:30:00Z	 SAID32 WIPP 230530	METAR WIPP 230530Z 12006KT 9999 FEW010 28/23 Q1010 NOSIG=
23/06/2022 06:00:00Z	 SAID32 WIPP 230600	METAR WIPP 230600Z 12006KT 9999 FEW010 29/23 Q1009 NOSIG=
23/06/2022 06:30:00Z	 SAID32 WIPP 230630	METAR WIPP 230630Z 10006KT 9999 FEW010 29/24 Q1009 NOSIG=
23/06/2022 07:00:00Z	 SAID32 WIPP 230700	METAR WIPP 230700Z 10006KT 9999 FEW010 29/23 Q1009 NOSIG=
23/06/2022 07:30:00Z	 SAID32 WIPP 230730	METAR WIPP 230730Z 10008KT 9999 FEW010 29/23 Q1008 NOSIG=
23/06/2022 08:00:00Z	 SAID32 WIPP 230800	METAR WIPP 230800Z 08007KT 9999 FEW010 29/24 Q1008 NOSIG=
23/06/2022 08:30:00Z	 SAID32 WIPP 230830	METAR WIPP 230830Z 11010KT 9999 SCT010 29/24 Q1008 NOSIG=
23/06/2022 09:00:00Z	 SAID32 WIPP 230900	METAR WIPP 230900Z 08013KT 9999 BKN010 28/24 Q1008 NOSIG=
23/06/2022 09:30:00Z	 SAID32 WIPP 230930	METAR WIPP 230930Z 10009KT 9999 BKN010 28/24 Q1008 NOSIG=
23/06/2022 10:00:00Z	 SAID32 WIPP 231000	METAR WIPP 231000Z 08008KT 9999 BKN010 28/24 Q1009 NOSIG=
23/06/2022 10:30:00Z	 SAID32 WIPP 231030	METAR WIPP 231030Z 09008KT 9999 BKN010 28/24 Q1009 NOSIG=
23/06/2022 11:00:00Z	 SAID32 WIPP 231100	METAR WIPP 231100Z 11007KT 9999 SCT010 27/23 Q1009 NOSIG=
23/06/2022 11:30:00Z	 SAID32 WIPP 231130	METAR WIPP 231130Z 12004KT 9999 SCT010 27/23 Q1009 NOSIG=
23/06/2022 12:00:00Z	 SAID32 WIPP 231200	METAR WIPP 231200Z 13003KT 9999 SCT010 27/23 Q1010 NOSIG=
23/06/2022 12:30:00Z	 SAID32 WIPP 231230	METAR WIPP 231230Z 16002KT 9999 SCT010 26/24 Q1010 NOSIG=
23/06/2022 13:00:00Z	 SAID32 WIPP 231300	METAR WIPP 231300Z 13002KT 9999 SCT010 26/24 Q1010 NOSIG=
23/06/2022 13:30:00Z	 SAID32 WIPP 231330	METAR WIPP 231330Z 16002KT 9999 SCT010 26/24 Q1011 NOSIG=
23/06/2022 14:00:00Z	 SAID32 WIPP 231400	METAR WIPP 231400Z 00000KT 8000 SCT010 26/24 Q1011 NOSIG=
23/06/2022 14:30:00Z	 SAID32 WIPP 231430	METAR WIPP 231430Z 00000KT 9999 SCT010 26/24 Q1011 NOSIG=
23/06/2022 15:00:00Z	 SAID32 WIPP 231500	METAR WIPP 231500Z 24002KT 5000 HZ SCT010 25/24 Q1011=
23/06/2022 15:30:00Z	 SAID32 WIPP 231530	METAR WIPP 231530Z 00000KT 4000 HZ SCT010 25/24 Q1011=
23/06/2022 16:00:00Z	 SAID32 WIPP 231600	METAR WIPP 231600Z 22002KT 4000 HZ SCT010 25/24 Q1011=
23/06/2022 16:30:00Z	 SAID32 WIPP 231630	METAR WIPP 231630Z 00000KT 4000 HZ SCT010 25/24 Q1011=
23/06/2022 17:00:00Z	 SAID32 WIPP 231700	METAR WIPP 231700Z 23002KT 4000 HZ SCT010 25/24 Q1011=
23/06/2022 17:30:00Z	 SAID32 WIPP 231730	METAR WIPP 231730Z 20002KT 4000 HZ SCT010 25/24 Q1010=
23/06/2022 18:00:00Z	 SAID32 WIPP 231800	METAR WIPP 231800Z 21002KT 3000 HZ SCT010 25/24 Q1011=
23/06/2022 18:30:00Z	 SAID32 WIPP 231830	METAR WIPP 231830Z 22002KT 3000 HZ SCT010 24/23 Q1010=
23/06/2022 19:00:00Z	 SAID32 WIPP 231900	METAR WIPP 231900Z 00000KT 3000 HZ SCT010 24/23 Q1010=
23/06/2022 19:30:00Z	 SAID32 WIPP 231930	METAR WIPP 231930Z 00000KT 3000 HZ SCT010 24/23 Q1009=
23/06/2022 20:00:00Z	 SAID32 WIPP 232000	METAR WIPP 232000Z 23003KT 3000 HZ SCT010 24/23 Q1009=
23/06/2022 20:30:00Z	 SAID32 WIPP 232030	METAR WIPP 232030Z 22002KT 3000 BR SCT010 24/23 Q1008=
23/06/2022 21:00:00Z	 SAID32 WIPP 232100	METAR WIPP 232100Z 20002KT 5000 BR SCT010 23/23 Q1008=
23/06/2022 21:30:00Z	 SAID32 WIPP 232130	METAR WIPP 232130Z 16002KT 5000 BR SCT010 23/23 Q1009=
23/06/2022 22:00:00Z	 SAID32 WIPP 232200	METAR WIPP 232200Z 21002KT 5000 BR SCT010 23/23 Q1009=
23/06/2022 22:30:00Z	 SAID32 WIPP 232230	METAR WIPP 232230Z 00000KT 7000 SCT010 23/23 Q1009=
23/06/2022 23:00:00Z	 SAID32 WIPP 232300	METAR WIPP 232300Z 18002KT 8000 SCT010 23/23 Q1009=
23/06/2022 23:30:00Z	 SAID32 WIPP 232330	METAR WIPP 232330Z 16002KT 6000 SCT010 23/23 Q1010=
24/06/2022 00:00:00Z	 SAID32 WIPP 240000	METAR WIPP 240000Z 17002KT 6000 SCT010 24/23 Q1010=
24/06/2022 00:30:00Z	 SAID32 WIPP 240030	METAR WIPP 240030Z 18002KT 7000 SCT010 24/23 Q1010 NOSIG=
24/06/2022 01:00:00Z	 SAID32 WIPP 240100	METAR WIPP 240100Z 16004KT 8000 BKN010 25/24 Q1011 NOSIG=
24/06/2022 01:30:00Z	 SAID32 WIPP 240130	METAR WIPP 240130Z 16007KT 9999 SCT010 26/24 Q1011 NOSIG=
24/06/2022 02:00:00Z	 SAID32 WIPP 240200	METAR WIPP 240200Z 14010KT 9999 FEW010 26/23 Q1011 NOSIG=
24/06/2022 02:30:00Z	 SAID32 WIPP 240230	METAR WIPP 240230Z 14009KT 9999 FEW010 26/23 Q1011 NOSIG=
24/06/2022 03:00:00Z	 SAID32 WIPP 240300	METAR WIPP 240300Z 16009KT 9999 FEW010 28/23 Q1011 NOSIG=
24/06/2022 03:30:00Z	 SAID32 WIPP 240330	METAR WIPP 240330Z 13009KT 9999 SCT010 29/23 Q1010 NOSIG=
24/06/2022 04:00:00Z	 SAID32 WIPP 240400	METAR WIPP 240400Z 18010KT 9999 BKN010 29/23 Q1010 NOSIG=
24/06/2022 04:30:00Z	 SAID32 WIPP 240430	METAR WIPP 240430Z 11008KT 9999 BKN010 29/23 Q1010 NOSIG=
24/06/2022 05:00:00Z	 SAID32 WIPP 240500	METAR WIPP 240500Z 13006KT 9999 BKN010 29/23 Q1010 NOSIG=
24/06/2022 05:30:00Z	 SAID32 WIPP 240530	METAR WIPP 240530Z 14010KT 9999 FEW010CB BKN011 29/23 Q1009 RMK CB OVER THE FIELD=
24/06/2022 06:00:00Z	 SAID32 WIPP 240600	METAR WIPP 240600Z 16007KT 9999 FEW010CB BKN011 30/23 Q1008 RMK CB TO NW=
24/06/2022 06:30:00Z	 SAID32 WIPP 240630	METAR WIPP 240630Z 14005KT 9999 BKN010 30/23 Q1008 NOSIG=
24/06/2022 07:00:00Z	 SAID32 WIPP 240700	METAR WIPP 240700Z 15004KT 9999 BKN010 30/23 Q1007 NOSIG=
24/06/2022 07:30:00Z	 SAID32 WIPP 240730	METAR WIPP 240730Z 12010KT 9999 FEW010CB BKN011 30/23 Q1007 RMK CB TO NE=
24/06/2022 08:00:00Z	 SAID32 WIPP 240800	METAR WIPP 240800Z 09006KT 8000 -RA FEW010CB BKN011 28/25 Q1007 RMK CB TO NE=
24/06/2022 08:30:00Z	 SAID32 WIPP 240830	METAR WIPP 240830Z 17006KT 9999 FEW010CB BKN011 29/25 Q1007 RERA RMK CB TO SE=
24/06/2022 09:00:00Z	 SAID32 WIPP 240900	METAR WIPP 240900Z 17006KT 9999 -RA FEW010CB BKN011 27/24 Q1007 RMK CB TO SE=
24/06/2022 09:30:00Z	 SAID32 WIPP 240930	METAR WIPP 240930Z 10017KT 9999 FEW010CB BKN011 26/23 Q1007 TEMPO FM0940 11008G20KT 3000 TSRA RMK CB TO SE=
24/06/2022 09:30:00Z	 SAID32 WIPP 240930 CCA	METAR WIPP 240930Z 10017KT 9999 FEW010CB BKN011 26/23 Q1007 TEMPO FM0940 11008G20KT 3000 TSRA RERA RMK CB TO SE=
24/06/2022 10:00:00Z	 SAID32 WIPP 241000	METAR WIPP 241000Z 13010KT 9999 FEW010CB BKN011 25/24 Q1007 RMK CB TO SE AND S=
24/06/2022 10:30:00Z	 SAID32 WIPP 241030	METAR WIPP 241030Z 15005KT 8000 BKN011 24/24 Q1008=
24/06/2022 11:00:00Z	 SAID32 WIPP 241100	METAR WIPP 241100Z 14002KT 9999 BKN011 25/24 Q1008=
24/06/2022 11:30:00Z	 SAID32 WIPP 241130	METAR WIPP 241130Z 12003KT 9999 BKN011 25/24 Q1008=
24/06/2022 12:00:00Z	 SAID32 WIPP 241200	METAR WIPP 241200Z 00000KT 9999 BKN011 25/24 Q1008=
24/06/2022 12:30:00Z	 SAID32 WIPP 241230	METAR WIPP 241230Z 15003KT 9999 BKN011 25/24 Q1009=
24/06/2022 13:00:00Z	 SAID32 WIPP 241300	METAR WIPP 241300Z 17002KT 9999 SCT010 25/24 Q1009 NOSIG=
24/06/2022 13:30:00Z	 SAID32 WIPP 241330	METAR WIPP 241330Z 16004KT 9999 SCT010 25/24 Q1010 NOSIG=
24/06/2022 14:00:00Z	 SAID32 WIPP 241400	METAR WIPP 241400Z 14004KT 9999 SCT010 25/24 Q1010 NOSIG=
24/06/2022 14:30:00Z	 SAID32 WIPP 241430	METAR WIPP 241430Z 16003KT 9999 SCT010 25/24 Q1010 NOSIG=
24/06/2022 15:00:00Z	 SAID32 WIPP 241500	METAR WIPP 241500Z 15003KT 9999 SCT010 25/24 Q1010 NOSIG=
24/06/2022 15:30:00Z	 SAID32 WIPP 241530	METAR WIPP 241530Z 14003KT 9999 SCT010 25/24 Q1009 NOSIG=
24/06/2022 16:00:00Z	 SAID32 WIPP 241600	METAR WIPP 241600Z 17002KT 9999 SCT010 25/24 Q1009 NOSIG=
24/06/2022 16:30:00Z	 SAID32 WIPP 241630	METAR WIPP 241630Z 00000KT 9999 SCT010 25/23 Q1009 NOSIG=
24/06/2022 17:00:00Z	 SAID32 WIPP 241700	METAR WIPP 241700Z 00000KT 9999 SCT010 25/24 Q1009 NOSIG=
24/06/2022 17:30:00Z	 SAID32 WIPP 241730	METAR WIPP 241730Z 00000KT 9999 SCT010 25/24 Q1009 NOSIG=
24/06/2022 18:00:00Z	 SAID32 WIPP 241800	METAR WIPP 241800Z 00000KT 9999 FEW010 25/24 Q1008 NOSIG=
24/06/2022 18:30:00Z	 SAID32 WIPP 241830	METAR WIPP 241830Z AUTO 22002KT 5000NDV OVC220 24/24 Q1008=
24/06/2022 19:00:00Z	 SAID32 WIPP 241900	METAR WIPP 241900Z AUTO 00000KT 2700NDV BR OVC021 24/24 Q1008=
24/06/2022 19:30:00Z	 SAID32 WIPP 241930	METAR WIPP 241930Z AUTO 00000KT 1600NDV R11/P2000N R29/P2000N BR BKN020 BKN024 OVC030 24/24 Q1008=
24/06/2022 20:00:00Z	 SAID32 WIPP 242000	METAR WIPP 242000Z AUTO 00000KT 2800NDV BR BKN022 BKN029 OVC230 24/24 Q1007=
24/06/2022 20:30:00Z	 SAID32 WIPP 242030	METAR WIPP 242030Z AUTO VRB02KT 2200NDV BR OVC017 24/24 Q1007=
24/06/2022 21:00:00Z	 SAID32 WIPP 242100	METAR WIPP 242100Z 21002KT 8000 FEW010 24/24 Q1007 NOSIG=
24/06/2022 21:30:00Z	 SAID32 WIPP 242130	METAR WIPP 242130Z 22002KT 7000 FEW010 24/23 Q1007 NOSIG=
24/06/2022 22:00:00Z	 SAID32 WIPP 242200	METAR WIPP 242200Z 00000KT 7000 FEW010 24/23 Q1008 NOSIG=
24/06/2022 22:30:00Z	 SAID32 WIPP 242230	METAR WIPP 242230Z 00000KT 7000 FEW010 24/23 Q1008 NOSIG=
24/06/2022 23:00:00Z	 SAID32 WIPP 242300	METAR WIPP 242300Z 23002KT 7000 FEW010 24/23 Q1008 NOSIG=
24/06/2022 23:30:00Z	 SAID32 WIPP 242330	METAR WIPP 242330Z 21002KT 8000 FEW010 24/23 Q1009 NOSIG=
25/06/2022 00:00:00Z	 SAID32 WIPP 250000	METAR WIPP 250000Z 22002KT 8000 FEW010 24/24 Q1009 NOSIG=
25/06/2022 00:30:00Z	 SAID32 WIPP 250030	METAR WIPP 250030Z 23005KT 8000 FEW010 25/24 Q1009 NOSIG=
25/06/2022 01:00:00Z	 SAID32 WIPP 250100	METAR WIPP 250100Z 21002KT 8000 FEW010 26/24 Q1010 NOSIG=
25/06/2022 01:30:00Z	 SAID32 WIPP 250130	METAR WIPP 250130Z 22002KT 9999 FEW010 26/25 Q1010 NOSIG=
25/06/2022 02:00:00Z	 SAID32 WIPP 250200	METAR WIPP 250200Z 21004KT 9999 FEW010 26/24 Q1009 NOSIG=
25/06/2022 02:30:00Z	 SAID32 WIPP 250230	METAR WIPP 250230Z 20003KT 9999 SCT010 28/25 Q1009 NOSIG=
25/06/2022 03:00:00Z	 SAID32 WIPP 250300	METAR WIPP 250300Z 18004KT 9999 SCT010 28/24 Q1009 NOSIG=
25/06/2022 03:30:00Z	 SAID32 WIPP 250330	METAR WIPP 250330Z 22003KT 9999 BKN010 28/24 Q1009 NOSIG=
25/06/2022 04:00:00Z	 SAID32 WIPP 250400	METAR WIPP 250400Z 22003KT 9999 BKN010 29/25 Q1009 NOSIG=
25/06/2022 04:00:00Z	 SAID32 WIPP 250400 CCA	METAR COR WIPP 250400Z 22003KT 9999 BKN010 29/25 Q1008 NOSIG=
25/06/2022 04:30:00Z	 SAID32 WIPP 250430	METAR WIPP 250430Z 18002KT 9999 BKN010 30/24 Q1008 NOSIG=
25/06/2022 05:00:00Z	 SAID32 WIPP 250500	METAR WIPP 250500Z 22003KT 9999 SCT010 30/24 Q1008 NOSIG=
25/06/2022 05:30:00Z	 SAID32 WIPP 250530	METAR WIPP 250530Z 21003KT 9999 SCT010 31/23 Q1007 NOSIG=
25/06/2022 06:00:00Z	 SAID32 WIPP 250600	METAR WIPP 250600Z 00000KT 9999 SCT010 30/23 Q1007 NOSIG=
25/06/2022 06:30:00Z	 SAID32 WIPP 250630	METAR WIPP 250630Z 22002KT 9999 SCT010 31/24 Q1006 NOSIG=
25/06/2022 07:00:00Z	 SAID32 WIPP 250700	METAR WIPP 250700Z 14002KT 9999 SCT010 32/23 Q1006 NOSIG=
25/06/2022 07:30:00Z	 SAID32 WIPP 250730	METAR WIPP 250730Z 35005KT 9999 SCT010 32/23 Q1005 NOSIG=
25/06/2022 08:00:00Z	 SAID32 WIPP 250800	METAR WIPP 250800Z 36004KT 9999 BKN010 32/23 Q1005 NOSIG=
25/06/2022 08:30:00Z	 SAID32 WIPP 250830	METAR WIPP 250830Z 02005KT 9999 BKN010 31/24 Q1006 NOSIG=
25/06/2022 09:00:00Z	 SAID32 WIPP 250900	METAR WIPP 250900Z 03011KT 9999 FEW010CB BKN010 30/24 Q1006 RMK CB TO S=
25/06/2022 09:30:00Z	 SAID32 WIPP 250930	METAR WIPP 250930Z 09011KT 9999 FEW010CB BKN010 28/24 Q1007 RMK CB TO S AND SW=
25/06/2022 10:00:00Z	 SAID32 WIPP 251000	METAR WIPP 251000Z 11008KT 9999 FEW010CB BKN010 27/24 Q1007 RMK CB TO SW=
25/06/2022 10:30:00Z	 SAID32 WIPP 251030	METAR WIPP 251030Z 12007KT 9999 FEW010CB BKN010 26/23 Q1008 RMK CB TO W=
25/06/2022 11:00:00Z	 SAID32 WIPP 251100	METAR WIPP 251100Z 12006KT 9999 BKN010 26/23 Q1008 NOSIG=
25/06/2022 11:30:00Z	 SAID32 WIPP 251130	METAR WIPP 251130Z 13004KT 9999 BKN010 26/23 Q1009 NOSIG=
25/06/2022 12:00:00Z	 SAID32 WIPP 251200	METAR WIPP 251200Z 01002KT 9999 BKN010 26/23 Q1009 NOSIG=
25/06/2022 12:30:00Z	 SAID32 WIPP 251230	METAR WIPP 251230Z 02003KT 8000 -RA BKN010 25/24 Q1009=
25/06/2022 13:00:00Z	 SAID32 WIPP 251300	METAR WIPP 251300Z 02002KT 8000 -RA BKN010 25/23 Q1009=
25/06/2022 13:30:00Z	 SAID32 WIPP 251330	METAR WIPP 251330Z 13002KT 8000 -RA BKN010 25/23 Q1010=
25/06/2022 14:00:00Z	 SAID32 WIPP 251400	METAR WIPP 251400Z 22002KT 8000 BKN010 25/24 Q1010 RERA=
25/06/2022 14:30:00Z	 SAID32 WIPP 251430	METAR WIPP 251430Z 21002KT 8000 BKN010 25/24 Q1011=
25/06/2022 15:00:00Z	 SAID32 WIPP 251500	METAR WIPP 251500Z 19003KT 8000 -RA BKN010 25/24 Q1011=
25/06/2022 15:30:00Z	 SAID32 WIPP 251530	METAR WIPP 251530Z 21003KT 8000 -RA BKN010 25/24 Q1010=
25/06/2022 16:00:00Z	 SAID32 WIPP 251600	METAR WIPP 251600Z 20002KT 8000 BKN010 25/24 Q1010 RERA=
25/06/2022 16:30:00Z	 SAID32 WIPP 251630	METAR WIPP 251630Z 21004KT 8000 BKN010 25/24 Q1010=
25/06/2022 17:00:00Z	 SAID32 WIPP 251700	METAR WIPP 251700Z 17002KT 8000 BKN010 25/24 Q1010=
25/06/2022 17:30:00Z	 SAID32 WIPP 251730	METAR WIPP 251730Z 18003KT 8000 BKN010 24/24 Q1010=
25/06/2022 18:00:00Z	 SAID32 WIPP 251800	METAR WIPP 251800Z 20002KT 8000 BKN010 24/24 Q1009=
25/06/2022 18:30:00Z	 SAID32 WIPP 251830	METAR WIPP 251830Z 22004KT 8000 BKN010 24/23 Q1009=
25/06/2022 19:00:00Z	 SAID32 WIPP 251900	METAR WIPP 251900Z 22002KT 7000 BKN010 24/23 Q1009=
25/06/2022 19:30:00Z	 SAID32 WIPP 251930	METAR WIPP 251930Z 20002KT 7000 BKN010 24/23 Q1008=
25/06/2022 20:00:00Z	 SAID32 WIPP 252000	METAR WIPP 252000Z 15002KT 7000 SCT010 24/23 Q1008=
25/06/2022 20:30:00Z	 SAID32 WIPP 252030	METAR WIPP 252030Z 20002KT 7000 SCT010 23/23 Q1008=
25/06/2022 21:00:00Z	 SAID32 WIPP 252100	METAR WIPP 252100Z 22003KT 7000 SCT010 23/23 Q1008=
25/06/2022 21:30:00Z	 SAID32 WIPP 252130	METAR WIPP 252130Z 11003KT 7000 SCT010 23/23 Q1008=
25/06/2022 22:00:00Z	 SAID32 WIPP 252200	METAR WIPP 252200Z 26003KT 7000 SCT010 23/23 Q1008=
25/06/2022 22:30:00Z	 SAID32 WIPP 252230	METAR WIPP 252230Z 00000KT 5000 BR SCT010 23/23 Q1008=
25/06/2022 23:00:00Z	 SAID32 WIPP 252300	METAR WIPP 252300Z 00000KT 5000 BR SCT010 23/23 Q1008=
25/06/2022 23:30:00Z	 SAID32 WIPP 252330	METAR WIPP 252330Z 00000KT 5000 BR SCT010 24/23 Q1009=
26/06/2022 00:00:00Z	 SAID32 WIPP 260000	METAR WIPP 260000Z 10002KT 5000 BR SCT010 24/23 Q1009=
26/06/2022 00:30:00Z	 SAID32 WIPP 260030	METAR WIPP 260030Z 00000KT 7000 SCT010 24/23 Q1009=
26/06/2022 01:00:00Z	 SAID32 WIPP 260100	METAR WIPP 260100Z 13002KT 3000 BR FEW010 25/24 Q1010=
26/06/2022 01:30:00Z	 SAID32 WIPP 260130	METAR WIPP 260130Z 16002KT 8000 FEW010 26/24 Q1010=
26/06/2022 02:00:00Z	 SAID32 WIPP 260200	METAR WIPP 260200Z 19002KT 9999 FEW010 27/24 Q1010 NOSIG=
26/06/2022 02:30:00Z	 SAID32 WIPP 260230	METAR WIPP 260230Z 18004KT 9999 FEW010 28/24 Q1010 NOSIG=
26/06/2022 03:00:00Z	 SAID32 WIPP 260300	METAR WIPP 260300Z 13004KT 9999 SCT010 29/24 Q1010 NOSIG=
26/06/2022 03:30:00Z	 SAID32 WIPP 260330	METAR WIPP 260330Z 12003KT 9999 SCT010 30/24 Q1010 NOSIG=
26/06/2022 04:00:00Z	 SAID32 WIPP 260400	METAR WIPP 260400Z 09007KT 9999 BKN010 30/24 Q1010 NOSIG=
26/06/2022 04:30:00Z	 SAID32 WIPP 260430	METAR WIPP 260430Z 09008KT 9999 BKN010 30/24 Q1009 NOSIG=
26/06/2022 05:00:00Z	 SAID32 WIPP 260500	METAR WIPP 260500Z 11006KT 9999 BKN010 30/24 Q1009 NOSIG=
26/06/2022 05:30:00Z	 SAID32 WIPP 260530	METAR WIPP 260530Z 12005KT 9999 BKN010 30/24 Q1009 NOSIG=
26/06/2022 06:00:00Z	 SAID32 WIPP 260600	METAR WIPP 260600Z 10002KT 9999 BKN010 30/24 Q1008 NOSIG=
26/06/2022 06:30:00Z	 SAID32 WIPP 260630	METAR WIPP 260630Z 14009KT 9999 BKN010 30/23 Q1008 NOSIG=
26/06/2022 07:00:00Z	 SAID32 WIPP 260700	METAR WIPP 260700Z 14005KT 9999 BKN010 30/24 Q1008 NOSIG=
26/06/2022 07:30:00Z	 SAID32 WIPP 260730	METAR WIPP 260730Z 21003KT 9999 BKN010 31/23 Q1007 NOSIG=
26/06/2022 08:00:00Z	 SAID32 WIPP 260800	METAR WIPP 260800Z 16005KT 9999 SCT010 31/23 Q1007 NOSIG=
26/06/2022 08:30:00Z	 SAID32 WIPP 260830	METAR WIPP 260830Z 14003KT 9999 SCT010 31/24 Q1007 NOSIG=
26/06/2022 09:00:00Z	 SAID32 WIPP 260900	METAR WIPP 260900Z 11003KT 9999 SCT010 31/24 Q1007 NOSIG=
26/06/2022 09:30:00Z	 SAID32 WIPP 260930	METAR WIPP 260930Z 13003KT 9999 SCT010 31/23 Q1007 NOSIG=
26/06/2022 10:00:00Z	 SAID32 WIPP 261000	METAR WIPP 261000Z 11004KT 9999 SCT010 31/23 Q1007 NOSIG=
26/06/2022 10:30:00Z	 SAID32 WIPP 261030	METAR WIPP 261030Z 09008KT 9999 SCT010 30/25 Q1008 NOSIG=
26/06/2022 11:00:00Z	 SAID32 WIPP 261100	METAR WIPP 261100Z 12014KT 2000 RA FEW010CB BKN010 28/26 Q1008 RMK CB OVER THE FIELD=
26/06/2022 11:30:00Z	 SAID32 WIPP 261130	METAR WIPP 261130Z 14005KT 8000 -RA FEW010CB BKN010 27/25 Q1009 RMK CB TO NW=
26/06/2022 12:00:00Z	 SAID32 WIPP 261200	METAR WIPP 261200Z 12003KT 999 SCT010 27/25 Q1009 RERA=
26/06/2022 12:30:00Z	 SAID32 WIPP 261230	METAR WIPP 261230Z 10002KT 9999 FEW010 27/25 Q1010=
26/06/2022 13:00:00Z	 SAID32 WIPP 261300	METAR WIPP 261300Z 00000KT 9999 FEW010 27/25 Q1010 NOSIG=
26/06/2022 13:30:00Z	 SAID32 WIPP 261330	METAR WIPP 261330Z 00000KT 6000 FEW010 27/25 Q1010 NOSIG=
26/06/2022 14:00:00Z	 SAID32 WIPP 261400	METAR WIPP 261400Z 13002KT 8000 FEW010 27/25 Q1010 NOSIG=
26/06/2022 14:30:00Z	 SAID32 WIPP 261430	METAR WIPP 261430Z 17003KT 8000 FEW010 26/25 Q1010 NOSIG=
26/06/2022 15:00:00Z	 SAID32 WIPP 261500	METAR WIPP 261500Z 17002KT 9999 FEW010 26/25 Q1011 NOSIG=
26/06/2022 15:30:00Z	 SAID32 WIPP 261530	METAR WIPP 261530Z 00000KT 9999 FEW010 26/25 Q1010 NOSIG=
26/06/2022 16:00:00Z	 SAID32 WIPP 261600	METAR WIPP 261600Z 22002KT 8000 FEW010 26/24 Q1011 NOSIG=
26/06/2022 16:30:00Z	 SAID32 WIPP 261630	METAR WIPP 261630Z 03002KT 6000 FEW010 26/25 Q1011 NOSIG=
26/06/2022 17:00:00Z	 SAID32 WIPP 261700	METAR WIPP 261700Z 00000KT 4000 BR FEW010 25/24 Q1010=
26/06/2022 17:30:00Z	 SAID32 WIPP 261730	METAR WIPP 261730Z 00000KT 2000 BR FEW010 25/24 Q1010=
26/06/2022 18:00:00Z	 SAID32 WIPP 261800	METAR WIPP 261800Z 00000KT 1000 BR FEW010 25/24 Q1010=
26/06/2022 18:30:00Z	 SAID32 WIPP 261830	METAR WIPP 261830Z 00000KT 2000 BR FEW010 25/24 Q1010=
26/06/2022 19:00:00Z	 SAID32 WIPP 261900	METAR WIPP 261900Z 00000KT 2000 BR FEW010 25/24 Q1010=
26/06/2022 19:30:00Z	 SAID32 WIPP 261930	METAR WIPP 261930Z 00000KT 1000 BR FEW010 25/24 Q1010=
26/06/2022 20:00:00Z	 SAID32 WIPP 262000	METAR WIPP 262000Z 00000KT 1000 BR FEW010 25/24 Q1010=
26/06/2022 20:30:00Z	 SAID32 WIPP 262030	METAR WIPP 262030Z 00000KT 2000 BR FEW010 25/24 Q1009=
26/06/2022 21:00:00Z	 SAID32 WIPP 262100	METAR WIPP 262100Z 00000KT 1000 BR FEW010 25/24 Q1009=
26/06/2022 21:30:00Z	 SAID32 WIPP 262130	METAR WIPP 262130Z 00000KT 1000 BR FEW010 25/24 Q1009=
26/06/2022 22:00:00Z	 SAID32 WIPP 262200	METAR WIPP 262200Z 00000KT 2000 BR FEW010 25/24 Q1009=
26/06/2022 22:30:00Z	 SAID32 WIPP 262230	METAR WIPP 262230Z 00000KT 3000 BR FEW010 25/24 Q1010=
26/06/2022 23:00:00Z	 SAID32 WIPP 262300	METAR WIPP 262300Z 08002KT 3000 BR FEW010 25/24 Q1009=
26/06/2022 23:30:00Z	 SAID32 WIPP 262330	METAR WIPP 262330Z 08003KT 2000 BR FEW010 25/24 Q1010=
27/06/2022 00:00:00Z	 SAID32 WIPP 270000	METAR WIPP 270000Z 00000KT 4000 BR FEW010 25/24 Q1010=
27/06/2022 00:30:00Z	 SAID32 WIPP 270030	METAR WIPP 270030Z 12002KT 5000 BR FEW010 26/25 Q1011=
27/06/2022 01:00:00Z	 SAID32 WIPP 270100	METAR WIPP 270100Z 12004KT 6000 BR FEW010 26/25 Q1011=
27/06/2022 01:30:00Z	 SAID32 WIPP 270130	METAR WIPP 270130Z 12004KT 8000 FEW010 27/25 Q1011 NOSIG=
27/06/2022 02:00:00Z	 SAID32 WIPP 270200	METAR WIPP 270200Z 13003KT 8000 FEW010 27/26 Q1011 NOSIG=
27/06/2022 02:30:00Z	 SAID32 WIPP 270230	METAR WIPP 270230Z 16004KT 9000 FEW010 28/26 Q1011 NOSIG=
27/06/2022 03:00:00Z	 SAID32 WIPP 270300	METAR WIPP 270300Z 17005KT 9999 FEW010 29/24 Q1011 NOSIG=
27/06/2022 03:30:00Z	 SAID32 WIPP 270330	METAR WIPP 270330Z 24004KT 9999 FEW010 29/25 Q1011 NOSIG=
27/06/2022 04:00:00Z	 SAID32 WIPP 270400	METAR WIPP 270400Z 16006KT 9999 FEW010 30/25 Q1010 NOSIG=
27/06/2022 04:30:00Z	 SAID32 WIPP 270430	METAR WIPP 270430Z 15007KT 9999 SCT010 31/23 Q1010 NOSIG=
27/06/2022 05:00:00Z	 SAID32 WIPP 270500	METAR WIPP 270500Z 20005KT 9999 FEW010 31/24 Q1009 NOSIG=
27/06/2022 05:30:00Z	 SAID32 WIPP 270530	METAR WIPP 270530Z 16005KT 9999 FEW010 32/23 Q1009 NOSIG=
27/06/2022 06:00:00Z	 SAID32 WIPP 270600	METAR WIPP 270600Z 17004KT 9999 FEW010 32/23 Q1008 NOSIG=
27/06/2022 06:30:00Z	 SAID32 WIPP 270630	METAR WIPP 270630Z 16004KT 9999 FEW010 32/23 Q1008 NOSIG=
27/06/2022 07:00:00Z	 SAID32 WIPP 270700	METAR WIPP 270700Z 17006KT 9999 FEW010CB SCT011 32/23 Q1007 RMK CB TO SW=
27/06/2022 07:30:00Z	 SAID32 WIPP 270730	METAR WIPP 270730Z 17005KT 9999 FEW010 33/24 Q1007 NOSIG=
27/06/2022 08:00:00Z	 SAID32 WIPP 270800	METAR WIPP 270800Z 18005KT 9999 FEW010 33/24 Q1006 NOSIG=
27/06/2022 08:30:00Z	 SAID32 WIPP 270830	METAR WIPP 270830Z 21005KT 9999 FEW010 33/23 Q1006 NOSIG=
27/06/2022 09:00:00Z	 SAID32 WIPP 270900	METAR WIPP 270900Z 21004KT 9999 FEW010CB FEW010 33/24 Q1006 RMK CB TO E=
27/06/2022 09:30:00Z	 SAID32 WIPP 270930	METAR WIPP 270930Z 18004KT 9999 FEW010CB SCT010 32/23 Q1006 RMK CB TO SE AND SW=
27/06/2022 10:00:00Z	 SAID32 WIPP 271000	METAR WIPP 271000Z 11008KT 9999 FEW010CB SCT010 30/24 Q1007 RMK CB TO N AND E=
27/06/2022 10:30:00Z	 SAID32 WIPP 271030	METAR WIPP 271030Z 09006KT 9999 FEW010CB BKN010 29/24 Q1007 RMK CB TO S AND W=
27/06/2022 11:00:00Z	 SAID32 WIPP 271100	METAR WIPP 271100Z 13003KT 8000 FEW010CB BKN010 28/24 Q1007 RMK CB TO W=
27/06/2022 11:30:00Z	 SAID32 WIPP 271130	METAR WIPP 271130Z 11006KT 8000 FEW010CB BKN010 28/24 Q1008 RERA RMK CB TO W=
27/06/2022 12:00:00Z	 SAID32 WIPP 271200	METAR WIPP 271200Z 11002KT 9999 FEW010CB SCT010 28/24 Q1008 RMK CB TO SE AND NW=
27/06/2022 12:30:00Z	 SAID32 WIPP 271230	METAR WIPP 271230Z 08003KT 8000 FEW010CB SCT010 28/24 Q1009 RMK CB TO N AND SE=
27/06/2022 13:00:00Z	 SAID32 WIPP 271300	METAR WIPP 271300Z 08004KT 9999 SCT010 27/25 Q1009 NOSIG=
27/06/2022 13:30:00Z	 SAID32 WIPP 271330	METAR WIPP 271330Z 07003KT 9999 SCT010 27/25 Q1009 NOSIG=
27/06/2022 14:00:00Z	 SAID32 WIPP 271400	METAR WIPP 271400Z 11003KT 9999 SCT010 27/25 Q1009 NOSIG=
27/06/2022 14:30:00Z	 SAID32 WIPP 271430	METAR WIPP 271430Z 10002KT 9999 SCT010 26/24 Q1009 NOSIG=
27/06/2022 15:00:00Z	 SAID32 WIPP 271500	METAR WIPP 271500Z 12003KT 6000 SCT010 26/24 Q1009 NOSIG=
27/06/2022 15:30:00Z	 SAID32 WIPP 271530	METAR WIPP 271530Z 10002KT 6000 SCT010 26/24 Q1009 NOSIG=
27/06/2022 16:00:00Z	 SAID32 WIPP 271600	METAR WIPP 271600Z 12003KT 8000 SCT010 26/24 Q1009 NOSIG=
27/06/2022 16:30:00Z	 SAID32 WIPP 271630	METAR WIPP 271630Z 13005KT 9999 SCT010 26/24 Q1009 NOSIG=
27/06/2022 17:00:00Z	 SAID32 WIPP 271700	METAR WIPP 271700Z 13003KT 9999 SCT010 26/24 Q1009 NOSIG=
27/06/2022 17:30:00Z	 SAID32 WIPP 271730	METAR WIPP 271730Z 14005KT 9999 SCT010 26/24 Q1009 NOSIG=
27/06/2022 18:00:00Z	 SAID32 WIPP 271800	METAR WIPP 271800Z 14002KT 9999 SCT010 26/24 Q1009 NOSIG=
27/06/2022 18:30:00Z	 SAID32 WIPP 271830	METAR WIPP 271830Z 15004KT 9999 SCT010 26/24 Q1009 NOSIG=
