01/12/2020 00:00:00Z	 SAID34 WAGG 010000	METAR WAGG 010000Z 04002KT 9999 SCT011 27/25 Q1012=
01/12/2020 00:30:00Z	 SAID34 WAGG 010030	METAR WAGG 010030Z 04002KT 9999 SCT011 28/26 Q1012=
01/12/2020 01:00:00Z	 SAID34 WAGG 010100	METAR WAGG 010100Z 36002KT 9999 SCT011 30/26 Q1013=
01/12/2020 01:30:00Z	 SAID34 WAGG 010130	METAR WAGG 010130Z 34002KT 9999 SCT011 30/24 Q1013=
01/12/2020 02:00:00Z	 SAID34 WAGG 010200	METAR WAGG 010200Z 29002KT 9999 BKN011 30/24 Q1013=
01/12/2020 02:30:00Z	 SAID34 WAGG 010230	METAR WAGG 010230Z 26002KT 9999 BKN011 30/25 Q1012=
01/12/2020 03:00:00Z	 SAID34 WAGG 010300	METAR WAGG 010300Z 08002KT 9999 BKN011 30/25 Q1012=
01/12/2020 03:30:00Z	 SAID34 WAGG 010330	METAR WAGG 010330Z 28004KT 9999 BKN010 31/24 Q1012=
01/12/2020 04:00:00Z	 SAID34 WAGG 010400	METAR WAGG 010400Z 30004KT 9999 BKN010 32/22 Q1011=
01/12/2020 04:30:00Z	 SAID34 WAGG 010430	METAR WAGG 010430Z 32006KT 9999 BKN010 33/24 Q1011=
01/12/2020 05:00:00Z	 SAID34 WAGG 010500	METAR WAGG 010500Z 26006KT 9999 BKN010 33/23 Q1010=
01/12/2020 05:30:00Z	 SAID34 WAGG 010530	METAR WAGG 010530Z 26007KT 9999 SCT011 33/23 Q1010=
01/12/2020 06:00:00Z	 SAID34 WAGG 010600	METAR WAGG 010600Z 24008KT 9999 SCT011 34/23 Q1009=
01/12/2020 06:30:00Z	 SAID34 WAGG 010630	METAR WAGG 010630Z 28006KT 9999 SCT011 33/23 Q1009=
01/12/2020 07:00:00Z	 SAID34 WAGG 010700	METAR WAGG 010700Z 28006KT 9999 SCT011 33/23 Q1008=
01/12/2020 07:30:00Z	 SAID34 WAGG 010730	METAR WAGG 010730Z 24006KT 9999 SCT011 34/23 Q1008=
01/12/2020 08:00:00Z	 SAID34 WAGG 010800	METAR WAGG 010800Z 25007KT 9999 SCT011 34/22 Q1008=
01/12/2020 08:30:00Z	 SAID34 WAGG 010830	METAR WAGG 010830Z 24009KT 9999 SCT011 33/22 Q1007=
01/12/2020 09:00:00Z	 SAID34 WAGG 010900	METAR WAGG 010900Z 23006KT 9999 SCT011 33/23 Q1007=
01/12/2020 09:30:00Z	 SAID34 WAGG 010930	METAR WAGG 010930Z 22005KT 9999 SCT011 33/23 Q1007=
01/12/2020 10:00:00Z	 SAID34 WAGG 011000	METAR WAGG 011000Z 23005KT 9999 SCT011 32/23 Q1008=
01/12/2020 10:30:00Z	 SAID34 WAGG 011030	METAR WAGG 011030Z 21004KT 9999 SCT011 30/24 Q1008=
01/12/2020 11:00:00Z	 SAID34 WAGG 011100	METAR WAGG 011100Z 20006KT 9999 SCT011 29/25 Q1009=
01/12/2020 11:30:00Z	 SAID34 WAGG 011130	METAR WAGG 011130Z 21006KT 9999 SCT011 28/25 Q1010=
01/12/2020 12:00:00Z	 SAID34 WAGG 011200	METAR WAGG 011200Z 16005KT 9000 FEW012TCU 27/25 Q1010=
01/12/2020 21:00:00Z	 SAID34 WAGG 012100	METAR WAGG 012100Z 36009KT 8000 SCT012 25/25 Q1011=
01/12/2020 21:30:00Z	 SAID34 WAGG 012130	METAR WAGG 012130Z 34004KT 8000 SCT012 25/25 Q1011=
01/12/2020 22:00:00Z	 SAID34 WAGG 012200	METAR WAGG 012200Z 35004KT 8000 SCT012 25/24 Q1011=
01/12/2020 22:30:00Z	 SAID34 WAGG 012230	METAR WAGG 012230Z 35007KT 8000 SCT012 25/24 Q1011=
01/12/2020 23:00:00Z	 SAID34 WAGG 012300	METAR WAGG 012300Z 35005KT 9999 FEW012 26/24 Q1011=
01/12/2020 23:30:00Z	 SAID34 WAGG 012330	METAR WAGG 012330Z 02003KT 9999 FEW012 27/24 Q1012=
02/12/2020 00:00:00Z	 SAID34 WAGG 020000	METAR WAGG 020000Z 04004KT 9999 FEW013 27/24 Q1012 NOSIG=
02/12/2020 00:30:00Z	 SAID34 WAGG 020030	METAR WAGG 020030Z 04003KT 9999 FEW013 28/25 Q1012 NOSIG=
02/12/2020 01:00:00Z	 SAID34 WAGG 020100	METAR WAGG 020100Z 02003KT 9999 FEW013 28/25 Q1012=
02/12/2020 01:30:00Z	 SAID34 WAGG 020130	METAR WAGG 020130Z 05005KT 9999 FEW013 28/25 Q1012=
02/12/2020 02:00:00Z	 SAID34 WAGG 020200	METAR WAGG 020200Z 35004KT 9999 SCT012 29/25 Q1012=
02/12/2020 02:30:00Z	 SAID34 WAGG 020230	METAR WAGG 020230Z 05004KT 9999 SCT012 30/25 Q1012=
02/12/2020 03:00:00Z	 SAID34 WAGG 020300	METAR WAGG 020300Z 05004KT 9999 SCT012 31/26 Q1011=
02/12/2020 03:30:00Z	 SAID34 WAGG 020330	METAR WAGG 020330Z 02004KT 9999 SCT012 31/25 Q1011=
02/12/2020 04:00:00Z	 SAID34 WAGG 020400	METAR WAGG 020400Z 01004KT 9999 BKN012 33/25 Q1011=
02/12/2020 04:30:00Z	 SAID34 WAGG 020430	METAR WAGG 020430Z 31004KT 9999 FEW011TCU BKN011 33/24 Q1010=
02/12/2020 05:00:00Z	 SAID34 WAGG 020500	METAR WAGG 020500Z 02006KT 9999 FEW011TCU BKN011 33/26 Q1010=
02/12/2020 05:30:00Z	 SAID34 WAGG 020530	METAR WAGG 020530Z 02004KT 9999 FEW011TCU BKN011 31/25 Q1009=
02/12/2020 06:00:00Z	 SAID34 WAGG 020600	METAR WAGG 020600Z 03008KT 9999 BKN010 31/25 Q1009=
02/12/2020 06:30:00Z	 SAID34 WAGG 020630	METAR WAGG 020630Z 03004KT 9999 BKN010 32/25 Q1008=
02/12/2020 07:00:00Z	 SAID34 WAGG 020700	METAR WAGG 020700Z 04004KT 9999 BKN010 32/25 Q1008=
02/12/2020 07:30:00Z	 SAID34 WAGG 020730	METAR WAGG 020730Z 34004KT 9999 BKN010 33/24 Q1007=
02/12/2020 08:30:00Z	 SAID34 WAGG 020830	METAR WAGG 020830Z 08004KT 9999 BKN010 32/25 Q1007=
02/12/2020 09:00:00Z	 SAID34 WAGG 020900	METAR WAGG 020900Z 07002KT 9999 FEW010CB BKN010 31/25 Q1007=
02/12/2020 09:30:00Z	 SAID34 WAGG 020930	METAR WAGG 020930Z 34008KT 5000 RA FEW010CB BKN010 30/26 Q1008=
02/12/2020 10:30:00Z	 SAID34 WAGG 021030	METAR WAGG 021030Z 12002KT 8000 BKN010 25/24 Q1008=
02/12/2020 11:00:00Z	 SAID34 WAGG 021100	METAR WAGG 021100Z 06003KT 8000 BKN010 26/25 Q1009=
02/12/2020 11:30:00Z	 SAID34 WAGG 021130	METAR WAGG 021130Z 14001KT 8000 BKN010 26/26 Q1009=
02/12/2020 12:00:00Z	 SAID34 WAGG 021200	METAR WAGG 021200Z 20002KT 8000 BKN011 26/25 Q1010=
02/12/2020 15:00:00Z	 SAID34 WAGG 021500	METAR WAGG 021500Z 04001KT 8000 BKN011 26/25 Q1010=
02/12/2020 21:00:00Z	 SAID34 WAGG 022100	METAR WAGG 022100Z 28001KT 8000 BKN012 26/25 Q1009=
02/12/2020 22:00:00Z	 SAID34 WAGG 022200	METAR WAGG 022200Z 24001KT 8000 FEW011CB BKN012 26/25 Q1009=
02/12/2020 22:30:00Z	 SAID34 WAGG 022230	METAR WAGG 022230Z 31004KT 8000 FEW011CB BKN012 26/26 Q1009=
02/12/2020 23:00:00Z	 SAID34 WAGG 022300	METAR WAGG 022300Z 35002KT 8000 FEW011CB BKN012 26/26 Q1010=
02/12/2020 23:30:00Z	 SAID34 WAGG 022330	METAR WAGG 022330Z 04002KT 8000 FEW011CB BKN012 27/26 Q1010=
03/12/2020 00:00:00Z	 SAID34 WAGG 030000	METAR WAGG 030000Z 05003KT 8000 FEW011CB BKN012 28/26 Q1011=
03/12/2020 00:30:00Z	 SAID34 WAGG 030030	METAR WAGG 030030Z 06003KT 8000 FEW011TCU BKN012 28/26 Q1011=
03/12/2020 01:00:00Z	 SAID34 WAGG 030100	METAR WAGG 030100Z 13002KT 8000 BKN012 29/26 Q1011=
03/12/2020 01:30:00Z	 SAID34 WAGG 030130	METAR WAGG 030130Z 14003KT 8000 BKN012 30/26 Q1011=
03/12/2020 02:00:00Z	 SAID34 WAGG 030200	METAR WAGG 030200Z 04003KT 8000 BKN012 29/26 Q1011=
03/12/2020 02:30:00Z	 SAID34 WAGG 030230	METAR WAGG 030230Z 11003KT 8000 BKN012 31/26 Q1011=
03/12/2020 03:00:00Z	 SAID34 WAGG 030300	METAR WAGG 030300Z 06003KT 9999 BKN012 30/26 Q1011=
03/12/2020 03:30:00Z	 SAID34 WAGG 030330	METAR WAGG 030330Z 05002KT 9999 BKN012 31/26 Q1010=
03/12/2020 04:00:00Z	 SAID34 WAGG 030400	METAR WAGG 030400Z 05002KT 9999 BKN012 33/26 Q1010=
03/12/2020 04:30:00Z	 SAID34 WAGG 030430	METAR WAGG 030430Z 04004KT 9999 BKN012 32/26 Q1010=
03/12/2020 05:00:00Z	 SAID34 WAGG 030500	METAR WAGG 030500Z 08002KT 9999 BKN012 33/26 Q1009=
03/12/2020 05:30:00Z	 SAID34 WAGG 030530	METAR WAGG 030530Z 31004KT 9999 BKN012 34/25 Q1008=
03/12/2020 06:00:00Z	 SAID34 WAGG 030600	METAR WAGG 030600Z 28008KT 9999 BKN012 34/25 Q1008=
03/12/2020 06:30:00Z	 SAID34 WAGG 030630	METAR WAGG 030630Z 24007KT 9999 BKN012 33/24 Q1007=
03/12/2020 07:00:00Z	 SAID34 WAGG 030700	METAR WAGG 030700Z 30005KT 9999 BKN012 34/23 Q1006=
03/12/2020 07:30:00Z	 SAID34 WAGG 030730	METAR WAGG 030730Z 29007KT 9999 BKN012 33/24 Q1006=
03/12/2020 08:00:00Z	 SAID34 WAGG 030800	METAR WAGG 030800Z 27006KT 9999 BKN012 33/25 Q1006=
03/12/2020 08:30:00Z	 SAID34 WAGG 030830	METAR WAGG 030830Z 26005KT 9999 BKN012 33/25 Q1007=
03/12/2020 09:00:00Z	 SAID34 WAGG 030900	METAR WAGG 030900Z 25006KT 9999 BKN012 32/25 Q1007=
03/12/2020 09:30:00Z	 SAID34 WAGG 030930	METAR WAGG 030930Z 17005KT 9999 BKN012 30/27 Q1007=
03/12/2020 10:00:00Z	 SAID34 WAGG 031000	METAR WAGG 031000Z 19006KT 9999 BKN012 30/27 Q1008=
03/12/2020 10:30:00Z	 SAID34 WAGG 031030	METAR WAGG 031030Z 19006KT 9999 BKN012 29/27 Q1008=
03/12/2020 11:00:00Z	 SAID34 WAGG 031100	METAR WAGG 031100Z 17004KT 9999 BKN012 29/27 Q1008=
03/12/2020 11:30:00Z	 SAID34 WAGG 031130	METAR WAGG 031130Z 14004KT 9000 BKN012 28/26 Q1009=
03/12/2020 12:00:00Z	 SAID34 WAGG 031200	METAR WAGG 031200Z 15006KT 9000 BKN012 28/27 Q1009=
03/12/2020 15:00:00Z	 SAID34 WAGG 031500	METAR WAGG 031500Z 13002KT 9000 BKN012 26/25 Q1011=
03/12/2020 18:00:00Z	 SAID34 WAGG 031800	METAR WAGG 031800Z 12002KT 8000 BKN012 25/24 Q1011=
03/12/2020 21:00:00Z	 SAID34 WAGG 032100	METAR WAGG 032100Z 00000KT 8000 BKN012 24/24 Q1010=
03/12/2020 21:30:00Z	 SAID34 WAGG 032130	METAR WAGG 032130Z 00000KT 8000 BKN012 25/24 Q1010=
03/12/2020 22:00:00Z	 SAID34 WAGG 032200	METAR WAGG 032200Z 00000KT 7000 SCT012 25/24 Q1010=
03/12/2020 22:30:00Z	 SAID34 WAGG 032230	METAR WAGG 032230Z 09002KT 8000 SCT012 25/23 Q1010=
03/12/2020 23:00:00Z	 SAID34 WAGG 032300	METAR WAGG 032300Z 14002KT 8000 SCT012 25/23 Q1010=
03/12/2020 23:30:00Z	 SAID34 WAGG 032330	METAR WAGG 032330Z 22002KT 8000 SCT012 27/25 Q1011=
04/12/2020 00:00:00Z	 SAID34 WAGG 040000	METAR WAGG 040000Z 22005KT 9999 SCT013 27/26 Q1011=
04/12/2020 00:30:00Z	 SAID34 WAGG 040030	METAR WAGG 040030Z 22008KT 9999 SCT013 28/25 Q1011=
04/12/2020 01:00:00Z	 SAID34 WAGG 040100	METAR WAGG 040100Z 26007KT 9999 SCT013 28/25 Q1011=
04/12/2020 01:30:00Z	 SAID34 WAGG 040130	METAR WAGG 040130Z 25007KT 9999 SCT011 29/25 Q1011=
04/12/2020 02:00:00Z	 SAID34 WAGG 040200	METAR WAGG 040200Z 28009KT 9999 SCT011 29/25 Q1011=
04/12/2020 02:30:00Z	 SAID34 WAGG 040230	METAR WAGG 040230Z 27008KT 9999 SCT011 30/25 Q1011=
04/12/2020 03:00:00Z	 SAID34 WAGG 040300	METAR WAGG 040300Z 27009KT 9999 SCT011 30/25 Q1010=
04/12/2020 03:30:00Z	 SAID34 WAGG 040330	METAR WAGG 040330Z 30010KT 9999 SCT011 30/25 Q1010=
04/12/2020 04:00:00Z	 SAID34 WAGG 040400	METAR WAGG 040400Z 29010KT 9999 SCT011 31/24 Q1010=
04/12/2020 04:30:00Z	 SAID34 WAGG 040430	METAR WAGG 040430Z 28010KT 9999 SCT011 31/24 Q1009=
04/12/2020 05:00:00Z	 SAID34 WAGG 040500	METAR WAGG 040500Z 25007KT 9999 SCT011 32/23 Q1009=
04/12/2020 05:30:00Z	 SAID34 WAGG 040530	METAR WAGG 040530Z 25007KT 9999 SCT011 32/24 Q1008=
04/12/2020 06:00:00Z	 SAID34 WAGG 040600	METAR WAGG 040600Z 31008KT 9999 SCT011 33/24 Q1008=
04/12/2020 06:30:00Z	 SAID34 WAGG 040630	METAR WAGG 040630Z 27004KT 9999 SCT011 34/23 Q1007=
04/12/2020 07:00:00Z	 SAID34 WAGG 040700	METAR WAGG 040700Z 25008KT 9999 SCT011 33/22 Q1007=
04/12/2020 07:30:00Z	 SAID34 WAGG 040730	METAR WAGG 040730Z 25010KT 9999 SCT011 32/22 Q1007=
04/12/2020 08:00:00Z	 SAID34 WAGG 040800	METAR WAGG 040800Z 27006KT 9999 SCT011 32/22 Q1007=
04/12/2020 08:30:00Z	 SAID34 WAGG 040830	METAR WAGG 040830Z 26006KT 9999 SCT011 32/23 Q1007=
04/12/2020 09:00:00Z	 SAID34 WAGG 040900	METAR WAGG 040900Z 25005KT 9999 SCT011 32/23 Q1007=
04/12/2020 09:30:00Z	 SAID34 WAGG 040930	METAR WAGG 040930Z 22005KT 9999 SCT011 31/24 Q1007=
04/12/2020 10:00:00Z	 SAID34 WAGG 041000	METAR WAGG 041000Z 22003KT 9999 SCT011 30/24 Q1007=
04/12/2020 10:30:00Z	 SAID34 WAGG 041030	METAR WAGG 041030Z 21003KT 8000 BKN012 30/24 Q1007=
04/12/2020 11:00:00Z	 SAID34 WAGG 041100	METAR WAGG 041100Z 20007KT 6000 -RA BKN012 29/25 Q1007=
04/12/2020 11:30:00Z	 SAID34 WAGG 041130	METAR WAGG 041130Z 21008KT 8000 BKN012 27/25 Q1009 RERA=
04/12/2020 12:00:00Z	 SAID34 WAGG 041200	METAR WAGG 041200Z 22004KT 8000 BKN012 27/24 Q1009=
04/12/2020 14:30:00Z	 SAID34 WAGG 041430	METAR WAGG 041430Z 22004KT 8000 BKN012 26/25 Q1011=
04/12/2020 15:00:00Z	 SAID34 WAGG 041500	METAR WAGG 041500Z 22003KT 8000 BKN012 26/25 Q1011=
04/12/2020 16:00:00Z	 SAID34 WAGG 041600	METAR WAGG 041600Z 23002KT 8000 BKN012 26/25 Q1011=
04/12/2020 17:00:00Z	 SAID34 WAGG 041700	METAR WAGG 041700Z 26004KT 8000 BKN012 26/25 Q1010=
04/12/2020 18:00:00Z	 SAID34 WAGG 041800	METAR WAGG 041800Z 26004KT 8000 BKN012 26/25 Q1010=
04/12/2020 19:00:00Z	 SAID34 WAGG 041900	METAR WAGG 041900Z 30002KT 8000 BKN012 25/25 Q1009=
04/12/2020 20:00:00Z	 SAID34 WAGG 042000	METAR WAGG 042000Z 30002KT 8000 BKN012 25/25 Q1009=
04/12/2020 21:00:00Z	 SAID34 WAGG 042100	METAR WAGG 042100Z 32003KT 8000 BKN012 25/24 Q1009=
04/12/2020 21:30:00Z	 SAID34 WAGG 042130	METAR WAGG 042130Z 27003KT 8000 SCT012 25/24 Q1009=
04/12/2020 22:00:00Z	 SAID34 WAGG 042200	METAR WAGG 042200Z 30003KT 8000 FEW013 25/24 Q1009=
04/12/2020 22:30:00Z	 SAID34 WAGG 042230	METAR WAGG 042230Z 31003KT 9000 FEW013 25/24 Q1010=
04/12/2020 23:00:00Z	 SAID34 WAGG 042300	METAR WAGG 042300Z 32003KT 9000 FEW013 25/25 Q1010=
04/12/2020 23:30:00Z	 SAID34 WAGG 042330	METAR WAGG 042330Z 29003KT 9000 FEW013 26/25 Q1011=
05/12/2020 00:00:00Z	 SAID34 WAGG 050000	METAR WAGG 050000Z 30005KT 9999 FEW012 26/25 Q1011=
05/12/2020 00:30:00Z	 SAID34 WAGG 050030	METAR WAGG 050030Z 28007KT 9999 FEW012 28/25 Q1011=
05/12/2020 01:00:00Z	 SAID34 WAGG 050100	METAR WAGG 050100Z 25006KT 9999 FEW012 29/25 Q1011=
05/12/2020 01:30:00Z	 SAID34 WAGG 050130	METAR WAGG 050130Z 25005KT 9999 FEW012 30/24 Q1011=
05/12/2020 02:00:00Z	 SAID34 WAGG 050200	METAR WAGG 050200Z 33006KT 9999 FEW012 31/24 Q1011=
05/12/2020 02:30:00Z	 SAID34 WAGG 050230	METAR WAGG 050230Z 28006KT 9999 FEW011 32/24 Q1011=
05/12/2020 03:00:00Z	 SAID34 WAGG 050300	METAR WAGG 050300Z 26010KT 9999 SCT010 32/25 Q1011=
05/12/2020 03:30:00Z	 SAID34 WAGG 050330	METAR WAGG 050330Z 27014KT 9999 SCT010 33/24 Q1011=
05/12/2020 04:00:00Z	 SAID34 WAGG 050400	METAR WAGG 050400Z 25015KT 9999 SCT010 33/24 Q1010=
05/12/2020 04:30:00Z	 SAID34 WAGG 050430	METAR WAGG 050430Z 26014KT 9999 SCT011 32/23 Q1010=
05/12/2020 05:00:00Z	 SAID34 WAGG 050500	METAR WAGG 050500Z 24015KT 9999 SCT011 33/24 Q1009=
05/12/2020 05:30:00Z	 SAID34 WAGG 050530	METAR WAGG 050530Z 24010KT 9999 SCT011 33/23 Q1009=
05/12/2020 06:00:00Z	 SAID34 WAGG 050600	METAR WAGG 050600Z 25008KT 9999 SCT011 33/23 Q1008=
05/12/2020 06:30:00Z	 SAID34 WAGG 050630	METAR WAGG 050630Z 24007KT 9999 SCT011 33/24 Q1008=
05/12/2020 07:00:00Z	 SAID34 WAGG 050700	METAR WAGG 050700Z 27008KT 9999 SCT011 33/24 Q1008=
05/12/2020 07:30:00Z	 SAID34 WAGG 050730	METAR WAGG 050730Z 27008KT 9999 SCT011 32/24 Q1007=
05/12/2020 08:00:00Z	 SAID34 WAGG 050800	METAR WAGG 050800Z 26006KT 9999 SCT011 33/24 Q1007=
05/12/2020 08:30:00Z	 SAID34 WAGG 050830	METAR WAGG 050830Z 27005KT 9999 SCT011 33/24 Q1007=
05/12/2020 09:00:00Z	 SAID34 WAGG 050900	METAR WAGG 050900Z 23006KT 9999 SCT011 32/24 Q1007=
05/12/2020 09:30:00Z	 SAID34 WAGG 050930	METAR WAGG 050930Z 23006KT 9999 SCT011 31/24 Q1008=
05/12/2020 10:00:00Z	 SAID34 WAGG 051000	METAR WAGG 051000Z 23006KT 9000 FEW010TCU SCT011 30/25 Q1008=
05/12/2020 10:00:00Z	 SAID34 WAGG 051000 CCA	METAR WAGG 051000Z 23006KT 9000 TS FEW010CB SCT011 30/25 Q1008=
05/12/2020 10:30:00Z	 SAID34 WAGG 051030	METAR WAGG 051030Z 22008KT 6000 -TSRA BKN010CB 24/23 Q1009=
05/12/2020 11:00:00Z	 SAID34 WAGG 051100	METAR WAGG 051100Z 22004KT 7000 TS FEW010CB BKN011 25/24 Q1009 RERA=
05/12/2020 11:30:00Z	 SAID34 WAGG 051130	METAR WAGG 051130Z 29005KT 8000 BKN011 25/24 Q1010 RETS=
05/12/2020 12:00:00Z	 SAID34 WAGG 051200	METAR WAGG 051200Z 25003KT 9000 BKN011 26/23 Q1010=
05/12/2020 15:00:00Z	 SAID34 WAGG 051500	METAR WAGG 051500Z 00000KT 8000 BKN011 25/23 Q1012=
05/12/2020 18:00:00Z	 SAID34 WAGG 051800	METAR WAGG 051800Z 00000KT 8000 BKN011 25/24 Q1011=
05/12/2020 21:00:00Z	 SAID34 WAGG 052100	METAR WAGG 052100Z 00000KT 7000 BKN011 24/24 Q1010=
05/12/2020 21:30:00Z	 SAID34 WAGG 052130	METAR WAGG 052100Z 03003KT 8000 BKN011 24/24 Q1010=
05/12/2020 22:00:00Z	 SAID34 WAGG 052200	METAR WAGG 052200Z 07003KT 9000 SCT012 24/24 Q1010=
05/12/2020 22:30:00Z	 SAID34 WAGG 052230	METAR WAGG 052230Z 00000KT 9000 SCT012 23/23 Q1010=
05/12/2020 23:00:00Z	 SAID34 WAGG 052300	METAR WAGG 052300Z 05004KT 9000 SCT012 24/23 Q1010=
05/12/2020 23:30:00Z	 SAID34 WAGG 052330	METAR WAGG 052330Z 06002KT 9000 FEW013 25/23 Q1011=
06/12/2020 00:00:00Z	 SAID34 WAGG 060000	METAR WAGG 060000Z 03003KT 9000 FEW013 26/24 Q1011=
06/12/2020 00:30:00Z	 SAID34 WAGG 060030	METAR WAGG 060030Z 13003KT 9000 FEW013 26/24 Q1011=
06/12/2020 01:00:00Z	 SAID34 WAGG 060100	METAR WAGG 060100Z 16001KT 9000 FEW013 28/24 Q1012=
06/12/2020 01:30:00Z	 SAID34 WAGG 060130	METAR WAGG 060130Z 10003KT 9000 FEW013 28/25 Q1012=
06/12/2020 02:00:00Z	 SAID34 WAGG 060200	METAR WAGG 060200Z 32004KT 9000 SCT012 31/24 Q1012=
06/12/2020 02:30:00Z	 SAID34 WAGG 060230	METAR WAGG 060230Z 21001KT 9000 SCT012 30/25 Q1012=
06/12/2020 03:00:00Z	 SAID34 WAGG 060300	METAR WAGG 060300Z 01005KT 9000 SCT012 31/25 Q1011=
06/12/2020 03:30:00Z	 SAID34 WAGG 060330	METAR WAGG 060330Z 04006KT 9000 SCT012 31/24 Q1011=
06/12/2020 04:00:00Z	 SAID34 WAGG 060400	METAR WAGG 060400Z 04008KT 9000 SCT012 31/24 Q1011=
06/12/2020 04:30:00Z	 SAID34 WAGG 060430	METAR WAGG 060430Z 02005KT 9999 SCT012 32/24 Q1010=
06/12/2020 05:00:00Z	 SAID34 WAGG 060500	METAR WAGG 060500Z 03005KT 9999 SCT012 32/24 Q1010=
06/12/2020 05:30:00Z	 SAID34 WAGG 060530	METAR WAGG 060530Z 32004KT 9999 SCT012 33/24 Q1009=
06/12/2020 06:00:00Z	 SAID34 WAGG 060600	METAR WAGG 060600Z 34004KT 9999 SCT012 33/24 Q1009=
06/12/2020 06:30:00Z	 SAID34 WAGG 060630	METAR WAGG 060630Z 33004KT 9999 SCT012 32/24 Q1008=
06/12/2020 07:00:00Z	 SAID34 WAGG 060700	METAR WAGG 060700Z 05005KT 9999 SCT012 33/24 Q1008=
06/12/2020 07:30:00Z	 SAID34 WAGG 060730	METAR WAGG 060730Z 34005KT 9999 SCT012 34/25 Q1007=
06/12/2020 08:00:00Z	 SAID34 WAGG 060800	METAR WAGG 060800Z 36004KT 9999 BKN011 32/24 Q1007=
06/12/2020 08:30:00Z	 SAID34 WAGG 060830	METAR WAGG 060830Z 01003KT 9999 BKN011 34/24 Q1008=
06/12/2020 09:00:00Z	 SAID34 WAGG 060900	METAR WAGG 060900Z 02003KT 9999 SCT011 32/25 Q1008=
06/12/2020 09:30:00Z	 SAID34 WAGG 060930	METAR WAGG 060930Z 02003KT 9999 SCT011 33/24 Q1008=
06/12/2020 10:00:00Z	 SAID34 WAGG 061000	METAR WAGG 061000Z 34004KT 9999 SCT011 32/24 Q1008=
06/12/2020 10:30:00Z	 SAID34 WAGG 061030	METAR WAGG 061030Z 35002KT 9999 SCT011 31/24 Q1009=
06/12/2020 11:00:00Z	 SAID34 WAGG 061100	METAR WAGG 061100Z 32005KT 9999 SCT011 31/24 Q1009=
06/12/2020 11:30:00Z	 SAID34 WAGG 061130	METAR WAGG 061130Z 31004KT 9000 NSC 31/24 Q1010=
06/12/2020 12:00:00Z	 SAID34 WAGG 061200	METAR WAGG 061200Z 32004KT 9000 NSC 30/24 Q1010=
06/12/2020 21:00:00Z	 SAID34 WAGG 062100	METAR WAGG 062100Z 34005KT 8000 SCT012 24/22 Q1010=
06/12/2020 21:30:00Z	 SAID34 WAGG 062130	METAR WAGG 062130Z 20003KT 8000 SCT012 24/22 Q1010=
06/12/2020 22:00:00Z	 SAID34 WAGG 062200	METAR WAGG 062200Z 22003KT 8000 SCT012 23/22 Q1011=
06/12/2020 22:30:00Z	 SAID34 WAGG 062230	METAR WAGG 062230Z 20003KT 8000 FEW013 23/22 Q1011=
06/12/2020 23:00:00Z	 SAID34 WAGG 062300	METAR WAGG 062300Z 11003KT 9000 FEW013 24/23 Q1012=
06/12/2020 23:30:00Z	 SAID34 WAGG 062330	METAR WAGG 062330Z 06002KT 9000 FEW013 25/24 Q1012=
07/12/2020 00:00:00Z	 SAID34 WAGG 070000	METAR WAGG 070000Z 09003KT 9000 SCT012 25/24 Q1012=
07/12/2020 00:30:00Z	 SAID34 WAGG 070030	METAR WAGG 070030Z 04003KT 9000 SCT012 26/24 Q1012=
07/12/2020 01:00:00Z	 SAID34 WAGG 070100	METAR WAGG 070100Z 06003KT 9000 SCT012 26/24 Q1012=
07/12/2020 01:30:00Z	 SAID34 WAGG 070130	METAR WAGG 070130Z 33001KT 9000 SCT012 28/23 Q1012=
07/12/2020 02:00:00Z	 SAID34 WAGG 070200	METAR WAGG 070200Z 28002KT 9000 SCT012 29/23 Q1012=
07/12/2020 02:30:00Z	 SAID34 WAGG 070230	METAR WAGG 070230Z 10002KT 9999 SCT012 29/22 Q1012=
07/12/2020 03:00:00Z	 SAID34 WAGG 070300	METAR WAGG 070300Z 10003KT 9999 SCT012 30/22 Q1011=
07/12/2020 03:30:00Z	 SAID34 WAGG 070330	METAR WAGG 070330Z 13003KT 9999 SCT012 31/22 Q1011=
07/12/2020 04:00:00Z	 SAID34 WAGG 070400	METAR WAGG 070400Z 04005KT 9999 SCT012 31/24 Q1011=
07/12/2020 04:30:00Z	 SAID34 WAGG 070430	METAR WAGG 070430Z 36005KT 9999 SCT012 32/24 Q1010=
07/12/2020 05:00:00Z	 SAID34 WAGG 070500	METAR WAGG 070500Z 33003KT 9999 SCT012 32/23 Q1010=
07/12/2020 05:30:00Z	 SAID34 WAGG 070530	METAR WAGG 070530Z 33005KT 9999 SCT012 33/23 Q1009=
07/12/2020 06:00:00Z	 SAID34 WAGG 070600	METAR WAGG 070600Z 04008KT 9999 SCT012 33/24 Q1008=
07/12/2020 06:30:00Z	 SAID34 WAGG 070630	METAR WAGG 070630Z 33007KT 9999 SCT012 34/23 Q1008=
07/12/2020 07:00:00Z	 SAID34 WAGG 070700	METAR WAGG 070700Z 32004KT 9999 BKN012 33/24 Q1008=
07/12/2020 07:30:00Z	 SAID34 WAGG 070730	METAR WAGG 070730Z 33005KT 9999 BKN012 34/24 Q1007=
07/12/2020 08:00:00Z	 SAID34 WAGG 070800	METAR WAGG 070800Z 27004KT 9999 BKN012 33/24 Q1008=
07/12/2020 08:30:00Z	 SAID34 WAGG 070830	METAR WAGG 070830Z 20005KT 9999 BKN012 33/24 Q1008=
07/12/2020 09:00:00Z	 SAID34 WAGG 070900	METAR WAGG 070900Z 21004KT 9999 BKN012 32/25 Q1008=
07/12/2020 09:30:00Z	 SAID34 WAGG 070930	METAR WAGG 070930Z 22004KT 9999 SCT012 32/25 Q1008=
07/12/2020 10:00:00Z	 SAID34 WAGG 071000	METAR WAGG 071000Z 22005KT 9999 SCT012 31/25 Q1009=
07/12/2020 10:30:00Z	 SAID34 WAGG 071030	METAR WAGG 071030Z 19003KT 9999 SCT012 29/26 Q1009=
07/12/2020 11:00:00Z	 SAID34 WAGG 071100	METAR WAGG 071100Z 20003KT 9999 SCT012 29/26 Q1009=
07/12/2020 11:30:00Z	 SAID34 WAGG 071130	METAR WAGG 071130Z 22003KT 8000 SCT012 29/26 Q1010=
07/12/2020 12:00:00Z	 SAID34 WAGG 071200	METAR WAGG 071200Z 24007KT 8000 SCT012 29/26 Q1010=
07/12/2020 15:00:00Z	 SAID34 WAGG 071500	METAR WAGG 071500Z 25004KT 8000 SCT012 27/25 Q1012=
07/12/2020 18:00:00Z	 SAID34 WAGG 071800	METAR WAGG 071800Z 25003KT 8000 SCT012 26/25 Q1010=
07/12/2020 21:00:00Z	 SAID34 WAGG 072100	METAR WAGG 072100Z 20002KT 8000 SCT012 25/24 Q1010=
07/12/2020 21:30:00Z	 SAID34 WAGG 072130	METAR WAGG 072130Z 15001KT 8000 SCT012 25/25 Q1011=
07/12/2020 22:00:00Z	 SAID34 WAGG 072200	METAR WAGG 072200Z 17001KT 8000 SCT012 25/24 Q1011=
07/12/2020 22:30:00Z	 SAID34 WAGG 072230	METAR WAGG 072230Z 10001KT 8000 FEW012 25/25 Q1011=
07/12/2020 23:00:00Z	 SAID34 WAGG 072300	METAR WAGG 072300Z 08001KT 8000 SCT012 26/25 Q1011=
07/12/2020 23:30:00Z	 SAID34 WAGG 072330	METAR WAGG 072330Z 13002KT 9000 SCT012 27/26 Q1012=
08/12/2020 00:00:00Z	 SAID34 WAGG 080000	METAR WAGG 080000Z 19001KT 9999 SCT012 28/25 Q1012=
08/12/2020 00:30:00Z	 SAID34 WAGG 080030	METAR WAGG 080030Z 21002KT 9999 SCT012 29/26 Q1012=
08/12/2020 01:00:00Z	 SAID34 WAGG 080100	METAR WAGG 080100Z 25004KT 9999 SCT012 30/25 Q1012=
08/12/2020 01:30:00Z	 SAID34 WAGG 080130	METAR WAGG 080130Z 25003KT 9999 SCT012 30/25 Q1012=
08/12/2020 02:00:00Z	 SAID34 WAGG 080200	METAR WAGG 080200Z 28003KT 9999 BKN011 30/25 Q1012=
08/12/2020 02:30:00Z	 SAID34 WAGG 080230	METAR WAGG 080230Z 29003KT 9999 BKN011 32/25 Q1012=
08/12/2020 03:00:00Z	 SAID34 WAGG 080300	METAR WAGG 080300Z 02004KT 9999 BKN011 31/26 Q1011=
08/12/2020 03:30:00Z	 SAID34 WAGG 080330	METAR WAGG 080330Z 36004KT 9999 BKN011 32/25 Q1011=
08/12/2020 04:00:00Z	 SAID34 WAGG 080400	METAR WAGG 080400Z 31008KT 9999 BKN011 32/24 Q1010=
08/12/2020 04:30:00Z	 SAID34 WAGG 080430	METAR WAGG 080430Z 34004KT 9999 BKN011 33/25 Q1010=
08/12/2020 05:00:00Z	 SAID34 WAGG 080500	METAR WAGG 080500Z 34005KT 9999 BKN010 33/25 Q1009=
08/12/2020 05:30:00Z	 SAID34 WAGG 080530	METAR WAGG 080530Z 31009KT 9999 BKN010 33/24 Q1009=
08/12/2020 06:00:00Z	 SAID34 WAGG 080600	METAR WAGG 080600Z 30006KT 9999 BKN010 33/24 Q1008=
08/12/2020 06:30:00Z	 SAID34 WAGG 080630	METAR WAGG 080630Z 30006KT 9999 BKN010 32/24 Q1008=
08/12/2020 07:00:00Z	 SAID34 WAGG 080700	METAR WAGG 080700Z 29008KT 5000 -RA FEW010TCU BKN010 30/25 Q1008=
08/12/2020 07:30:00Z	 SAID34 WAGG 080730	METAR WAGG 080730Z 28006KT 9000 FEW010TCU BKN010 31/24 Q1007=
08/12/2020 08:00:00Z	 SAID34 WAGG 080800	METAR WAGG 080800Z 27005KT 9999 BKN012 32/25 Q1007=
08/12/2020 08:30:00Z	 SAID34 WAGG 080830	METAR WAGG 080830Z 30005KT 9999 BKN012 32/25 Q1007=
08/12/2020 09:00:00Z	 SAID34 WAGG 080900	METAR WAGG 080900Z 29006KT 9999 BKN012 32/25 Q1007=
08/12/2020 09:30:00Z	 SAID34 WAGG 080930	METAR WAGG 080930Z 30003KT 9999 SCT012 31/24 Q1007=
08/12/2020 10:00:00Z	 SAID34 WAGG 081000	METAR WAGG 081000Z 30003KT 9999 SCT012 31/25 Q1007=
08/12/2020 10:30:00Z	 SAID34 WAGG 081030	METAR WAGG 081030Z 30003KT 9000 SCT012 30/25 Q1008=
08/12/2020 11:00:00Z	 SAID34 WAGG 081100	METAR WAGG 081100Z 29002KT 9000 SCT012 29/25 Q1008=
08/12/2020 12:00:00Z	 SAID34 WAGG 081200	METAR WAGG 081200Z 30003KT 8000 SCT012 28/23 Q1009=
08/12/2020 15:00:00Z	 SAID34 WAGG 081500	METAR WAGG 081500Z 00000KT 9000 SCT012 26/25 Q1011=
08/12/2020 18:00:00Z	 SAID34 WAGG 081800	METAR WAGG 081800Z 00000KT 8000 SCT012 25/24 Q1010=
08/12/2020 21:00:00Z	 SAID34 WAGG 082100	METAR WAGG 082010Z 00000KT 8000 SCT012 25/24 Q1009=
08/12/2020 21:00:00Z	 SAID34 WAGG 082100	METAR WAGG 082100Z 00000KT 8000 SCT012 25/24 Q1009=
08/12/2020 21:30:00Z	 SAID34 WAGG 082130	METAR WAGG 082130Z 00000KT 8000 SCT012 25/24 Q1010=
08/12/2020 22:00:00Z	 SAID34 WAGG 082200	METAR WAGG 082200Z 00000KT 9000 FEW013 25/24 Q1010=
08/12/2020 22:30:00Z	 SAID34 WAGG 082230	METAR WAGG 082230Z 06002KT 9000 FEW013 25/24 Q1011=
08/12/2020 23:00:00Z	 SAID34 WAGG 082300	METAR WAGG 082300Z 04002KT 9000 FEW013 25/24 Q1011=
08/12/2020 23:30:00Z	 SAID34 WAGG 082330	METAR WAGG 082330Z 05002KT 9000 SCT012 26/25 Q1011=
09/12/2020 00:00:00Z	 SAID34 WAGG 090000	METAR WAGG 090000Z 01003KT 9999 FEW013 27/25 Q1012=
09/12/2020 00:30:00Z	 SAID34 WAGG 090030	METAR WAGG 090030Z 03005KT 9999 FEW013 28/25 Q1012=
09/12/2020 01:00:00Z	 SAID34 WAGG 090100	METAR WAGG 090100Z 27007KT 9999 SCT013 28/26 Q1012=
09/12/2020 01:30:00Z	 SAID34 WAGG 090130	METAR WAGG 090130Z 25008KT 9999 SCT012 29/25 Q1012=
09/12/2020 02:00:00Z	 SAID34 WAGG 090200	METAR WAGG 090200Z 24012KT 9999 BKN012 29/25 Q1012=
09/12/2020 02:30:00Z	 SAID34 WAGG 090230	METAR WAGG 090230Z 25011KT 8000 SCT011 29/25 Q1012 RERA=
09/12/2020 03:00:00Z	 SAID34 WAGG 090300	METAR WAGG 090300Z 25010KT 7000 BKN011 30/25 Q1011=
09/12/2020 03:30:00Z	 SAID34 WAGG 090330	METAR WAGG 090330Z 25010KT 7000 -RA BKN011 25/23 Q1011=
09/12/2020 04:00:00Z	 SAID34 WAGG 090400	METAR WAGG 090400Z 26008KT 8000 BKN011 27/24 Q1011 RERA=
09/12/2020 04:30:00Z	 SAID34 WAGG 090430	METAR WAGG 090430Z 29009KT 9999 SCT012 28/23 Q1010=
09/12/2020 05:00:00Z	 SAID34 WAGG 090500	METAR WAGG 090500Z 28007KT 9999 SCT012 28/23 Q1009=
09/12/2020 05:30:00Z	 SAID34 WAGG 090530	METAR WAGG 090530Z 28003KT 9999 SCT012 29/24 Q1009=
09/12/2020 06:00:00Z	 SAID34 WAGG 090600	METAR WAGG 090600Z 26003KT 9999 SCT012 29/23 Q1008=
09/12/2020 06:30:00Z	 SAID34 WAGG 090630	METAR WAGG 090630Z 29002KT 9999 BKN011 30/24 Q1008=
09/12/2020 07:00:00Z	 SAID34 WAGG 090700	METAR WAGG 090700Z 24006KT 9999 BKN011 30/24 Q1007=
09/12/2020 07:30:00Z	 SAID34 WAGG 090730	METAR WAGG 090730Z 25014KT 9999 BKN011 31/23 Q1007=
09/12/2020 08:00:00Z	 SAID34 WAGG 090800	METAR WAGG 090800Z 26012KT 9999 BKN011 30/23 Q1007=
09/12/2020 08:30:00Z	 SAID34 WAGG 090830	METAR WAGG 090830Z 26008KT 9999 SCT012 30/23 Q1007=
09/12/2020 09:00:00Z	 SAID34 WAGG 090900	METAR WAGG 090900Z 24008KT 9999 SCT012 29/23 Q1007=
09/12/2020 09:30:00Z	 SAID34 WAGG 090930	METAR WAGG 090930Z 25006KT 9999 SCT012 29/23 Q1008=
09/12/2020 10:00:00Z	 SAID34 WAGG 091000	METAR WAGG 091000Z 25005KT 9999 SCT012 29/24 Q1008=
09/12/2020 10:30:00Z	 SAID34 WAGG 091030	METAR WAGG 091030Z 24004KT 9000 SCT012 28/24 Q1008=
09/12/2020 11:00:00Z	 SAID34 WAGG 091100	METAR WAGG 091100Z 25005KT 9000 SCT012 28/24 Q1008=
09/12/2020 11:30:00Z	 SAID34 WAGG 091130	METAR WAGG 091130Z 27002KT 9000 SCT012 28/24 Q1009=
09/12/2020 12:00:00Z	 SAID34 WAGG 091200	METAR WAGG 091200Z 00000KT 9000 SCT012 27/25 Q1009=
09/12/2020 18:00:00Z	 SAID34 WAGG 091800	METAR WAGG 091800Z 00000KT 8000 SCT012 25/24 Q1009=
09/12/2020 21:00:00Z	 SAID34 WAGG 092100	METAR WAGG 092100Z 22003KT 8000 SCT012 24/24 Q1009=
09/12/2020 21:30:00Z	 SAID34 WAGG 092130	METAR WAGG 092130Z 00000KT 8000 SCT012 24/24 Q1009=
09/12/2020 22:00:00Z	 SAID34 WAGG 092200	METAR WAGG 092200Z 32002KT 8000 SCT012 24/23 Q1010=
09/12/2020 22:30:00Z	 SAID34 WAGG 092230	METAR WAGG 092230Z 28002KT 8000 SCT012 24/23 Q1010=
09/12/2020 23:00:00Z	 SAID34 WAGG 092300	METAR WAGG 092300Z 25003KT 9000 SCT012 25/23 Q1010=
09/12/2020 23:30:00Z	 SAID34 WAGG 092330	METAR WAGG 092330Z 31003KT 9000 SCT012 26/23 Q1011=
10/12/2020 00:00:00Z	 SAID34 WAGG 100000	METAR WAGG 100000Z 03003KT 9999 FEW012 26/24 Q1011=
10/12/2020 00:30:00Z	 SAID34 WAGG 100030	METAR WAGG 100030Z 04005KT 9999 FEW012TCU 28/25 Q1011=
10/12/2020 01:00:00Z	 SAID34 WAGG 100100	METAR WAGG 100100Z 36006KT 9999 FEW012 29/25 Q1012=
10/12/2020 01:30:00Z	 SAID34 WAGG 100130	METAR WAGG 100130Z 02006KT 9999 SCT011 30/25 Q1011=
10/12/2020 02:00:00Z	 SAID34 WAGG 100200	METAR WAGG 100200Z 01005KT 9999 SCT011 30/25 Q1011=
10/12/2020 02:30:00Z	 SAID34 WAGG 100230	METAR WAGG 100230Z 36005KT 9999 BKN011 31/25 Q1011=
10/12/2020 03:00:00Z	 SAID34 WAGG 100300	METAR WAGG 100300Z 06006KT 9999 BKN011 31/25 Q1011=
10/12/2020 03:30:00Z	 SAID34 WAGG 100330	METAR WAGG 100330Z 35008KT 9999 BKN011 32/25 Q1011=
10/12/2020 04:00:00Z	 SAID34 WAGG 100400	METAR WAGG 100400Z 03008KT 9999 BKN011 32/25 Q1010=
10/12/2020 04:30:00Z	 SAID34 WAGG 100430	METAR WAGG 100430Z 36006KT 9999 BKN011 33/25 Q1010=
10/12/2020 05:00:00Z	 SAID34 WAGG 100500	METAR WAGG 100500Z 25006KT 9999 BKN011 34/24 Q1009=
10/12/2020 05:30:00Z	 SAID34 WAGG 100530	METAR WAGG 100530Z 01004KT 9999 BKN011 32/24 Q1009=
10/12/2020 06:00:00Z	 SAID34 WAGG 100600	METAR WAGG 100600Z 01004KT 9999 FEW011TCU BKN011 32/24 Q1008=
10/12/2020 06:30:00Z	 SAID34 WAGG 100630	METAR WAGG 100630Z 23005KT 9999 FEW011TCU BKN011 33/24 Q1008=
10/12/2020 07:00:00Z	 SAID34 WAGG 100700	METAR WAGG 100700Z 31004KT 9999 FEW011TCU BKN011 33/24 Q1007=
10/12/2020 07:30:00Z	 SAID34 WAGG 100730	METAR WAGG 100730Z 35002KT 9999 FEW011TCU BKN011 35/24 Q1007=
10/12/2020 08:00:00Z	 SAID34 WAGG 100800	METAR WAGG 100800Z 25011KT 9999 FEW011TCU SCT012 35/23 Q1007=
10/12/2020 08:30:00Z	 SAID34 WAGG 100830	METAR WAGG 100830Z 24008KT 9999 SCT012 34/23 Q1007=
10/12/2020 09:00:00Z	 SAID34 WAGG 100900	METAR WAGG 100900Z 25008KT 9999 BKN012 34/23 Q1007=
10/12/2020 09:30:00Z	 SAID34 WAGG 100930	METAR WAGG 100930Z 25008KT 9999 BKN012 33/23 Q1007=
10/12/2020 10:00:00Z	 SAID34 WAGG 101000	METAR WAGG 101000Z 23005KT 9999 BKN012 32/25 Q1007=
10/12/2020 10:30:00Z	 SAID34 WAGG 101030	METAR WAGG 101030Z 17004KT 9999 BKN012 31/25 Q1008=
10/12/2020 11:00:00Z	 SAID34 WAGG 101100	METAR WAGG 101100Z 18003KT 9000 BKN012 31/26 Q1008=
10/12/2020 11:30:00Z	 SAID34 WAGG 101130	METAR WAGG 101130Z 17003KT 9000 BKN012 30/25 Q1009=
10/12/2020 12:00:00Z	 SAID34 WAGG 101200	METAR WAGG 101200Z 00000KT 9000 BKN012 29/26 Q1010=
10/12/2020 15:00:00Z	 SAID34 WAGG 101500	METAR WAGG 101500Z 00000KT 9000 SCT012 27/25 Q1011=
10/12/2020 18:00:00Z	 SAID34 WAGG 101800	METAR WAGG 101800Z 00000KT 8000 SCT012 26/25 Q1011=
10/12/2020 21:00:00Z	 SAID34 WAGG 102100	METAR WAGG 102100Z 07004KT 8000 RS BKN011 22/22 Q1010=
10/12/2020 21:30:00Z	 SAID34 WAGG 102130	METAR WAGG 102130Z 00000KT 8000 RA BKN011 22/22 Q1010=
10/12/2020 22:00:00Z	 SAID34 WAGG 102200	METAR WAGG 102200Z 03004KT 8000 RA BKN011 22/22 Q1010=
10/12/2020 22:30:00Z	 SAID34 WAGG 102230	METAR WAGG 102230Z 08002KT 8000 RA BKN011 23/23 Q1010=
10/12/2020 23:00:00Z	 SAID34 WAGG 102300	METAR WAGG 102300Z 07002KT 8000 RA BKN011 23/23 Q1011=
10/12/2020 23:30:00Z	 SAID34 WAGG 102330	METAR WAGG 102330Z 04002KT 8000 VCSH BKN011 23/23 Q1011 RERA=
11/12/2020 00:00:00Z	 SAID34 WAGG 110000	METAR WAGG 110000Z 08002KT 8000 BKN011 24/23 Q1012=
11/12/2020 00:30:00Z	 SAID34 WAGG 110030	METAR WAGG 110030Z 05005KT 8000 BKN011 24/23 Q1012=
11/12/2020 01:00:00Z	 SAID34 WAGG 110100	METAR WAGG 110100Z 02003KT 8000 -RA BKN011 24/23 Q1013=
11/12/2020 01:30:00Z	 SAID34 WAGG 110130	METAR WAGG 110130Z 04003KT 8000 BKN011 24/23 Q1012 RERA=
11/12/2020 02:00:00Z	 SAID34 WAGG 110200	METAR WAGG 110200Z 06004KT 8000 BKN011 25/24 Q1012=
11/12/2020 02:30:00Z	 SAID34 WAGG 110230	METAR WAGG 110230Z 03003KT 8000 BKN011 26/25 Q1012=
11/12/2020 03:00:00Z	 SAID34 WAGG 110300	METAR WAGG 110300Z 36003KT 8000 BKN011 28/26 Q1012=
11/12/2020 03:30:00Z	 SAID34 WAGG 110330	METAR WAGG 110330Z 04005KT 8000 BKN011 29/26 Q1012=
11/12/2020 04:00:00Z	 SAID34 WAGG 110400	METAR WAGG 110400Z 36002KT 9999 BKN011 31/26 Q1011=
11/12/2020 04:30:00Z	 SAID34 WAGG 110430	METAR WAGG 110430Z 31005KT 9999 BKN011 31/26 Q1011=
11/12/2020 05:00:00Z	 SAID34 WAGG 110500	METAR WAGG 110500Z 21005KT 9999 BKN012 33/26 Q1011=
11/12/2020 05:00:00Z	 SAID34 WAGG 110500 CCA	METAR WAGG 110500Z 21005KT 9999 BKN012 32/26 Q1010=
11/12/2020 05:30:00Z	 SAID34 WAGG 110530	METAR WAGG 110530Z 31005KT 9999 BKN012 32/25 Q1009=
11/12/2020 06:00:00Z	 SAID34 WAGG 110600	METAR WAGG 110600Z 01004KT 9999 BKN012 32/25 Q1009=
11/12/2020 06:30:00Z	 SAID34 WAGG 110630	METAR WAGG 110630Z 36005KT 9999 BKN012 32/25 Q1008=
11/12/2020 07:00:00Z	 SAID34 WAGG 110700	METAR WAGG 110700Z 34003KT 9999 BKN011 32/24 Q1008=
11/12/2020 07:30:00Z	 SAID34 WAGG 110730	METAR WAGG 110730Z 30004KT 9999 BKN011 32/23 Q1007=
11/12/2020 08:00:00Z	 SAID34 WAGG 110800	METAR WAGG 110800Z 31004KT 9999 BKN012 32/24 Q1007=
11/12/2020 08:30:00Z	 SAID34 WAGG 110830	METAR WAGG 110830Z 30004KT 9999 BKN012 31/23 Q1007=
11/12/2020 09:00:00Z	 SAID34 WAGG 110900	METAR WAGG 110900Z 27004KT 9999 BKN012 31/24 Q1008=
11/12/2020 09:30:00Z	 SAID34 WAGG 110930	METAR WAGG 110930Z 26005KT 9999 BKN012 30/24 Q1008=
11/12/2020 10:00:00Z	 SAID34 WAGG 111000	METAR WAGG 111000Z 27003KT 9999 BKN012 30/25 Q1008=
11/12/2020 10:30:00Z	 SAID34 WAGG 111030	METAR WAGG 111030Z 25003KT 9999 BKN012 29/25 Q1009=
11/12/2020 11:00:00Z	 SAID34 WAGG 111100	METAR WAGG 111100Z 03001KT 9000 BKN012 29/26 Q1009=
11/12/2020 11:30:00Z	 SAID34 WAGG 111130	METAR WAGG 111130Z 01003KT 9000 SCT012 28/26 Q1009=
11/12/2020 12:00:00Z	 SAID34 WAGG 111200	METAR WAGG 111200Z 03003KT 9000 SCT012 28/26 Q1010=
11/12/2020 21:00:00Z	 SAID34 WAGG 112100	METAR WAGG 112100Z 34003KT 7000 SCT012 26/25 Q1010=
11/12/2020 21:30:00Z	 SAID34 WAGG 112130	METAR WAGG 112130Z 32005KT 7000 SCT012 25/24 Q1010=
11/12/2020 22:00:00Z	 SAID34 WAGG 112200	METAR WAGG 112200Z 32006KT 7000 SCT012 25/24 Q1011=
11/12/2020 22:30:00Z	 SAID34 WAGG 112230	METAR WAGG 112230Z 36005KT 8000 SCT013 25/24 Q1011=
11/12/2020 23:00:00Z	 SAID34 WAGG 112300	METAR WAGG 112300Z 01004KT 9000 SCT013 25/25 Q1011=
11/12/2020 23:30:00Z	 SAID34 WAGG 112330	METAR WAGG 112330Z 03003KT 9000 SCT013 25/25 Q1011=
12/12/2020 00:00:00Z	 SAID34 WAGG 120000	METAR WAGG 120000Z 03004KT 9000 SCT012 25/25 Q1011=
12/12/2020 00:30:00Z	 SAID34 WAGG 120030	METAR WAGG 120030Z 03004KT 9000 SCT012 26/25 Q1012=
12/12/2020 01:00:00Z	 SAID34 WAGG 120100	METAR WAGG 120100Z 05005KT 9000 SCT012 26/25 Q1012=
12/12/2020 01:30:00Z	 SAID34 WAGG 120130	METAR WAGG 120130Z 04006KT 9000 BKN011 26/24 Q1012=
12/12/2020 02:00:00Z	 SAID34 WAGG 120200	METAR WAGG 120200Z 07004KT 9000 BKN011 26/24 Q1012=
12/12/2020 02:30:00Z	 SAID34 WAGG 120230	METAR WAGG 120230Z 05003KT 9000 BKN011 28/24 Q1012=
12/12/2020 03:00:00Z	 SAID34 WAGG 120300	METAR WAGG 120300Z 05003KT 9000 BKN011 28/24 Q1012=
12/12/2020 03:30:00Z	 SAID34 WAGG 120330	METAR WAGG 120330Z 05005KT 9000 BKN011 29/24 Q1012=
12/12/2020 04:00:00Z	 SAID34 WAGG 120400	METAR WAGG 120400Z 05005KT 9000 BKN011 29/25 Q1011=
12/12/2020 04:30:00Z	 SAID34 WAGG 120430	METAR WAGG 120430Z 05005KT 9000 BKN011 30/25 Q1010=
12/12/2020 05:00:00Z	 SAID34 WAGG 120500	METAR WAGG 120500Z 04004KT 9000 BKN011 30/25 Q1010=
12/12/2020 05:30:00Z	 SAID34 WAGG 120530	METAR WAGG 120530Z 07005KT 9000 BKN011 30/25 Q1009=
12/12/2020 06:00:00Z	 SAID34 WAGG 120600	METAR WAGG 120600Z 12004KT 8000 BKN010 30/25 Q1009=
12/12/2020 06:30:00Z	 SAID34 WAGG 120630	METAR WAGG 120630Z 05005KT 8000 BKN010 30/25 Q1008=
12/12/2020 07:00:00Z	 SAID34 WAGG 120700	METAR WAGG 120700Z 07004KT 9000 BKN010 30/25 Q1008=
12/12/2020 07:30:00Z	 SAID34 WAGG 120730	METAR WAGG 120730Z 13005KT 9000 BKN010 30/25 Q1007=
12/12/2020 08:00:00Z	 SAID34 WAGG 120800	METAR WAGG 120800Z 06004KT 9000 BKN010 30/25 Q1007=
12/12/2020 08:30:00Z	 SAID34 WAGG 120830	METAR WAGG 120830Z 10004KT 9000 BKN010 31/25 Q1007=
12/12/2020 09:00:00Z	 SAID34 WAGG 120900 CCA	METAR WAGG 120900Z 13004KT 9000 FEW010CB BKN010 30/25 Q1008=
12/12/2020 09:00:00Z	 SAID34 WAGG 120900	METAR WAGG 120900Z 13004KT 9000 BKN010 30/25 Q1008=
12/12/2020 09:30:00Z	 SAID34 WAGG 120930	METAR WAGG 120930Z 34018G26KT 2200 TSRA FEW010CB BKN010 23/23 Q1008=
12/12/2020 10:00:00Z	 SAID34 WAGG 121000	METAR WAGG 121000Z 34008KT 7000 -TSRA FEW010CB BKN010 23/22 Q1009=
12/12/2020 11:00:00Z	 SAID34 WAGG 121100	METAR WAGG 121100Z 27009KT 7000 -RA FEW010CB BKN010 24/23 Q1011=
12/12/2020 11:30:00Z	 SAID34 WAGG 121130	METAR WAGG 121130Z 23010KT 7000 -RA FEW010CB BKN010 24/23 Q1011=
12/12/2020 12:00:00Z	 SAID34 WAGG 121200	METAR WAGG 121200Z 23007KT 7000 -RA FEW010CB BKN010 24/23 Q1012=
12/12/2020 21:00:00Z	 SAID34 WAGG 122100	METAR WAGG 122100Z 01002KT 8000 BKN010 23/23 Q1010=
12/12/2020 21:30:00Z	 SAID34 WAGG 122130	METAR WAGG 122130Z 03002KT 8000 BKN010 23/23 Q1010=
12/12/2020 22:00:00Z	 SAID34 WAGG 122200	METAR WAGG 122200Z 03003KT 8000 BKN010 23/23 Q1010=
12/12/2020 22:30:00Z	 SAID34 WAGG 122230	METAR WAGG 122230Z 02003KT 8000 BKN010 23/23 Q1010=
12/12/2020 23:00:00Z	 SAID34 WAGG 122300	METAR WAGG 122300Z 03002KT 9000 BKN010 23/23 Q1011=
12/12/2020 23:30:00Z	 SAID34 WAGG 122330	METAR WAGG 122330Z 02003KT 9000 BKN010 24/23 Q1011=
13/12/2020 00:00:00Z	 SAID34 WAGG 130000	METAR WAGG 130000Z 36002KT 8000 OVC010 24/23 Q1011=
13/12/2020 00:30:00Z	 SAID34 WAGG 130030	METAR WAGG 130030Z 01002KT 8000 OVC010 25/24 Q1012=
13/12/2020 01:00:00Z	 SAID34 WAGG 130100	METAR WAGG 130100Z 04004KT 9999 BKN010 26/24 Q1012=
13/12/2020 01:30:00Z	 SAID34 WAGG 130130	METAR WAGG 130130Z 36003KT 9999 BKN010 27/24 Q1012=
13/12/2020 02:00:00Z	 SAID34 WAGG 130200	METAR WAGG 130200Z 31003KT 9999 BKN010 27/24 Q1012=
13/12/2020 02:30:00Z	 SAID34 WAGG 130230	METAR WAGG 130230Z 11003KT 9999 BKN010 27/24 Q1011=
13/12/2020 03:00:00Z	 SAID34 WAGG 130300	METAR WAGG 130300Z 05003KT 9999 BKN010 28/24 Q1011=
13/12/2020 03:30:00Z	 SAID34 WAGG 130330	METAR WAGG 130330Z 08004KT 9999 BKN012 28/24 Q1011=
13/12/2020 04:00:00Z	 SAID34 WAGG 130400	METAR WAGG 130400Z 07003KT 9999 BKN012 28/25 Q1011=
13/12/2020 04:30:00Z	 SAID34 WAGG 130430	METAR WAGG 130430Z 34003KT 9999 BKN012 29/25 Q1010=
13/12/2020 05:00:00Z	 SAID34 WAGG 130500	METAR WAGG 130500Z 36002KT 9999 BKN012 29/24 Q1010=
13/12/2020 05:30:00Z	 SAID34 WAGG 130530	METAR WAGG 130530Z 34003KT 9999 BKN012 29/25 Q1010=
13/12/2020 06:00:00Z	 SAID34 WAGG 130600	METAR WAGG 130600Z 04000KT 9999 BKN012 29/25 Q1009=
13/12/2020 07:00:00Z	 SAID34 WAGG 130700	METAR WAGG 130700Z 10003KT 9999 BKN012 29/25 Q1008=
13/12/2020 07:30:00Z	 SAID34 WAGG 130730	METAR WAGG 130730Z 12003KT 9999 BKN012 29/25 Q1008=
13/12/2020 08:00:00Z	 SAID34 WAGG 130800	METAR WAGG 130800Z 08003KT 9999 BKN012 29/25 Q1008=
13/12/2020 08:30:00Z	 SAID34 WAGG 130830	METAR WAGG 130830Z 07003KT 9999 BKN012 29/26 Q1008=
13/12/2020 09:00:00Z	 SAID34 WAGG 130900	METAR WAGG 130900Z 08003KT 9999 BKN012 29/25 Q1008=
13/12/2020 09:30:00Z	 SAID34 WAGG 130930	METAR WAGG 130930Z 07003KT 9999 BKN012 29/25 Q1008=
13/12/2020 10:00:00Z	 SAID34 WAGG 131000	METAR WAGG 131000Z 08003KT 9999 BKN012 28/26 Q1008=
13/12/2020 10:30:00Z	 SAID34 WAGG 131030	METAR WAGG 131030Z 09003KT 8000 FEW010CB BKN010 28/26 Q1009=
13/12/2020 10:30:00Z	 SAID34 WAGG 131030 CCA	METAR WAGG 131030Z 28013G21KT 5000 -RA FEW010CB BKN010 28/23 Q1009 TREND TEMPO FM1020Z TL1050Z 29015G25KT 2000 RA FEW010CB=
13/12/2020 11:00:00Z	 SAID34 WAGG 131100	METAR WAGG 131100Z 27008KT 3000 RA FEW010CB BKN010 24/24 Q1010=
13/12/2020 12:00:00Z	 SAID34 WAGG 131200	METAR WAGG 131200Z 00000KT 6000 RA BKN011 24/23 Q1011=
13/12/2020 15:00:00Z	 SAID34 WAGG 131500	METAR WAGG 131500Z 10002KT 6000 RA BKN011 23/23 Q1012=
13/12/2020 18:00:00Z	 SAID34 WAGG 131800	METAR WAGG 131800Z 00000KT 8000 VCSH BKN011 23/23 Q1010 RERA=
13/12/2020 21:30:00Z	 SAID34 WAGG 132130	METAR WAGG 132130Z 00000KT 8000 BKN011 23/22 Q1010=
13/12/2020 22:00:00Z	 SAID34 WAGG 132200	METAR WAGG 132200Z 00000KT 8000 BKN011 23/22 Q1010=
13/12/2020 22:30:00Z	 SAID34 WAGG 132230	METAR WAGG 132230Z 00000KT 8000 SCT012 23/23 Q1011=
13/12/2020 23:00:00Z	 SAID34 WAGG 132300	METAR WAGG 132300Z 16003KT 9000 SCT012 23/23 Q1011=
13/12/2020 23:30:00Z	 SAID34 WAGG 132330	METAR WAGG 132330Z 00000KT 9000 SCT012 24/23 Q1011=
14/12/2020 00:00:00Z	 SAID34 WAGG 140000	METAR WAGG 140000Z 12004KT 9000 BKN012 24/23 Q1012=
14/12/2020 00:30:00Z	 SAID34 WAGG 140030	METAR WAGG 140030Z 14005KT 9999 BKN012 25/24 Q1012=
14/12/2020 01:00:00Z	 SAID34 WAGG 140100	METAR WAGG 140100Z 10003KT 9999 BKN010 25/24 Q1012=
14/12/2020 01:30:00Z	 SAID34 WAGG 140130	METAR WAGG 140130Z 17003KT 9999 BKN010 26/24 Q1012=
14/12/2020 02:00:00Z	 SAID34 WAGG 140200	METAR WAGG 140200Z 15005KT 9999 SCT010 26/24 Q1013=
14/12/2020 02:30:00Z	 SAID34 WAGG 140230	METAR WAGG 140230Z 19008KT 9999 SCT010 27/24 Q1012=
14/12/2020 03:00:00Z	 SAID34 WAGG 140300	METAR WAGG 140300Z 22005KT 9999 SCT010 28/25 Q1012=
14/12/2020 03:30:00Z	 SAID34 WAGG 140330	METAR WAGG 140330Z 22004KT 9999 SCT010 28/24 Q1012=
14/12/2020 04:00:00Z	 SAID34 WAGG 140400	METAR WAGG 140400Z 25006KT 9999 BKN010 29/24 Q1011=
14/12/2020 04:30:00Z	 SAID34 WAGG 140430	METAR WAGG 140430Z 21005KT 9999 BKN010 30/24 Q1011=
14/12/2020 05:00:00Z	 SAID34 WAGG 140500	METAR WAGG 140500Z 20005KT 9999 BKN010 31/24 Q1010=
14/12/2020 05:30:00Z	 SAID34 WAGG 140530	METAR WAGG 140530Z 27005KT 9999 BKN010 31/25 Q1010=
14/12/2020 06:00:00Z	 SAID34 WAGG 140600	METAR WAGG 140600Z 26003KT 9999 BKN010 32/24 Q1009=
14/12/2020 06:30:00Z	 SAID34 WAGG 140630	METAR WAGG 140630Z 28005KT 9999 BKN010 31/24 Q1009=
14/12/2020 07:00:00Z	 SAID34 WAGG 140700	METAR WAGG 140700Z 32006KT 9999 BKN010 31/23 Q1008=
14/12/2020 07:30:00Z	 SAID34 WAGG 140730	METAR WAGG 140730Z 24007KT 9999 BKN010 31/24 Q1008=
14/12/2020 08:00:00Z	 SAID34 WAGG 140800	METAR WAGG 140800Z 28005KT 9999 BKN010 32/24 Q1008=
14/12/2020 08:30:00Z	 SAID34 WAGG 140830	METAR WAGG 140830Z 27004KT 9999 BKN010 32/24 Q1008=
14/12/2020 09:00:00Z	 SAID34 WAGG 140900	METAR WAGG 140900Z 28004KT 9999 BKN010 30/24 Q1008=
14/12/2020 09:30:00Z	 SAID34 WAGG 140930	METAR WAGG 140930Z 28004KT 9999 BKN010 30/24 Q1008=
14/12/2020 10:00:00Z	 SAID34 WAGG 141000	METAR WAGG 141000Z 30003KT 9999 BKN010 30/24 Q1008=
14/12/2020 10:30:00Z	 SAID34 WAGG 141030	METAR WAGG 141030Z 29002KT 9999 BKN010 29/24 Q1009=
14/12/2020 11:00:00Z	 SAID34 WAGG 141100	METAR WAGG 141100Z 24002KT 9000 BKN010 28/25 Q1009=
14/12/2020 12:00:00Z	 SAID34 WAGG 141200	METAR WAGG 141200Z 26002KT 9000 SCT012 27/25 Q1010=
14/12/2020 13:00:00Z	 SAID34 WAGG 141300	METAR WAGG 141300Z 00000KT 9000 SCT012 27/25 Q1011=
14/12/2020 14:00:00Z	 SAID34 WAGG 141400	METAR WAGG 141400Z 00000KT 9000 SCT012 26/25 Q1012=
14/12/2020 15:00:00Z	 SAID34 WAGG 141500	METAR WAGG 141500Z 00000KT 8000 SCT012 26/25 Q1012=
14/12/2020 17:00:00Z	 SAID34 WAGG 141700 CCA	METAR WAGG 141700Z 30010KT 3000 RA FEW010CB BKN010 24/24 Q1012=
14/12/2020 17:00:00Z	 SAID34 WAGG 141700	METAR WAGG 141700Z 30010KT 3000 -RA FEW010CB BKN010 24/24 Q1012=
14/12/2020 18:00:00Z	 SAID34 WAGG 141800	METAR WAGG 141800Z 06003KT 5000 -RA FEW010CB BKN010 23/23 Q1011=
14/12/2020 21:00:00Z	 SAID34 WAGG 142100	METAR WAGG 142100Z 34003KT 7000 BKN010 23/23 Q1010=
14/12/2020 21:30:00Z	 SAID34 WAGG 142130	METAR WAGG 142130Z 36003KT 7000 BKN010 23/23 Q1010=
14/12/2020 23:00:00Z	 SAID34 WAGG 142300	METAR WAGG 142300Z 03003KT 7000 BKN010 23/23 Q1012=
14/12/2020 23:30:00Z	 SAID34 WAGG 142330	METAR WAGG 142330Z 32004KT 8000 BKN013 24/23 Q1012=
15/12/2020 00:00:00Z	 SAID34 WAGG 150000	METAR WAGG 150000Z 36005KT 9999 SCT013TCU 25/23 Q1012=
15/12/2020 00:30:00Z	 SAID34 WAGG 150030	METAR WAGG 150030Z 35005KT 9999 SCT013TCU 27/23 Q1013=
15/12/2020 01:00:00Z	 SAID34 WAGG 150100	METAR WAGG 150100Z 30004KT 9999 SCT013 28/24 Q1013=
15/12/2020 01:30:00Z	 SAID34 WAGG 150130	METAR WAGG 150130Z 06005KT 9999 SCT013 29/25 Q1013=
15/12/2020 02:00:00Z	 SAID34 WAGG 150200	METAR WAGG 150200Z 31003KT 9999 SCT011 29/25 Q1013=
15/12/2020 02:30:00Z	 SAID34 WAGG 150230	METAR WAGG 150230Z 29008KT 9999 SCT011 30/25 Q1012=
15/12/2020 03:00:00Z	 SAID34 WAGG 150300	METAR WAGG 150300Z 25008KT 9999 SCT011 30/25 Q1012=
15/12/2020 03:30:00Z	 SAID34 WAGG 150330	METAR WAGG 150330Z 23010KT 9999 SCT011 31/25 Q1012=
15/12/2020 04:00:00Z	 SAID34 WAGG 150400	METAR WAGG 150400Z 29011KT 9999 SCT011 31/25 Q1012=
15/12/2020 05:00:00Z	 SAID34 WAGG 150500	METAR WAGG 150500Z 23009KT 9999 SCT011 31/25 Q1011=
15/12/2020 05:30:00Z	 SAID34 WAGG 150530	METAR WAGG 150530Z 27006KT 9999 SCT011 31/25 Q1010=
15/12/2020 06:00:00Z	 SAID34 WAGG 150600	METAR WAGG 150600Z 27005KT 9999 BKN011 31/25 Q1010=
15/12/2020 06:30:00Z	 SAID34 WAGG 150630	METAR WAGG 150630Z 26006KT 9999 BKN011 31/24 Q1009=
15/12/2020 07:00:00Z	 SAID34 WAGG 150700	METAR WAGG 150700Z 23006KT 9999 BKN011 31/24 Q1009=
15/12/2020 07:30:00Z	 SAID34 WAGG 150730	METAR WAGG 150730Z 23006KT 9999 BKN011 31/24 Q1009=
15/12/2020 08:00:00Z	 SAID34 WAGG 150800	METAR WAGG 150800Z 21010KT 9999 FEW010TCU BKN010 31/24 Q1009=
15/12/2020 08:30:00Z	 SAID34 WAGG 150830	METAR WAGG 150830Z 22015KT 3000 RA FEW010TCU BKN010 26/23 Q1009=
15/12/2020 09:00:00Z	 SAID34 WAGG 150900	METAR WAGG 150900Z 20010KT 8000 FEW010TCU BKN010 25/24 Q1009 RERA=
15/12/2020 09:30:00Z	 SAID34 WAGG 150930	METAR WAGG 150930Z 22006KT 9000 BKN011 25/24 Q1009=
15/12/2020 10:00:00Z	 SAID34 WAGG 151000	METAR WAGG 151000Z 25003KT 9000 BKN012 25/24 Q1009=
15/12/2020 10:30:00Z	 SAID34 WAGG 151030	METAR WAGG 151030Z 24004KT 9000 BKN012 25/23 Q1009=
15/12/2020 11:00:00Z	 SAID34 WAGG 151100	METAR WAGG 151100Z 24003KT 9000 BKN012 25/24 Q1010=
15/12/2020 12:00:00Z	 SAID34 WAGG 151200	METAR WAGG 151200Z 21002KT 9000 SCT012 24/23 Q1011=
15/12/2020 15:00:00Z	 SAID34 WAGG 151500	METAR WAGG 151500Z 00000KT 9000 SCT012 24/23 Q1012=
15/12/2020 18:00:00Z	 SAID34 WAGG 151800	METAR WAGG 151800Z 00000KT 8000 SCT012 24/23 Q1011=
15/12/2020 21:00:00Z	 SAID34 WAGG 152100	METAR WAGG 152100Z 32002KT 2000 BR SCT012 23/23 Q1011=
15/12/2020 21:30:00Z	 SAID34 WAGG 152130	METAR WAGG 152130Z 34003KT 5000 BR SCT012 23/23 Q1011=
15/12/2020 22:00:00Z	 SAID34 WAGG 152200	METAR WAGG 152200Z 31003KT 2000 BR SCT012 24/23 Q1011=
15/12/2020 22:30:00Z	 SAID34 WAGG 152230	METAR WAGG 152230Z 32002KT 5000 SCT012 24/23 Q1011=
15/12/2020 23:00:00Z	 SAID34 WAGG 152300	METAR WAGG 152300Z 33005KT 5000 BKN010 24/23 Q1012=
15/12/2020 23:30:00Z	 SAID34 WAGG 152330	METAR WAGG 152330Z 34006KT 5000 BKN008 24/23 Q1012=
16/12/2020 00:00:00Z	 SAID34 WAGG 160000	METAR WAGG 160000Z 31002KT 6000 BKN011 25/24 Q1012=
16/12/2020 00:30:00Z	 SAID34 WAGG 160030	METAR WAGG 160030Z 33002KT 6000 BKN011 26/25 Q1012=
16/12/2020 01:00:00Z	 SAID34 WAGG 160100	METAR WAGG 160100Z 26003KT 8000 BKN011 27/25 Q1012=
16/12/2020 01:30:00Z	 SAID34 WAGG 160130	METAR WAGG 160130Z 28003KT 8000 BKN011 28/25 Q1012=
16/12/2020 02:00:00Z	 SAID34 WAGG 160200	METAR WAGG 160200Z 30004KT 8000 BKN011 29/25 Q1012=
16/12/2020 02:30:00Z	 SAID34 WAGG 160230	METAR WAGG 160230Z 28005KT 8000 BKN011 29/25 Q1012=
16/12/2020 03:00:00Z	 SAID34 WAGG 160300	METAR WAGG 160300Z 26008KT 8000 BKN011 31/24 Q1012=
16/12/2020 03:30:00Z	 SAID34 WAGG 160330	METAR WAGG 160330Z 27005KT 8000 BKN011 32/24 Q1011=
16/12/2020 04:00:00Z	 SAID34 WAGG 160400	METAR WAGG 160400Z 30005KT 8000 BKN011 31/24 Q1011=
16/12/2020 04:30:00Z	 SAID34 WAGG 160430	METAR WAGG 160430Z 31003KT 8000 BKN011 31/24 Q1011=
16/12/2020 05:00:00Z	 SAID34 WAGG 160500	METAR WAGG 160500Z 30007KT 8000 BKN011 31/23 Q1010=
16/12/2020 05:30:00Z	 SAID34 WAGG 160530	METAR WAGG 160530Z 30005KT 9999 BKN011 33/24 Q1009=
16/12/2020 06:00:00Z	 SAID34 WAGG 160600	METAR WAGG 160600Z 31005KT 9999 BKN011 32/24 Q1009=
16/12/2020 06:30:00Z	 SAID34 WAGG 160630	METAR WAGG 160630Z 25005KT 9999 BKN011 31/23 Q1008=
16/12/2020 07:00:00Z	 SAID34 WAGG 160700	METAR WAGG 160700Z 27006KT 9999 FEW011TCU BKN011 31/24 Q1007=
16/12/2020 07:30:00Z	 SAID34 WAGG 160730	METAR WAGG 160730Z 27006KT 9999 FEW011CB BKN011 32/25 Q1007=
16/12/2020 08:00:00Z	 SAID34 WAGG 160800	METAR WAGG 160800Z 23008KT 9999 FEW011CB BKN011 32/24 Q1007=
16/12/2020 08:30:00Z	 SAID34 WAGG 160830	METAR WAGG 160830Z 23017G22KT 5000 -RA FEW011CB BKN011 28/24 Q1008=
16/12/2020 08:30:00Z	 SAID34 WAGG 160830 CCA	METAR WAGG 160830Z 23017G22KT 5000 -TSRA FEW011CB BKN011 28/24 Q1008=
16/12/2020 09:00:00Z	 SAID34 WAGG 160900	METAR WAGG 160900Z 20009KT 8000 FEW011CB BKN011 25/23 Q1008 RETSRA=
16/12/2020 09:30:00Z	 SAID34 WAGG 160930	METAR WAGG 160930Z 22006KT 8000 TS FEW011CB BKN011 25/24 Q1009=
16/12/2020 10:00:00Z	 SAID34 WAGG 161000	METAR WAGG 161000Z 21006KT 9000 FEW011CB BKN011 25/24 Q1009 RETS=
16/12/2020 10:30:00Z	 SAID34 WAGG 161030	METAR WAGG 161030Z 21006KT 9000 FEW011CB BKN011 25/24 Q1009=
16/12/2020 11:00:00Z	 SAID34 WAGG 161100	METAR WAGG 161100Z 25004KT 9000 BKN011 25/24 Q1010=
16/12/2020 11:30:00Z	 SAID34 WAGG 161130	METAR WAGG 161130Z 27001KT 9000 BKN011 25/24 Q1010=
16/12/2020 12:00:00Z	 SAID34 WAGG 161200	METAR WAGG 161200Z 28009KT 9000 SCT012 25/23 Q1011=
16/12/2020 21:00:00Z	 SAID34 WAGG 162100	METAR WAGG 162100Z 34004KT 8000 FEW013 23/23 Q1010=
16/12/2020 21:30:00Z	 SAID34 WAGG 162130	METAR WAGG 162130Z 36004KT 8000 FEW013 23/23 Q1010=
16/12/2020 22:00:00Z	 SAID34 WAGG 162200	METAR WAGG 162200Z 36005KT 8000 FEW013 23/23 Q1010=
16/12/2020 22:30:00Z	 SAID34 WAGG 162230	METAR WAGG 162230Z 01004KT 9000 FEW013 23/23 Q1010=
16/12/2020 23:00:00Z	 SAID34 WAGG 162300	METAR WAGG 162300Z 07002KT 8000 FEW013 23/23 Q1010=
16/12/2020 23:30:00Z	 SAID34 WAGG 162330	METAR WAGG 162330Z 06002KT 8000 BKN009 24/24 Q1010=
17/12/2020 00:00:00Z	 SAID34 WAGG 170000	METAR WAGG 170000Z 04002KT 9999 SCT009 24/23 Q1010=
17/12/2020 01:00:00Z	 SAID34 WAGG 170100	METAR WAGG 170100Z 05002KT 9999 SCT012 26/24 Q1011=
17/12/2020 01:30:00Z	 SAID34 WAGG 170130	METAR WAGG 170130Z 07002KT 9999 SCT012 27/24 Q1011=
17/12/2020 02:00:00Z	 SAID34 WAGG 170200	METAR WAGG 170200Z 05002KT 9999 SCT012 28/25 Q1011=
17/12/2020 02:30:00Z	 SAID34 WAGG 170230	METAR WAGG 170230Z 11002KT 9999 SCT012 27/25 Q1011=
17/12/2020 03:00:00Z	 SAID34 WAGG 170300	METAR WAGG 170300Z 13002KT 9999 BKN012 28/26 Q1011=
17/12/2020 03:30:00Z	 SAID34 WAGG 170330	METAR WAGG 170330Z 12002KT 9999 BKN012 30/26 Q1010=
17/12/2020 04:00:00Z	 SAID34 WAGG 170400	METAR WAGG 170400Z 25006KT 9999 BKN012 30/24 Q1010=
17/12/2020 04:30:00Z	 SAID34 WAGG 170430	METAR WAGG 170430Z 25005KT 9999 BKN012 30/25 Q1010=
17/12/2020 05:00:00Z	 SAID34 WAGG 170500	METAR WAGG 170500Z 23008KT 9999 BKN012 31/24 Q1009=
17/12/2020 05:30:00Z	 SAID34 WAGG 170530	METAR WAGG 170530Z 24009KT 9999 BKN011 31/24 Q1008=
17/12/2020 06:30:00Z	 SAID34 WAGG 170630	METAR WAGG 170630Z 25008KT 9999 BKN011 31/25 Q1007=
17/12/2020 07:00:00Z	 SAID34 WAGG 170700	METAR WAGG 170700Z 22012KT 9999 BKN011 30/25 Q1007=
17/12/2020 07:30:00Z	 SAID34 WAGG 170730 CCA	METAR WAGG 170730Z 22016KT 8000 FEW010CB BKN011 30/24 Q1007=
17/12/2020 08:00:00Z	 SAID34 WAGG 170800	METAR WAGG 170730Z 22016KT 8000 FEW010CB BKN011 30/24 Q1007=
17/12/2020 08:00:00Z	 SAID34 WAGG 170800	METAR WAGG 170800Z 20015KT 8000 FEW010CB BKN011 27/23 Q1007=
17/12/2020 08:30:00Z	 SAID34 WAGG 170830	METAR WAGG 170830Z 24008KT 8000 FEW010CB BKN011 27/23 Q1007=
17/12/2020 09:00:00Z	 SAID34 WAGG 170900	METAR WAGG 170900Z 24006KT 8000 BKN010 27/23 Q1008=
17/12/2020 09:30:00Z	 SAID34 WAGG 170930	METAR WAGG 170930Z 25008KT 8000 BKN010 27/23 Q1008=
17/12/2020 10:00:00Z	 SAID34 WAGG 171000	METAR WAGG 171000Z 23006KT 9000 BKN010 26/24 Q1008=
17/12/2020 10:30:00Z	 SAID34 WAGG 171030	METAR WAGG 171030Z 24007KT 9000 BKN010 26/24 Q1008=
17/12/2020 11:00:00Z	 SAID34 WAGG 171100	METAR WAGG 171100Z 22004KT 9000 BKN010 25/24 Q1009=
17/12/2020 12:00:00Z	 SAID34 WAGG 171200	METAR WAGG 171200Z 23003KT 9000 SCT011 25/24 Q1010=
17/12/2020 15:00:00Z	 SAID34 WAGG 171500	METAR WAGG 171500Z 08003KT 9000 SCT011 24/23 Q1011=
17/12/2020 18:00:00Z	 SAID34 WAGG 171800	METAR WAGG 171800Z 00000KT 8000 SCT011 24/23 Q1010=
17/12/2020 21:00:00Z	 SAID34 WAGG 172100	METAR WAGG 172100Z 00000KT 8000 SCT011 23/23 Q1009=
17/12/2020 21:30:00Z	 SAID34 WAGG 172130	METAR WAGG 172130Z 00000KT 8000 SCT011 23/23 Q1009=
17/12/2020 22:00:00Z	 SAID34 WAGG 172200	METAR WAGG 172200Z 03002KT 8000 SCT011 23/23 Q1009=
17/12/2020 22:30:00Z	 SAID34 WAGG 172230	METAR WAGG 172230Z 02002KT 8000 BKN009 23/23 Q1010=
17/12/2020 23:00:00Z	 SAID34 WAGG 172300	METAR WAGG 172300Z 01002KT 8000 BKN009 24/23 Q1010=
17/12/2020 23:30:00Z	 SAID34 WAGG 172330	METAR WAGG 172330Z 01002KT 8000 BKN009 24/23 Q1011=
18/12/2020 00:00:00Z	 SAID34 WAGG 180000	METAR WAGG 180000Z 30003KT 9000 BKN009 25/24 Q1011=
18/12/2020 00:30:00Z	 SAID34 WAGG 180030	METAR WAGG 180030Z 27004KT 9000 BKN009 25/24 Q1011=
18/12/2020 01:00:00Z	 SAID34 WAGG 180100	METAR WAGG 180100Z 28003KT 9000 BKN009 25/24 Q1011=
18/12/2020 01:30:00Z	 SAID34 WAGG 180130 CCA	METAR WAGG 180130Z 26007KT 9000 BKN009 26/25 Q1012=
18/12/2020 02:00:00Z	 SAID34 WAGG 180200	METAR WAGG 180200Z 24008KT 9000 FEW009TCU BKN009 27/25 Q1011=
18/12/2020 02:30:00Z	 SAID34 WAGG 180230	METAR WAGG 180230Z 25008KT 9000 FEW009TCU BKN009 27/25 Q1011=
18/12/2020 03:00:00Z	 SAID34 WAGG 180300	METAR WAGG 180300Z 24008KT 9000 FEW009TCU BKN009 27/24 Q1011=
18/12/2020 03:30:00Z	 SAID34 WAGG 180330	METAR WAGG 180330Z 24008KT 9000 BKN009 27/24 Q1011=
18/12/2020 04:00:00Z	 SAID34 WAGG 180400	METAR WAGG 180400Z 27007KT 9000 BKN009 29/25 Q1010=
18/12/2020 04:30:00Z	 SAID34 WAGG 180430	METAR WAGG 180430Z 29005KT 9000 BKN009 29/25 Q1009=
18/12/2020 05:00:00Z	 SAID34 WAGG 180500	METAR WAGG 180500Z 29006KT 9000 BKN010 29/25 Q1009=
18/12/2020 05:30:00Z	 SAID34 WAGG 180530	METAR WAGG 180530Z 28005KT 9000 BKN010 30/25 Q1008=
18/12/2020 06:30:00Z	 SAID34 WAGG 180630	METAR WAGG 180630Z 25008KT 9000 BKN010 29/25 Q1008=
18/12/2020 07:00:00Z	 SAID34 WAGG 180700	METAR WAGG 180700Z 24009KT 9000 BKN010 29/25 Q1007=
18/12/2020 07:30:00Z	 SAID34 WAGG 180730	METAR WAGG 180730Z 25008KT 9000 BKN010 30/25 Q1007=
18/12/2020 08:00:00Z	 SAID34 WAGG 180800	METAR WAGG 180800Z 27008KT 9000 BKN010 30/25 Q1007=
18/12/2020 08:30:00Z	 SAID34 WAGG 180830	METAR WAGG 180830Z 27004KT 9000 BKN010 29/24 Q1007=
18/12/2020 09:00:00Z	 SAID34 WAGG 180900	METAR WAGG 180900Z 26006KT 9000 BKN010 29/25 Q1007=
18/12/2020 09:30:00Z	 SAID34 WAGG 180930	METAR WAGG 180930Z 24005KT 9000 BKN010 29/25 Q1007=
18/12/2020 10:00:00Z	 SAID34 WAGG 181000	METAR WAGG 181000Z 24004KT 9000 SCT010 29/25 Q1008=
18/12/2020 10:30:00Z	 SAID34 WAGG 181030	METAR WAGG 181030Z 21003KT 9000 SCT010 28/25 Q1008=
18/12/2020 11:00:00Z	 SAID34 WAGG 181100	METAR WAGG 181100Z 24002KT 9000 SCT010 28/26 Q1008=
18/12/2020 11:30:00Z	 SAID34 WAGG 181130	METAR WAGG 181130Z 22002KT 9000 SCT011 27/25 Q1009=
18/12/2020 12:00:00Z	 SAID34 WAGG 181200	METAR WAGG 181200Z 27003KT 9000 SCT011 27/25 Q1009=
18/12/2020 15:00:00Z	 SAID34 WAGG 181500	METAR WAGG 181500Z 20003KT 9000 BKN011 26/24 Q1011=
18/12/2020 18:00:00Z	 SAID34 WAGG 181800	METAR WAGG 181800Z 00000KT 8000 BKN011 25/24 Q1011=
18/12/2020 21:00:00Z	 SAID34 WAGG 182100	METAR WAGG 182100Z 00000KT 8000 BKN011 24/24 Q1009=
18/12/2020 21:30:00Z	 SAID34 WAGG 182130	METAR WAGG 182130Z 00000KT 8000 BKN011 24/24 Q1009=
18/12/2020 22:00:00Z	 SAID34 WAGG 182200	METAR WAGG 182200Z 00000KT 8000 SCT012 24/24 Q1010=
18/12/2020 22:30:00Z	 SAID34 WAGG 182230	METAR WAGG 182230Z 00000KT 8000 BKN011 24/24 Q1009=
18/12/2020 23:00:00Z	 SAID34 WAGG 182300	METAR WAGG 182300Z 00000KT 9000 BKN011 24/24 Q1010=
18/12/2020 23:30:00Z	 SAID34 WAGG 182330	METAR WAGG 182330Z 31002KT 9000 BKN011 25/24 Q1011=
19/12/2020 00:00:00Z	 SAID34 WAGG 190000	METAR WAGG 190000Z 30004KT 9999 FEW013 26/25 Q1011=
19/12/2020 00:30:00Z	 SAID34 WAGG 190030	METAR WAGG 190030Z 31006KT 9999 FEW013 27/24 Q1011=
19/12/2020 01:00:00Z	 SAID34 WAGG 190100	METAR WAGG 190100Z 30008KT 9999 SCT013 28/24 Q1011=
19/12/2020 01:30:00Z	 SAID34 WAGG 190130	METAR WAGG 190130Z 30010KT 9999 SCT013 29/24 Q1011=
19/12/2020 02:00:00Z	 SAID34 WAGG 190200	METAR WAGG 190200Z 30009KT 9999 SCT013 29/24 Q1011=
19/12/2020 02:30:00Z	 SAID34 WAGG 190230	METAR WAGG 190230Z 30009KT 9999 SCT010 30/24 Q1011=
19/12/2020 03:00:00Z	 SAID34 WAGG 190300	METAR WAGG 190300Z 27008KT 9999 SCT010 29/24 Q1011=
19/12/2020 03:30:00Z	 SAID34 WAGG 190330	METAR WAGG 190330Z 27008KT 9999 SCT010 30/24 Q1010=
19/12/2020 04:00:00Z	 SAID34 WAGG 190400	METAR WAGG 190400Z 26009KT 9999 BKN010 30/25 Q1010=
19/12/2020 04:30:00Z	 SAID34 WAGG 190430	METAR WAGG 190430Z 27011KT 9999 BKN010 30/25 Q1010=
19/12/2020 05:00:00Z	 SAID34 WAGG 190500	METAR WAGG 190500Z 29012KT 9999 BKN010 31/25 Q1009=
19/12/2020 05:30:00Z	 SAID34 WAGG 190530	METAR WAGG 190530Z 27013KT 9999 FEW010TCU BKN010 31/24 Q1009=
19/12/2020 06:00:00Z	 SAID34 WAGG 190600	METAR WAGG 190600Z 28011KT 9999 FEW010TCU BKN010 31/24 Q1008=
19/12/2020 06:30:00Z	 SAID34 WAGG 190630	METAR WAGG 190630Z 26011KT 9999 BKN010 31/24 Q1008=
19/12/2020 07:00:00Z	 SAID34 WAGG 190700	METAR WAGG 190700Z 26014KT 9999 BKN010 30/24 Q1008=
19/12/2020 07:30:00Z	 SAID34 WAGG 190730	METAR WAGG 190730Z 25011KT 9999 BKN010 31/24 Q1008=
19/12/2020 08:00:00Z	 SAID34 WAGG 190800	METAR WAGG 190800Z 25014KT 9999 BKN010 30/24 Q1008=
19/12/2020 08:30:00Z	 SAID34 WAGG 190830	METAR WAGG 190830Z 26012KT 9999 BKN010 30/24 Q1008=
19/12/2020 09:00:00Z	 SAID34 WAGG 190900	METAR WAGG 190900Z 23007KT 9999 BKN010 29/24 Q1008=
19/12/2020 09:30:00Z	 SAID34 WAGG 190930	METAR WAGG 190930Z 25007KT 9999 BKN011 29/24 Q1008=
19/12/2020 10:00:00Z	 SAID34 WAGG 191000	METAR WAGG 191000Z 27009KT 9999 BKN011 28/24 Q1009=
19/12/2020 10:30:00Z	 SAID34 WAGG 191030	METAR WAGG 191030Z 27006KT 9000 BKN011 28/24 Q1009=
19/12/2020 11:00:00Z	 SAID34 WAGG 191100	METAR WAGG 191100Z 27004KT 9000 BKN011 28/24 Q1010=
19/12/2020 11:30:00Z	 SAID34 WAGG 191130	METAR WAGG 191130Z 25005KT 9000 BKN011 27/24 Q1010=
19/12/2020 12:00:00Z	 SAID34 WAGG 191200	METAR WAGG 191200Z 27005KT 9000 BKN011 27/24 Q1010=
19/12/2020 21:00:00Z	 SAID34 WAGG 192100	METAR WAGG 192100Z 12002KT 8000 BKN011 24/24 Q1009=
19/12/2020 23:00:00Z	 SAID34 WAGG 192300	METAR WAGG 192300Z 16001KT 6000 SCT011 24/24 Q1011=
19/12/2020 23:30:00Z	 SAID34 WAGG 192330	METAR WAGG 192330Z 18001KT 7000 SCT011 24/24 Q1011=
20/12/2020 00:00:00Z	 SAID34 WAGG 200000	METAR WAGG 200000Z 19001KT 8000 SCT011 25/24 Q1012=
20/12/2020 00:30:00Z	 SAID34 WAGG 200030	METAR WAGG 200030Z 32002KT 9000 BKN011 26/24 Q1012=
20/12/2020 01:00:00Z	 SAID34 WAGG 200100	METAR WAGG 200100Z 28004KT 9000 BKN012 28/24 Q1011=
20/12/2020 01:30:00Z	 SAID34 WAGG 200130	METAR WAGG 200130Z 27006KT 9999 BKN012 29/24 Q1011=
20/12/2020 02:00:00Z	 SAID34 WAGG 200200	METAR WAGG 200200Z 27015KT 9999 SCT011 30/25 Q1011=
20/12/2020 02:30:00Z	 SAID34 WAGG 200230	METAR WAGG 200230Z 29010KT 9999 SCT011 31/24 Q1011=
20/12/2020 03:00:00Z	 SAID34 WAGG 200300	METAR WAGG 200300Z 29008KT 9999 SCT011 31/24 Q1011=
20/12/2020 03:30:00Z	 SAID34 WAGG 200330	METAR WAGG 200330Z 29008KT 9999 BKN011 30/24 Q1011=
20/12/2020 04:00:00Z	 SAID34 WAGG 200400	METAR WAGG 200400Z 28007KT 9999 BKN011 31/25 Q1010=
20/12/2020 04:30:00Z	 SAID34 WAGG 200430	METAR WAGG 200430Z 28008KT 9999 BKN011 31/24 Q1010=
20/12/2020 05:00:00Z	 SAID34 WAGG 200500	METAR WAGG 200500Z 30012KT 9999 BKN011 31/24 Q1010=
20/12/2020 05:30:00Z	 SAID34 WAGG 200530	METAR WAGG 200530Z 26014KT 5000 VCSH FEW012TCU SCT012 32/24 Q1009=
20/12/2020 06:00:00Z	 SAID34 WAGG 200600	METAR WAGG 200600Z 25012KT 8000 FEW012TCU SCT012 31/24 Q1008=
20/12/2020 06:30:00Z	 SAID34 WAGG 200630	METAR WAGG 200630Z 32013KT 5000 -RA FEW012TCU SCT012 27/25 Q1008=
20/12/2020 07:00:00Z	 SAID34 WAGG 200700	METAR WAGG 200700Z 29011KT 8000 FEW012TCU SCT012 27/25 Q1008 RERA=
20/12/2020 08:00:00Z	 SAID34 WAGG 200800	METAR WAGG 200800Z 30010KT 6000 FEW012TCU SCT012 31/25 Q1007=
20/12/2020 08:30:00Z	 SAID34 WAGG 200830	METAR WAGG 200830Z 24009KT 5000 VCSH FEW012TCU SCT012 30/25 Q1007=
20/12/2020 09:00:00Z	 SAID34 WAGG 200900	METAR WAGG 200900Z 22008KT 7000 FEW012TCU SCT012 25/23 Q1008 RERA=
20/12/2020 09:30:00Z	 SAID34 WAGG 200930	METAR WAGG 200930Z 22009KT 7000 FEW012TCU SCT012 27/24 Q1008=
20/12/2020 10:00:00Z	 SAID34 WAGG 201000	METAR WAGG 201000Z 23006KT 8000 SCT012TCU 26/24 Q1008=
20/12/2020 10:30:00Z	 SAID34 WAGG 201030	METAR WAGG 201030Z 25005KT 8000 SCT012TCU 26/25 Q1009=
20/12/2020 11:00:00Z	 SAID34 WAGG 201100	METAR WAGG 201100Z 28007KT 8000 SCT012TCU 26/25 Q1009=
20/12/2020 12:00:00Z	 SAID34 WAGG 201200	METAR WAGG 201200Z 27004KT 8000 VCSH SCT011 27/25 Q1010=
20/12/2020 15:00:00Z	 SAID34 WAGG 201500	METAR WAGG 201500Z 00000KT 8000 SCT011 25/23 Q1012=
20/12/2020 18:00:00Z	 SAID34 WAGG 201800	METAR WAGG 201800Z 00000KT 7000 SCT011 24/23 Q1012=
20/12/2020 21:00:00Z	 SAID34 WAGG 202100	METAR WAGG 202100Z 00000KT 7000 SCT011 23/23 Q1010=
20/12/2020 21:30:00Z	 SAID34 WAGG 202130	METAR WAGG 202130Z 00000KT 7000 SCT011 23/23 Q1010=
20/12/2020 22:00:00Z	 SAID34 WAGG 202200	METAR WAGG 202200Z 00000KT 8000 SCT012 23/23 Q1010=
20/12/2020 22:30:00Z	 SAID34 WAGG 202230	METAR WAGG 202230Z 00000KT 8000 SCT012 23/23 Q1010=
20/12/2020 23:00:00Z	 SAID34 WAGG 202300	METAR WAGG 202300Z 00000KT 9000 SCT012 24/23 Q1010=
20/12/2020 23:30:00Z	 SAID34 WAGG 202330	METAR WAGG 202330Z 00000KT 9000 BKN010 24/23 Q1011=
21/12/2020 00:00:00Z	 SAID34 WAGG 210000	METAR WAGG 210000Z 31002KT 9000 BKN010 27/25 Q1011=
21/12/2020 00:30:00Z	 SAID34 WAGG 210030	METAR WAGG 210030Z 30004KT 9000 SCT012 27/25 Q1011=
21/12/2020 01:00:00Z	 SAID34 WAGG 210100	METAR WAGG 210100Z 25004KT 9000 SCT012 28/26 Q1011=
21/12/2020 01:30:00Z	 SAID34 WAGG 210130	METAR WAGG 210130Z 24007KT 9000 SCT012 29/25 Q1011=
21/12/2020 02:00:00Z	 SAID34 WAGG 210200	METAR WAGG 210200Z 25010KT 9000 SCT012 30/25 Q1011=
21/12/2020 02:30:00Z	 SAID34 WAGG 210230	METAR WAGG 210230Z 24011KT 9000 SCT012 31/25 Q1011=
21/12/2020 03:00:00Z	 SAID34 WAGG 210300	METAR WAGG 210300Z 25009KT 9999 SCT012 32/25 Q1010=
21/12/2020 03:30:00Z	 SAID34 WAGG 210330	METAR WAGG 210330Z 25010KT 9999 SCT012 31/24 Q1010=
21/12/2020 04:00:00Z	 SAID34 WAGG 210400	METAR WAGG 210400Z 25014KT 9999 SCT012 32/24 Q1010=
21/12/2020 04:30:00Z	 SAID34 WAGG 210430	METAR WAGG 210430Z 25010KT 9999 BKN012 31/24 Q1010=
21/12/2020 05:00:00Z	 SAID34 WAGG 210500	METAR WAGG 210500Z 26010KT 9999 BKN012 32/24 Q1009=
21/12/2020 05:30:00Z	 SAID34 WAGG 210530	METAR WAGG 210530Z 27005KT 9999 BKN011 33/24 Q1008=
21/12/2020 06:00:00Z	 SAID34 WAGG 210600	METAR WAGG 210600Z 26011KT 9999 BKN012 32/24 Q1008=
21/12/2020 06:30:00Z	 SAID34 WAGG 210630	METAR WAGG 210630Z 27008KT 9999 BKN012 33/24 Q1007=
21/12/2020 07:00:00Z	 SAID34 WAGG 210700	METAR WAGG 210700Z 25008KT 9999 BKN011 33/24 Q1007=
21/12/2020 07:30:00Z	 SAID34 WAGG 210730	METAR WAGG 210730Z 28005KT 9999 BKN011 33/25 Q1006=
21/12/2020 08:00:00Z	 SAID34 WAGG 210800	METAR WAGG 210800Z 25010KT 9999 BKN012 32/24 Q1006=
21/12/2020 08:30:00Z	 SAID34 WAGG 210830	METAR WAGG 210830Z 25008KT 9999 BKN012 32/24 Q1006=
21/12/2020 09:00:00Z	 SAID34 WAGG 210900	METAR WAGG 210900Z 25009KT 9999 FEW011TCU SCT012 32/24 Q1007=
21/12/2020 09:30:00Z	 SAID34 WAGG 210930	METAR WAGG 210930Z 29013KT 3000 TSRA FEW009CB BKN010 27/25 Q1008=
21/12/2020 10:00:00Z	 SAID34 WAGG 211000	METAR WAGG 211000Z 23007KT 7000 TS FEW009CB BKN010 26/25 Q1009 RERA=
21/12/2020 10:30:00Z	 SAID34 WAGG 211030	METAR WAGG 211030Z 18004KT 8000 TS FEW009CB BKN010 25/25 Q1009=
21/12/2020 11:00:00Z	 SAID34 WAGG 211100	METAR WAGG 211100Z 20006KT 8000 FEW010CB BKN010 25/25 Q1009 RETS=
21/12/2020 11:30:00Z	 SAID34 WAGG 211130	METAR WAGG 211130Z 20006KT 8000 FEW010CB BKN010 25/24 Q1009=
21/12/2020 12:00:00Z	 SAID34 WAGG 211200	METAR WAGG 211200Z 15004KT 7000 -RA FEW010TCU BKN010 25/24 Q1010=
21/12/2020 21:00:00Z	 SAID34 WAGG 212100	METAR WAGG 212100Z 28004KT 7000 SCT012 24/24 Q1009=
21/12/2020 21:30:00Z	 SAID34 WAGG 212130	METAR WAGG 212130Z 23004KT 7000 SCT012 24/24 Q1009=
21/12/2020 22:00:00Z	 SAID34 WAGG 212200	METAR WAGG 212200Z 30003KT 7000 FEW013 24/24 Q1010=
21/12/2020 22:30:00Z	 SAID34 WAGG 212230	METAR WAGG 212230Z 11003KT 8000 FEW013 24/24 Q1010=
21/12/2020 23:00:00Z	 SAID34 WAGG 212300	METAR WAGG 212300Z 15002KT 8000 FEW013 24/23 Q1010=
21/12/2020 23:30:00Z	 SAID34 WAGG 212330	METAR WAGG 212330Z 10002KT 8000 FEW013 24/24 Q1011=
22/12/2020 00:00:00Z	 SAID34 WAGG 220000	METAR WAGG 220000Z 07001KT 8000 FEW013 25/24 Q1011=
22/12/2020 00:30:00Z	 SAID34 WAGG 220030	METAR WAGG 220030Z 26001KT 9000 FEW013 26/25 Q1012=
22/12/2020 02:00:00Z	 SAID34 WAGG 220200	METAR WAGG 220200Z 26004KT 9999 BKN012 28/25 Q1012=
22/12/2020 02:30:00Z	 SAID34 WAGG 220230	METAR WAGG 220230Z 24008KT 9999 BKN012 29/25 Q1012=
22/12/2020 03:00:00Z	 SAID34 WAGG 220300	METAR WAGG 220300Z 26004KT 9999 BKN012 29/26 Q1011=
22/12/2020 03:30:00Z	 SAID34 WAGG 220330	METAR WAGG 220330Z 26010KT 9999 BKN012 30/26 Q1011=
22/12/2020 04:00:00Z	 SAID34 WAGG 220400	METAR WAGG 220400Z 25009KT 9999 BKN012 31/25 Q1010=
22/12/2020 04:30:00Z	 SAID34 WAGG 220430	METAR WAGG 220430Z 26012KT 9999 BKN012 31/25 Q1010=
22/12/2020 05:00:00Z	 SAID34 WAGG 220500	METAR WAGG 220500Z 25011KT 9999 BKN012 32/25 Q1009=
22/12/2020 05:30:00Z	 SAID34 WAGG 220530	METAR WAGG 220530Z 26008KT 6000 VCSH BKN012 29/26 Q1008=
22/12/2020 06:00:00Z	 SAID34 WAGG 220600	METAR WAGG 220600Z 240008KT 7000 VCSH BKN011 30/25 Q1008=
22/12/2020 06:30:00Z	 SAID34 WAGG 220630	METAR WAGG 220630Z 24013KT 8000 FEW011CB BKN011 30/26 Q1008=
22/12/2020 07:00:00Z	 SAID34 WAGG 220700	METAR WAGG 220700Z 26004KT 6000 -RA FEW011CB BKN011 29/26 Q1007=
22/12/2020 07:30:00Z	 SAID34 WAGG 220730	METAR WAGG 220730Z 28006KT 6000 -RA FEW011CB BKN011 28/26 Q1007=
22/12/2020 08:00:00Z	 SAID34 WAGG 220800	METAR WAGG 220800Z 25005KT 7000 -TSRA FEW011CB BKN011 28/26 Q1007=
22/12/2020 08:30:00Z	 SAID34 WAGG 220830	METAR WAGG 220830Z 30004KT 8000 FEW011CB BKN011 28/26 Q1008=
22/12/2020 09:00:00Z	 SAID34 WAGG 220900	METAR WAGG 220900Z 26020KT 2000 TSRA FEW011CB BKN011 24/23 Q1008=
22/12/2020 09:30:00Z	 SAID34 WAGG 220930	METAR WAGG 220930Z 24004KT 6000 -TSRA FEW011CB BKN011 24/23 Q1008=
22/12/2020 10:00:00Z	 SAID34 WAGG 221000	METAR WAGG 221000Z 05004KT 7000 -RA FEW011CB BKN011 24/24 Q1008=
22/12/2020 10:30:00Z	 SAID34 WAGG 221030	METAR WAGG 221030Z 10003KT 7000 -RA FEW011CB BKN011 24/24 Q1009=
22/12/2020 11:30:00Z	 SAID34 WAGG 221130	METAR WAGG 221130Z 11001KT 6000 -RA BKN011CB 24/24 Q1009=
22/12/2020 12:00:00Z	 SAID34 WAGG 221200	METAR WAGG 221200Z 08002KT 6000 -RA BKN011 25/24 Q1009=
22/12/2020 21:00:00Z	 SAID34 WAGG 222100	METAR WAGG 222100Z 02001KT 8000 BKN010 24/23 Q1009=
22/12/2020 21:30:00Z	 SAID34 WAGG 222130	METAR WAGG 222130Z 09001KT 8000 BKN010 24/23 Q1009=
22/12/2020 22:00:00Z	 SAID34 WAGG 222200	METAR WAGG 222200Z 12002KT 8000 SCT010 23/23 Q1009=
22/12/2020 22:30:00Z	 SAID34 WAGG 222230	METAR WAGG 222230Z 08002KT 8000 SCT011 23/23 Q1009=
22/12/2020 23:00:00Z	 SAID34 WAGG 222300	METAR WAGG 222300Z 01001KT 8000 BKN012 24/23 Q1010=
22/12/2020 23:30:00Z	 SAID34 WAGG 222330	METAR WAGG 222330Z 04001KT 8000 BKN012 24/24 Q1011=
23/12/2020 00:00:00Z	 SAID34 WAGG 230000	METAR WAGG 230000Z 05002KT 8000 BKN012 25/24 Q1011=
23/12/2020 00:30:00Z	 SAID34 WAGG 230030	METAR WAGG 230030Z 08003KT 8000 BKN011 25/25 Q1011=
23/12/2020 01:00:00Z	 SAID34 WAGG 230100	METAR WAGG 230100Z 05001KT 8000 BKN011 27/25 Q1011=
23/12/2020 01:30:00Z	 SAID34 WAGG 230130	METAR WAGG 230130Z 32003KT 8000 BKN011 28/25 Q1011=
23/12/2020 02:00:00Z	 SAID34 WAGG 230200	METAR WAGG 230200Z 32005KT 8000 BKN011 29/25 Q1011=
23/12/2020 02:30:00Z	 SAID34 WAGG 230230	METAR WAGG 230230Z 29004KT 8000 BKN011 29/26 Q1011=
23/12/2020 03:00:00Z	 SAID34 WAGG 230300	METAR WAGG 230300Z 28004KT 8000 FEW011TCU BKN011 30/26 Q1010=
23/12/2020 03:30:00Z	 SAID34 WAGG 230330	METAR WAGG 230330Z 24004KT 8000 FEW011TCU BKN011 30/25 Q1010=
23/12/2020 04:00:00Z	 SAID34 WAGG 230400	METAR WAGG 230400Z 25003KT 8000 FEW011TCU BKN011 31/25 Q1009=
23/12/2020 04:30:00Z	 SAID34 WAGG 230430	METAR WAGG 230430Z 26005KT 8000 FEW011TCU BKN011 31/25 Q1009=
23/12/2020 05:00:00Z	 SAID34 WAGG 230500	METAR WAGG 230500Z 30006KT 8000 FEW011TCU BKN011 31/24 Q1008=
23/12/2020 05:30:00Z	 SAID34 WAGG 230530	METAR WAGG 230530Z 27006KT 8000 FEW011TCU BKN011 32/25 Q1007=
23/12/2020 06:30:00Z	 SAID34 WAGG 230630	METAR WAGG 230630Z 18004KT 6000 -RA FEW011CB BKN011 25/24 Q1007=
23/12/2020 07:00:00Z	 SAID34 WAGG 230700	METAR WAGG 230700Z 18004KT 6000 -RA FEW011CB BKN011 25/24 Q1007=
23/12/2020 07:30:00Z	 SAID34 WAGG 230730	METAR WAGG 230730Z 24005KT 1800 RA FEW011CB BKN011 25/25 Q1008=
23/12/2020 08:00:00Z	 SAID34 WAGG 230800	METAR WAGG 230800Z 30003KT 5000 -RA FEW011CB BKN011 24/24 Q1007=
23/12/2020 08:30:00Z	 SAID34 WAGG 230830	METAR WAGG 230830Z 27002KT 6000 -RA BKN011 24/24 Q1007=
23/12/2020 09:00:00Z	 SAID34 WAGG 230900	METAR WAGG 230900Z 22004KT 6000 -RA BKN011 25/25 Q1008=
23/12/2020 09:30:00Z	 SAID34 WAGG 230930	METAR WAGG 230930Z 31002KT 6000 -RA BKN011 24/24 Q1008=
23/12/2020 10:00:00Z	 SAID34 WAGG 231000	METAR WAGG 231000Z 25002KT 6000 -RA BKN011 24/24 Q1008=
23/12/2020 10:30:00Z	 SAID34 WAGG 231030	METAR WAGG 231030Z 26002KT 6000 -RA BKN011 25/25 Q1009=
23/12/2020 11:00:00Z	 SAID34 WAGG 231100	METAR WAGG 231100Z 25002KT 6000 -RA BKN011 25/25 Q1009=
23/12/2020 12:00:00Z	 SAID34 WAGG 231200	METAR WAGG 231200Z 36003KT 7000 -RA BKN010 24/24 Q1009=
23/12/2020 15:00:00Z	 SAID34 WAGG 231500	METAR WAGG 231500Z 04003KT 8000 VCSH BKN011 24/24 Q1011=
23/12/2020 18:00:00Z	 SAID34 WAGG 231800	METAR WAGG 231800Z 00000KT 7000 BKN011 24/24 Q1011=
23/12/2020 21:00:00Z	 SAID34 WAGG 232100	METAR WAGG 232100Z 00000KT 8000 SCT011 23/23 Q1009=
23/12/2020 21:30:00Z	 SAID34 WAGG 232130	METAR WAGG 232130Z 30005KT 8000 SCT011 23/23 Q1009=
23/12/2020 22:00:00Z	 SAID34 WAGG 232200	METAR WAGG 232200Z 31003KT 8000 SCT011 23/23 Q1009=
23/12/2020 22:30:00Z	 SAID34 WAGG 232230	METAR WAGG 232230Z 31003KT 8000 BKN009 23/23 Q1009=
23/12/2020 23:00:00Z	 SAID34 WAGG 232300	METAR WAGG 232300Z 01003KT 8000 BKN009 24/23 Q1010=
23/12/2020 23:30:00Z	 SAID34 WAGG 232330	METAR WAGG 232330Z 01005KT 6000 BKN009 24/23 Q1010=
24/12/2020 00:00:00Z	 SAID34 WAGG 240000	METAR WAGG 240000Z 01005KT 8000 BKN007 24/24 Q1010=
24/12/2020 00:30:00Z	 SAID34 WAGG 240030	METAR WAGG 240030Z 35007KT 8000 BKN007 25/24 Q1011=
24/12/2020 01:00:00Z	 SAID34 WAGG 240100	METAR WAGG 240100Z 35006KT 9999 BKN008 26/25 Q1011=
24/12/2020 01:30:00Z	 SAID34 WAGG 240130	METAR WAGG 240130Z 01004KT 9999 BKN008 27/25 Q1011=
24/12/2020 02:00:00Z	 SAID34 WAGG 240200	METAR WAGG 240200Z 02003KT 9999 BKN009 28/25 Q1011=
24/12/2020 02:30:00Z	 SAID34 WAGG 240230	METAR WAGG 240230Z 33003KT 9999 BKN009 28/25 Q1011=
24/12/2020 03:00:00Z	 SAID34 WAGG 240300	METAR WAGG 240300Z 35003KT 9999 BKN009 30/26 Q1011=
24/12/2020 03:30:00Z	 SAID34 WAGG 240330	METAR WAGG 240330Z 31003KT 9999 BKN009 29/25 Q1011=
24/12/2020 04:00:00Z	 SAID34 WAGG 240400	METAR WAGG 240400Z 31003KT 9999 BKN010 30/25 Q1010=
24/12/2020 04:30:00Z	 SAID34 WAGG 240430	METAR WAGG 240430Z 29006KT 9999 BKN010 31/24 Q1010=
24/12/2020 05:00:00Z	 SAID34 WAGG 240500	METAR WAGG 240500Z 24006KT 9999 BKN010 32/24 Q1009=
24/12/2020 05:30:00Z	 SAID34 WAGG 240530	METAR WAGG 240530Z 25005KT 9999 BKN010 31/25 Q1009=
24/12/2020 06:00:00Z	 SAID34 WAGG 240600	METAR WAGG 240600Z 30003KT 9999 BKN010 30/24 Q1008=
24/12/2020 06:30:00Z	 SAID34 WAGG 240630	METAR WAGG 240630Z 26005KT 9999 BKN010 32/25 Q1007=
24/12/2020 07:00:00Z	 SAID34 WAGG 240700	METAR WAGG 240700Z 23008KT 9999 BKN010 33/23 Q1007=
24/12/2020 07:30:00Z	 SAID34 WAGG 240730	METAR WAGG 240730Z 22006KT 9999 BKN010 32/24 Q1007=
24/12/2020 08:00:00Z	 SAID34 WAGG 240800 CCA	METAR WAGG 240800Z 24005KT 9999 SCT011 32/23 Q1006=
24/12/2020 08:00:00Z	 SAID34 WAGG 240800	METAR WAGG 240800Z 24005KT 9999 SCT011 32/26 Q1006=
24/12/2020 08:30:00Z	 SAID34 WAGG 240830	METAR WAGG 240830Z 22007KT 9999 SCT011 32/24 Q1006=
24/12/2020 09:00:00Z	 SAID34 WAGG 240900	METAR WAGG 240900Z 22005KT 9999 SCT011 32/24 Q1007=
24/12/2020 09:30:00Z	 SAID34 WAGG 240930	METAR WAGG 240930Z 23007KT 9999 SCT011 32/23 Q1007=
24/12/2020 10:00:00Z	 SAID34 WAGG 241000	METAR WAGG 241000Z 21004KT 9999 SCT011 31/24 Q1007=
24/12/2020 10:30:00Z	 SAID34 WAGG 241030	METAR WAGG 241030Z 29003KT 9999 SCT012 29/26 Q1008=
24/12/2020 11:00:00Z	 SAID34 WAGG 241100	METAR WAGG 241100Z 11002KT 9999 SCT012 28/26 Q1008=
24/12/2020 11:30:00Z	 SAID34 WAGG 241130	METAR WAGG 241130Z 13004KT 9000 SCT012 28/26 Q1009=
24/12/2020 12:00:00Z	 SAID34 WAGG 241200	METAR WAGG 241200Z 17004KT 9000 SCT012 28/26 Q1009=
24/12/2020 21:00:00Z	 SAID34 WAGG 242100	METAR WAGG 242100Z 08002KT 6000 BKN012 23/23 Q1009 RERA=
24/12/2020 21:30:00Z	 SAID34 WAGG 242130	METAR WAGG 242130Z 00000KT 7000 BKN012 24/24 Q1010=
24/12/2020 22:00:00Z	 SAID34 WAGG 242200	METAR WAGG 242200Z 16001KT 8000 BKN012 24/24 Q1010=
24/12/2020 22:30:00Z	 SAID34 WAGG 242230	METAR WAGG 242230Z 05001KT 9000 SCT012 24/24 Q1010=
24/12/2020 23:00:00Z	 SAID34 WAGG 242300	METAR WAGG 242300Z 07001KT 9000 SCT012 24/24 Q1011=
24/12/2020 23:30:00Z	 SAID34 WAGG 242330	METAR WAGG 242330Z 02001KT 8000 BKN013 24/24 Q1011=
25/12/2020 00:00:00Z	 SAID34 WAGG 250000	METAR WAGG 250000Z 33002KT 8000 BKN012 25/24 Q1011=
25/12/2020 00:30:00Z	 SAID34 WAGG 250030	METAR WAGG 250030Z 33002KT 9000 BKN012 26/25 Q1012=
25/12/2020 01:00:00Z	 SAID34 WAGG 250100	METAR WAGG 250100Z 34003KT 9000 BKN012 26/25 Q1012=
25/12/2020 01:30:00Z	 SAID34 WAGG 250130	METAR WAGG 250130Z 32004KT 9000 BKN012 27/25 Q1012=
25/12/2020 02:00:00Z	 SAID34 WAGG 250200	METAR WAGG 250200Z 34002KT 9000 BKN012 28/26 Q1012=
25/12/2020 02:30:00Z	 SAID34 WAGG 250230	METAR WAGG 250230Z 32003KT 9000 BKN012 28/25 Q1012=
25/12/2020 03:00:00Z	 SAID34 WAGG 250300	METAR WAGG 250300Z 36002KT 9000 BKN012 30/25 Q1012=
25/12/2020 03:30:00Z	 SAID34 WAGG 250330	METAR WAGG 250330Z 34003KT 9000 BKN012 30/26 Q1011=
25/12/2020 04:00:00Z	 SAID34 WAGG 250400	METAR WAGG 250400Z 29003KT 9000 BKN012 30/25 Q1011=
25/12/2020 04:30:00Z	 SAID34 WAGG 250430	METAR WAGG 250430Z 34003KT 9000 BKN011 30/25 Q1010=
25/12/2020 05:00:00Z	 SAID34 WAGG 250500	METAR WAGG 250500Z 33005KT 9000 BKN010 31/26 Q1010=
25/12/2020 05:30:00Z	 SAID34 WAGG 250530	METAR WAGG 250530Z 28005KT 9000 BKN010 30/25 Q1009=
25/12/2020 06:00:00Z	 SAID34 WAGG 250600	METAR WAGG 250600Z 30004KT 9000 BKN010 31/26 Q1009=
25/12/2020 06:30:00Z	 SAID34 WAGG 250630	METAR WAGG 250630Z 30004KT 9000 BKN010 31/25 Q1008=
25/12/2020 07:00:00Z	 SAID34 WAGG 250700	METAR WAGG 250700Z 29004KT 9000 BKN010 31/25 Q1007=
25/12/2020 07:30:00Z	 SAID34 WAGG 250730	METAR WAGG 250730Z 28006KT 9000 BKN010 31/25 Q1007=
25/12/2020 08:00:00Z	 SAID34 WAGG 250800	METAR WAGG 250800Z 29004KT 9000 BKN010 30/25 Q1007=
25/12/2020 08:30:00Z	 SAID34 WAGG 250830	METAR WAGG 250830Z 27005KT 9000 BKN010 30/25 Q1008=
25/12/2020 09:00:00Z	 SAID34 WAGG 250900	METAR WAGG 250900Z 27005KT 9000 BKN010 30/25 Q1008=
25/12/2020 09:30:00Z	 SAID34 WAGG 250930	METAR WAGG 250930Z 25005KT 9000 BKN010 30/25 Q1008=
25/12/2020 10:00:00Z	 SAID34 WAGG 251000	METAR WAGG 251000Z 25005KT 9000 SCT012 30/25 Q1008=
25/12/2020 10:30:00Z	 SAID34 WAGG 251030	METAR WAGG 251030Z 28003KT 9000 SCT012 29/25 Q1009=
25/12/2020 11:00:00Z	 SAID34 WAGG 251100	METAR WAGG 251100Z 28001KT 9000 SCT012 28/25 Q1009=
25/12/2020 11:30:00Z	 SAID34 WAGG 251130	METAR WAGG 251130Z 04001KT 9000 SCT012 28/26 Q1010=
25/12/2020 12:00:00Z	 SAID34 WAGG 251200	METAR WAGG 251200Z 05001KT 9000 SCT012 27/26 Q1010=
25/12/2020 21:00:00Z	 SAID34 WAGG 252100	METAR WAGG 252100Z 08002KT 8000 BKN011 24/24 Q1010 RERA=
25/12/2020 21:30:00Z	 SAID34 WAGG 252130	METAR WAGG 252130Z 31004KT 8000 BKN011 24/24 Q1011=
25/12/2020 22:00:00Z	 SAID34 WAGG 252200	METAR WAGG 252200Z 27004KT 8000 BKN011 24/24 Q1011=
25/12/2020 22:30:00Z	 SAID34 WAGG 252230	METAR WAGG 252230Z 28002KT 6000 -RA BKN011 24/24 Q1011=
25/12/2020 23:00:00Z	 SAID34 WAGG 252300	METAR WAGG 252300Z 30002KT 8000 BKN012 24/24 Q1011 RERA=
25/12/2020 23:30:00Z	 SAID34 WAGG 252330	METAR WAGG 252330Z 31001KT 9000 BKN012 25/24 Q1012=
26/12/2020 00:00:00Z	 SAID34 WAGG 260000	METAR WAGG 260000Z 30002KT 9000 BKN012 25/24 Q1013=
26/12/2020 00:30:00Z	 SAID34 WAGG 260030	METAR WAGG 260030Z 01002KT 9000 BKN011 26/24 Q1013=
26/12/2020 01:00:00Z	 SAID34 WAGG 260100	METAR WAGG 260100Z 01004KT 4000 -RA FEW011TCU BKN011 25/24 Q1013=
26/12/2020 01:30:00Z	 SAID34 WAGG 260130	METAR WAGG 260130Z 32006KT 4000 -RA FEW011TCU BKN011 25/24 Q1013=
26/12/2020 02:00:00Z	 SAID34 WAGG 260200	METAR WAGG 260200Z 32004KT 4000 -RA FEW011TCU BKN011 25/24 Q1013=
26/12/2020 02:30:00Z	 SAID34 WAGG 260230	METAR WAGG 260230Z 30003KT 8000 BKN011 27/24 Q1012 RERA=
26/12/2020 03:00:00Z	 SAID34 WAGG 260300	METAR WAGG 260300Z 08003KT 8000 BKN011 28/25 Q1012=
26/12/2020 03:30:00Z	 SAID34 WAGG 260330	METAR WAGG 260330Z 32003KT 8000 BKN011 29/25 Q1012=
26/12/2020 04:00:00Z	 SAID34 WAGG 260400	METAR WAGG 260400Z 33004KT 8000 BKN011 29/25 Q1012=
26/12/2020 04:30:00Z	 SAID34 WAGG 260430	METAR WAGG 260430Z 01002KT 8000 BKN011 29/25 Q1011=
26/12/2020 05:00:00Z	 SAID34 WAGG 260500	METAR WAGG 260500Z 04003KT 8000 BKN011 29/25 Q1011=
26/12/2020 05:30:00Z	 SAID34 WAGG 260530	METAR WAGG 260530Z 28003KT 8000 BKN011 30/25 Q1010=
26/12/2020 06:00:00Z	 SAID34 WAGG 260600	METAR WAGG 260600Z 22003KT 8000 BKN011 30/26 Q1010=
26/12/2020 06:30:00Z	 SAID34 WAGG 260630	METAR WAGG 260630Z 07002KT 8000 BKN011 30/26 Q1009=
26/12/2020 07:00:00Z	 SAID34 WAGG 260700	METAR WAGG 260700Z 06002KT 8000 BKN011 30/26 Q1008=
26/12/2020 07:30:00Z	 SAID34 WAGG 260730	METAR WAGG 260730Z 08004KT 8000 BKN011 30/26 Q1008=
26/12/2020 08:00:00Z	 SAID34 WAGG 260800	METAR WAGG 260800Z 04003KT 8000 BKN011 30/26 Q1008=
26/12/2020 08:30:00Z	 SAID34 WAGG 260830	METAR WAGG 260830Z 05003KT 9000 BKN011 30/26 Q1008=
26/12/2020 09:00:00Z	 SAID34 WAGG 260900	METAR WAGG 260900Z 05003KT 9000 BKN011 30/26 Q1008=
26/12/2020 09:30:00Z	 SAID34 WAGG 260930	METAR WAGG 260930Z 05002KT 6000 -RA FEW011TCU BKN011 28/27 Q1008=
26/12/2020 10:00:00Z	 SAID34 WAGG 261000	METAR WAGG 261000Z 09002KT 8000 FEW011TCU BKN011 28/27 Q1008 RERA=
26/12/2020 10:30:00Z	 SAID34 WAGG 261030	METAR WAGG 261030Z 09003KT 8000 FEW011TCU BKN011 28/27 Q1009=
26/12/2020 11:30:00Z	 SAID34 WAGG 261130	METAR WAGG 261130Z 21006KT 7000 TS BKN010CB 26/24 Q1010=
26/12/2020 12:00:00Z	 SAID34 WAGG 261200	METAR WAGG 261200Z 16004KT 5000 -TSRA BKN010CB 26/25 Q1010=
26/12/2020 13:00:00Z	 SAID34 WAGG 261300	METAR WAGG 261300Z 05002KT 6000 -RA FEW010CB SCT011 25/24 Q1011 RETS=
26/12/2020 14:00:00Z	 SAID34 WAGG 261400	METAR WAGG 261400Z 08001KT 8000 FEW010CB SCT011 25/24 Q1012 RERA=
26/12/2020 15:00:00Z	 SAID34 WAGG 261500	METAR WAGG 261500Z 21001KT 8000 FEW010CB BKN011 25/24 Q1012=
26/12/2020 21:00:00Z	 SAID34 WAGG 262100	METAR WAGG 262100Z 31003KT 8000 BKN011 23/23 Q1011=
26/12/2020 21:30:00Z	 SAID34 WAGG 262130	METAR WAGG 262130Z 11001KT 8000 BKN011 23/23 Q1011=
26/12/2020 22:00:00Z	 SAID34 WAGG 262200	METAR WAGG 262200Z 04001KT 8000 BKN011 23/23 Q1012=
26/12/2020 22:30:00Z	 SAID34 WAGG 262230	METAR WAGG 262230Z 19002KT 8000 BKN010 23/23 Q1012=
26/12/2020 23:00:00Z	 SAID34 WAGG 262300	METAR WAGG 262300Z 19002KT 8000 BKN011 24/23 Q1012=
26/12/2020 23:30:00Z	 SAID34 WAGG 262330	METAR WAGG 262330Z 19002KT 8000 BKN011 24/24 Q1012=
27/12/2020 00:00:00Z	 SAID34 WAGG 270000	METAR WAGG 270000Z 18002KT 8000 BKN011 25/24 Q1012=
27/12/2020 00:30:00Z	 SAID34 WAGG 270030	METAR WAGG 270030Z 18002KT 8000 BKN011 25/24 Q1013=
27/12/2020 01:00:00Z	 SAID34 WAGG 270100	METAR WAGG 270100Z 27004KT 8000 BKN011 26/24 Q1013=
27/12/2020 01:30:00Z	 SAID34 WAGG 270130	METAR WAGG 270130Z 23005KT 8000 BKN011 28/24 Q1013=
27/12/2020 02:00:00Z	 SAID34 WAGG 270200	METAR WAGG 270200Z 26004KT 8000 SCT011 29/24 Q1013=
27/12/2020 02:30:00Z	 SAID34 WAGG 270230	METAR WAGG 270230Z 23005KT 9999 SCT011 28/24 Q1013=
27/12/2020 03:00:00Z	 SAID34 WAGG 270300	METAR WAGG 270300Z 32003KT 9999 SCT011 29/24 Q1012=
27/12/2020 03:30:00Z	 SAID34 WAGG 270330	METAR WAGG 270330Z 21003KT 9999 SCT011 31/24 Q1011=
27/12/2020 04:00:00Z	 SAID34 WAGG 270400	METAR WAGG 270400Z 33003KT 9999 SCT011 31/24 Q1011=
27/12/2020 04:30:00Z	 SAID34 WAGG 270430	METAR WAGG 270430Z 29008KT 9999 SCT011 32/23 Q1010=
27/12/2020 05:00:00Z	 SAID34 WAGG 270500	METAR WAGG 270500Z 29005KT 9999 SCT011 33/23 Q1010=
27/12/2020 05:30:00Z	 SAID34 WAGG 270530	METAR WAGG 270530Z 25010KT 9999 BKN011 33/23 Q1009=
27/12/2020 06:00:00Z	 SAID34 WAGG 270600	METAR WAGG 270600Z 25008KT 9999 BKN011 33/24 Q1008=
27/12/2020 06:30:00Z	 SAID34 WAGG 270630	METAR WAGG 270630Z 26007KT 9999 BKN011 32/24 Q1008=
27/12/2020 07:00:00Z	 SAID34 WAGG 270700	METAR WAGG 270700Z 18006KT 9999 SCT011 33/24 Q1007=
27/12/2020 07:30:00Z	 SAID34 WAGG 270730	METAR WAGG 270730Z 23004KT 9999 SCT011 33/24 Q1007=
27/12/2020 08:00:00Z	 SAID34 WAGG 270800	METAR WAGG 270800Z 25005KT 9999 SCT011 33/24 Q1007=
27/12/2020 08:30:00Z	 SAID34 WAGG 270830	METAR WAGG 270830Z 26008KT 9999 SCT011 33/24 Q1006=
27/12/2020 09:00:00Z	 SAID34 WAGG 270900	METAR WAGG 270900Z 30007KT 9999 SCT011 33/24 Q1006=
27/12/2020 09:30:00Z	 SAID34 WAGG 270930	METAR WAGG 270930Z 26007KT 9999 SCT011 33/24 Q1007=
27/12/2020 10:00:00Z	 SAID34 WAGG 271000	METAR WAGG 271000Z 28005KT 9999 SCT011 31/24 Q1007=
27/12/2020 10:30:00Z	 SAID34 WAGG 271030	METAR WAGG 271030Z 24004KT 9999 FEW012TCU 31/24 Q1007=
27/12/2020 11:00:00Z	 SAID34 WAGG 271100	METAR WAGG 271100Z 28003KT 9000 FEW012TCU 30/25 Q1008=
27/12/2020 12:00:00Z	 SAID34 WAGG 271200	METAR WAGG 271200Z 00000KT 9000 FEW012TCU SCT011 28/25 Q1008=
27/12/2020 15:00:00Z	 SAID34 WAGG 271500	METAR WAGG 271500Z 17004KT 8000 SCT011 25/24 Q1011=
27/12/2020 18:00:00Z	 SAID34 WAGG 271800	METAR WAGG 271800Z 00000KT 8000 VCSH BKN011 23/23 Q1010=
27/12/2020 21:00:00Z	 SAID34 WAGG 272100	METAR WAGG 272100Z 00000KT 8000 VCSH BKN011 23/23 Q1009 RERA=
27/12/2020 22:00:00Z	 SAID34 WAGG 272200	METAR WAGG 272160Z 00000KT 8000 VCSH BKN011 23/23 Q1009=
27/12/2020 22:30:00Z	 SAID34 WAGG 272230	METAR WAGG 272230Z 00000KT 8000 VCSH BKN011 23/23 Q1010=
27/12/2020 23:00:00Z	 SAID34 WAGG 272300	METAR WAGG 272300Z 11003KT 8000 VCSH BKN011 23/23 Q1010=
27/12/2020 23:30:00Z	 SAID34 WAGG 272330	METAR WAGG 272330Z 11002KT 9000 BKN011 24/24 Q1011=
28/12/2020 00:00:00Z	 SAID34 WAGG 280000	METAR WAGG 280000Z 06002KT 9000 BKN011 24/24 Q1011=
28/12/2020 00:30:00Z	 SAID34 WAGG 280030	METAR WAGG 280030Z 10002KT 9000 BKN011 25/24 Q1011=
28/12/2020 01:00:00Z	 SAID34 WAGG 280100	METAR WAGG 280100Z 12002KT 9000 BKN011 26/25 Q1011=
28/12/2020 01:30:00Z	 SAID34 WAGG 280130	METAR WAGG 280130Z 11002KT 9999 BKN011 27/25 Q1011=
28/12/2020 02:00:00Z	 SAID34 WAGG 280200	METAR WAGG 280200Z 17003KT 9999 BKN011 29/26 Q1011=
28/12/2020 02:30:00Z	 SAID34 WAGG 280230	METAR WAGG 280230Z 22006KT 9999 BKN011 29/26 Q1011=
28/12/2020 03:00:00Z	 SAID34 WAGG 280300	METAR WAGG 280300Z 25004KT 9999 BKN011 30/26 Q1011=
28/12/2020 03:30:00Z	 SAID34 WAGG 280330	METAR WAGG 280330Z 26006KT 9999 BKN011 31/26 Q1010=
28/12/2020 04:00:00Z	 SAID34 WAGG 280400	METAR WAGG 280400Z 24007KT 9999 BKN011 31/26 Q1010=
28/12/2020 04:30:00Z	 SAID34 WAGG 280430	METAR WAGG 280430Z 23004KT 9999 BKN011 31/26 Q1010=
28/12/2020 05:00:00Z	 SAID34 WAGG 280500	METAR WAGG 280500Z 29006KT 8000 VCSH FEW011TCU BKN011 32/26 Q1009=
28/12/2020 05:30:00Z	 SAID34 WAGG 280530	METAR WAGG 280530Z 24009KT 8000 FEW010TCU BKN011 30/26 Q1008=
28/12/2020 05:30:00Z	 SAID34 WAGG 280530 CCA	METAR WAGG 280530Z 24009KT 8000 FEW010TCU BKN011 30/26 Q1008 RERA=
28/12/2020 06:00:00Z	 SAID34 WAGG 280600	METAR WAGG 280600Z 30003KT 7000 VCSH FEW010TCU BKN011 30/25 Q1008=
28/12/2020 06:30:00Z	 SAID34 WAGG 280630	METAR WAGG 280630Z 19007KT 9000 TS FEW009CB BKN010 29/26 Q1007=
28/12/2020 07:00:00Z	 SAID34 WAGG 280700	METAR WAGG 280700Z 16004KT 6000 -TSRA FEW010CB BKN011 28/25 Q1007=
28/12/2020 07:30:00Z	 SAID34 WAGG 280730	METAR WAGG 280730Z 07004KT 9000 FEW010CB BKN011 27/26 Q1007 RETSRA=
28/12/2020 08:00:00Z	 SAID34 WAGG 280800	METAR WAGG 280800Z 06002KT 9000 FEW010TCU BKN011 27/26 Q1007=
28/12/2020 08:30:00Z	 SAID34 WAGG 280830	METAR WAGG 280830Z 03004G16KT 2000 TSRA BKN009CB 27/26 Q1007=
28/12/2020 09:00:00Z	 SAID34 WAGG 280900	METAR WAGG 280900Z 12003KT 4000 -TSRA BKN009CB 26/26 Q1007=
28/12/2020 09:30:00Z	 SAID34 WAGG 280930	METAR WAGG 280930Z 19004KT 5000 -TSRA BKN008CB 26/26 Q1008 TREND TEMPO TL1000 25010G22KT 3000 -TSRA=
28/12/2020 10:00:00Z	 SAID34 WAGG 281000	METAR WAGG 281000Z 20007KT 5000 -TSRA BKN008CB 24/24 Q1008=
28/12/2020 10:30:00Z	 SAID34 WAGG 281030	METAR WAGG 281030Z 22007KT 5000 -TSRA BKN008CB 24/24 Q1009=
28/12/2020 11:00:00Z	 SAID34 WAGG 281100	METAR WAGG 281100Z 21005KT 5000 -RA BKN010 24/23 Q1009=
28/12/2020 11:30:00Z	 SAID34 WAGG 281130	METAR WAGG 281130Z 20006KT 5000 -RA BKN010 24/24 Q1010=
28/12/2020 12:00:00Z	 SAID34 WAGG 281200	METAR WAGG 281200Z 20007KT 6000 -RA BKN010 24/23 Q1010=
29/12/2020 21:00:00Z	 SAID34 WAGG 292100	METAR WAGG 292100Z 02002KT 8000 SCT010 23/23 Q1009=
29/12/2020 22:00:00Z	 SAID34 WAGG 292200	METAR WAGG 292200Z 33002KT 8000 SCT012 23/23 Q1009=
29/12/2020 23:00:00Z	 SAID34 WAGG 292300	METAR WAGG 292300Z 04002KT 9000 SCT012 24/23 Q1010=
29/12/2020 23:30:00Z	 SAID34 WAGG 292330	METAR WAGG 292330Z 09002KT 9000 SCT012 24/23 Q1011=
30/12/2020 00:00:00Z	 SAID34 WAGG 300000	METAR WAGG 300000Z 32004KT 9000 SCT012 26/24 Q1011=
30/12/2020 00:30:00Z	 SAID34 WAGG 300030	METAR WAGG 300030Z 17001KT 9000 SCT012 27/24 Q1011=
30/12/2020 01:00:00Z	 SAID34 WAGG 300100	METAR WAGG 300100Z 01003KT 9999 SCT012 28/24 Q1011=
30/12/2020 01:30:00Z	 SAID34 WAGG 300130	METAR WAGG 300130Z 36002KT 9999 SCT012 29/25 Q1011=
30/12/2020 02:00:00Z	 SAID34 WAGG 300200	METAR WAGG 300200Z 26003KT 9999 SCT012 29/24 Q1011=
30/12/2020 02:30:00Z	 SAID34 WAGG 300230	METAR WAGG 300230Z 22005KT 9999 SCT011 31/25 Q1011=
30/12/2020 03:00:00Z	 SAID34 WAGG 300300	METAR WAGG 300300Z 02003KT 9999 BKN010 30/25 Q1011=
30/12/2020 03:30:00Z	 SAID34 WAGG 300330	METAR WAGG 300330Z 30006KT 9999 BKN010 30/24 Q1011=
30/12/2020 04:00:00Z	 SAID34 WAGG 300400	METAR WAGG 300400Z 32007KT 9999 BKN010 30/25 Q1011=
30/12/2020 04:30:00Z	 SAID34 WAGG 300430	METAR WAGG 300430Z 29005KT 9999 FEW010TCU BKN011 31/25 Q1010=
30/12/2020 05:00:00Z	 SAID34 WAGG 300500	METAR WAGG 300500Z 29010KT 9000 SCT009TCU SCT011 31/24 Q1010=
30/12/2020 05:30:00Z	 SAID34 WAGG 300530	METAR WAGG 300530Z 25012KT 5000 SCT009TCU BKN011 31/24 Q1009=
30/12/2020 06:00:00Z	 SAID34 WAGG 300600	METAR WAGG 300600Z 25010KT 5000 FEW011TCU BKN011 29/25 Q1009=
30/12/2020 06:30:00Z	 SAID34 WAGG 300630	METAR WAGG 300630Z 36006KT 5000 -RA FEW011TCU BKN011 27/24 Q1008=
30/12/2020 07:00:00Z	 SAID34 WAGG 300700	METAR WAGG 300700Z 27003KT 8000 FEW011TCU BKN011 28/25 Q1008 RERA=
30/12/2020 07:30:00Z	 SAID34 WAGG 300730	METAR WAGG 300730Z 27010KT 8000 FEW011TCU BKN011 30/25 Q1007=
30/12/2020 08:00:00Z	 SAID34 WAGG 300800	METAR WAGG 300800Z 26010KT 8000 FEW011TCU BKN011 31/25 Q1007=
30/12/2020 08:30:00Z	 SAID34 WAGG 300830	METAR WAGG 300830Z 31011KT 4000 -RA FEW011TCU BKN011 28/24 Q1007=
30/12/2020 09:00:00Z	 SAID34 WAGG 300900	METAR WAGG 300900Z 28009KT 5000 VCSH FEW011TCU BKN011 28/24 Q1007=
30/12/2020 09:30:00Z	 SAID34 WAGG 300930	METAR WAGG 300930Z 24010KT 5000 VCSH FEW011TCU BKN011 25/24 Q1008=
30/12/2020 10:00:00Z	 SAID34 WAGG 301000	METAR WAGG 301000Z 27006KT 8000 FEW011TCU BKN011 25/23 Q1009=
30/12/2020 10:30:00Z	 SAID34 WAGG 301030	METAR WAGG 301030Z 28005KT 8000 FEW011TCU BKN011 25/23 Q1009=
30/12/2020 11:00:00Z	 SAID34 WAGG 301100	METAR WAGG 301100Z 24003KT 8000 FEW011TCU BKN011 25/23 Q1009=
30/12/2020 11:30:00Z	 SAID34 WAGG 301130	METAR WAGG 301130Z 17002KT 8000 BKN011 25/24 Q1010=
30/12/2020 12:00:00Z	 SAID34 WAGG 301200	METAR WAGG 301200Z 20003KT 8000 BKN011 25/23 Q1010=
30/12/2020 21:00:00Z	 SAID34 WAGG 302100	METAR WAGG 302100Z 04002KT 8000 BKN011 24/24 Q1010=
30/12/2020 21:30:00Z	 SAID34 WAGG 302130	METAR WAGG 302130Z 01002KT 8000 BKN011 23/23 Q1010=
30/12/2020 22:00:00Z	 SAID34 WAGG 302200	METAR WAGG 302200Z 05003KT 8000 BKN011 23/23 Q1010=
30/12/2020 22:30:00Z	 SAID34 WAGG 302230	METAR WAGG 302230Z 04001KT 8000 SCT012 23/23 Q1010=
30/12/2020 23:00:00Z	 SAID34 WAGG 302300	METAR WAGG 302300Z 07001KT 8000 SCT012 23/23 Q1010=
30/12/2020 23:30:00Z	 SAID34 WAGG 302330	METAR WAGG 302330Z 15002KT 9000 SCT012 24/23 Q1010=
31/12/2020 00:00:00Z	 SAID34 WAGG 310000	METAR WAGG 310000Z 13002KT 9999 SCT013 24/24 Q1011=
31/12/2020 00:30:00Z	 SAID34 WAGG 310030	METAR WAGG 310030Z 21002KT 9999 SCT010 26/24 Q1011=
31/12/2020 01:00:00Z	 SAID34 WAGG 310100	METAR WAGG 310100Z 13002KT 9999 SCT010 26/24 Q1011=
31/12/2020 01:30:00Z	 SAID34 WAGG 310130	METAR WAGG 310130Z 16002KT 9999 SCT010 28/25 Q1011=
31/12/2020 02:00:00Z	 SAID34 WAGG 310200	METAR WAGG 310200Z 19003KT 9999 SCT010 28/26 Q1011=
31/12/2020 02:30:00Z	 SAID34 WAGG 310230	METAR WAGG 310230Z 22004KT 9999 BKN010 28/25 Q1010=
31/12/2020 03:00:00Z	 SAID34 WAGG 310300	METAR WAGG 310300Z 16003KT 9999 BKN010 29/25 Q1010=
31/12/2020 03:30:00Z	 SAID34 WAGG 310330	METAR WAGG 310330Z 17003KT 9999 BKN010 29/25 Q1010=
31/12/2020 04:00:00Z	 SAID34 WAGG 310400	METAR WAGG 310400Z 03003KT 9999 BKN010 29/25 Q1010=
31/12/2020 04:30:00Z	 SAID34 WAGG 310430	METAR WAGG 310430Z 05004KT 9999 BKN010 29/25 Q1010=
31/12/2020 05:00:00Z	 SAID34 WAGG 310500	METAR WAGG 310500Z 20004KT 9999 BKN010 30/25 Q1009=
31/12/2020 05:30:00Z	 SAID34 WAGG 310530	METAR WAGG 310530Z 29005KT 9999 BKN010 30/25 Q1009=
31/12/2020 06:00:00Z	 SAID34 WAGG 310600	METAR WAGG 310600Z 04004KT 9999 BKN010 29/26 Q1008=
31/12/2020 06:30:00Z	 SAID34 WAGG 310630	METAR WAGG 310630Z 05008KT 9999 FEW009TCU BKN010 27/25 Q1008=
31/12/2020 07:00:00Z	 SAID34 WAGG 310700	METAR WAGG 310700Z 05005KT 9999 FEW009TCU BKN010 27/25 Q1008=
31/12/2020 07:00:00Z	 SAID34 WAGG 310700 CCA	METAR WAGG 310700Z 05005KT 8000 VCSH FEW009TCU BKN010 27/25 Q1008=
31/12/2020 07:30:00Z	 SAID34 WAGG 310730	METAR WAGG 310730Z 04002KT 9000 BKN010TCU 28/25 Q1008=
31/12/2020 08:00:00Z	 SAID34 WAGG 310800	METAR WAGG 310800Z 23007KT 0500 +TSRA BKN007CB 24/24 Q1009=
31/12/2020 08:30:00Z	 SAID34 WAGG 310830	METAR WAGG 310830Z 19002KT 4000 -TSRA BKN007CB 24/24 Q1008=
31/12/2020 09:00:00Z	 SAID34 WAGG 310900	METAR WAGG 310900Z 16001KT 5000 -RA BKN009 24/23 Q1008 RETS=
31/12/2020 09:30:00Z	 SAID34 WAGG 310930	METAR WAGG 310930Z 06001KT 6000 -RA FEW009CB BKN010 24/23 Q1008=
31/12/2020 10:00:00Z	 SAID34 WAGG 311000	METAR WAGG 311000Z 23005KT 5000 -RA FEW009CB BKN010 24/23 Q1009=
31/12/2020 10:30:00Z	 SAID34 WAGG 311030	METAR WAGG 311030Z 24005KT 5000 -RA FEW009CB BKN010 24/23 Q1010=
31/12/2020 11:00:00Z	 SAID34 WAGG 311100	METAR WAGG 311100Z 21006KT 5000 -RA FEW009CB BKN010 24/23 Q1010=
31/12/2020 11:30:00Z	 SAID34 WAGG 311130	METAR WAGG 311130Z 27003KT 7000 -RA FEW009CB BKN010 25/25 Q1011=
31/12/2020 12:00:00Z	 SAID34 WAGG 311200	METAR WAGG 311200Z 25005KT 8000 BKN009 25/25 Q1011 RERA=
31/12/2020 21:00:00Z	 SAID34 WAGG 312100	METAR WAGG 312100Z 02002KT 8000 BKN010 23/23 Q1010=
31/12/2020 21:30:00Z	 SAID34 WAGG 312130	METAR WAGG 312130Z 36002KT 8000 BKN010 23/23 Q1010=
31/12/2020 22:00:00Z	 SAID34 WAGG 312200	METAR WAGG 312200Z 31002KT 8000 BKN010 23/23 Q1011=
31/12/2020 22:30:00Z	 SAID34 WAGG 312230	METAR WAGG 312230Z 02002KT 8000 BKN012 23/23 Q1011=
31/12/2020 23:00:00Z	 SAID34 WAGG 312300	METAR WAGG 312300Z 34001KT 9000 BKN012 24/24 Q1011=
31/12/2020 23:30:00Z	 SAID34 WAGG 312330	METAR WAGG 312330Z 32003KT 9000 BKN008 24/24 Q1012=
