01/08/2020 00:00:00Z	 SAID32 WIPP 010000	METAR WIPP 010000Z 16004KT 9999 NSC 24/21 Q1010 NOSIG=
01/08/2020 00:30:00Z	 SAID32 WIPP 010030	METAR WIPP 010030Z 16004KT 9999 NSC 24/20 Q1011 NOSIG=
01/08/2020 01:00:00Z	 SAID32 WIPP 010100	METAR WIPP 010100Z 14006KT 9999 NSC 25/21 Q1011 NOSIG=
01/08/2020 01:30:00Z	 SAID32 WIPP 010130	METAR WIPP 010130Z 15004KT 9999 NSC 26/20 Q1011 NOSIG=
01/08/2020 02:00:00Z	 SAID32 WIPP 010200	METAR WIPP 010200Z AUTO 17006KT 140V200 9999NDV NCD 27/20 Q1011=
01/08/2020 02:30:00Z	 SAID32 WIPP 010230	METAR WIPP 010230Z AUTO 15005KT 080V210 9999NDV NCD 28/20 Q1011=
01/08/2020 03:00:00Z	 SAID32 WIPP 010300	METAR WIPP 010300Z 15008KT 9999 FEW010 28/22 Q1011 NOSIG=
01/08/2020 03:30:00Z	 SAID32 WIPP 010330	METAR WIPP 010330Z 17005KT 9999 FEW010 29/20 Q1011 NOSIG=
01/08/2020 04:00:00Z	 SAID32 WIPP 010400	METAR WIPP 010400Z 17008KT 9999 NSC 30/20 Q1010 NOSIG=
01/08/2020 04:00:00Z	 SAID32 WIPP 010400 CCA	METAR WIPP 010400Z 17008KT 9999 FEW010 30/20 Q1010 NOSIG=
01/08/2020 04:30:00Z	 SAID32 WIPP 010430	METAR WIPP 010430Z 16008KT 9999 FEW010 30/20 Q1010 NOSIG=
01/08/2020 05:00:00Z	 SAID32 WIPP 010500	METAR WIPP 010500Z 14006KT 9999 FEW010 31/20 Q1009 NOSIG=
01/08/2020 05:30:00Z	 SAID32 WIPP 010530	METAR WIPP 010530Z 17005KT 9999 FEW010 31/21 Q1008 NOSIG=
01/08/2020 06:00:00Z	 SAID32 WIPP 010600	METAR WIPP 010600Z 16005KT 9999 FEW010 31/20 Q1008 NOSIG=
01/08/2020 06:30:00Z	 SAID32 WIPP 010630	METAR WIPP 010630Z 17008KT 9999 FEW010 32/20 Q1008 NOSIG=
01/08/2020 07:00:00Z	 SAID32 WIPP 010700	METAR WIPP 010700Z 12007KT 9999 FEW010 31/19 Q1007 NOSIG=
01/08/2020 07:30:00Z	 SAID32 WIPP 010730	METAR WIPP 010730Z 13008KT 9999 FEW010 32/20 Q1007 NOSIG=
01/08/2020 08:00:00Z	 SAID32 WIPP 010800	METAR WIPP 010800Z 15006KT 9999 FEW010 32/20 Q1007 NOSIG=
01/08/2020 08:30:00Z	 SAID32 WIPP 010830	METAR WIPP 010830Z 16008KT 9999 FEW010 32/20 Q1006 NOSIG=
01/08/2020 09:00:00Z	 SAID32 WIPP 010900	METAR WIPP 010900Z 12008KT 9999 FEW010 32/19 Q1006 NOSIG=
01/08/2020 09:30:00Z	 SAID32 WIPP 010930	METAR WIPP 010930Z 13007KT 9999 FEW010 32/20 Q1006 NOSIG=
01/08/2020 10:00:00Z	 SAID32 WIPP 011000	METAR WIPP 011000Z 12009KT 9999 FEW010 31/21 Q1007 NOSIG=
01/08/2020 10:30:00Z	 SAID32 WIPP 011030	METAR WIPP 011030Z 14008KT 9999 FEW010 31/20 Q1007 NOSIG=
01/08/2020 11:00:00Z	 SAID32 WIPP 011100	METAR WIPP 011100Z 15004KT 9999 FEW010 30/19 Q1007 NOSIG=
01/08/2020 11:30:00Z	 SAID32 WIPP 011130	METAR WIPP 011130Z 15004KT 9999 FEW010 30/20 Q1008 NOSIG=
01/08/2020 12:00:00Z	 SAID32 WIPP 011200	METAR WIPP 011200Z 10008KT 9999 FEW010 30/20 Q1008 NOSIG=
01/08/2020 12:30:00Z	 SAID32 WIPP 011230	METAR WIPP 011230Z 12010KT 9999 FEW010 28/21 Q1008 NOSIG=
01/08/2020 13:00:00Z	 SAID32 WIPP 011300	METAR WIPP 011300Z 12010KT 9999 FEW010 28/21 Q1009 NOSIG=
01/08/2020 14:00:00Z	 SAID32 WIPP 011400	METAR WIPP 011400Z 12010KT 9999 FEW010 27/21 Q1009 NOSIG=
01/08/2020 15:00:00Z	 SAID32 WIPP 011500	METAR WIPP 011500Z 12008KT 9999 FEW010 26/22 Q1009 NOSIG=
01/08/2020 16:00:00Z	 SAID32 WIPP 011600	METAR WIPP 011600Z 10005KT 9999 FEW010 26/22 Q1010 NOSIG=
01/08/2020 17:00:00Z	 SAID32 WIPP 011700	METAR WIPP 011700Z 12005KT 9999 FEW010 25/22 Q1010 NOSIG=
01/08/2020 18:00:00Z	 SAID32 WIPP 011800	METAR WIPP 011800Z 13005KT 9999 NSC 25/22 Q1009 NOSIG=
01/08/2020 18:30:00Z	 SAID32 WIPP 011830	METAR WIPP 011830Z AUTO 13002KT 9999NDV NCD 23/22 Q1009=
01/08/2020 19:00:00Z	 SAID32 WIPP 011900	METAR WIPP 011900Z AUTO 14004KT 9999NDV NCD 24/22 Q1009=
01/08/2020 19:30:00Z	 SAID32 WIPP 011930	METAR WIPP 011930Z AUTO 14004KT 9999NDV NCD 25/22 Q1009=
01/08/2020 20:00:00Z	 SAID32 WIPP 012000	METAR WIPP 012000Z AUTO 18002KT 9999NDV NCD 24/22 Q1009=
01/08/2020 20:30:00Z	 SAID32 WIPP 012030	METAR WIPP 012030Z AUTO 20002KT 9999NDV NCD 23/22 Q1009=
01/08/2020 21:00:00Z	 SAID32 WIPP 012100	METAR WIPP 012100Z AUTO 21002KT 9999NDV NCD 23/22 Q1009=
01/08/2020 21:30:00Z	 SAID32 WIPP 012130	METAR WIPP 012130Z AUTO 19002KT 9999NDV NCD 23/22 Q1009=
01/08/2020 22:00:00Z	 SAID32 WIPP 012200	METAR WIPP 012200Z 20005KT 9999 FEW010 23/22 Q1009 NOSIG=
01/08/2020 22:30:00Z	 SAID32 WIPP 012230	METAR WIPP 012230Z 19005KT 9999 FEW010 23/22 Q1009 NOSIG=
01/08/2020 23:00:00Z	 SAID32 WIPP 012300	METAR WIPP 012300Z 19005KT 5000 BR FEW010 23/22 Q1009=
01/08/2020 23:30:00Z	 SAID32 WIPP 012330	METAR WIPP 012330Z 17005KT 5000 BR SCT010 23/22 Q1010=
02/08/2020 00:00:00Z	 SAID32 WIPP 020000	METAR WIPP 020000Z 17005KT 6000 SCT010 23/22 Q1010 NOSIG=
02/08/2020 00:30:00Z	 SAID32 WIPP 020030	METAR WIPP 020030Z 17005KT 6000 SCT010 24/22 Q1010 NOSIG=
02/08/2020 01:00:00Z	 SAID32 WIPP 020100	METAR WIPP 020100Z 19003KT 7000 FEW010 25/23 Q1011 NOSIG=
02/08/2020 01:30:00Z	 SAID32 WIPP 020130	METAR WIPP 020130Z 15004KT 8000 FEW010 26/23 Q1011 NOSIG=
02/08/2020 02:00:00Z	 SAID32 WIPP 020200	METAR WIPP 020200Z 13006KT 9999 FEW010 27/23 Q1011 NOSIG=
02/08/2020 02:30:00Z	 SAID32 WIPP 020230	METAR WIPP 020230Z 14006KT 9999 FEW010 28/23 Q1011 NOSIG=
02/08/2020 03:00:00Z	 SAID32 WIPP 020300	METAR WIPP 020300Z 12008KT 9999 FEW010 28/23 Q1011 NOSIG=
02/08/2020 03:30:00Z	 SAID32 WIPP 020330	METAR WIPP 020330Z 11007KT 9999 FEW010 29/23 Q1011 NOSIG=
02/08/2020 04:00:00Z	 SAID32 WIPP 020400	METAR WIPP 020400Z 12006KT 9999 FEW010 30/22 Q1010 NOSIG=
02/08/2020 04:30:00Z	 SAID32 WIPP 020430	METAR WIPP 020430Z 14004KT 9999 FEW010 30/21 Q1010 NOSIG=
02/08/2020 05:00:00Z	 SAID32 WIPP 020500	METAR WIPP 020500Z 16006KT 9999 SCT010 31/22 Q1009 NOSIG=
02/08/2020 05:30:00Z	 SAID32 WIPP 020530	METAR WIPP 020530Z 13006KT 9999 SCT010 31/22 Q1009 NOSIG=
02/08/2020 06:00:00Z	 SAID32 WIPP 020600	METAR WIPP 020600Z 13009KT 9999 BKN010 31/22 Q1008 NOSIG=
02/08/2020 06:30:00Z	 SAID32 WIPP 020630	METAR WIPP 020630Z 13008KT 9999 BKN010 31/22 Q1008 NOSIG=
02/08/2020 07:00:00Z	 SAID32 WIPP 020700	METAR WIPP 020700Z 14005KT 9999 SCT010 31/22 Q1007 NOSIG=
02/08/2020 07:30:00Z	 SAID32 WIPP 020730	METAR WIPP 020730Z 15005KT 9999 SCT010 31/20 Q1007 NOSIG=
02/08/2020 08:00:00Z	 SAID32 WIPP 020800	METAR WIPP 020800Z 11004KT 9999 SCT010 31/22 Q1007 NOSIG=
02/08/2020 08:30:00Z	 SAID32 WIPP 020830	METAR WIPP 020830Z 09006KT 9999 SCT010 32/21 Q1006 NOSIG=
02/08/2020 09:00:00Z	 SAID32 WIPP 020900	METAR WIPP 020900Z 10004KT 9999 SCT010 32/21 Q1006 NOSIG=
02/08/2020 09:30:00Z	 SAID32 WIPP 020930	METAR WIPP 020930Z 08005KT 9999 SCT010 32/22 Q1006 NOSIG=
02/08/2020 10:00:00Z	 SAID32 WIPP 021000	METAR WIPP 021000Z 08003KT 9999 SCT010 32/22 Q1007 NOSIG=
02/08/2020 10:30:00Z	 SAID32 WIPP 021030	METAR WIPP 021030Z 06003KT 9999 SCT010 32/22 Q1007 NOSIG=
02/08/2020 11:00:00Z	 SAID32 WIPP 021100	METAR WIPP 021100Z 06003KT 9999 SCT010 31/22 Q1007 NOSIG=
02/08/2020 11:00:00Z	 SAID32 WIPP 021100 CCA	METAR COR WIPP 021100Z 06003KT 7000 FEW010 31/22 Q1007 NOSIG=
02/08/2020 11:30:00Z	 SAID32 WIPP 021130	METAR WIPP 021130Z 10003KT 7000 FEW010 30/22 Q1007 NOSIG=
02/08/2020 12:00:00Z	 SAID32 WIPP 021200	METAR WIPP 021200Z 11002KT 8000 FEW010 29/23 Q1008 NOSIG=
02/08/2020 12:30:00Z	 SAID32 WIPP 021230	METAR WIPP 021230Z 05005KT 9999 FEW010 29/22 Q1008 NOSIG=
02/08/2020 13:00:00Z	 SAID32 WIPP 021300	METAR WIPP 021300Z 10005KT 9999 FEW010 29/23 Q1008 NOSIG=
02/08/2020 13:30:00Z	 SAID32 WIPP 021330	METAR WIPP 021330Z 12007KT 9999 FEW010 28/23 Q1009 NOSIG=
02/08/2020 14:00:00Z	 SAID32 WIPP 021400	METAR WIPP 021400Z 13007KT 9999 FEW010 28/22 Q1009 NOSIG=
02/08/2020 14:30:00Z	 SAID32 WIPP 021430	METAR WIPP 021430Z 12007KT 9999 FEW010 28/23 Q1009 NOSIG=
02/08/2020 15:00:00Z	 SAID32 WIPP 021500	METAR WIPP 021500Z 13006KT 9999 FEW010 27/23 Q1010 NOSIG=
02/08/2020 15:30:00Z	 SAID32 WIPP 021530	METAR WIPP 021530Z 12006KT 9999 FEW010 27/23 Q1010 NOSIG=
02/08/2020 16:00:00Z	 SAID32 WIPP 021600	METAR WIPP 021600Z 14004KT 9999 FEW010 26/23 Q1010 NOSIG=
02/08/2020 16:30:00Z	 SAID32 WIPP 021630	METAR WIPP 021630Z 13006KT 9999 FEW010 26/23 Q1010 NOSIG=
02/08/2020 17:00:00Z	 SAID32 WIPP 021700	METAR WIPP 021700Z 13005KT 9999 FEW010 26/23 Q1009 NOSIG=
02/08/2020 17:30:00Z	 SAID32 WIPP 021730	METAR WIPP 021730Z 14005KT 9999 FEW010 26/23 Q1009 NOSIG=
02/08/2020 18:00:00Z	 SAID32 WIPP 021800	METAR WIPP 021800Z 12006KT 9999 FEW010 26/23 Q1009 NOSIG=
02/08/2020 18:30:00Z	 SAID32 WIPP 021830	METAR WIPP 021830Z 13005KT 9999 FEW010 26/23 Q1008 NOSIG=
02/08/2020 19:00:00Z	 SAID32 WIPP 021900	METAR WIPP 021900Z 14004KT 9999 SCT010 26/23 Q1008 NOSIG=
02/08/2020 19:30:00Z	 SAID32 WIPP 021930	METAR WIPP 021930Z AUTO 14004KT 9999NDV NCD 26/24 Q1008=
02/08/2020 20:00:00Z	 SAID32 WIPP 022000	METAR WIPP 022000Z AUTO 14003KT 120V180 9999NDV -RA NCD 26/24 Q1008=
02/08/2020 20:30:00Z	 SAID32 WIPP 022030	METAR WIPP 022030Z 14003KT 8000 -RA SCT010 26/24 Q1008=
02/08/2020 21:00:00Z	 SAID32 WIPP 022100	METAR WIPP 022100Z 15003KT 9999 SCT010 26/24 Q1008 RERA=
02/08/2020 21:30:00Z	 SAID32 WIPP 022130	METAR WIPP 022130Z 15002KT 9999 SCT010 26/24 Q1008 NOSIG=
02/08/2020 22:00:00Z	 SAID32 WIPP 022200	METAR WIPP 022200Z 17003KT 9999 SCT010 26/24 Q1008 NOSIG=
02/08/2020 22:30:00Z	 SAID32 WIPP 022230	METAR WIPP 022230Z 15003KT 9999 SCT010 26/24 Q1008 NOSIG=
02/08/2020 23:00:00Z	 SAID32 WIPP 022300	METAR WIPP 022300Z 17003KT 8000 HZ SCT010 25/24 Q1008 NOSIG=
02/08/2020 23:30:00Z	 SAID32 WIPP 022330	METAR WIPP 022330Z 16003KT 8000 HZ SCT010 25/24 Q1008 NOSIG=
03/08/2020 00:00:00Z	 SAID32 WIPP 030000	METAR WIPP 030000Z 20003KT 8000 HZ FEW010 25/24 Q1008 NOSIG=
03/08/2020 00:30:00Z	 SAID32 WIPP 030030	METAR WIPP 030030Z 16005KT 9999 FEW010 26/24 Q1008 NOSIG=
03/08/2020 01:00:00Z	 SAID32 WIPP 030100	METAR WIPP 030100Z 19003KT 9999 FEW010 27/24 Q1009 NOSIG=
03/08/2020 01:00:00Z	 SAID32 WIPP 030100 CCA	METAR COR WIPP 030100Z 19003KT 8000 FEW010 27/24 Q1009 NOSIG=
03/08/2020 01:30:00Z	 SAID32 WIPP 030130	METAR WIPP 030130Z 18003KT 8000 FEW010 27/24 Q1009 NOSIG=
03/08/2020 02:00:00Z	 SAID32 WIPP 030200	METAR WIPP 030200Z 19002KT 8000 FEW010 27/25 Q1009 NOSIG=
03/08/2020 02:30:00Z	 SAID32 WIPP 030230	METAR WIPP 030230Z 18004KT 8000 SCT010 28/25 Q1009 NOSIG=
03/08/2020 03:00:00Z	 SAID32 WIPP 030300	METAR WIPP 030300Z 17004KT 8000 SCT010 28/25 Q1009 NOSIG=
03/08/2020 03:30:00Z	 SAID32 WIPP 030330	METAR WIPP 030330Z 15006KT 9999 BKN010 29/24 Q1009 NOSIG=
03/08/2020 04:00:00Z	 SAID32 WIPP 030400	METAR WIPP 030400Z 12009KT 9999 BKN010 30/24 Q1009 NOSIG=
03/08/2020 04:30:00Z	 SAID32 WIPP 030430	METAR WIPP 030430Z 12009KT 9999 BKN010 30/24 Q1008 NOSIG=
03/08/2020 05:00:00Z	 SAID32 WIPP 030500	METAR WIPP 030500Z 12008KT 9999 BKN010 31/23 Q1008 NOSIG=
03/08/2020 05:30:00Z	 SAID32 WIPP 030530	METAR WIPP 030530Z 11009KT 9999 BKN010 31/24 Q1008 NOSIG=
03/08/2020 06:00:00Z	 SAID32 WIPP 030600	METAR WIPP 030600Z 12006KT 9999 SCT010 31/23 Q1007 NOSIG=
03/08/2020 06:30:00Z	 SAID32 WIPP 030630	METAR WIPP 030630Z 10008KT 9999 BKN010 32/23 Q1007 NOSIG=
03/08/2020 07:00:00Z	 SAID32 WIPP 030700	METAR WIPP 030700Z 14006KT 9999 SCT010 32/23 Q1006 NOSIG=
03/08/2020 07:30:00Z	 SAID32 WIPP 030730	METAR WIPP 030730Z 06007KT 9999 SCT010 32/23 Q1006 NOSIG=
03/08/2020 08:00:00Z	 SAID32 WIPP 030800	METAR WIPP 030800Z 16002KT 9999 SCT010 33/23 Q1005 NOSIG=
03/08/2020 08:30:00Z	 SAID32 WIPP 030830	METAR WIPP 030830Z 11003KT 9999 SCT010 32/22 Q1005 NOSIG=
03/08/2020 09:00:00Z	 SAID32 WIPP 030900	METAR WIPP 030900Z 00000KT 9999 SCT010 32/23 Q1005 NOSIG=
03/08/2020 09:30:00Z	 SAID32 WIPP 030930	METAR WIPP 030930Z 06005KT 9999 SCT010 32/23 Q1005 NOSIG=
03/08/2020 10:00:00Z	 SAID32 WIPP 031000	METAR WIPP 031000Z 06005KT 9999 SCT010 32/23 Q1005 NOSIG=
03/08/2020 10:30:00Z	 SAID32 WIPP 031030	METAR WIPP 031030Z 21003KT 9999 FEW010CB SCT010 32/23 Q1005 RMK CB TO SW=
03/08/2020 11:00:00Z	 SAID32 WIPP 031100	METAR WIPP 031100Z 21005KT 9999 SCT010 30/24 Q1006=
03/08/2020 11:30:00Z	 SAID32 WIPP 031130	METAR WIPP 031130Z 16003KT 9999 FEW010CB SCT010 29/24 Q1006 RMK CB TO S=
03/08/2020 12:00:00Z	 SAID32 WIPP 031200	METAR WIPP 031200Z 18003KT 9999 FEW010CB SCT010 30/24 Q1006 RMK CB TO S=
03/08/2020 12:30:00Z	 SAID32 WIPP 031230	METAR WIPP 031230Z 11009KT 9999 FEW010CB SCT010 29/24 Q1007 RMK CB TO S=
03/08/2020 13:00:00Z	 SAID32 WIPP 031300	METAR WIPP 031300Z 13007KT 9999 BKN010 29/24 Q1007 NOSIG=
03/08/2020 13:30:00Z	 SAID32 WIPP 031330	METAR WIPP 031330Z 12007KT 9999 SCT010 29/24 Q1007 NOSIG=
03/08/2020 14:00:00Z	 SAID32 WIPP 031400	METAR WIPP 031400Z 12009KT 9999 SCT010 28/24 Q1008 NOSIG=
03/08/2020 14:30:00Z	 SAID32 WIPP 031430	METAR WIPP 031430Z 13008KT 9999 FEW010 28/24 Q1008 NOSIG=
03/08/2020 15:00:00Z	 SAID32 WIPP 031500	METAR WIPP 031500Z 13008KT 9999 FEW010 28/24 Q1008 NOSIG=
03/08/2020 15:30:00Z	 SAID32 WIPP 031530	METAR WIPP 031530Z 11008KT 9999 FEW010 28/24 Q1008 NOSIG=
03/08/2020 16:00:00Z	 SAID32 WIPP 031600	METAR WIPP 031600Z 13007KT 9999 FEW010 28/24 Q1008 NOSIG=
03/08/2020 16:30:00Z	 SAID32 WIPP 031630	METAR WIPP 031630Z 11006KT 9999 FEW010 27/24 Q1008 NOSIG=
03/08/2020 17:00:00Z	 SAID32 WIPP 031700	METAR WIPP 031700Z 11004KT 9999 FEW010 27/25 Q1008 NOSIG=
03/08/2020 18:00:00Z	 SAID32 WIPP 031800	METAR WIPP 031800Z 12005KT 9999 SCT010 27/25 Q1007 NOSIG=
03/08/2020 19:00:00Z	 SAID32 WIPP 031900	METAR WIPP 031900Z 11004KT 9999 SCT010 27/25 Q1007 NOSIG=
03/08/2020 20:00:00Z	 SAID32 WIPP 032000	METAR WIPP 032000Z 14004KT 9999 FEW010 27/25 Q1007 NOSIG=
03/08/2020 21:00:00Z	 SAID32 WIPP 032100	METAR WIPP 032100Z 20003KT 9999 SCT010 26/24 Q1007 NOSIG=
03/08/2020 21:30:00Z	 SAID32 WIPP 032130	METAR WIPP 032130Z 15003KT 9999 SCT010 26/25 Q1007 NOSIG=
03/08/2020 22:00:00Z	 SAID32 WIPP 032200	METAR WIPP 032200Z 14003KT 9999 FEW010 26/25 Q1007 NOSIG=
03/08/2020 22:30:00Z	 SAID32 WIPP 032230	METAR WIPP 032230Z 15003KT 9999 FEW010 26/25 Q1007 NOSIG=
03/08/2020 23:00:00Z	 SAID32 WIPP 032300	METAR WIPP 032300Z 16002KT 9999 FEW010 26/25 Q1007 NOSIG=
03/08/2020 23:30:00Z	 SAID32 WIPP 032330	METAR WIPP 032330Z 15002KT 7000 FEW010 26/24 Q1007 NOSIG=
04/08/2020 00:00:00Z	 SAID32 WIPP 040000	METAR WIPP 040000Z 23002KT 7000 FEW010 26/25 Q1008 NOSIG=
04/08/2020 00:30:00Z	 SAID32 WIPP 040030	METAR WIPP 040030Z 20002KT 6000 FEW010 26/25 Q1008 NOSIG=
04/08/2020 01:00:00Z	 SAID32 WIPP 040100	METAR WIPP 040100Z 00000KT 9999 FEW010 27/25 Q1008 NOSIG=
04/08/2020 01:30:00Z	 SAID32 WIPP 040130	METAR WIPP 040130Z 12006KT 9999 SCT010 28/25 Q1009 NOSIG=
04/08/2020 02:00:00Z	 SAID32 WIPP 040200	METAR WIPP 040200Z 12007KT 9999 SCT010 29/26 Q1009 NOSIG=
04/08/2020 02:30:00Z	 SAID32 WIPP 040230	METAR WIPP 040230Z 12005KT 9999 SCT010 30/26 Q1009 NOSIG=
04/08/2020 03:00:00Z	 SAID32 WIPP 040300	METAR WIPP 040300Z 09008KT 9999 BKN010 31/26 Q1009 NOSIG=
04/08/2020 03:30:00Z	 SAID32 WIPP 040330	METAR WIPP 040330Z 10010KT 9999 BKN010 31/25 Q1008 NOSIG=
04/08/2020 04:00:00Z	 SAID32 WIPP 040400	METAR WIPP 040400Z 12007KT 9999 BKN010 31/25 Q1008 NOSIG=
04/08/2020 04:30:00Z	 SAID32 WIPP 040430	METAR WIPP 040430Z 12006KT 9999 BKN010 32/25 Q1008 NOSIG=
04/08/2020 05:00:00Z	 SAID32 WIPP 040500	METAR WIPP 040500Z 14004KT 9999 BKN010 31/25 Q1007 NOSIG=
04/08/2020 05:30:00Z	 SAID32 WIPP 040530	METAR WIPP 040530Z 12003KT 9999 BKN010 31/24 Q1007 NOSIG=
04/08/2020 06:00:00Z	 SAID32 WIPP 040600	METAR WIPP 040600Z 18007KT 9999 BKN010 32/24 Q1007 NOSIG=
04/08/2020 06:30:00Z	 SAID32 WIPP 040630	METAR WIPP 040630Z 18005KT 9999 SCT010 33/23 Q1006 NOSIG=
04/08/2020 07:00:00Z	 SAID32 WIPP 040700	METAR WIPP 040700Z 21002KT 9999 SCT010 33/23 Q1005 NOSIG=
04/08/2020 07:30:00Z	 SAID32 WIPP 040730	METAR WIPP 040730Z 18004KT 9999 SCT010 34/24 Q1005 NOSIG=
04/08/2020 08:00:00Z	 SAID32 WIPP 040800	METAR WIPP 040800Z 13013KT 8000 -RA FEW010CB BKN010 30/24 Q1005 RMK CB OVER THE FIELD=
04/08/2020 08:30:00Z	 SAID32 WIPP 040830	METAR WIPP 040830Z 13012KT 9999 FEW010CB BKN010 29/25 Q1005 RERA RMK CB OVER THE FIELD=
04/08/2020 09:00:00Z	 SAID32 WIPP 040900	METAR WIPP 040900Z 11007KT 9999 FEW010CB BKN010 31/24 Q1005 RMK CB TO N=
04/08/2020 09:30:00Z	 SAID32 WIPP 040930	METAR WIPP 040930Z 09010KT 9999 FEW010CB BKN010 31/24 Q1005 RMK CB TO N=
04/08/2020 10:00:00Z	 SAID32 WIPP 041000	METAR WIPP 041000Z 11010KT 9999 FEW010CB BKN010 31/24 Q1005 RMK CB TO N=
04/08/2020 10:30:00Z	 SAID32 WIPP 041030	METAR WIPP 041030Z 11005KT 9999 FEW010CB BKN010 30/23 Q1006 RMK CB TO N=
04/08/2020 11:00:00Z	 SAID32 WIPP 041100	METAR WIPP 041100Z 10006KT 9999 SCT010 30/23 Q1006 NOSIG=
04/08/2020 11:30:00Z	 SAID32 WIPP 041130	METAR WIPP 041130Z 09007KT 9999 SCT010 30/23 Q1007 NOSIG=
04/08/2020 12:00:00Z	 SAID32 WIPP 041200	METAR WIPP 041200Z 09005KT 9999 SCT010 29/24 Q1007 NOSIG=
04/08/2020 12:30:00Z	 SAID32 WIPP 041230	METAR WIPP 041230Z 29010KT 9999 SCT010 29/24 Q1008 NOSIG=
04/08/2020 13:00:00Z	 SAID32 WIPP 041300	METAR WIPP 041300Z 32012KT 8000 -RA FEW010CB BKN010 26/23 Q1009 RMK CB TO W=
04/08/2020 14:00:00Z	 SAID32 WIPP 041400	METAR WIPP 041400Z 31005KT 9999 FEW010CB BKN010 25/24 Q1010 RMK CB TO NW=
04/08/2020 15:00:00Z	 SAID32 WIPP 041500	METAR WIPP 041500Z 30010KT 9999 FEW010CB BKN010 25/23 Q1010 RMK CB TO NW=
04/08/2020 16:00:00Z	 SAID32 WIPP 041600	METAR WIPP 041600Z 29006KT 9999 FEW010CB BKN010 25/23 Q1010 RMK CB TO NW=
04/08/2020 17:00:00Z	 SAID32 WIPP 041700	METAR WIPP 041700Z 24003KT 9999 BKN010 25/23 Q1010 NOSIG=
04/08/2020 18:00:00Z	 SAID32 WIPP 041800	METAR WIPP 041800Z AUTO 00000KT 5000NDV -RA SCT010 SCT075 24/24 Q1010=
04/08/2020 18:30:00Z	 SAID32 WIPP 041830	METAR WIPP 041830Z AUTO VRB02KT 5000NDV SCT025 SCT029 BKN075 24/23 Q1009=
04/08/2020 19:00:00Z	 SAID32 WIPP 041900	METAR WIPP 041900Z AUTO 00000KT 6000NDV FEW025 24/23 Q1009=
04/08/2020 19:30:00Z	 SAID32 WIPP 041930	METAR WIPP 041930Z AUTO 16003KT 130V230 9999NDV NCD 24/23 Q1008=
04/08/2020 20:00:00Z	 SAID32 WIPP 042000	METAR WIPP 042000Z AUTO 00000KT 9999NDV NCD 24/23 Q1008=
04/08/2020 20:30:00Z	 SAID32 WIPP 042030	METAR WIPP 042030Z AUTO 00000KT 9999NDV NCD 24/23 Q1008=
04/08/2020 21:00:00Z	 SAID32 WIPP 042100	METAR WIPP 042100Z AUTO 18002KT 9999NDV FEW015 24/23 Q1008=
04/08/2020 21:30:00Z	 SAID32 WIPP 042130	METAR WIPP 042130Z AUTO 18003KT 9999NDV SCT013 24/23 Q1008=
04/08/2020 22:00:00Z	 SAID32 WIPP 042200	METAR WIPP 042200Z AUTO 19003KT 140V230 9999NDV SCT016 24/23 Q1008=
04/08/2020 22:30:00Z	 SAID32 WIPP 042230	METAR WIPP 042230Z AUTO VRB02KT 9999NDV NCD 24/23 Q1008=
04/08/2020 23:00:00Z	 SAID32 WIPP 042300	METAR WIPP 042300Z AUTO VRB02KT 9999NDV NCD 24/23 Q1008=
04/08/2020 23:30:00Z	 SAID32 WIPP 042330	METAR WIPP 042330Z AUTO VRB02KT 9999NDV NCD 24/23 Q1009=
05/08/2020 00:00:00Z	 SAID32 WIPP 050000	METAR WIPP 050000Z AUTO 19003KT 150V220 9999NDV NCD 24/23 Q1009=
05/08/2020 00:30:00Z	 SAID32 WIPP 050030	METAR WIPP 050030Z 15005KT 9999 FEW010 24/23 Q1009 NOSIG=
05/08/2020 01:00:00Z	 SAID32 WIPP 050100	METAR WIPP 050100Z 14003KT 9999 FEW010 25/23 Q1009 NOSIG=
05/08/2020 01:30:00Z	 SAID32 WIPP 050130	METAR WIPP 050130Z 19003KT 9999 FEW010 26/23 Q1009 NOSIG=
05/08/2020 02:00:00Z	 SAID32 WIPP 050200	METAR WIPP 050200Z 17004KT 9999 FEW010 26/24 Q1010 NOSIG=
05/08/2020 03:00:00Z	 SAID32 WIPP 050300	METAR WIPP 050200Z 15007KT 9999 FEW010 28/24 Q1010 NOSIG=
05/08/2020 02:30:00Z	 SAID32 WIPP 050230	METAR WIPP 050230Z 17005KT 9999 FEW010 27/24 Q1010 NOSIG=
05/08/2020 03:30:00Z	 SAID32 WIPP 050330	METAR WIPP 050330Z 14004KT 9999 FEW010 28/24 Q1010 NOSIG=
05/08/2020 04:00:00Z	 SAID32 WIPP 050400	METAR WIPP 050400Z 15005KT 9999 FEW010 29/24 Q1010 NOSIG=
05/08/2020 04:30:00Z	 SAID32 WIPP 050430	METAR WIPP 050430Z 14010KT 9999 FEW010 30/23 Q1009 NOSIG=
05/08/2020 05:00:00Z	 SAID32 WIPP 050500	METAR WIPP 050500Z 15007KT 9999 FEW010 29/23 Q1009 NOSIG=
05/08/2020 05:30:00Z	 SAID32 WIPP 050530	METAR WIPP 050530Z 15011KT 9999 FEW010 30/24 Q1009 NOSIG=
05/08/2020 06:00:00Z	 SAID32 WIPP 050600	METAR WIPP 050600Z 13012KT 9999 SCT010 30/23 Q1008 NOSIG=
05/08/2020 06:30:00Z	 SAID32 WIPP 050630	METAR WIPP 050630Z 15009KT 9999 SCT010 30/23 Q1008 NOSIG=
05/08/2020 07:00:00Z	 SAID32 WIPP 050700	METAR WIPP 050700Z 11006KT 9999 SCT010 30/24 Q1008 NOSIG=
05/08/2020 07:30:00Z	 SAID32 WIPP 050730	METAR WIPP 050730Z 13009KT 9999 SCT010 30/24 Q1007 NOSIG=
05/08/2020 08:00:00Z	 SAID32 WIPP 050800	METAR WIPP 050800Z 13007KT 9999 SCT010 31/24 Q1007 NOSIG=
05/08/2020 08:30:00Z	 SAID32 WIPP 050830	METAR WIPP 050830Z 12007KT 9999 FEW010 31/24 Q1007 NOSIG=
05/08/2020 09:00:00Z	 SAID32 WIPP 050900	METAR WIPP 050900Z 13009KT 9999 FEW010 31/24 Q1007 NOSIG=
05/08/2020 09:30:00Z	 SAID32 WIPP 050930	METAR WIPP 050930Z 11006KT 9999 FEW010 30/24 Q1007 NOSIG=
05/08/2020 10:00:00Z	 SAID32 WIPP 051000	METAR WIPP 051000Z 11005KT 9999 FEW010 30/24 Q1007 NOSIG=
05/08/2020 10:30:00Z	 SAID32 WIPP 051030	METAR WIPP 051030Z 13006KT 9999 FEW010 30/25 Q1007 NOSIG=
05/08/2020 11:00:00Z	 SAID32 WIPP 051100	METAR WIPP 051100Z 10004KT 9999 FEW010 30/24 Q1007 NOSIG=
05/08/2020 11:30:00Z	 SAID32 WIPP 051130	METAR WIPP 051130Z 11004KT 9999 FEW010 29/24 Q1007 NOSIG=
05/08/2020 12:00:00Z	 SAID32 WIPP 051200	METAR WIPP 051200Z 10002KT 9999 FEW010 29/24 Q1007 NOSIG=
05/08/2020 12:30:00Z	 SAID32 WIPP 051230	METAR WIPP 051230Z 11004KT 9999 FEW010 29/24 Q1008 NOSIG=
05/08/2020 13:00:00Z	 SAID32 WIPP 051300	METAR WIPP 051300Z 10006KT 9999 FEW010 29/24 Q1008 NOSIG=
05/08/2020 14:00:00Z	 SAID32 WIPP 051400	METAR WIPP 051400Z 11006KT 9999 FEW010 28/24 Q1009 NOSIG=
05/08/2020 15:00:00Z	 SAID32 WIPP 051500	METAR WIPP 051500Z 10004KT 9999 FEW010 28/24 Q1009 NOSIG=
05/08/2020 16:00:00Z	 SAID32 WIPP 051600	METAR WIPP 051600Z 10003KT 9999 FEW010 27/24 Q1010 NOSIG=
05/08/2020 17:00:00Z	 SAID32 WIPP 051700	METAR WIPP 051700Z 09002KT 9999 FEW010 27/24 Q1009 NOSIG=
05/08/2020 18:00:00Z	 SAID32 WIPP 051800	METAR WIPP 051800Z 17002KT 9999 FEW010 27/24 Q1009 NOSIG=
05/08/2020 19:00:00Z	 SAID32 WIPP 051900	METAR WIPP 051900Z 31002KT 9999 FEW010 26/24 Q1008 NOSIG=
05/08/2020 20:00:00Z	 SAID32 WIPP 052000	METAR WIPP 052000Z 00000KT 8000 FEW010 26/25 Q1008 NOSIG=
05/08/2020 21:00:00Z	 SAID32 WIPP 052100	METAR WIPP 052100Z 00000KT 8000 FEW010 26/24 Q1007 NOSIG=
05/08/2020 22:00:00Z	 SAID32 WIPP 052200	METAR WIPP 052200Z 18003KT 9999 FEW010 26/24 Q1008 NOSIG=
05/08/2020 22:30:00Z	 SAID32 WIPP 052230	METAR WIPP 052230Z 19002KT 9999 FEW010 25/24 Q1008 NOSIG=
05/08/2020 23:00:00Z	 SAID32 WIPP 052300	METAR WIPP 052300Z 19002KT 9999 FEW010 25/26 Q1008 NOSIG=
05/08/2020 23:00:00Z	 SAID32 WIPP 052300 CCA	METAR COR WIPP 052300Z 19002KT 9999 FEW010 25/24 Q1008 NOSIG=
05/08/2020 23:30:00Z	 SAID32 WIPP 052330	METAR WIPP 052330Z 19002KT 9999 FEW010 25/24 Q1009 NOSIG=
06/08/2020 00:00:00Z	 SAID32 WIPP 060000	METAR WIPP 060000Z 20002KT 9999 FEW010 25/24 Q1009 NOSIG=
06/08/2020 00:30:00Z	 SAID32 WIPP 060030	METAR WIPP 060030Z 20003KT 9999 FEW010 26/24 Q1009 NOSIG=
06/08/2020 01:00:00Z	 SAID32 WIPP 060100	METAR WIPP 060100Z 17003KT 9999 FEW010 27/25 Q1010 NOSIG=
06/08/2020 01:30:00Z	 SAID32 WIPP 060130	METAR WIPP 060130Z 16003KT 9999 FEW010 28/25 Q1010 NOSIG=
06/08/2020 02:00:00Z	 SAID32 WIPP 060200	METAR WIPP 060200Z 12003KT 9999 FEW010 28/25 Q1010 NOSIG=
06/08/2020 02:30:00Z	 SAID32 WIPP 060230	METAR WIPP 060230Z 16003KT 9999 FEW010 29/25 Q1010 NOSIG=
06/08/2020 03:00:00Z	 SAID32 WIPP 060300	METAR WIPP 060300Z 13005KT 9999 SCT010 30/25 Q1010 NOSIG=
06/08/2020 03:30:00Z	 SAID32 WIPP 060330	METAR WIPP 060330Z 16004KT 9999 SCT010 30/25 Q1010 NOSIG=
06/08/2020 04:00:00Z	 SAID32 WIPP 060400	METAR WIPP 060400Z 15004KT 9999 BKN010 31/24 Q1010 NOSIG=
06/08/2020 04:30:00Z	 SAID32 WIPP 060430	METAR WIPP 060430Z 12002KT 9999 BKN010 31/24 Q1009 NOSIG=
06/08/2020 05:00:00Z	 SAID32 WIPP 060500	METAR WIPP 060500Z 19003KT 9999 BKN010 32/24 Q1009 NOSIG=
06/08/2020 05:30:00Z	 SAID32 WIPP 060530	METAR WIPP 060530Z 16005KT 9999 BKN010 32/23 Q1008 NOSIG=
06/08/2020 06:00:00Z	 SAID32 WIPP 060600	METAR WIPP 060600Z 18004KT 9999 BKN010 33/23 Q1008 NOSIG=
06/08/2020 06:30:00Z	 SAID32 WIPP 060630	METAR WIPP 060630Z 16006KT 9999 BKN010 33/23 Q1007 NOSIG=
06/08/2020 07:00:00Z	 SAID32 WIPP 060700	METAR WIPP 060700Z 12007KT 9999 SCT010 33/23 Q1007 NOSIG=
06/08/2020 07:30:00Z	 SAID32 WIPP 060730	METAR WIPP 060730Z 25003KT 9999 SCT010 33/22 Q1007 NOSIG=
06/08/2020 08:00:00Z	 SAID32 WIPP 060800	METAR WIPP 060800Z 12007KT 9999 SCT010 34/23 Q1006 NOSIG=
06/08/2020 08:30:00Z	 SAID32 WIPP 060830	METAR WIPP 060830Z 11007KT 9999 SCT010 33/23 Q1006 NOSIG=
06/08/2020 09:00:00Z	 SAID32 WIPP 060900	METAR WIPP 060900Z 12005KT 9999 SCT010 33/23 Q1006 NOSIG=
06/08/2020 09:30:00Z	 SAID32 WIPP 060930	METAR WIPP 060930Z 10007KT 9999 SCT010 32/24 Q1006 NOSIG=
06/08/2020 10:00:00Z	 SAID32 WIPP 061000	METAR WIPP 061000Z 08006KT 9999 FEW010 32/24 Q1006 NOSIG=
06/08/2020 10:30:00Z	 SAID32 WIPP 061030	METAR WIPP 061030Z 10005KT 9999 FEW010 32/24 Q1006 NOSIG=
06/08/2020 11:00:00Z	 SAID32 WIPP 061100	METAR WIPP 061100Z 10005KT 9999 FEW010 31/25 Q1007 NOSIG=
06/08/2020 11:30:00Z	 SAID32 WIPP 061130	METAR WIPP 061130Z 10007KT 9999 FEW010 31/25 Q1007 NOSIG=
06/08/2020 12:00:00Z	 SAID32 WIPP 061200	METAR WIPP 061200Z 10009KT 9999 FEW010 30/25 Q1008 NOSIG=
06/08/2020 12:30:00Z	 SAID32 WIPP 061230	METAR WIPP 061230Z 10005KT 9999 FEW010 29/25 Q1008 NOSIG=
06/08/2020 13:00:00Z	 SAID32 WIPP 061300	METAR WIPP 061300Z 13007KT 9999 FEW010 29/25 Q1008 NOSIG=
06/08/2020 14:00:00Z	 SAID32 WIPP 061400	METAR WIPP 061400Z 12006KT 9999 FEW010 29/25 Q1009 NOSIG=
06/08/2020 15:00:00Z	 SAID32 WIPP 061500	METAR WIPP 061500Z 11005KT 9999 FEW010 28/24 Q1009 NOSIG=
06/08/2020 16:00:00Z	 SAID32 WIPP 061600	METAR WIPP 061600Z 13005KT 9999 FEW010 27/24 Q1010 NOSIG=
06/08/2020 17:00:00Z	 SAID32 WIPP 061700	METAR WIPP 061700Z 11004KT 9999 FEW010 27/24 Q1009 NOSIG=
06/08/2020 18:00:00Z	 SAID32 WIPP 061800	METAR WIPP 061800Z 14004KT 9999 FEW010 27/25 Q1009 NOSIG=
06/08/2020 19:00:00Z	 SAID32 WIPP 061900	METAR WIPP 061900Z 15003KT 9999 FEW010 27/25 Q1008 NOSIG=
06/08/2020 20:00:00Z	 SAID32 WIPP 062000	METAR WIPP 062000Z 17004KT 9999 SCT010 26/25 Q1008 NOSIG=
06/08/2020 21:00:00Z	 SAID32 WIPP 062100	METAR WIPP 062100Z 17005KT 9999 SCT010 26/25 Q1008 NOSIG=
06/08/2020 22:00:00Z	 SAID32 WIPP 062200	METAR WIPP 062200Z 15004KT 8000 SCT010 26/25 Q1008 NOSIG=
06/08/2020 22:30:00Z	 SAID32 WIPP 062230	METAR WIPP 062230Z 18005KT 8000 SCT010 26/25 Q1008 NOSIG=
06/08/2020 23:00:00Z	 SAID32 WIPP 062300	METAR WIPP 062300Z 18004KT 6000 FEW010 26/25 Q1008 NOSIG=
06/08/2020 23:30:00Z	 SAID32 WIPP 062330	METAR WIPP 062330Z 19004KT 2000 BR FEW010 26/25 Q1009 NOSIG=
07/08/2020 00:00:00Z	 SAID32 WIPP 070000	METAR WIPP 070000Z 19004KT 2500 HZ FEW010 26/25 Q1009 NOSIG=
07/08/2020 00:30:00Z	 SAID32 WIPP 070030	METAR WIPP 070030Z 21005KT 6000 FEW010 26/25 Q1009 NOSIG=
07/08/2020 01:00:00Z	 SAID32 WIPP 070100	METAR WIPP 070100Z 20008KT 8000 FEW010 27/24 Q1010 NOSIG=
07/08/2020 01:30:00Z	 SAID32 WIPP 070130	METAR WIPP 070130Z 20005KT 9999 FEW010 28/24 Q1010 NOSIG=
07/08/2020 02:00:00Z	 SAID32 WIPP 070200	METAR WIPP 070200Z 15005KT 9999 FEW010 29/25 Q1010 NOSIG=
07/08/2020 02:30:00Z	 SAID32 WIPP 070230	METAR WIPP 070230Z 15010KT 9999 SCT010 30/25 Q1010 NOSIG=
07/08/2020 03:00:00Z	 SAID32 WIPP 070300	METAR WIPP 070300Z 18010KT 9999 BKN010 30/24 Q1010 NOSIG=
07/08/2020 03:30:00Z	 SAID32 WIPP 070330	METAR WIPP 070330Z 13008KT 9999 BKN010 31/24 Q1010 NOSIG=
07/08/2020 04:00:00Z	 SAID32 WIPP 070400	METAR WIPP 070400Z 20012KT 9999 BKN010 31/24 Q1010 NOSIG=
07/08/2020 04:30:00Z	 SAID32 WIPP 070430	METAR WIPP 070430Z 18010KT 9999 BKN010 31/24 Q1009 NOSIG=
07/08/2020 05:00:00Z	 SAID32 WIPP 070500	METAR WIPP 070500Z 18010KT 9999 BKN010 32/24 Q1009 NOSIG=
07/08/2020 05:30:00Z	 SAID32 WIPP 070530	METAR WIPP 070530Z 15005KT 9999 BKN010 33/24 Q1008 NOSIG=
07/08/2020 06:00:00Z	 SAID32 WIPP 070600	METAR WIPP 070600Z 17010KT 9999 BKN010 33/24 Q1008 NOSIG=
07/08/2020 06:30:00Z	 SAID32 WIPP 070630	METAR WIPP 070630Z 20010KT 9999 BKN010 34/23 Q1008 NOSIG=
07/08/2020 07:00:00Z	 SAID32 WIPP 070700	METAR WIPP 070700Z 16005KT 9999 SCT010 34/23 Q1007 NOSIG=
07/08/2020 07:30:00Z	 SAID32 WIPP 070730	METAR WIPP 070730Z 15008KT 9999 SCT010 34/23 Q1007 NOSIG=
07/08/2020 08:00:00Z	 SAID32 WIPP 070800	METAR WIPP 070800Z 23004KT 9999 SCT010 34/23 Q1006 NOSIG=
07/08/2020 08:30:00Z	 SAID32 WIPP 070830	METAR WIPP 070830Z 00000KT 9999 SCT010 34/23 Q1006 NOSIG=
07/08/2020 09:00:00Z	 SAID32 WIPP 070900	METAR WIPP 070900Z 27004KT 9999 SCT010 34/22 Q1006 NOSIG=
07/08/2020 09:30:00Z	 SAID32 WIPP 070930	METAR WIPP 070930Z 28005KT 9999 SCT010 34/22 Q1006 NOSIG=
07/08/2020 10:00:00Z	 SAID32 WIPP 071000	METAR WIPP 071000Z 20002KT 9999 SCT010 34/23 Q1006 NOSIG=
07/08/2020 10:30:00Z	 SAID32 WIPP 071030	METAR WIPP 071030Z 05005KT 9999 SCT010 33/23 Q1006 NOSIG=
07/08/2020 11:00:00Z	 SAID32 WIPP 071100	METAR WIPP 071100Z 06005KT 9999 SCT010 32/23 Q1006 NOSIG=
07/08/2020 11:30:00Z	 SAID32 WIPP 071130	METAR WIPP 071130Z 08003KT 6000 FEW010 31/24 Q1007 NOSIG=
07/08/2020 12:00:00Z	 SAID32 WIPP 071200	METAR WIPP 071200Z 12012KT 9999 FEW010 30/24 Q1007 NOSIG=
07/08/2020 13:00:00Z	 SAID32 WIPP 071300	METAR WIPP 071300Z 10009KT 9999 FEW010 29/24 Q1008 NOSIG=
07/08/2020 13:30:00Z	 SAID32 WIPP 071330	METAR WIPP 071330Z 09006KT 9999 FEW010 29/25 Q1008 NOSIG=
07/08/2020 14:00:00Z	 SAID32 WIPP 071400	METAR WIPP 071400Z 12007KT 9999 FEW010 29/25 Q1009 NOSIG=
07/08/2020 14:30:00Z	 SAID32 WIPP 071430	METAR WIPP 071430Z 13006KT 9999 FEW010 28/25 Q1009 NOSIG=
07/08/2020 15:00:00Z	 SAID32 WIPP 071500	METAR WIPP 071500Z 11005KT 9999 FEW010 28/25 Q1009 NOSIG=
07/08/2020 15:30:00Z	 SAID32 WIPP 071530	METAR WIPP 071530Z 11006KT 9999 FEW010 28/25 Q1009 NOSIG=
07/08/2020 16:00:00Z	 SAID32 WIPP 071600	METAR WIPP 071600Z 12005KT 9999 FEW010 27/25 Q1009 NOSIG=
07/08/2020 16:30:00Z	 SAID32 WIPP 071630	METAR WIPP 071630Z 13006KT 9999 FEW010 27/25 Q1009 NOSIG=
07/08/2020 17:00:00Z	 SAID32 WIPP 071700	METAR WIPP 071700Z 12004KT 9999 FEW010 27/25 Q1009 NOSIG=
07/08/2020 18:00:00Z	 SAID32 WIPP 071800	METAR WIPP 071800Z 12005KT 9999 FEW010 27/25 Q1009 NOSIG=
07/08/2020 18:30:00Z	 SAID32 WIPP 071830	METAR WIPP 071830Z AUTO 12004KT 9999NDV NCD 27/25 Q1009=
07/08/2020 19:00:00Z	 SAID32 WIPP 071900	METAR WIPP 071900Z AUTO 11004KT 9999NDV NCD 26/25 Q1008=
07/08/2020 19:30:00Z	 SAID32 WIPP 071930	METAR WIPP 071930Z AUTO 14002KT 9000NDV NCD 26/25 Q1008=
07/08/2020 20:00:00Z	 SAID32 WIPP 072000	METAR WIPP 072000Z AUTO 15004KT 9999NDV NCD 26/25 Q1008=
07/08/2020 20:30:00Z	 SAID32 WIPP 072030	METAR WIPP 072030Z AUTO 00000KT 9999NDV NCD 26/25 Q1008=
07/08/2020 21:00:00Z	 SAID32 WIPP 072100	METAR WIPP 072100Z AUTO 15002KT 9999NDV SCT017 BKN040 BKN047 26/25 Q1008=
07/08/2020 21:30:00Z	 SAID32 WIPP 072130	METAR WIPP 072130Z 14002KT 9999 BKN010 26/25 Q1008 NOSIG=
07/08/2020 22:00:00Z	 SAID32 WIPP 072200	METAR WIPP 072200Z 14004KT 7000 SCT010 26/25 Q1008 NOSIG=
07/08/2020 22:30:00Z	 SAID32 WIPP 072230	METAR WIPP 072230Z 15003KT 7000 SCT010 26/25 Q1008 NOSIG=
07/08/2020 23:00:00Z	 SAID32 WIPP 072300	METAR WIPP 072300Z 13003KT 4000 HZ SCT010 26/25 Q1008=
07/08/2020 23:30:00Z	 SAID32 WIPP 072330	METAR WIPP 072330Z 19002KT 2500 HZ BKN010 26/25 Q1009=
08/08/2020 00:00:00Z	 SAID32 WIPP 080000	METAR WIPP 080000Z 16002KT 3000 HZ SCT010 26/25 Q1009=
08/08/2020 00:30:00Z	 SAID32 WIPP 080030	METAR WIPP 080030Z 14004KT 5000 HZ SCT010 27/25 Q1009=
08/08/2020 01:00:00Z	 SAID32 WIPP 080100	METAR WIPP 080100Z 13005KT 8000 SCT010 28/25 Q1010 NOSIG=
08/08/2020 01:30:00Z	 SAID32 WIPP 080130	METAR WIPP 080130Z 12007KT 9999 SCT010 28/25 Q1010 NOSIG=
08/08/2020 02:00:00Z	 SAID32 WIPP 080200	METAR WIPP 080200Z 12008KT 9999 BKN010 30/26 Q1010 NOSIG=
08/08/2020 02:30:00Z	 SAID32 WIPP 080230	METAR WIPP 080230Z 14008KT 9999 BKN010 30/25 Q1009 NOSIG=
08/08/2020 03:00:00Z	 SAID32 WIPP 080300	METAR WIPP 080300Z 14005KT 9999 BKN010 31/25 Q1009 NOSIG=
08/08/2020 03:30:00Z	 SAID32 WIPP 080330	METAR WIPP 080330Z 12008KT 9999 BKN010 31/24 Q1009 NOSIG=
08/08/2020 04:00:00Z	 SAID32 WIPP 080400	METAR WIPP 080400Z 14003KT 9999 BKN010 31/25 Q1009 NOSIG=
08/08/2020 04:30:00Z	 SAID32 WIPP 080430	METAR WIPP 080430Z 12004KT 9999 BKN010 31/24 Q1009 NOSIG=
08/08/2020 05:00:00Z	 SAID32 WIPP 080500	METAR WIPP 080500Z 21002KT 9999 BKN010 31/25 Q1008 NOSIG=
08/08/2020 05:30:00Z	 SAID32 WIPP 080530	METAR WIPP 080530Z 22004KT 9999 BKN010 32/23 Q1008 NOSIG=
08/08/2020 06:00:00Z	 SAID32 WIPP 080600	METAR WIPP 080600Z 21004KT 9999 BKN010 33/23 Q1007 NOSIG=
08/08/2020 06:30:00Z	 SAID32 WIPP 080630	METAR WIPP 080630Z AUTO 18004KT 140V230 9999NDV NCD 34/23 Q1007=
08/08/2020 06:30:00Z	 SAID32 WIPP 080630 CCA	METAR WIPP 080630Z 14004KT 9999 BKN010 33/22 Q1007 NOSIG=
08/08/2020 07:00:00Z	 SAID32 WIPP 080700	METAR WIPP 080700Z 14003KT 9999 BKN010 33/22 Q1006 NOSIG=
08/08/2020 07:30:00Z	 SAID32 WIPP 080730	METAR WIPP 080730Z 26004KT 9999 BKN010 34/23 Q1006 NOSIG=
08/08/2020 08:00:00Z	 SAID32 WIPP 080800	METAR WIPP 080800Z 23005KT 9999 SCT010 34/23 Q1005 NOSIG=
08/08/2020 08:30:00Z	 SAID32 WIPP 080830	METAR WIPP 080830Z 24005KT 9999 SCT010 34/22 Q1005 NOSIG=
08/08/2020 09:00:00Z	 SAID32 WIPP 080900	METAR WIPP 080900Z 17002KT 9999 SCT010 35/22 Q1005 NOSIG=
08/08/2020 09:30:00Z	 SAID32 WIPP 080930	METAR WIPP 080930Z 21005KT 9999 SCT010 34/21 Q1005 NOSIG=
08/08/2020 10:00:00Z	 SAID32 WIPP 081000	METAR WIPP 081000Z 16004KT 9999 SCT010 34/21 Q1005 NOSIG=
08/08/2020 10:30:00Z	 SAID32 WIPP 081030	METAR WIPP 081030Z 18002KT 9999 SCT010 32/22 Q1006 NOSIG=
08/08/2020 11:00:00Z	 SAID32 WIPP 081100	METAR WIPP 081100Z 21001KT 9999 FEW010 33/22 Q1006 NOSIG=
08/08/2020 11:30:00Z	 SAID32 WIPP 081130	METAR WIPP 081130Z 11002KT 9999 FEW010 32/23 Q1006 NOSIG=
08/08/2020 12:00:00Z	 SAID32 WIPP 081200	METAR WIPP 081200Z 08002KT 9999 FEW010 32/24 Q1007 NOSIG=
08/08/2020 12:30:00Z	 SAID32 WIPP 081230	METAR WIPP 081230Z 12009KT 9999 FEW010 31/24 Q1007 NOSIG=
08/08/2020 13:00:00Z	 SAID32 WIPP 081300	METAR WIPP 081300Z 12008KT 9999 FEW010 30/25 Q1007 NOSIG=
08/08/2020 14:00:00Z	 SAID32 WIPP 081400	METAR WIPP 081400Z 12008KT 9999 FEW010 29/26 Q1009 NOSIG=
08/08/2020 15:00:00Z	 SAID32 WIPP 081500	METAR WIPP 081500Z 12005KT 9999 FEW010 28/26 Q1009 NOSIG=
08/08/2020 16:00:00Z	 SAID32 WIPP 081600	METAR WIPP 081600Z 12008KT 9999 FEW010 28/25 Q1009 NOSIG=
08/08/2020 17:00:00Z	 SAID32 WIPP 081700	METAR WIPP 081700Z 12005KT 9999 FEW010 27/25 Q1009 NOSIG=
08/08/2020 18:00:00Z	 SAID32 WIPP 081800	METAR WIPP 081800Z 10005KT 8000 FEW010 27/25 Q1009 NOSIG=
08/08/2020 19:00:00Z	 SAID32 WIPP 081900	METAR WIPP 081900Z 16005KT 8000 FEW010 27/25 Q1009 NOSIG=
08/08/2020 19:30:00Z	 SAID32 WIPP 081930	METAR WIPP 081930Z AUTO 15003KT 120V200 9000NDV NCD 27/25 Q1009=
08/08/2020 20:00:00Z	 SAID32 WIPP 082000	METAR WIPP 082000Z AUTO 14004KT 9000NDV NCD 27/25 Q1008=
08/08/2020 20:30:00Z	 SAID32 WIPP 082030	METAR WIPP 082030Z AUTO VRB02KT 6000NDV NCD 27/25 Q1008=
08/08/2020 21:00:00Z	 SAID32 WIPP 082100	METAR WIPP 082100Z AUTO 16002KT 6000NDV NCD 26/25 Q1009=
08/08/2020 21:30:00Z	 SAID32 WIPP 082130	METAR WIPP 082130Z AUTO VRB02KT 6000NDV NCD 26/25 Q1009=
08/08/2020 22:00:00Z	 SAID32 WIPP 082200	METAR WIPP 082200Z AUTO 13004KT 5000NDV NCD 26/25 Q1009=
08/08/2020 22:30:00Z	 SAID32 WIPP 082230	METAR WIPP 082230Z 14005KT 6000 FEW010 26/25 Q1009 NOSIG=
08/08/2020 23:00:00Z	 SAID32 WIPP 082300	METAR WIPP 082300Z 15008KT 5000 HZ FEW010 26/25 Q1009=
08/08/2020 23:30:00Z	 SAID32 WIPP 082330	METAR WIPP 082330Z 15010KT 5000 HZ FEW010 26/25 Q1009=
09/08/2020 00:00:00Z	 SAID32 WIPP 090000	METAR WIPP 090000Z AUTO 14005KT 110V170 3200NDV BR NCD 27/25 Q1010=
09/08/2020 00:30:00Z	 SAID32 WIPP 090030	METAR WIPP 090030Z AUTO 14005KT 110V180 4800NDV HZ NCD 27/25 Q1010=
09/08/2020 01:00:00Z	 SAID32 WIPP 090100	METAR WIPP 090100Z 15008KT 9999 FEW010 28/24 Q1010 NOSIG=
09/08/2020 01:30:00Z	 SAID32 WIPP 090130	METAR WIPP 090130Z 13007KT 9999 SCT010 29/24 Q1010 NOSIG=
09/08/2020 02:00:00Z	 SAID32 WIPP 090200	METAR WIPP 090200Z 16008KT 9999 BKN010 29/24 Q1011 NOSIG=
09/08/2020 02:30:00Z	 SAID32 WIPP 090230	METAR WIPP 090230Z 14009KT 9999 BKN010 30/25 Q1010 NOSIG=
09/08/2020 03:00:00Z	 SAID32 WIPP 090300	METAR WIPP 090300Z 11008KT 9999 BKN010 31/25 Q1010 NOSIG=
09/08/2020 03:30:00Z	 SAID32 WIPP 090330	METAR WIPP 090330Z 12006KT 9999 BKN010 31/25 Q1010 NOSIG=
09/08/2020 04:00:00Z	 SAID32 WIPP 090400	METAR WIPP 090400Z 14007KT 9999 BKN010 32/25 Q1010 NOSIG=
09/08/2020 04:30:00Z	 SAID32 WIPP 090430	METAR WIPP 090430Z 12006KT 9999 BKN010 32/24 Q1009 NOSIG=
09/08/2020 05:00:00Z	 SAID32 WIPP 090500	METAR WIPP 090500Z 14006KT 9999 BKN010 32/24 Q1009 NOSIG=
09/08/2020 05:30:00Z	 SAID32 WIPP 090530	METAR WIPP 090530Z 13009KT 9999 BKN010 33/24 Q1008 NOSIG=
09/08/2020 06:00:00Z	 SAID32 WIPP 090600	METAR WIPP 090600Z 13009KT 9999 BKN010 33/23 Q1008 NOSIG=
09/08/2020 06:30:00Z	 SAID32 WIPP 090630	METAR WIPP 090630Z 15005KT 9999 BKN010 33/23 Q1007 NOSIG=
09/08/2020 07:00:00Z	 SAID32 WIPP 090700	METAR WIPP 090700Z 22004KT 9999 BKN010 34/23 Q1007 NOSIG=
09/08/2020 07:30:00Z	 SAID32 WIPP 090730	METAR WIPP 090730Z 16004KT 9999 BKN010 34/23 Q1006 NOSIG=
09/08/2020 08:00:00Z	 SAID32 WIPP 090800	METAR WIPP 090800Z 16005KT 9999 BKN010 34/22 Q1006 NOSIG=
09/08/2020 08:30:00Z	 SAID32 WIPP 090830	METAR WIPP 090830Z 17003KT 9999 BKN010 34/23 Q1006 NOSIG=
09/08/2020 09:00:00Z	 SAID32 WIPP 090900	METAR WIPP 090900Z 14003KT 9999 BKN010 34/23 Q1006 NOSIG=
09/08/2020 09:30:00Z	 SAID32 WIPP 090930	METAR WIPP 090930Z 15005KT 9999 BKN010 34/23 Q1006 NOSIG=
09/08/2020 10:00:00Z	 SAID32 WIPP 091000	METAR WIPP 091000Z 09003KT 9999 BKN010 33/22 Q1006 NOSIG=
09/08/2020 10:30:00Z	 SAID32 WIPP 091030	METAR WIPP 091030Z 09005KT 9999 BKN010 32/24 Q1007 NOSIG=
09/08/2020 11:00:00Z	 SAID32 WIPP 091100	METAR WIPP 091100Z 10006KT 9999 BKN010 32/24 Q1007 NOSIG=
09/08/2020 11:30:00Z	 SAID32 WIPP 091130	METAR WIPP 091130Z 11005KT 9999 SCT010 32/25 Q1007 NOSIG=
09/08/2020 12:00:00Z	 SAID32 WIPP 091200	METAR WIPP 091200Z 10008KT 9999 SCT010 31/25 Q1008 NOSIG=
09/08/2020 12:30:00Z	 SAID32 WIPP 091230	METAR WIPP 091230Z 10010KT 9999 SCT010 30/25 Q1008 NOSIG=
09/08/2020 13:00:00Z	 SAID32 WIPP 091300	METAR WIPP 091300Z 11011KT 9999 SCT010 30/25 Q1008 NOSIG=
09/08/2020 13:30:00Z	 SAID32 WIPP 091330	METAR WIPP 091330Z 12008KT 9999 SCT010 29/25 Q1009 NOSIG=
09/08/2020 14:00:00Z	 SAID32 WIPP 091400	METAR WIPP 091400Z 12010KT 9999 SCT010 29/25 Q1009 NOSIG=
09/08/2020 14:30:00Z	 SAID32 WIPP 091430	METAR WIPP 091430Z 12009KT 9999 SCT010 28/25 Q1010 NOSIG=
09/08/2020 15:00:00Z	 SAID32 WIPP 091500	METAR WIPP 091500Z 12006KT 9999 FEW010 28/25 Q1010 NOSIG=
09/08/2020 15:30:00Z	 SAID32 WIPP 091530	METAR WIPP 091530Z 13007KT 9999 FEW010 28/25 Q1010 NOSIG=
09/08/2020 16:00:00Z	 SAID32 WIPP 091600	METAR WIPP 091600Z 13007KT 9999 FEW010 28/25 Q1010 NOSIG=
09/08/2020 16:30:00Z	 SAID32 WIPP 091630	METAR WIPP 091630Z 16006KT 9999 FEW010 28/25 Q1010 NOSIG=
09/08/2020 17:00:00Z	 SAID32 WIPP 091700	METAR WIPP 091700Z 15004KT 9999 FEW010 27/25 Q1010 NOSIG=
09/08/2020 17:30:00Z	 SAID32 WIPP 091730	METAR WIPP 091730Z 14006KT 9999 FEW010 27/25 Q1010 NOSIG=
09/08/2020 18:00:00Z	 SAID32 WIPP 091800	METAR WIPP 091800Z 14007KT 9999 FEW010 27/25 Q1010 NOSIG=
09/08/2020 18:30:00Z	 SAID32 WIPP 091830	METAR WIPP 091830Z AUTO 14004KT 110V170 9999NDV BKN047 27/25 Q1009=
09/08/2020 19:00:00Z	 SAID32 WIPP 091900	METAR WIPP 091900Z AUTO 14006KT 9999NDV FEW050 FEW060 27/25 Q1009=
09/08/2020 19:30:00Z	 SAID32 WIPP 091930	METAR WIPP 091930Z AUTO 15003KT 120V180 9999NDV NCD 27/25 Q1009=
09/08/2020 20:00:00Z	 SAID32 WIPP 092000	METAR WIPP 092000Z AUTO 14004KT 120V180 9999NDV NCD 27/25 Q1009=
09/08/2020 20:30:00Z	 SAID32 WIPP 092030	METAR WIPP 092030Z AUTO 14003KT 110V170 9999NDV NCD 26/25 Q1009=
09/08/2020 21:00:00Z	 SAID32 WIPP 092100	METAR WIPP 092100Z 14003KT 9999 FEW010 27/25 Q1009 NOSIG=
09/08/2020 21:30:00Z	 SAID32 WIPP 092130	METAR WIPP 092130Z 19002KT 9999 FEW010 26/24 Q1009 NOSIG=
09/08/2020 22:00:00Z	 SAID32 WIPP 092200	METAR WIPP 092200Z 14003KT 9999 FEW010 26/24 Q1010 NOSIG=
09/08/2020 22:30:00Z	 SAID32 WIPP 092230	METAR WIPP 092230Z 17003KT 9999 FEW010 26/24 Q1010 NOSIG=
09/08/2020 23:00:00Z	 SAID32 WIPP 092300	METAR WIPP 092300Z 14004KT 8000 FEW010 26/24 Q1010 NOSIG=
09/08/2020 23:30:00Z	 SAID32 WIPP 092330	METAR WIPP 092330Z 14005KT 8000 FEW010 26/24 Q1010 NOSIG=
10/08/2020 00:00:00Z	 SAID32 WIPP 100000	METAR WIPP 100000Z 17005KT 8000 FEW010 26/25 Q1011 NOSIG=
10/08/2020 00:30:00Z	 SAID32 WIPP 100030	METAR WIPP 100030Z 14007KT 9999 FEW010 27/24 Q1011 NOSIG=
10/08/2020 01:00:00Z	 SAID32 WIPP 100100	METAR WIPP 100100Z 13007KT 9999 FEW010 28/25 Q1011 NOSIG=
10/08/2020 01:30:00Z	 SAID32 WIPP 100130	METAR WIPP 100130Z 13007KT 9999 FEW010 29/25 Q1011 NOSIG=
10/08/2020 02:00:00Z	 SAID32 WIPP 100200	METAR WIPP 100200Z 14007KT 9999 FEW010 29/24 Q1011 NOSIG=
10/08/2020 02:30:00Z	 SAID32 WIPP 100230	METAR WIPP 100230Z 11008KT 9999 SCT010 30/24 Q1011 NOSIG=
10/08/2020 03:00:00Z	 SAID32 WIPP 100300	METAR WIPP 100300Z 15005KT 9999 SCT010 31/25 Q1011 NOSIG=
10/08/2020 03:30:00Z	 SAID32 WIPP 100330	METAR WIPP 100330Z 11008KT 9999 SCT010 31/25 Q1011 NOSIG=
10/08/2020 04:00:00Z	 SAID32 WIPP 100400	METAR WIPP 100400Z 10007KT 9999 SCT010 32/24 Q1011 NOSIG=
10/08/2020 04:30:00Z	 SAID32 WIPP 100430	METAR WIPP 100430Z 11005KT 9999 SCT010 32/23 Q1010 NOSIG=
10/08/2020 05:00:00Z	 SAID32 WIPP 100500	METAR WIPP 100500Z 15004KT 9999 SCT010 32/24 Q1010 NOSIG=
10/08/2020 05:30:00Z	 SAID32 WIPP 100530	METAR WIPP 100530Z 14008KT 9999 SCT010 33/23 Q1009 NOSIG=
10/08/2020 06:00:00Z	 SAID32 WIPP 100600	METAR WIPP 100600Z 18005KT 9999 SCT010 32/23 Q1009 NOSIG=
10/08/2020 06:30:00Z	 SAID32 WIPP 100630	METAR WIPP 100630Z 15007KT 9999 SCT010 34/23 Q1008 NOSIG=
10/08/2020 07:00:00Z	 SAID32 WIPP 100700	METAR WIPP 100700Z 13007KT 9999 BKN010 33/23 Q1008 NOSIG=
10/08/2020 07:30:00Z	 SAID32 WIPP 100730	METAR WIPP 100730Z 14005KT 9999 BKN010 34/23 Q1008 NOSIG=
10/08/2020 08:00:00Z	 SAID32 WIPP 100800	METAR WIPP 100800Z 16005KT 9999 SCT010 34/23 Q1007 NOSIG=
10/08/2020 08:30:00Z	 SAID32 WIPP 100830	METAR WIPP 100830Z 14006KT 9999 SCT010 33/22 Q1007 NOSIG=
10/08/2020 09:00:00Z	 SAID32 WIPP 100900	METAR WIPP 100900Z 13004KT 9999 FEW010 34/22 Q1007 NOSIG=
10/08/2020 09:30:00Z	 SAID32 WIPP 100930	METAR WIPP 100930Z 13006KT 9999 FEW010 34/20 Q1007 NOSIG=
10/08/2020 10:00:00Z	 SAID32 WIPP 101000	METAR WIPP 101000Z 08006KT 9999 FEW010 33/23 Q1007 NOSIG=
10/08/2020 10:30:00Z	 SAID32 WIPP 101030	METAR WIPP 101030Z 11008KT 9999 FEW010 32/24 Q1008 NOSIG=
10/08/2020 11:00:00Z	 SAID32 WIPP 101100	METAR WIPP 101100Z 10008KT 9999 FEW010 31/24 Q1008 NOSIG=
10/08/2020 11:30:00Z	 SAID32 WIPP 101130	METAR WIPP 101130Z 10006KT 9999 FEW010 31/24 Q1008 NOSIG=
10/08/2020 12:00:00Z	 SAID32 WIPP 101200	METAR WIPP 101200Z 11006KT 9999 FEW010 30/24 Q1008 NOSIG=
10/08/2020 12:30:00Z	 SAID32 WIPP 101230	METAR WIPP 101230Z 11009KT 9999 FEW010 30/24 Q1009 NOSIG=
10/08/2020 13:00:00Z	 SAID32 WIPP 101300	METAR WIPP 101300Z 12013KT 9999 FEW010 29/24 Q1009 NOSIG=
10/08/2020 14:00:00Z	 SAID32 WIPP 101400	METAR WIPP 101400Z 11008KT 9999 FEW010 29/24 Q1010 NOSIG=
10/08/2020 15:00:00Z	 SAID32 WIPP 101500	METAR WIPP 101500Z 11009KT 9999 FEW010 28/24 Q1011 NOSIG=
10/08/2020 16:00:00Z	 SAID32 WIPP 101600	METAR WIPP 101600Z 11004KT 9999 FEW010 28/24 Q1011 NOSIG=
10/08/2020 17:00:00Z	 SAID32 WIPP 101700	METAR WIPP 101700Z 10006KT 9999 FEW010 28/25 Q1011 NOSIG=
10/08/2020 17:30:00Z	 SAID32 WIPP 101730	METAR WIPP 101730Z AUTO 10005KT 9999NDV NCD 27/25 Q1011=
10/08/2020 18:00:00Z	 SAID32 WIPP 101800	METAR WIPP 101800Z AUTO 11005KT 9999NDV NCD 27/25 Q1010=
10/08/2020 18:30:00Z	 SAID32 WIPP 101830	METAR WIPP 101830Z AUTO 11004KT 080V140 9999NDV NCD 27/25 Q1010=
10/08/2020 19:00:00Z	 SAID32 WIPP 101900	METAR WIPP 101900Z AUTO 09003KT 9999NDV BKN060 27/25 Q1010=
10/08/2020 19:30:00Z	 SAID32 WIPP 101930	METAR WIPP 101930Z AUTO 10003KT 9999NDV FEW075 27/25 Q1010=
10/08/2020 20:00:00Z	 SAID32 WIPP 102000	METAR WIPP 102000Z AUTO 11005KT 9999NDV NCD 26/25 Q1010=
10/08/2020 20:30:00Z	 SAID32 WIPP 102030	METAR WIPP 102030Z AUTO 11004KT 9999NDV NCD 26/25 Q1010=
10/08/2020 21:00:00Z	 SAID32 WIPP 102100	METAR WIPP 102100Z AUTO 05002KT 9999NDV NCD 26/25 Q1010=
10/08/2020 21:30:00Z	 SAID32 WIPP 102130	METAR WIPP 102130Z AUTO 09002KT 9000NDV NCD 26/25 Q1010=
10/08/2020 22:00:00Z	 SAID32 WIPP 102200	METAR WIPP 102200Z AUTO 00000KT 8000NDV NCD 26/25 Q1010=
10/08/2020 22:30:00Z	 SAID32 WIPP 102230	METAR WIPP 102230Z AUTO 14003KT 9999NDV NCD 26/25 Q1010=
10/08/2020 23:00:00Z	 SAID32 WIPP 102300	METAR WIPP 102300Z AUTO 19002KT 5000NDV FEW055 26/25 Q1011=
10/08/2020 23:30:00Z	 SAID32 WIPP 102330	METAR WIPP 102330Z AUTO 00000KT 4600NDV BR NCD 25/25 Q1011=
11/08/2020 00:00:00Z	 SAID32 WIPP 110000	METAR WIPP 110000Z AUTO 22002KT 3500NDV BR FEW055 FEW250 26/25 Q1011=
11/08/2020 00:30:00Z	 SAID32 WIPP 110030	METAR WIPP 110030Z AUTO 20003KT 150V240 3600NDV BR NCD 27/26 Q1012=
11/08/2020 01:00:00Z	 SAID32 WIPP 110100	METAR WIPP 110100Z 20002KT 8000 FWE010 27/25 Q1012 NOSIG=
11/08/2020 01:00:00Z	 SAID32 WIPP 110100 CCA	METAR COR WIPP 110100Z 20002KT 8000 FEW010 27/25 Q1012 NOSIG=
11/08/2020 01:30:00Z	 SAID32 WIPP 110130	METAR WIPP 110130Z 18002KT 8000 FEW010 28/25 Q1012 NOSIG=
11/08/2020 02:30:00Z	 SAID32 WIPP 110230	METAR WIPP 110230Z 12005KT 9999 SCT010 30/24 Q1012 NOSIG=
11/08/2020 03:00:00Z	 SAID32 WIPP 110300	METAR WIPP 110300Z 14004KT 9999 SCT010 31/24 Q1012 NOSIG=
11/08/2020 03:30:00Z	 SAID32 WIPP 110330	METAR WIPP 110330Z 15006KT 9999 SCT010 31/24 Q1011 NOSIG=
11/08/2020 04:00:00Z	 SAID32 WIPP 110400 CCA	METAR COR WIPP 110400Z 12007KT 9999 SCT010 32/24 Q1011 NOSIG=
11/08/2020 04:30:00Z	 SAID32 WIPP 110430	METAR WIPP 110430Z 14005KT 9999 SCT010 32/23 Q1011 NOSIG=
11/08/2020 05:00:00Z	 SAID32 WIPP 110500	METAR WIPP 110500Z 15003KT 9999 SCT010 31/24 Q1011 NOSIG=
11/08/2020 05:30:00Z	 SAID32 WIPP 110530	METAR WIPP 110530Z 15006KT 9999 BKN010 32/23 Q1010 NOSIG=
11/08/2020 06:00:00Z	 SAID32 WIPP 110600	METAR WIPP 110600Z 15006KT 9999 BKN010 33/22 Q1010 NOSIG=
11/08/2020 06:00:00Z	 SAID32 WIPP 110600 CCA	METAR COR WIPP 110600Z 15006KT 9999 BKN010 33/22 Q1010 RMK CB TO NW=
11/08/2020 06:30:00Z	 SAID32 WIPP 110630	METAR WIPP 110630Z 19005KT 9999 BKN010 33/22 Q1009 RMK CB TO NW=
11/08/2020 07:00:00Z	 SAID32 WIPP 110700	METAR WIPP 110700Z 20006KT 9999 BKN010 33/23 Q1009 RMK CB TO N=
11/08/2020 07:30:00Z	 SAID32 WIPP 110730	METAR WIPP 110730Z 30009KT 6000 -RA FEW010CB SCT010 30/23 Q1008 RMK CB TO NW=
11/08/2020 08:00:00Z	 SAID32 WIPP 110800	METAR WIPP 110800Z 32003KT 8000 FEW010CB BKN010 28/23 Q1008 RERA RMK CB TO NW=
11/08/2020 08:30:00Z	 SAID32 WIPP 110830	METAR WIPP 110830Z 01003KT 8000 -RA FEW010CB BKN010 28/24 Q1008 RMK CB TO NW=
11/08/2020 09:00:00Z	 SAID32 WIPP 110900	METAR WIPP 110900Z 06009KT 8000 -RA FEW010CB BKN010 28/24 Q1009 RMK CB TO NE=
11/08/2020 09:30:00Z	 SAID32 WIPP 110930	METAR WIPP 110930Z AUTO 04004KT 360V060 8000NDV -RA NCD 26/25 Q1009=
11/08/2020 10:00:00Z	 SAID32 WIPP 111000	METAR WIPP 111000Z 08002KT 8000 -RA SCT010 27/24 Q1009=
11/08/2020 10:30:00Z	 SAID32 WIPP 111030	METAR WIPP 111030Z 13004KT 8000 -RA FEWCB010 SCT010 26/24 Q1009 RMK CB TO S=
11/08/2020 11:00:00Z	 SAID32 WIPP 111100	METAR WIPP 111100Z 19004KT 9999 FEWCB010 SCT010 26/24 Q1010 RERA RMK CB TO S=
11/08/2020 11:00:00Z	 SAID32 WIPP 111100 CCA	METAR COR WIPP 111100Z 19004KT 9999 FEW010CB SCT010 26/24 Q1010 RERA RMK CB TO S=
11/08/2020 11:30:00Z	 SAID32 WIPP 111130	METAR WIPP 111130Z 14006KT 9999 FEW010 25/23 Q1010 NOSIG=
11/08/2020 12:00:00Z	 SAID32 WIPP 111200	METAR WIPP 111200Z 13006KT 9999 FEW010 25/23 Q1010 NOSIG=
11/08/2020 12:30:00Z	 SAID32 WIPP 111230	METAR WIPP 111230Z 14004KT 9999 FEW010 25/23 Q1011 NOSIG=
11/08/2020 13:00:00Z	 SAID32 WIPP 111300	METAR WIPP 111300Z 16003KT 9999 FEW010 26/23 Q1011 NOSIG=
11/08/2020 13:30:00Z	 SAID32 WIPP 111330	METAR WIPP 111330Z 16003KT 9999 FEW010 26/23 Q1011 NOSIG=
11/08/2020 14:00:00Z	 SAID32 WIPP 111400	METAR WIPP 111400Z 16006KT 9999 FEW010 25/23 Q1011 NOSIG=
11/08/2020 14:30:00Z	 SAID32 WIPP 111430	METAR WIPP 111430Z 15006KT 9999 FEW010 25/23 Q1011 NOSIG=
11/08/2020 15:00:00Z	 SAID32 WIPP 111500	METAR WIPP 111500Z 15005KT 9999 FEW010 25/23 Q1011 NOSIG=
11/08/2020 16:00:00Z	 SAID32 WIPP 111600	METAR WIPP 111600Z 21004KT 9999 FEW010 25/23 Q1012 NOSIG=
11/08/2020 17:00:00Z	 SAID32 WIPP 111700	METAR WIPP 111700Z 19003KT 9999 FEW010 24/23 Q1011 NOSIG=
11/08/2020 18:00:00Z	 SAID32 WIPP 111800	METAR WIPP 111800Z 16002KT 9999 FEW010 24/23 Q1011 NOSIG=
11/08/2020 20:00:00Z	 SAID32 WIPP 112000	METAR WIPP 112000Z 16002KT 9999 FEW010 24/22 Q1010 NOSIG=
11/08/2020 21:00:00Z	 SAID32 WIPP 112100	METAR WIPP 112100Z 18002KT 9999 FEW010 24/23 Q1010 NOSIG=
11/08/2020 22:00:00Z	 SAID32 WIPP 112200	METAR WIPP 112200Z 20001KT 9999 FEW010 24/23 Q1011 NOSIG=
11/08/2020 22:30:00Z	 SAID32 WIPP 112230	METAR WIPP 112230Z 23002KT 9999 FEW010 24/23 Q1011 NOSIG=
11/08/2020 23:00:00Z	 SAID32 WIPP 112300	METAR WIPP 112300Z 22002KT 5000 HZ FEW010 24/23 Q1011=
11/08/2020 23:30:00Z	 SAID32 WIPP 112330	METAR WIPP 112330Z 18003KT 8000 FEW010 24/23 Q1011=
12/08/2020 00:00:00Z	 SAID32 WIPP 120000	METAR WIPP 120000Z 19002KT 7000 NSC 24/23 Q1011=
12/08/2020 00:30:00Z	 SAID32 WIPP 120030	METAR WIPP 120030Z 20003KT 7000 NSC 25/23 Q1012=
12/08/2020 01:00:00Z	 SAID32 WIPP 120100	METAR WIPP 120100Z 19007KT 9999 NSC 25/23 Q1011=
12/08/2020 01:30:00Z	 SAID32 WIPP 120130	METAR WIPP 120130Z 18006KT 9999 NSC 27/24 Q1012=
12/08/2020 02:00:00Z	 SAID32 WIPP 120200	METAR WIPP 120200Z 19007KT 9999 NSC 28/24 Q1012=
12/08/2020 02:30:00Z	 SAID32 WIPP 120230	METAR WIPP 120230Z 18006KT 9999 FEW010 29/25 Q1012=
12/08/2020 03:00:00Z	 SAID32 WIPP 120300	METAR WIPP 120300Z 18008KT 9999 BKN010 29/25 Q1012=
12/08/2020 04:00:00Z	 SAID32 WIPP 120400	METAR WIPP 120400Z 12011KT 9999 BKN010 31/25 Q1011 NOSIG=
12/08/2020 04:30:00Z	 SAID32 WIPP 120430	METAR WIPP 120430Z 15010KT 9999 SCT010 31/24 Q1011 NOSIG=
12/08/2020 05:00:00Z	 SAID32 WIPP 120500	METAR WIPP 120500Z 13007KT 9999 SCT010 32/24 Q1010 NOSIG=
12/08/2020 06:00:00Z	 SAID32 WIPP 120600	METAR WIPP 120600Z 06006KT 9999 BKN010 33/24 Q1010 NOSIG=
12/08/2020 06:00:00Z	 SAID32 WIPP 120600	METAR WIPP 120609Z 06006KT 9999 BKN010 33/24 Q1010 NOSIG=
12/08/2020 06:30:00Z	 SAID32 WIPP 120630	METAR WIPP 120630Z 18003KT 9999 BKN010 33/25 Q1009 NOSIG=
12/08/2020 07:00:00Z	 SAID32 WIPP 120700	METAR WIPP 120700Z 18004KT 9999 BKN010 33/25 Q1009 NOSIG=
12/08/2020 07:30:00Z	 SAID32 WIPP 120730	METAR WIPP 120730Z 11007KT 8000 -RA FEW012CB BKN010 29/24 Q1009 CB TO NE=
12/08/2020 08:00:00Z	 SAID32 WIPP 120800	METAR WIPP 120800Z 05004KT 9999 FEW012CB SCT010 28/24 Q1009 CB TO NE=
12/08/2020 08:30:00Z	 SAID32 WIPP 120830	METAR WIPP 120830Z 14003KT 9999 FEW012CB SCT010 30/23 Q1008 CB TO NE=
12/08/2020 09:00:00Z	 SAID32 WIPP 120900	METAR WIPP 120900Z 09003KT 9999 FEW012CB FEW010 29/24 Q1008 CB TO NE=
12/08/2020 09:30:00Z	 SAID32 WIPP 120930	METAR WIPP 120930Z 07005KT 9999 FEW012CB FEW010 29/24 Q1008 CB TO NE=
12/08/2020 10:00:00Z	 SAID32 WIPP 121000	METAR WIPP 121000Z 07004KT 9999 FEW012CB FEW010 29/24 Q1008 CB TO W=
12/08/2020 10:30:00Z	 SAID32 WIPP 121030	METAR WIPP 121030Z 05004KT 9999 FEW012CB FEW010 29/25 Q1008 CB TO SW=
12/08/2020 11:00:00Z	 SAID32 WIPP 121100	METAR WIPP 121100Z 05002KT 9999 SCT010 28/24 Q1009 NOSIG=
12/08/2020 11:30:00Z	 SAID32 WIPP 121130	METAR WIPP 121130Z 06002KT 9999 SCT010 28/24 Q1009 NOSIG=
12/08/2020 12:00:00Z	 SAID32 WIPP 121200	METAR WIPP 121200Z 19003KT 9999 SCT010 27/24 Q1010 NOSIG=
12/08/2020 12:30:00Z	 SAID32 WIPP 121230	METAR WIPP 121230Z 00000KT 9999 SCT010 27/24 Q1010 NOSIG=
12/08/2020 13:00:00Z	 SAID32 WIPP 121300	METAR WIPP 121300Z 13003KT 6000 SCT010 27/24 Q1010 NOSIG=
12/08/2020 14:00:00Z	 SAID32 WIPP 121400	METAR WIPP 121400Z 00000KT 8000 SCT010 27/24 Q1011 NOSIG=
12/08/2020 15:00:00Z	 SAID32 WIPP 121500	METAR WIPP 121500Z 16002KT 6000 FEW010 26/24 Q1012 NOSIG=
12/08/2020 16:00:00Z	 SAID32 WIPP 121600	METAR WIPP 121600Z 09004KT 9999 FEW010 27/24 Q1012 NOSIG=
12/08/2020 17:00:00Z	 SAID32 WIPP 121700	METAR WIPP 121700Z 12004KT 9999 FEW010 27/24 Q1012 NOSIG=
12/08/2020 18:00:00Z	 SAID32 WIPP 121800	METAR WIPP 121800Z 11002KT 9999 FEW010 26/24 Q1011 NOSIG=
12/08/2020 19:00:00Z	 SAID32 WIPP 121900	METAR WIPP 121900Z 14002KT 9999 FEW010 26/24 Q1011 NOSIG=
12/08/2020 20:00:00Z	 SAID32 WIPP 122000	METAR WIPP 122000Z 18002KT 9999 FEW010 26/24 Q1011 NOSIG=
12/08/2020 21:00:00Z	 SAID32 WIPP 122100	METAR WIPP 122100Z 20003KT 8000 FEW010 26/24 Q1010 NOSIG=
12/08/2020 22:00:00Z	 SAID32 WIPP 122200	METAR WIPP 122200Z 00000KT 8000 FEW010 25/24 Q1010 NOSIG=
12/08/2020 22:30:00Z	 SAID32 WIPP 122230	METAR WIPP 122230Z 23002KT 6000 FEW010 25/24 Q1011 NOSIG=
12/08/2020 23:00:00Z	 SAID32 WIPP 122300	METAR WIPP 122300Z 23002KT 6000 FEW010 25/24 Q1011 NOSIG=
12/08/2020 23:30:00Z	 SAID32 WIPP 122330	METAR WIPP 122330Z 24003KT 8000 FEW010 25/24 Q1011 NOSIG=
13/08/2020 00:00:00Z	 SAID32 WIPP 130000	METAR WIPP 130000Z 25005KT 8000 SCT010 25/24 Q1011 NOSIG=
13/08/2020 00:30:00Z	 SAID32 WIPP 130030	METAR WIPP 130030Z 24003KT 8000 SCT010 26/25 Q1012 NOSIG=
13/08/2020 01:00:00Z	 SAID32 WIPP 130100	METAR WIPP 130100Z 25003KT 9999 SCT010 26/25 Q1012 NOSIG=
13/08/2020 01:30:00Z	 SAID32 WIPP 130130	METAR WIPP 130130Z 25005KT 9999 BKN010 27/25 Q1012 NOSIG=
13/08/2020 02:00:00Z	 SAID32 WIPP 130200	METAR WIPP 130200Z 24004KT 9999 BKN010 28/25 Q1013 NOSIG=
13/08/2020 02:30:00Z	 SAID32 WIPP 130230	METAR WIPP 130230Z 27003KT 9999 FEW010CB BKN010 28/25 Q1012 RMK CB TO SE=
13/08/2020 03:00:00Z	 SAID32 WIPP 130300	METAR WIPP 130300Z 25003KT 9999 FEW010CB BKN010 29/25 Q1012 RMK CB TO W AND NW=
13/08/2020 03:30:00Z	 SAID32 WIPP 130330	METAR WIPP 130330Z 21005KT 9999 FEW010CB BKN010 29/25 Q1012 RMK CB TO NW=
13/08/2020 04:00:00Z	 SAID32 WIPP 130400	METAR WIPP 130400Z 31005KT 9999 FEW010CB BKN010 29/25 Q1011 RMK CB TO NW AND W=
13/08/2020 04:30:00Z	 SAID32 WIPP 130430	METAR WIPP 130430Z 29004KT 9999 FEW010CB BKN010 29/24 Q1011 RMK CB TO NW AND N=
13/08/2020 05:00:00Z	 SAID32 WIPP 130500	METAR WIPP 130500Z 28012KT 9999 FEW010CB BKN010 28/25 Q1011 TEMPO TL0600 3000 RA=
13/08/2020 05:30:00Z	 SAID32 WIPP 130530	METAR WIPP 130530Z 29009KT 9999 FEW010CB BKN010 29/25 Q1010 RMK CB TO E=
13/08/2020 06:00:00Z	 SAID32 WIPP 130600	METAR WIPP 130600Z 31009KT 9999 FEW010CB BKN010 30/25 Q1009 RMK CB TO E=
13/08/2020 06:30:00Z	 SAID32 WIPP 130630	METAR WIPP 130630Z 25007KT 2000 RA FEW010CB BKN010 29/25 Q1009 TEMPO TL0730 1000 RA=
13/08/2020 07:00:00Z	 SAID32 WIPP 130700	METAR WIPP 130700Z 13008KT 0600 +TSRA FEW010CB BKN010 26/25 Q1009 RMK CB OVERHEAD=
13/08/2020 07:30:00Z	 SAID32 WIPP 130730	METAR WIPP 130730Z 32005KT 2000 TSRA FEW010CB BKN010 24/23 Q1009 RMK CB OVERHEAD=
13/08/2020 08:00:00Z	 SAID32 WIPP 130800	METAR WIPP 130800Z 08004KT 6000 -RA FEW010CB BKN010 25/23 Q1009 RMK CB TO N=
13/08/2020 08:30:00Z	 SAID32 WIPP 130830	METAR WIPP 130830Z 11007KT 8000 -RA FEW010CB BKN010 25/24 Q1009 RMK CB TO NW AND SE=
13/08/2020 09:00:00Z	 SAID32 WIPP 130900	METAR WIPP 130900Z 11003KT 8000 -RA FEW010CB BKN010 25/24 Q1009 RMK CB TO NW AND SE=
13/08/2020 09:30:00Z	 SAID32 WIPP 130930	METAR WIPP 130930Z 10008KT 8000 -RA FEW010CB BKN010 25/23 Q1009 RMK CB TO NW AND SE=
13/08/2020 10:00:00Z	 SAID32 WIPP 131000	METAR WIPP 131000Z 11004KT 8000 SCT010 25/23 Q1008=
13/08/2020 10:30:00Z	 SAID32 WIPP 131030	METAR WIPP 131030Z 13008KT 8000 SCT010 25/24 Q1008=
13/08/2020 11:00:00Z	 SAID32 WIPP 131100	METAR WIPP 131100Z 12005KT 9999 FEW010 25/23 Q1008=
13/08/2020 11:30:00Z	 SAID32 WIPP 131130	METAR WIPP 131130Z 11005KT 9999 FEW010 25/23 Q1008=
13/08/2020 12:00:00Z	 SAID32 WIPP 131200	METAR WIPP 131200Z 11005KT 9999 FEW010 25/23 Q1008=
13/08/2020 12:30:00Z	 SAID32 WIPP 131230	METAR WIPP 131230Z 21003KT 9999 FEW010 25/23 Q1009=
13/08/2020 13:00:00Z	 SAID32 WIPP 131300	METAR WIPP 131300Z 24004KT 6000 FEW010 25/24 Q1010=
13/08/2020 14:00:00Z	 SAID32 WIPP 131400	METAR WIPP 131400Z 21008KT 9999 FEW010 24/23 Q1010=
13/08/2020 15:00:00Z	 SAID32 WIPP 131500	METAR WIPP 131500Z 18004KT 9999 FEW010 24/23 Q1011=
13/08/2020 16:00:00Z	 SAID32 WIPP 131600	METAR WIPP 131600Z 24001KT 8000 FEW010 24/23 Q1011=
13/08/2020 17:00:00Z	 SAID32 WIPP 131700	METAR WIPP 131700Z 15005KT 9999 FEW010 24/23 Q1011=
13/08/2020 18:00:00Z	 SAID32 WIPP 131800	METAR WIPP 131800Z 17006KT 9999 FEW010 24/23 Q1010=
13/08/2020 19:00:00Z	 SAID32 WIPP 131900	METAR WIPP 131900Z 18003KT 9999 FEW010 24/23 Q1010=
13/08/2020 21:00:00Z	 SAID32 WIPP 132100	METAR WIPP 132100Z 20004KT 8000 FEW010 24/23 Q1009=
13/08/2020 22:00:00Z	 SAID32 WIPP 132200	METAR WIPP 132200Z 18004KT 9999 FEW010 23/23 Q1009=
13/08/2020 22:30:00Z	 SAID32 WIPP 132230	METAR WIPP 132230Z 23002KT 8000 FEW010 23/23 Q1009=
13/08/2020 23:00:00Z	 SAID32 WIPP 132300	METAR WIPP 132300Z 17002KT 5000 HZ BKN010 23/23 Q1009=
13/08/2020 23:30:00Z	 SAID32 WIPP 132330	METAR WIPP 132330Z 21002KT 4000 HZ FEW010 23/23 Q1009=
14/08/2020 00:00:00Z	 SAID32 WIPP 140000	METAR WIPP 140000Z 00000KT 6000 FEW010 24/23 Q1010=
14/08/2020 00:30:00Z	 SAID32 WIPP 140030	METAR WIPP 140030Z 18003KT 8000 FEW010 24/23 Q1010=
14/08/2020 01:00:00Z	 SAID32 WIPP 140100	METAR WIPP 140100Z 22003KT 9999 FEW010 25/24 Q1011 NOSIG=
14/08/2020 01:30:00Z	 SAID32 WIPP 140130	METAR WIPP 140130Z 00000KT 9999 FEW010 26/24 Q1011 NOSIG=
14/08/2020 02:00:00Z	 SAID32 WIPP 140200	METAR WIPP 140200Z 16005KT 9999 SCT010 27/24 Q1012 NOSIG=
14/08/2020 02:30:00Z	 SAID32 WIPP 140230	METAR WIPP 140230Z 24005KT 9999 SCT010 28/24 Q1011 NOSIG=
14/08/2020 03:00:00Z	 SAID32 WIPP 140300	METAR WIPP 140300Z 17010KT 9999 FEW010 28/24 Q1011 NOSIG=
14/08/2020 03:30:00Z	 SAID32 WIPP 140330	METAR WIPP 140330Z 17010KT 9999 FEW010 29/24 Q1011 NOSIG=
14/08/2020 04:00:00Z	 SAID32 WIPP 140400	METAR WIPP 140400Z 16008KT 9999 SCT010 29/24 Q1011 NOSIG=
14/08/2020 04:30:00Z	 SAID32 WIPP 140430	METAR WIPP 140430Z 12008KT 9999 SCT010 30/24 Q1010 NOSIG=
14/08/2020 05:00:00Z	 SAID32 WIPP 140500	METAR WIPP 140500Z 13008KT 9999 SCT010 31/24 Q1010 NOSIG=
14/08/2020 05:30:00Z	 SAID32 WIPP 140530	METAR WIPP 140530Z AUTO 13004KT 090V190 9999NDV SCT035 30/24 Q1009=
14/08/2020 06:00:00Z	 SAID32 WIPP 140600	METAR WIPP 140600Z 00000KT 9999 BKN010 31/23 Q1008 NOSIG=
14/08/2020 06:30:00Z	 SAID32 WIPP 140630	METAR WIPP 140630Z 15008KT 9999 BKN010 32/23 Q1008 NOSIG=
14/08/2020 07:00:00Z	 SAID32 WIPP 140700	METAR WIPP 140700Z 17002KT 9999 BKN010 32/23 Q1007 NOSIG=
14/08/2020 07:30:00Z	 SAID32 WIPP 140730	METAR WIPP 140730Z 14005KT 9999 BKN010 32/24 Q1007 NOSIG=
14/08/2020 08:00:00Z	 SAID32 WIPP 140800	METAR WIPP 140800Z 13010KT 9999 BKN010 FEW012CB 31/24 Q1007 RMK CB TO NE AND SE=
14/08/2020 08:30:00Z	 SAID32 WIPP 140830	METAR WIPP 140830Z 12010KT 9999 BKN010 FEW012CB 31/24 Q1007 RMK CB TO N=
14/08/2020 09:00:00Z	 SAID32 WIPP 140900	METAR WIPP 140900Z 12008KT 9999 BKN010 FEW012CB 31/24 Q1007 RMK CB TO W AND N=
14/08/2020 09:30:00Z	 SAID32 WIPP 140930	METAR WIPP 140930Z 12008KT 9999 BKN010 FEW012CB 31/24 Q1007 RMK CB TO N AND W=
14/08/2020 10:00:00Z	 SAID32 WIPP 141000	METAR WIPP 141000Z 12008KT 9999 BKN010 FEW012CB 30/25 Q1007 RMK CB TO W=
14/08/2020 10:30:00Z	 SAID32 WIPP 141030	METAR WIPP 141030Z 13012KT 9999 BKN010 FEW012CB 29/24 Q1007 RMK CB TO NW=
14/08/2020 11:00:00Z	 SAID32 WIPP 141100	METAR WIPP 141100Z 11006KT 9999 BKN010 FEW012CB 29/24 Q1008 RMK CB TO NW=
14/08/2020 11:30:00Z	 SAID32 WIPP 141130	METAR WIPP 141130Z 09005KT 9999 BKN010 FEW012CB 28/25 Q1008 RMK CB TO NW=
14/08/2020 12:00:00Z	 SAID32 WIPP 141200	METAR WIPP 141200Z 00000KT 9999 BKN010 FEW012CB 28/24 Q1009 RMK CB TO NW=
14/08/2020 12:30:00Z	 SAID32 WIPP 141230	METAR WIPP 141230Z 04003KT 9999 BKN010 FEW012CB 27/24 Q1009 RMK CB TO E=
14/08/2020 13:00:00Z	 SAID32 WIPP 141300	METAR WIPP 141300Z 10006KT 9999 BKN010 27/24 Q1010=
14/08/2020 14:00:00Z	 SAID32 WIPP 141400	METAR WIPP 141400Z 07006KT 9000 -RA FEW010CB BKN010 27/24 Q1010 RMK CB TO NE=
14/08/2020 15:00:00Z	 SAID32 WIPP 141500	METAR WIPP 141500Z 06003KT 9999 SCT010 26/24 Q1011=
14/08/2020 16:00:00Z	 SAID32 WIPP 141600	METAR WIPP 141600Z 02002KT 9999 SCT010 26/24 Q1011=
14/08/2020 17:00:00Z	 SAID32 WIPP 141700	METAR WIPP 141700Z 11003KT 9999 SCT010 26/24 Q1010=
14/08/2020 18:00:00Z	 SAID32 WIPP 141800	METAR WIPP 141800Z 00000KT 9999 SCT010 25/24 Q1010=
14/08/2020 22:30:00Z	 SAID32 WIPP 142230	METAR WIPP 142230Z 29003KT 5000 BR SCT010 25/24 Q1010=
14/08/2020 23:00:00Z	 SAID32 WIPP 142300	METAR WIPP 142300Z 23002KT 2000 BR SCT010 25/24 Q1010=
14/08/2020 23:30:00Z	 SAID32 WIPP 142330	METAR WIPP 142330Z 18002KT 4000 BR SCT010 25/24 Q1010=
15/08/2020 00:00:00Z	 SAID32 WIPP 150000	METAR WIPP 150000Z 19003KT 6000 FEW010 25/24 Q1010=
15/08/2020 00:30:00Z	 SAID32 WIPP 150030	METAR WIPP 150030Z 23003KT 8000 FEW010 26/24 Q1011=
15/08/2020 01:00:00Z	 SAID32 WIPP 150100	METAR WIPP 150100Z 21004KT 9999 SCT010 26/24 Q1011 NOSIG=
15/08/2020 01:30:00Z	 SAID32 WIPP 150130	METAR WIPP 150130Z 21003KT 9999 BKN010 26/24 Q1011 NOSIG=
15/08/2020 02:00:00Z	 SAID32 WIPP 150200	METAR WIPP 150200Z 20006KT 9999 BKN010 27/24 Q1011 NOSIG=
15/08/2020 02:30:00Z	 SAID32 WIPP 150230	METAR WIPP 150230Z 19005KT 9999 BKN010 27/25 Q1011 NOSIG=
15/08/2020 03:00:00Z	 SAID32 WIPP 150300	METAR WIPP 150300Z 21004KT 9999 BKN010 28/25 Q1011 NOSIG=
15/08/2020 03:30:00Z	 SAID32 WIPP 150330	METAR WIPP 150330Z 14004KT 9999 BKN010 28/24 Q1011 NOSIG=
15/08/2020 04:00:00Z	 SAID32 WIPP 150400	METAR WIPP 150400Z 11007KT 9999 BKN010 29/24 Q1010 NOSIG=
15/08/2020 04:30:00Z	 SAID32 WIPP 150430	METAR WIPP 150430Z 12007KT 9999 BKN010 30/24 Q1010 NOSIG=
15/08/2020 05:00:00Z	 SAID32 WIPP 150500	METAR WIPP 150500Z 11006KT 9999 SCT010 31/24 Q1009 NOSIG=
15/08/2020 05:30:00Z	 SAID32 WIPP 150530	METAR WIPP 150530Z 12010KT 9999 SCT010 31/24 Q1009 NOSIG=
15/08/2020 06:00:00Z	 SAID32 WIPP 150600	METAR WIPP 150600Z 13008KT 9999 SCT010 31/23 Q1008 NOSIG=
15/08/2020 06:30:00Z	 SAID32 WIPP 150630	METAR WIPP 150630Z 10008KT 9999 SCT010 32/24 Q1008 NOSIG=
15/08/2020 07:00:00Z	 SAID32 WIPP 150700	METAR WIPP 150700Z 15007KT 9999 SCT010 32/24 Q1008 NOSIG=
15/08/2020 07:30:00Z	 SAID32 WIPP 150730	METAR WIPP 150730Z 13009KT 9999 BKN010 FEW012CB 31/25 Q1008 TEMPO FM0745 TL0820 3000 RA RMK CB TO S=
15/08/2020 08:00:00Z	 SAID32 WIPP 150800	METAR WIPP 150800Z 15015KT 5000 -RA FEW010CB BKN010 27/23 Q1008 RMK CB OVER THE FIELD=
15/08/2020 08:30:00Z	 SAID32 WIPP 150830	METAR WIPP 150830Z 16004KT 3000 -RA FEW010CB BKN010 26/25 Q1008 RMK CB OVER THE FIELD=
15/08/2020 09:00:00Z	 SAID32 WIPP 150900	METAR WIPP 150900Z 16004KT 5000 -RA FEW010CB BKN010 26/25 Q1008 RMK CB TO NW=
15/08/2020 09:30:00Z	 SAID32 WIPP 150930	METAR WIPP 150930Z 12009KT 9999 BKN010 FEW012CB 27/26 Q1008 RERA RMK CB TO NW=
15/08/2020 10:00:00Z	 SAID32 WIPP 151000	METAR WIPP 151000Z 14006KT 9999 BKN010 FEW012CB 28/25 Q1008 RMK CB TO NW=
15/08/2020 10:30:00Z	 SAID32 WIPP 151030	METAR WIPP 151030Z 11009KT 9999 BKN010 FEW012CB 28/25 Q1008 RMK CB TO W=
15/08/2020 11:00:00Z	 SAID32 WIPP 151100	METAR WIPP 151100Z 11007KT 9999 SCT010 FEW012CB 28/24 Q1008 RMK CB TO W=
15/08/2020 11:30:00Z	 SAID32 WIPP 151130	METAR WIPP 151130Z 14004KT 9999 SCT010 27/24 Q1009 NOSIG=
15/08/2020 12:00:00Z	 SAID32 WIPP 151200	METAR WIPP 151200Z 15002KT 9999 SCT010 27/25 Q1009 NOSIG=
15/08/2020 12:30:00Z	 SAID32 WIPP 151230	METAR WIPP 151230Z 15003KT 9999 SCT010 27/24 Q1010 NOSIG=
15/08/2020 13:00:00Z	 SAID32 WIPP 151300	METAR WIPP 151300Z 26003KT 8000 SCT010 26/25 Q1010 NOSIG=
15/08/2020 14:00:00Z	 SAID32 WIPP 151400	METAR WIPP 151400Z 23003KT 8000 FEW010 26/25 Q1011 NOSIG=
15/08/2020 15:00:00Z	 SAID32 WIPP 151500	METAR WIPP 151500Z 24003KT 8000 FEW010 25/24 Q1012 NOSIG=
15/08/2020 16:00:00Z	 SAID32 WIPP 151600	METAR WIPP 151600Z 24003KT 8000 FEW010 25/24 Q1012 NOSIG=
15/08/2020 17:00:00Z	 SAID32 WIPP 151700	METAR WIPP 151700Z 26005KT 8000 SCT010 25/24 Q1011 NOSIG=
15/08/2020 18:00:00Z	 SAID32 WIPP 151800	METAR WIPP 151800Z 00000KT 8000 SCT010 25/24 Q1011 NOSIG=
15/08/2020 18:30:00Z	 SAID32 WIPP 151830	METAR WIPP 151830Z AUTO 00000KT 6000NDV NCD 24/24 Q1010=
15/08/2020 19:00:00Z	 SAID32 WIPP 151900	METAR WIPP 151900Z AUTO 00000KT 9999NDV NCD 24/24 Q1010=
15/08/2020 19:30:00Z	 SAID32 WIPP 151930	METAR WIPP 151930Z AUTO 00000KT 9999NDV NCD 24/24 Q1010=
15/08/2020 20:00:00Z	 SAID32 WIPP 152000	METAR WIPP 152000Z AUTO 00000KT 9000NDV NCD 24/24 Q1010=
15/08/2020 20:30:00Z	 SAID32 WIPP 152030	METAR WIPP 152030Z AUTO 00000KT 4500NDV BR NCD 24/24 Q1010=
15/08/2020 21:00:00Z	 SAID32 WIPP 152100	METAR WIPP 152100Z 00000KT 5000 BR SCT010 24/23 Q1009=
15/08/2020 21:30:00Z	 SAID32 WIPP 152130	METAR WIPP 152130Z AUTO 00000KT 2700NDV BR NCD 24/24 Q1010=
15/08/2020 22:00:00Z	 SAID32 WIPP 152200	METAR WIPP 152200Z AUTO 00000KT 3700NDV BR NCD 24/24 Q1010=
15/08/2020 22:30:00Z	 SAID32 WIPP 152230	METAR WIPP 152230Z 28003KT 4000 BR SCT010 24/23 Q1010=
15/08/2020 23:00:00Z	 SAID32 WIPP 152300	METAR WIPP 152300Z 00000KT 2000 BR SCT010 24/23 Q1011=
15/08/2020 23:30:00Z	 SAID32 WIPP 152330	METAR WIPP 152330Z AUTO 16002KT 1400NDV R11/1600N R29/P2000N BR NCD 24/24 Q1011=
16/08/2020 00:00:00Z	 SAID32 WIPP 160000	METAR WIPP 160000Z AUTO 00000KT 2300NDV BR NCD 24/24 Q1011=
16/08/2020 00:30:00Z	 SAID32 WIPP 160030	METAR WIPP 160030Z 24003KT 3000 BR SCT010 25/24 Q1011=
16/08/2020 01:00:00Z	 SAID32 WIPP 160100	METAR WIPP 160100Z 22003KT 4000 BR SCT010 25/24 Q1011=
16/08/2020 01:30:00Z	 SAID32 WIPP 160130	METAR WIPP 160130Z 26002KT 5000 HZ SCT010 25/24 Q1011=
16/08/2020 02:00:00Z	 SAID32 WIPP 160200	METAR WIPP 160200Z 27002KT 5000 HZ SCT010 26/24 Q1012=
16/08/2020 02:30:00Z	 SAID32 WIPP 160230	METAR WIPP 160230Z 22003KT 6000 SCT010 26/24 Q1012=
16/08/2020 03:00:00Z	 SAID32 WIPP 160300	METAR WIPP 160300Z 20003KT 8000 SCT010 26/24 Q1012=
16/08/2020 03:30:00Z	 SAID32 WIPP 160330	METAR WIPP 160330Z 15002KT 9999 SCT010 28/25 Q1011=
16/08/2020 04:00:00Z	 SAID32 WIPP 160400	METAR WIPP 160400Z 11002KT 9999 SCT010 28/25 Q1011 NOSIG=
16/08/2020 04:30:00Z	 SAID32 WIPP 160430	METAR WIPP 160430Z 25002KT 9999 BKN010 29/24 Q1010 NOSIG=
16/08/2020 05:00:00Z	 SAID32 WIPP 160500	METAR WIPP 160500Z 10005KT 9999 BKN010 30/24 Q1010 NOSIG=
16/08/2020 05:30:00Z	 SAID32 WIPP 160530	METAR WIPP 160530Z 11005KT 9999 BKN010 31/24 Q1009 NOSIG=
16/08/2020 06:00:00Z	 SAID32 WIPP 160600	METAR WIPP 160600Z 07006KT 9999 BKN010 31/23 Q1009 NOSIG=
16/08/2020 06:30:00Z	 SAID32 WIPP 160630	METAR WIPP 160630Z 07006KT 9999 FEW010CB BKN010 31/22 Q1008 RMK CB TO NE=
16/08/2020 07:00:00Z	 SAID32 WIPP 160700	METAR WIPP 160700Z 05008KT 8000 -RA FEW010CB BKN010 30/23 Q1008 TEMPO FM0700 TL0800 09010G20KT 3000 RA FEW010CB BKN010 RMK CB TO N=
16/08/2020 07:30:00Z	 SAID32 WIPP 160730	METAR WIPP 160720Z 03007KT 9999 BKN010 FEW011CB 30/23 Q1007 RMK CB TO S AND W RERA=
16/08/2020 08:00:00Z	 SAID32 WIPP 160800	METAR WIPP 160800Z 12006KT 9999 BKN010 FEW011CB 31/24 Q1007 RMK CB TO S AND E=
16/08/2020 08:30:00Z	 SAID32 WIPP 160830	METAR WIPP 160830Z 10012KT 8000 -RA BKN010 FEW011CB 31/24 Q1007 RMK CB TO E=
16/08/2020 09:00:00Z	 SAID32 WIPP 160900	METAR WIPP 160900Z 12007KT 5000 -RA BKN010 FEW011CB 26/23 Q1008 RMK CB TO N=
16/08/2020 09:30:00Z	 SAID32 WIPP 160930	METAR WIPP 160930Z 07006KT 8000 BKN010 FEW011CB 26/23 Q1008 RMK CB TO N RERA=
16/08/2020 10:00:00Z	 SAID32 WIPP 161000	METAR WIPP 161000Z 15002KT 9999 BKN010 FEW011CB 26/23 Q1008 RMK CB TO N=
16/08/2020 10:30:00Z	 SAID32 WIPP 161030	METAR WIPP 161030Z 13003KT 9999 BKN010 26/24 Q1008 NOSIG=
16/08/2020 11:00:00Z	 SAID32 WIPP 161100	METAR WIPP 161100Z 21002KT 9999 SCT010 26/24 Q1008 NOSIG=
16/08/2020 11:30:00Z	 SAID32 WIPP 161130	METAR WIPP 161130Z 13002KT 9999 SCT010 26/24 Q1008 NOSIG=
16/08/2020 12:00:00Z	 SAID32 WIPP 161200	METAR WIPP 161200Z 19004KT 9999 FEW010 26/24 Q1009 NOSIG=
16/08/2020 12:30:00Z	 SAID32 WIPP 161230	METAR WIPP 161230Z 20003KT 9999 FEW010 26/24 Q1009 NOSIG=
16/08/2020 13:00:00Z	 SAID32 WIPP 161300	METAR WIPP 161300Z 22002KT 9999 FEW010 25/24 Q1010 NOSIG=
16/08/2020 13:30:00Z	 SAID32 WIPP 161330	METAR WIPP 161330Z 20002KT 9999 FEW010 25/24 Q1010 NOSIG=
16/08/2020 14:00:00Z	 SAID32 WIPP 161400	METAR WIPP 161400Z 20002KT 9999 FEW010 25/24 Q1010 NOSIG=
16/08/2020 14:30:00Z	 SAID32 WIPP 161430	METAR WIPP 161430Z 20001KT 9999 FEW010 25/24 Q1010 NOSIG=
16/08/2020 15:00:00Z	 SAID32 WIPP 161500	METAR WIPP 161500Z 18001KT 9999 FEW010 25/24 Q1011 NOSIG=
16/08/2020 15:30:00Z	 SAID32 WIPP 161530	METAR WIPP 161530Z 19003KT 9999 FEW010 25/24 Q1011 NOSIG=
16/08/2020 16:00:00Z	 SAID32 WIPP 161600	METAR WIPP 161600Z 16001KT 9999 FEW010 25/24 Q1011 NOSIG=
16/08/2020 16:30:00Z	 SAID32 WIPP 161630	METAR WIPP 161630Z 18001KT 9999 FEW010 25/24 Q1011 NOSIG=
16/08/2020 17:00:00Z	 SAID32 WIPP 161700	METAR WIPP 161700Z 26003KT 9999 FEW010 25/24 Q1011 NOSIG=
16/08/2020 17:30:00Z	 SAID32 WIPP 161730	METAR WIPP 161730Z 25003KT 9999 FEW010 25/24 Q1011 NOSIG=
16/08/2020 18:00:00Z	 SAID32 WIPP 161800	METAR WIPP 161800Z 24003KT 9999 FEW010 25/24 Q1010 NOSIG=
16/08/2020 18:30:00Z	 SAID32 WIPP 161830	METAR WIPP 161830Z 24003KT 9999 FEW010 24/23 Q1010 NOSIG=
16/08/2020 19:00:00Z	 SAID32 WIPP 161900	METAR WIPP 161900Z 18001KT 9999 FEW010 24/23 Q1010 NOSIG=
16/08/2020 19:30:00Z	 SAID32 WIPP 161930	METAR WIPP 161930Z AUTO 23002KT 4500NDV BR NCD 24/24 Q1009=
16/08/2020 20:00:00Z	 SAID32 WIPP 162000	METAR WIPP 162000Z AUTO 24002KT 6000NDV SCT020 24/24 Q1009=
16/08/2020 20:30:00Z	 SAID32 WIPP 162030	METAR WIPP 162030Z AUTO VRB02KT 5000NDV SCT020 24/24 Q1009=
16/08/2020 21:00:00Z	 SAID32 WIPP 162100	METAR WIPP 162100Z AUTO VRB02KT 7000NDV OVC021 24/24 Q1010=
16/08/2020 21:30:00Z	 SAID32 WIPP 162130	METAR WIPP 162130Z 24002KT 5000 BR FEW010 24/23 Q1009 NOSIG=
16/08/2020 22:00:00Z	 SAID32 WIPP 162200	METAR WIPP 162200Z 23003KT 8000 BR FEW010 24/23 Q1009 NOSIG=
16/08/2020 22:30:00Z	 SAID32 WIPP 162230	METAR WIPP 162230Z 21002KT 9999 FEW010 24/23 Q1010 NOSIG=
16/08/2020 23:00:00Z	 SAID32 WIPP 162300	METAR WIPP 162300Z 21002KT 9999 FEW010 24/23 Q1010 NOSIG=
16/08/2020 23:30:00Z	 SAID32 WIPP 162330	METAR WIPP 162330Z 17001KT 9999 FEW010 24/23 Q1010 NOSIG=
17/08/2020 00:00:00Z	 SAID32 WIPP 170000	METAR WIPP 170000Z 20003KT 9999 FEW010 24/23 Q1011 NOSIG=
17/08/2020 00:30:00Z	 SAID32 WIPP 170030	METAR WIPP 170030Z 23003KT 9999 FEW010 24/23 Q1011 NOSIG=
17/08/2020 01:00:00Z	 SAID32 WIPP 170100	METAR WIPP 170100Z 06008KT 8000 SCT010 24/23 Q1011 NOSIG=
17/08/2020 01:30:00Z	 SAID32 WIPP 170130	METAR WIPP 170130Z 00000KT 9999 SCT010 25/23 Q1011 RERA=
17/08/2020 02:00:00Z	 SAID32 WIPP 170200	METAR WIPP 170200Z 21002KT 9999 FEW010 25/23 Q1011 NOSIG=
17/08/2020 02:30:00Z	 SAID32 WIPP 170230	METAR WIPP 170230Z 21004KT 9999 FEW010 25/23 Q1011 NOSIG=
17/08/2020 03:00:00Z	 SAID32 WIPP 170300	METAR WIPP 170300Z 19003KT 9999 FEW010 28/27 Q1011 NOSIG=
17/08/2020 03:30:00Z	 SAID32 WIPP 170330	METAR WIPP 170330Z 13003KT 9999 SCT010 29/25 Q1011 NOSIG=
17/08/2020 04:00:00Z	 SAID32 WIPP 170400	METAR WIPP 170400Z 24002KT 9999 SCT010 29/25 Q1010 NOSIG=
17/08/2020 04:30:00Z	 SAID32 WIPP 170430	METAR WIPP 170430Z 10008KT 9999 SCT010 30/23 Q1010 NOSIG=
17/08/2020 05:00:00Z	 SAID32 WIPP 170500	METAR WIPP 170500Z 12006KT 9999 BKN010 31/24 Q1010 NOSIG=
17/08/2020 05:30:00Z	 SAID32 WIPP 170530	METAR WIPP 170530Z 10006KT 9999 BKN010 31/25 Q1009 NOSIG=
17/08/2020 06:00:00Z	 SAID32 WIPP 170600	METAR WIPP 170600Z 08006KT 9999 SCT010 31/25 Q1009 NOSIG=
17/08/2020 06:30:00Z	 SAID32 WIPP 170630	METAR WIPP 170630Z 15004KT 9999 BKN010 32/23 Q1008 NOSIG=
17/08/2020 07:00:00Z	 SAID32 WIPP 170700	METAR WIPP 170700Z 08002KT 9999 BKN010 32/23 Q1007 NOSIG=
17/08/2020 07:30:00Z	 SAID32 WIPP 170730	METAR WIPP 170730Z 07004KT 9999 BKN010 32/24 Q1007 NOSIG=
17/08/2020 08:00:00Z	 SAID32 WIPP 170800	METAR WIPP 170800Z 12009KT 9999 BKN010 32/23 Q1006 NOSIG=
17/08/2020 08:30:00Z	 SAID32 WIPP 170830	METAR WIPP 170830Z 17004KT 9999 BKN010 29/23 Q1006 NOSIG=
17/08/2020 09:00:00Z	 SAID32 WIPP 170900	METAR WIPP 170900Z 21004KT 9999 SCT010 31/23 Q1006 NOSIG=
17/08/2020 09:30:00Z	 SAID32 WIPP 170930	METAR WIPP 170930Z 12002KT 9999 SCT010 31/23 Q1006 NOSIG=
17/08/2020 10:00:00Z	 SAID32 WIPP 171000	METAR WIPP 171000Z 12007KT 9999 FEW010 31/24 Q1006 NOSIG=
17/08/2020 10:30:00Z	 SAID32 WIPP 171030	METAR WIPP 171030Z 17004KT 9999 FEW010 30/24 Q1007 NOSIG=
17/08/2020 11:00:00Z	 SAID32 WIPP 171100	METAR WIPP 171100Z 20002KT 9999 FEW010 29/24 Q1007 NOSIG=
17/08/2020 11:30:00Z	 SAID32 WIPP 171130	METAR WIPP 171130Z 18003KT 9999 FEW010 28/24 Q1008 NOSIG=
17/08/2020 12:00:00Z	 SAID32 WIPP 171200	METAR WIPP 171200Z 18003KT 9999 FEW010 28/24 Q1008 NOSIG=
17/08/2020 12:30:00Z	 SAID32 WIPP 171230	METAR WIPP 171230Z 15002KT 9999 FEW010 28/24 Q1008 NOSIG=
17/08/2020 13:00:00Z	 SAID32 WIPP 171300	METAR WIPP 171300Z 14002KT 9999 FEW010 28/24 Q1009 NOSIG=
17/08/2020 13:30:00Z	 SAID32 WIPP 171330	METAR WIPP 171330Z 16002KT 9999 FEW010 28/24 Q1009 NOSIG=
17/08/2020 14:00:00Z	 SAID32 WIPP 171400	METAR WIPP 171400Z 17002KT 9999 FEW010 27/24 Q1009 NOSIG=
17/08/2020 14:30:00Z	 SAID32 WIPP 171430	METAR WIPP 171430Z 12003KT 9999 FEW010 27/24 Q1010 NOSIG=
17/08/2020 15:00:00Z	 SAID32 WIPP 171500	METAR WIPP 171500Z 13004KT 9999 FEW010 27/24 Q1010 NOSIG=
17/08/2020 15:30:00Z	 SAID32 WIPP 171530	METAR WIPP 171530Z 17002KT 9999 FEW010 27/24 Q1010 NOSIG=
17/08/2020 16:00:00Z	 SAID32 WIPP 171600	METAR WIPP 171600Z 17003KT 9999 FEW010 27/24 Q1010 NOSIG=
17/08/2020 16:30:00Z	 SAID32 WIPP 171630	METAR WIPP 171630Z 22003KT 9999 FEW010 26/24 Q1010 NOSIG=
17/08/2020 17:00:00Z	 SAID32 WIPP 171700	METAR WIPP 171700Z 22003KT 9999 FEW010 26/24 Q1010 NOSIG=
17/08/2020 18:00:00Z	 SAID32 WIPP 171800	METAR WIPP 171800Z 19003KT 9999 FEW010 25/24 Q1009 NOSIG=
17/08/2020 19:00:00Z	 SAID32 WIPP 171900	METAR WIPP 171900Z 24002KT 9999 SCT010 25/24 Q1009 NOSIG=
17/08/2020 20:00:00Z	 SAID32 WIPP 172000	METAR WIPP 172000Z 19002KT 9999 FEW010 25/24 Q1009 NOSIG=
17/08/2020 21:00:00Z	 SAID32 WIPP 172100	METAR WIPP 172100Z 16003KT 9999 FEW010 25/24 Q1008 NOSIG=
17/08/2020 21:30:00Z	 SAID32 WIPP 172130	METAR WIPP 172130Z 15003KT 9999 FEW010 25/24 Q1008 NOSIG=
17/08/2020 22:00:00Z	 SAID32 WIPP 172200	METAR WIPP 172200Z 21002KT 9999 FEW010 25/24 Q1008 NOSIG=
17/08/2020 22:30:00Z	 SAID32 WIPP 172230	METAR WIPP 172230Z 20002KT 9999 FEW010 24/23 Q1008 NOSIG=
17/08/2020 23:00:00Z	 SAID32 WIPP 172300	METAR WIPP 172300Z 21002KT 6000 SCT010 24/23 Q1009 NOSIG=
17/08/2020 23:30:00Z	 SAID32 WIPP 172330	METAR WIPP 172330Z 21003KT 4000 BR SCT010 24/23 Q1009=
18/08/2020 00:00:00Z	 SAID32 WIPP 180000	METAR WIPP 180000Z 20003KT 5000 HZ BKN010 25/24 Q1010=
18/08/2020 00:30:00Z	 SAID32 WIPP 180030	METAR WIPP 180030Z 22003KT 6000 BKN010 25/24 Q1011 NOSIG=
18/08/2020 01:00:00Z	 SAID32 WIPP 180100	METAR WIPP 180100Z 21003KT 6000 SCT010 25/24 Q1011 NOSIG=
18/08/2020 01:30:00Z	 SAID32 WIPP 180130	METAR WIPP 180130Z 21004KT 8000 SCT010 26/24 Q1012 NOSIG=
18/08/2020 02:00:00Z	 SAID32 WIPP 180200	METAR WIPP 180200Z 20005KT 8000 SCT010 27/25 Q1012 NOSIG=
18/08/2020 02:30:00Z	 SAID32 WIPP 180230	METAR WIPP 180230Z 19008KT 9999 SCT010 28/24 Q1012 NOSIG=
18/08/2020 03:00:00Z	 SAID32 WIPP 180300	METAR WIPP 180300Z 22008KT 9999 FEW012CB SCT010 29/24 Q1011 RMK CB TO NW=
18/08/2020 03:30:00Z	 SAID32 WIPP 180330	METAR WIPP 180330Z 21003KT 9999 FEW012CB SCT010 29/23 Q1011 RMK CB TO NW=
18/08/2020 04:00:00Z	 SAID32 WIPP 180400	METAR WIPP 180400Z 13006KT 9999 SCT010 30/24 Q1011 NOSIG=
18/08/2020 04:30:00Z	 SAID32 WIPP 180430	METAR WIPP 180430Z 13007KT 9999 SCT010 30/24 Q1010 NOSIG=
18/08/2020 05:00:00Z	 SAID32 WIPP 180500	METAR WIPP 180500Z 13009KT 9999 SCT010 32/23 Q1009 NOSIG=
18/08/2020 05:30:00Z	 SAID32 WIPP 180530	METAR WIPP 180530Z 12008KT 9999 SCT010 31/23 Q1009 NOSIG=
18/08/2020 06:00:00Z	 SAID32 WIPP 180600	METAR WIPP 180600Z 13012KT 9999 SCT010 29/23 Q1009 NOSIG=
18/08/2020 06:30:00Z	 SAID32 WIPP 180630	METAR WIPP 180630Z 09009KT 9999 SCT010 30/23 Q1009 NOSIG=
18/08/2020 07:00:00Z	 SAID32 WIPP 180700	METAR WIPP 180700Z 11010KT 9999 SCT010 31/23 Q1008 NOSIG=
18/08/2020 07:30:00Z	 SAID32 WIPP 180730	METAR WIPP 180730Z 11006KT 9999 SCT010 30/22 Q1007 NOSIG=
18/08/2020 08:00:00Z	 SAID32 WIPP 180800	METAR WIPP 180800Z 08005KT 9999 SCT010 30/22 Q1007 NOSIG=
18/08/2020 08:30:00Z	 SAID32 WIPP 180830	METAR WIPP 180830Z 11006KT 9999 FEW010 29/23 Q1006 NOSIG=
18/08/2020 09:00:00Z	 SAID32 WIPP 180900	METAR WIPP 180900Z 11006KT 9999 FEW010 29/24 Q1007 NOSIG=
18/08/2020 09:30:00Z	 SAID32 WIPP 180930	METAR WIPP 180930Z 11005KT 9999 FEW010 28/24 Q1007 NOSIG=
18/08/2020 10:00:00Z	 SAID32 WIPP 181000	METAR WIPP 181000Z 12006KT 9999 FEW010 27/23 Q1007 NOSIG=
18/08/2020 10:30:00Z	 SAID32 WIPP 181030	METAR WIPP 181030Z 11003KT 9999 FEW010 27/24 Q1007 NOSIG=
18/08/2020 11:00:00Z	 SAID32 WIPP 181100	METAR WIPP 181100Z 15003KT 9999 NSC 27/24 Q1007 NOSIG=
18/08/2020 11:30:00Z	 SAID32 WIPP 181130	METAR WIPP 181130Z 17001KT 9999 NSC 27/24 Q1007 NOSIG=
18/08/2020 12:00:00Z	 SAID32 WIPP 181200	METAR WIPP 181200Z 18003KT 9999 NSC 27/24 Q1008 NOSIG=
18/08/2020 12:30:00Z	 SAID32 WIPP 181230	METAR WIPP 181230Z 20003KT 8000 NSC 27/24 Q1008 NOSIG=
18/08/2020 13:00:00Z	 SAID32 WIPP 181300	METAR WIPP 181300Z 17002KT 8000 NSC 27/24 Q1009 NOSIG=
18/08/2020 14:00:00Z	 SAID32 WIPP 181400	METAR WIPP 181400Z 00000KT 9999 FEW010 26/24 Q1009 NOSIG=
18/08/2020 15:00:00Z	 SAID32 WIPP 181500	METAR WIPP 181500Z 13002KT 9999 FEW010 27/23 Q1010 NOSIG=
18/08/2020 16:00:00Z	 SAID32 WIPP 181600	METAR WIPP 181600Z 00000KT 9999 FEW010 26/23 Q1010 NOSIG=
18/08/2020 17:00:00Z	 SAID32 WIPP 181700	METAR WIPP 181700Z 14003KT 9999 FEW010 26/23 Q1009 NOSIG=
18/08/2020 18:00:00Z	 SAID32 WIPP 181800	METAR WIPP 181800Z 10003KT 9999 FEW010 26/24 Q1009 NOSIG=
18/08/2020 19:00:00Z	 SAID32 WIPP 181900	METAR WIPP 181900Z 12004KT 9999 FEW010 26/24 Q1008 NOSIG=
18/08/2020 20:00:00Z	 SAID32 WIPP 182000	METAR WIPP 182000Z 19002KT 9999 FEW010 26/24 Q1007 NOSIG=
18/08/2020 21:00:00Z	 SAID32 WIPP 182100	METAR WIPP 182100Z 21002KT 9999 FEW010 25/24 Q1007 NOSIG=
18/08/2020 22:00:00Z	 SAID32 WIPP 182200	METAR WIPP 182200Z 21002KT 9999 FEW010 25/24 Q1008 NOSIG=
18/08/2020 23:00:00Z	 SAID32 WIPP 182300 CCA	METAR WIPP 182300Z 20003KT 8000 FEW010 24/23 Q1008 NOSIG=
19/08/2020 00:00:00Z	 SAID32 WIPP 190000	METAR WIPP 190000Z 18003KT 4000 BR FEW010 24/23 Q1009=
19/08/2020 00:30:00Z	 SAID32 WIPP 190030	METAR WIPP 190030Z 22003KT 8000 FEW010 25/24 Q1009 NOSIG=
19/08/2020 01:00:00Z	 SAID32 WIPP 190100	METAR WIPP 190100Z 19002KT 8000 FEW010 25/24 Q1009 NOSIG=
19/08/2020 01:30:00Z	 SAID32 WIPP 190130	METAR WIPP 190130Z 21002KT 9999 FEW010 26/24 Q1010 NOSIG=
19/08/2020 02:00:00Z	 SAID32 WIPP 190200	METAR WIPP 190200Z 17004KT 9999 FEW010 27/24 Q1010 NOSIG=
19/08/2020 02:30:00Z	 SAID32 WIPP 190230	METAR WIPP 190230Z 17007KT 9999 FEW010 28/25 Q1010 NOSIG=
19/08/2020 03:00:00Z	 SAID32 WIPP 190300	METAR WIPP 190300Z 13008KT 9999 FEW010 29/24 Q1010 NOSIG=
19/08/2020 03:30:00Z	 SAID32 WIPP 190330	METAR WIPP 190330Z 12006KT 9999 FEW010 30/24 Q1010 NOSIG=
19/08/2020 04:00:00Z	 SAID32 WIPP 190400	METAR WIPP 190400Z 13007KT 9999 FEW010 30/24 Q1009 NOSIG=
19/08/2020 04:30:00Z	 SAID32 WIPP 190430	METAR WIPP 190430Z 16007KT 9999 SCT010 30/24 Q1009 NOSIG=
19/08/2020 05:00:00Z	 SAID32 WIPP 190500	METAR WIPP 190500Z 12007KT 9999 SCT010 30/23 Q1008 NOSIG=
19/08/2020 05:30:00Z	 SAID32 WIPP 190530	METAR WIPP 190530Z 14006KT 9999 SCT010 31/24 Q1008 NOSIG=
19/08/2020 06:00:00Z	 SAID32 WIPP 190600	METAR WIPP 190600Z 11007KT 9999 BKN010 31/23 Q1008 NOSIG=
19/08/2020 06:30:00Z	 SAID32 WIPP 190630	METAR WIPP 190630Z 14007KT 9999 BKN010 32/22 Q1007 NOSIG=
19/08/2020 07:00:00Z	 SAID32 WIPP 190700	METAR WIPP 190700Z 12007KT 9999 BKN010 32/23 Q1006 NOSIG=
19/08/2020 07:30:00Z	 SAID32 WIPP 190730	METAR WIPP 190730Z 08008KT 9999 BKN010 33/22 Q1006 NOSIG=
19/08/2020 08:00:00Z	 SAID32 WIPP 190800	METAR WIPP 190800Z 10006KT 9999 BKN010 33/23 Q1006 NOSIG=
19/08/2020 08:30:00Z	 SAID32 WIPP 190830	METAR WIPP 190830Z 08009KT 5000 RA FEW010CB BKN010 30/24 Q1006 TEMPO TL0900 4000 RA=
19/08/2020 09:00:00Z	 SAID32 WIPP 190900	METAR WIPP 190900Z 07004KT 9999 FEW010CB BKN010 29/25 Q1006 RMK CB TO NW=
