01/01/2022 00:00:00Z	 SAID32 WIBB 010000	METAR WIBB 010000Z 27004KT 3000 BR BKN008 24/24 Q1011=
01/01/2022 00:30:00Z	 SAID32 WIBB 010030	METAR WIBB 010030Z 00000KT 5000 HZ BKN008 24/24 Q1011=
01/01/2022 01:00:00Z	 SAID32 WIBB 010100	METAR WIBB 010100Z 00000KT 6000 BKN008 25/24 Q1011=
01/01/2022 01:30:00Z	 SAID32 WIBB 010130	METAR WIBB 010130Z 00000KT 6000 BKN008 25/24 Q1011=
01/01/2022 02:00:00Z	 SAID32 WIBB 010200	METAR WIBB 010200Z 00000KT 7000 BKN008 25/24 Q1011=
01/01/2022 02:30:00Z	 SAID32 WIBB 010230	METAR WIBB 010230Z 30004KT 7000 BKN008 25/24 Q1011=
01/01/2022 03:00:00Z	 SAID32 WIBB 010300	METAR WIBB 010300Z 00000KT 7000 BKN008 26/24 Q1011=
01/01/2022 03:30:00Z	 SAID32 WIBB 010330	METAR WIBB 010330Z 31007KT 8000 BKN008 26/24 Q1012=
01/01/2022 04:30:00Z	 SAID32 WIBB 010430	METAR WIBB 010430Z 29004KT 8000 BKN010 27/24 Q1011=
01/01/2022 05:00:00Z	 SAID32 WIBB 010500	METAR WIBB 010500Z 00000KT 8000 SCT009 28/24 Q1011=
01/01/2022 05:30:00Z	 SAID32 WIBB 010530	METAR WIBB 010530Z 32006KT 8000 SCT009 28/24 Q1010=
01/01/2022 06:00:00Z	 SAID32 WIBB 010600	METAR WIBB 010600Z 00000KT 8000 BKN009 28/24 Q1010=
01/01/2022 06:30:00Z	 SAID32 WIBB 010630	METAR WIBB 010630Z 00000KT 8000 BKN009 29/24 Q1009=
01/01/2022 07:00:00Z	 SAID32 WIBB 010700	METAR WIBB 010700Z 30005KT 8000 BKN009 FEW014CB 29/23 Q1008 RMK CB TO SW AND S=
01/01/2022 07:30:00Z	 SAID32 WIBB 010730	METAR WIBB 010730Z 31008KT 8000 BKN009 FEW014CB 29/24 Q1008 RMK CB TO S=
01/01/2022 08:00:00Z	 SAID32 WIBB 010800	METAR WIBB 010800Z 32008KT 8000 SCT009 FEW013CB 29/24 Q1007 RMK CB TO E=
01/01/2022 08:30:00Z	 SAID32 WIBB 010830	METAR WIBB 010830Z 31005KT 8000 SCT010 FEW013CB 28/25 Q1007 RMK CB TO E AND SE=
01/01/2022 09:30:00Z	 SAID32 WIBB 010930	METAR WIBB 010930Z 30006KT 8000 SCT009 SCT013CB 29/24 Q1007 RMK CB OVER THE FIELD=
01/01/2022 10:00:00Z	 SAID32 WIBB 011000	METAR WIBB 011000Z 03008KT 7000 -RA SCT009 SCT013CB 27/25 Q1007 RMK CB OVER THE FIELD=
01/01/2022 10:30:00Z	 SAID32 WIBB 011030	METAR WIBB 011030Z 07005KT 4000 TSRA BKN008 SCT013CB 25/25 Q1008 RMK CB OVER THE FIELD=
01/01/2022 11:00:00Z	 SAID32 WIBB 011100	METAR WIBB 011100Z 00000KT 6000 -RA BKN008 FEW014CB 25/25 Q1008 RMK CB TO W, NW, AND SE=
01/01/2022 11:30:00Z	 SAID32 WIBB 011130	METAR WIBB 011130Z 00000KT 6000 BKN010 25/25 Q1009=
01/01/2022 12:00:00Z	 SAID32 WIBB 011200	METAR COR WIBB 011200Z 02004KT 7000 BKN009 FEW015CB 25/25 Q1009 RMK CB TO W AND NW=
01/01/2022 12:30:00Z	 SAID32 WIBB 011230	METAR WIBB 011230Z 01005KT 7000 BKN009 FEW015CB 25/25 Q1010 RMK CB TO NW=
01/01/2022 13:00:00Z	 SAID32 WIBB 011300	METAR WIBB 011300Z 00000KT 7000 BKN012 26/25 Q1010 NOSIG=
01/01/2022 13:30:00Z	 SAID32 WIBB 011330	METAR WIBB 011330Z 00000KT 7000 BKN012 25/25 Q1010 NOSIG=
01/01/2022 14:00:00Z	 SAID32 WIBB 011400	METAR WIBB 011400Z 00000KT 7000 SCT013 25/25 Q1011 NOSIG=
01/01/2022 14:30:00Z	 SAID32 WIBB 011430	METAR WIBB 011430Z 00000KT 7000 SCT013 25/25 Q1011 NOSIG=
01/01/2022 15:00:00Z	 SAID32 WIBB 011500	METAR WIBB 011500Z 00000KT 7000 SCT012 25/25 Q1011 NOSIG=
01/01/2022 15:30:00Z	 SAID32 WIBB 011530	METAR WIBB 011530Z 00000KT 7000 SCT012 25/25 Q1011 NOSIG=
01/01/2022 16:30:00Z	 SAID32 WIBB 011630	METAR WIBB 011630Z 00000KT 7000 SCT012 25/24 Q1011 NOSIG=
01/01/2022 17:30:00Z	 SAID32 WIBB 011730	METAR WIBB 011730Z 00000KT 7000 SCT012 25/24 Q1011 NOSIG=
01/01/2022 18:00:00Z	 SAID32 WIBB 011800	METAR WIBB 011800Z 00000KT 7000 SCT012 25/24 Q1010 NOSIG=
01/01/2022 21:00:00Z	 SAID32 WIBB 012100	METAR WIBB 012100Z 00000KT 7000 SCT012 24/24 Q1009 NOSIG=
01/01/2022 22:00:00Z	 SAID32 WIBB 012200	METAR WIBB 012200Z 00000KT 7000 FEW012 24/24 Q1009 NOSIG=
01/01/2022 23:00:00Z	 SAID32 WIBB 012300	METAR WIBB 012300Z 00000KT 5000 -RA BKN008 24/24 Q1010=
01/01/2022 23:30:00Z	 SAID32 WIBB 012330	METAR WIBB 012330Z 00000KT 2000 -RA BKN008 24/24 Q1010=
02/01/2022 00:00:00Z	 SAID32 WIBB 020000	METAR WIBB 020000Z 00000KT 5000 HZ BKN008 24/24 Q1010 RERA=
02/01/2022 00:30:00Z	 SAID32 WIBB 020030	METAR WIBB 020030Z 00000KT 6000 SCT008 24/24 Q1011 NOSIG=
02/01/2022 01:00:00Z	 SAID32 WIBB 020100	METAR WIBB 020100Z 02005KT 8000 BKN008 24/24 Q1011 NOSIG=
02/01/2022 01:30:00Z	 SAID32 WIBB 020130	METAR WIBB 020130Z 00000KT 8000 SCT009 25/24 Q1012 NOSIG=
02/01/2022 02:00:00Z	 SAID32 WIBB 020200	METAR WIBB 020200Z 36004KT 8000 SCT009 25/24 Q1012 NOSIG=
02/01/2022 02:30:00Z	 SAID32 WIBB 020230	METAR COR WIBB 020230Z 00000KT 8000 BKN008 25/24 Q1012 NOSIG=
02/01/2022 03:00:00Z	 SAID32 WIBB 020300	METAR WIBB 020300Z 32010KT 0800 +RA SCT007 FEW013CB 25/24 Q1012=
02/01/2022 03:30:00Z	 SAID32 WIBB 020330	METAR WIBB 020330Z 00000KT 5000 -RA SCT009 FEW015CB 24/24 Q1012=
02/01/2022 04:00:00Z	 SAID32 WIBB 020400	METAR WIBB 020400Z 00000KT 6000 -RA SCT008 FEW015CB 25/25 Q1012=
02/01/2022 04:30:00Z	 SAID32 WIBB 020430	METAR COR WIBB 020430Z 30004KT 6000 -RA BKN008 25/24 Q1011=
02/01/2022 05:00:00Z	 SAID32 WIBB 020500	METAR WIBB 020500Z 32005KT 6000 -RA BKN008 25/25 Q1011=
02/01/2022 05:30:00Z	 SAID32 WIBB 020530	METAR WIBB 020530Z 33006KT 7000 -RA BKN008 25/24 Q1011=
02/01/2022 06:00:00Z	 SAID32 WIBB 020600	METAR WIBB 020600Z 33007KT 7000 -RA BKN009 25/24 Q1010=
02/01/2022 06:30:00Z	 SAID32 WIBB 020630	METAR WIBB 020630Z 33006KT 6000 -RA BKN009 25/24 Q1010=
02/01/2022 07:00:00Z	 SAID32 WIBB 020700	METAR WIBB 020700Z 33006KT 7000 -RA BKN007 25/24 Q1009=
02/01/2022 07:30:00Z	 SAID32 WIBB 020730	METAR WIBB 020730Z 32006KT 6000 -RA BKN007 25/24 Q1008=
02/01/2022 08:00:00Z	 SAID32 WIBB 020800	METAR WIBB 020800Z 30006KT 7000 -RA SCT007 FEW015CB 25/24 Q1008=
02/01/2022 08:30:00Z	 SAID32 WIBB 020830	METAR WIBB 020830Z 27005KT 7000 -RA BKN007 FEW015CB 25/24 Q1008 RMK CB TO W AND S=
02/01/2022 09:00:00Z	 SAID32 WIBB 020900	METAR WIBB 020900Z 26005KT 7000 -RA BKN007 25/24 Q1008=
02/01/2022 09:30:00Z	 SAID32 WIBB 020930	METAR WIBB 020930Z 33004KT 7000 BKN010 25/24 Q1008=
02/01/2022 10:00:00Z	 SAID32 WIBB 021000	METAR WIBB 021000Z 33005KT 7000 BKN010 25/24 Q1007=
02/01/2022 10:30:00Z	 SAID32 WIBB 021030	METAR WIBB 021030Z 32005KT 7000 BKN010 25/23 Q1008=
02/01/2022 11:00:00Z	 SAID32 WIBB 021100	METAR WIBB 021100Z 33006KT 7000 BKN012 25/23 Q1008=
02/01/2022 11:30:00Z	 SAID32 WIBB 021130	METAR WIBB 021130Z 32005KT 7000 BKN010 25/23 Q1008=
02/01/2022 12:00:00Z	 SAID32 WIBB 021200	METAR WIBB 021200Z 33006KT 7000 BKN010 24/24 Q1009=
02/01/2022 12:30:00Z	 SAID32 WIBB 021230	METAR WIBB 021230Z 30004KT 7000 -RA BKN010 FEW014CB 24/24 Q1009=
02/01/2022 13:00:00Z	 SAID32 WIBB 021300	METAR WIBB 021300Z 00000KT 7000 -RA BKN010 25/24 Q1009=
02/01/2022 13:30:00Z	 SAID32 WIBB 021330	METAR WIBB 021330Z 00000KT 7000 -RA BKN010 24/24 Q1010=
02/01/2022 14:00:00Z	 SAID32 WIBB 021400	METAR WIBB 021400Z 00000KT 7000 BKN010 24/24 Q1010=
02/01/2022 14:30:00Z	 SAID32 WIBB 021430	METAR WIBB 021430Z 00000KT 7000 SCT010 24/24 Q1010=
02/01/2022 15:00:00Z	 SAID32 WIBB 021500	METAR WIBB 021500Z 00000KT 7000 SCT010 24/24 Q1010=
02/01/2022 15:30:00Z	 SAID32 WIBB 021530	METAR WIBB 021530Z 00000KT 7000 FEW010 24/24 Q1010=
02/01/2022 18:00:00Z	 SAID32 WIBB 021800	METAR WIBB 021800Z 00000KT 7000 SCT010 24/24 Q1010=
02/01/2022 21:00:00Z	 SAID32 WIBB 022100	METAR WIBB 022100Z 00000KT 6000 SCT010 24/24 Q1009=
02/01/2022 21:30:00Z	 SAID32 WIBB 022130	METAR WIBB 022130Z 00000KT 6000 SCT010 24/24 Q1008=
02/01/2022 22:00:00Z	 SAID32 WIBB 022200	METAR WIBB 022200Z 00000KT 6000 SCT010 24/24 Q1008=
02/01/2022 22:30:00Z	 SAID32 WIBB 022230	METAR WIBB 022230Z 00000KT 6000 SCT010 24/24 Q1009=
02/01/2022 23:00:00Z	 SAID32 WIBB 022300	METAR WIBB 022300Z 00000KT 6000 SCT010 24/24 Q1009=
02/01/2022 23:30:00Z	 SAID32 WIBB 022330	METAR WIBB 022330Z 29004KT 6000 SCT010 24/24 Q1009=
03/01/2022 00:00:00Z	 SAID32 WIBB 030000	METAR WIBB 030000Z 00000KT 7000 SCT010 24/24 Q1009=
03/01/2022 00:30:00Z	 SAID32 WIBB 030030	METAR WIBB 030030Z 30004KT 7000 SCT010 24/24 Q1009=
03/01/2022 01:00:00Z	 SAID32 WIBB 030100	METAR WIBB 030100Z 00000KT 7000 SCT014 25/24 Q1010=
03/01/2022 01:30:00Z	 SAID32 WIBB 030130	METAR WIBB 030130Z 32007KT 7000 SCT014 25/23 Q1010 NOSIG=
03/01/2022 02:00:00Z	 SAID32 WIBB 030200	METAR WIBB 030200Z 30007KT 7000 FEW013 25/24 Q1010 NOSIG=
03/01/2022 02:30:00Z	 SAID32 WIBB 030230	METAR WIBB 030230Z 33009KT 7000 FEW013 26/24 Q1010 NOSIG=
03/01/2022 03:00:00Z	 SAID32 WIBB 030300	METAR WIBB 030300Z 29005KT 7000 SCT014 27/24 Q1010 NOSIG=
03/01/2022 03:30:00Z	 SAID32 WIBB 030330	METAR WIBB 030330Z 31007KT 7000 SCT014 27/24 Q1010 NOSIG=
03/01/2022 04:00:00Z	 SAID32 WIBB 030400	METAR WIBB 030400Z 29005KT 8000 BKN012 28/24 Q1010 NOSIG=
03/01/2022 04:30:00Z	 SAID32 WIBB 030430	METAR WIBB 030430Z 35006KT 8000 SCT014 29/24 Q1009 NOSIG=
03/01/2022 05:00:00Z	 SAID32 WIBB 030500	METAR WIBB 030500Z 33006KT 8000 BKN012 29/24 Q1009 NOSIG=
03/01/2022 05:30:00Z	 SAID32 WIBB 030530	METAR WIBB 030530Z 00000KT 8000 BKN012 29/23 Q1009 NOSIG=
03/01/2022 06:00:00Z	 SAID32 WIBB 030600	METAR WIBB 030600Z 32007KT 8000 BKN013 FEW017CB 28/23 Q1009=
03/01/2022 06:30:00Z	 SAID32 WIBB 030630	METAR WIBB 030630Z 34007KT 8000 BKN013 FEW017CB 29/23 Q1008 NOSIG=
03/01/2022 07:00:00Z	 SAID32 WIBB 030700	METAR WIBB 030700Z 32006KT 8000 SCT013 FEW017CB 29/23 Q1007 NOSIG=
03/01/2022 07:30:00Z	 SAID32 WIBB 030730	METAR WIBB 030730Z 01007KT 8000 SCT013 FEW017CB 30/24 Q1007 NOSIG=
03/01/2022 08:00:00Z	 SAID32 WIBB 030800	METAR WIBB 030800Z 05006KT 9000 SCT014 FEW017CB 28/23 Q1006=
03/01/2022 08:30:00Z	 SAID32 WIBB 030830	METAR WIBB 030830Z 01004KT 9000 SCT014 FEW017CB 29/23 Q1006=
03/01/2022 09:00:00Z	 SAID32 WIBB 030900	METAR WIBB 030900Z 33007KT 8000 SCT013 FEW016CB 29/24 Q1006 RMK CB TO N=
03/01/2022 09:30:00Z	 SAID32 WIBB 030930	METAR WIBB 030930Z 35010KT 8000 SCT015 27/24 Q1006 NOSIG=
03/01/2022 10:00:00Z	 SAID32 WIBB 031000	METAR WIBB 031000Z 02005KT 8000 SCT015 27/23 Q1007 NOSIG=
03/01/2022 10:30:00Z	 SAID32 WIBB 031030	METAR WIBB 031030Z 02004KT 8000 SCT015 28/23 Q1007 NOSIG=
03/01/2022 11:00:00Z	 SAID32 WIBB 031100	METAR COR WIBB 031100Z 00000KT 8000 SCT015 27/24 Q1007 NOSIG=
03/01/2022 11:30:00Z	 SAID32 WIBB 031130	METAR WIBB 031130Z 00000KT 8000 SCT015 26/24 Q1008 NOSIG=
03/01/2022 12:00:00Z	 SAID32 WIBB 031200	METAR WIBB 031200Z 00000KT 8000 SCT015 26/24 Q1008 NOSIG=
03/01/2022 12:30:00Z	 SAID32 WIBB 031230	METAR WIBB 031230Z 00000KT 8000 SCT015 26/25 Q1008 NOSIG=
03/01/2022 13:00:00Z	 SAID32 WIBB 031300	METAR WIBB 031300Z 00000KT 7000 SCT010 26/24 Q1009 NOSIG=
03/01/2022 13:30:00Z	 SAID32 WIBB 031330	METAR WIBB 031330Z 00000KT 7000 SCT010 26/24 Q1009 NOSIG=
03/01/2022 14:00:00Z	 SAID32 WIBB 031400	METAR WIBB 031400Z 00000KT 7000 SCT010 26/24 Q1009 NOSIG=
03/01/2022 14:30:00Z	 SAID32 WIBB 031430	METAR WIBB 031430Z 00000KT 7000 SCT010 25/25 Q1010 NOSIG=
03/01/2022 15:30:00Z	 SAID32 WIBB 031530	METAR WIBB 031530Z 00000KT 7000 SCT010 25/24 Q1010 NOSIG=
03/01/2022 16:00:00Z	 SAID32 WIBB 031600	METAR WIBB 031600Z 00000KT 7000 SCT010 25/24 Q1010 NOSIG=
03/01/2022 16:30:00Z	 SAID32 WIBB 031630	METAR WIBB 031630Z 00000KT 7000 SCT010 25/25 Q1010 NOSIG=
03/01/2022 17:00:00Z	 SAID32 WIBB 031700	METAR WIBB 031700Z 00000KT 7000 SCT012 25/24 Q1010 NOSIG=
03/01/2022 17:30:00Z	 SAID32 WIBB 031730	METAR WIBB 031730Z 00000KT 7000 SCT012 25/25 Q1010 NOSIG=
03/01/2022 18:00:00Z	 SAID32 WIBB 031800	METAR WIBB 031800Z 00000KT 7000 SCT010 24/24 Q1010 NOSIG=
03/01/2022 19:00:00Z	 SAID32 WIBB 031900	METAR WIBB 031900Z 00000KT 6000 SCT010 25/25 Q1009=
03/01/2022 20:00:00Z	 SAID32 WIBB 032000	METAR WIBB 032000Z 00000KT 6000 SCT010 24/24 Q1009=
03/01/2022 21:00:00Z	 SAID32 WIBB 032100	METAR WIBB 032100Z 00000KT 6000 SCT009 24/24 Q1009=
03/01/2022 21:30:00Z	 SAID32 WIBB 032130	METAR WIBB 032130Z 00000KT 7000 SCT010 24/24 Q1008=
03/01/2022 22:00:00Z	 SAID32 WIBB 032200	METAR WIBB 032200Z 00000KT 7000 SCT009 24/24 Q1009=
03/01/2022 22:30:00Z	 SAID32 WIBB 032230	METAR WIBB 032230Z 00000KT 7000 SCT010 24/24 Q1009=
03/01/2022 23:00:00Z	 SAID32 WIBB 032300	METAR WIBB 032300Z 31004KT 7000 SCT010 24/24 Q1009 NOSIG=
03/01/2022 23:30:00Z	 SAID32 WIBB 032330	METAR WIBB 032330Z 32005KT 4000 HZ SCT012 24/24 Q1010=
04/01/2022 00:00:00Z	 SAID32 WIBB 040000	METAR WIBB 040000Z 32006KT 6000 SCT013 24/24 Q1010 NOSIG=
04/01/2022 00:30:00Z	 SAID32 WIBB 040030	METAR WIBB 040030Z 32006KT 7000 SCT013 25/24 Q1011 NOSIG=
04/01/2022 01:00:00Z	 SAID32 WIBB 040100	METAR WIBB 040100Z 31006KT 8000 SCT013 26/25 Q1011=
04/01/2022 01:30:00Z	 SAID32 WIBB 040130	METAR WIBB 040130Z 33006KT 8000 SCT013 27/25 Q1011=
04/01/2022 02:00:00Z	 SAID32 WIBB 040200	METAR WIBB 040200Z 33006KT 8000 SCT009 27/25 Q1011=
04/01/2022 02:30:00Z	 SAID32 WIBB 040230	METAR WIBB 040230Z 33005KT 9000 SCT010 27/24 Q1011 NOSIG=
04/01/2022 03:00:00Z	 SAID32 WIBB 040300	METAR WIBB 040300Z 33006KT 8000 SCT010 28/25 Q1011=
04/01/2022 03:30:00Z	 SAID32 WIBB 040330	METAR WIBB 040330Z 30005KT 8000 SCT010 29/25 Q1011 NOSIG=
04/01/2022 04:00:00Z	 SAID32 WIBB 040400	METAR WIBB 040400Z 33009KT 8000 SCT010 30/25 Q1010=
04/01/2022 04:30:00Z	 SAID32 WIBB 040430	METAR WIBB 040430Z 33004KT 8000 SCT010 30/25 Q1010=
04/01/2022 05:00:00Z	 SAID32 WIBB 040500	METAR WIBB 040500Z 33006KT 8000 SCT010 30/24 Q1010=
04/01/2022 05:30:00Z	 SAID32 WIBB 040530	METAR WIBB 040530Z 00000KT 8000 SCT012 FEW015CB 31/24 Q1010=
04/01/2022 06:00:00Z	 SAID32 WIBB 040600	METAR WIBB 040600Z 36011KT 8000 SCT012 FEW015CB 30/24 Q1009=
04/01/2022 06:30:00Z	 SAID32 WIBB 040630	METAR WIBB 040630Z 03007KT 8000 -RA SCT012 FEW015CB 28/25 Q1009=
04/01/2022 07:00:00Z	 SAID32 WIBB 040700	METAR WIBB 040700Z 00000KT 7000 FEW015CB SCT012 29/23 Q1008 NOSIG=
04/01/2022 07:30:00Z	 SAID32 WIBB 040730	METAR WIBB 040730Z 00000KT 8000 FEW015CB SCT012 29/23 Q1008 NOSIG=
04/01/2022 08:00:00Z	 SAID32 WIBB 040800	METAR WIBB 040800Z 34005KT 8000 SCT013 30/24 Q1007 NOSIG=
04/01/2022 08:30:00Z	 SAID32 WIBB 040830	METAR WIBB 040830Z 32006KT 9000 FEW015CB SCT013 31/24 Q1007 NOSIG=
04/01/2022 09:00:00Z	 SAID32 WIBB 040900	METAR WIBB 040900Z 33006KT 9000 FEW015CB SCT013 30/24 Q1007 NOSIG=
04/01/2022 09:30:00Z	 SAID32 WIBB 040930	METAR WIBB 040930Z 02006KT 9000 SCT013 30/24 Q1007 NOSIG=
04/01/2022 10:00:00Z	 SAID32 WIBB 041000	METAR WIBB 041000Z 05009KT 9000 SCT013 28/24 Q1007 NOSIG=
04/01/2022 10:30:00Z	 SAID32 WIBB 041030	METAR WIBB 041030Z 05006KT 9000 SCT013 28/24 Q1007 NOSIG=
04/01/2022 11:00:00Z	 SAID32 WIBB 041100	METAR WIBB 041100Z 04005KT 8000 SCT013 27/24 Q1007 NOSIG=
04/01/2022 11:30:00Z	 SAID32 WIBB 041130	METAR WIBB 041130Z 05005KT 8000 SCT013 27/24 Q1007 NOSIG=
04/01/2022 12:00:00Z	 SAID32 WIBB 041200	METAR WIBB 041200Z 05003KT 8000 SCT013 26/24 Q1008 NOSIG=
04/01/2022 12:30:00Z	 SAID32 WIBB 041230	METAR WIBB 041230Z 00000KT 8000 SCT013 26/24 Q1008 NOSIG=
04/01/2022 13:00:00Z	 SAID32 WIBB 041300	METAR WIBB 041300Z 00000KT 8000 FEW015 26/24 Q1009 NOSIG=
04/01/2022 14:00:00Z	 SAID32 WIBB 041400	METAR WIBB 041400Z 00000KT 8000 FEW017 26/25 Q1010 NOSIG=
04/01/2022 14:30:00Z	 SAID32 WIBB 041430	METAR WIBB 041430Z 00000KT 8000 FEW017 25/24 Q1010 NOSIG=
04/01/2022 15:00:00Z	 SAID32 WIBB 041500	METAR WIBB 041500Z 00000KT 8000 FEW015 25/24 Q1010=
04/01/2022 15:30:00Z	 SAID32 WIBB 041530	METAR WIBB 041530Z 00000KT 8000 FEW015 25/24 Q1010 NOSIG=
04/01/2022 16:00:00Z	 SAID32 WIBB 041600	METAR WIBB 041600Z 00000KT 7000 SCT013 25/24 Q1010=
04/01/2022 16:30:00Z	 SAID32 WIBB 041630	METAR WIBB 041630Z 00000KT 7000 SCT013 25/24 Q1010=
04/01/2022 17:00:00Z	 SAID32 WIBB 041700	METAR WIBB 041700Z 32004KT 7000 SCT012 25/24 Q1010=
04/01/2022 17:30:00Z	 SAID32 WIBB 041730	METAR WIBB 041730Z 30004KT 7000 SCT012 25/24 Q1010=
04/01/2022 18:00:00Z	 SAID32 WIBB 041800	METAR WIBB 041800Z 23005KT 7000 BKN012 25/24 Q1010=
04/01/2022 21:30:00Z	 SAID32 WIBB 042130	METAR WIBB 042130Z 00000KT 7000 FEW015 24/24 Q1008=
04/01/2022 22:30:00Z	 SAID32 WIBB 042230	METAR WIBB 042230Z 00000KT 6000 FEW015 23/23 Q1009=
04/01/2022 23:00:00Z	 SAID32 WIBB 042300	METAR WIBB 042300Z 00000KT 7000 FEW015 23/23 Q1009 NOSIG=
04/01/2022 23:30:00Z	 SAID32 WIBB 042330	METAR WIBB 042330Z 00000KT 7000 FEW015 23/23 Q1009 NOSIG=
05/01/2022 00:00:00Z	 SAID32 WIBB 050000	METAR WIBB 050000Z 00000KT 8000 FEW015 24/24 Q1009 NOSIG=
05/01/2022 00:30:00Z	 SAID32 WIBB 050030	METAR WIBB 050030Z 01004KT 8000 FEW015 25/24 Q1010 NOSIG=
05/01/2022 01:00:00Z	 SAID32 WIBB 050100	METAR WIBB 050100Z 34007KT 8000 SCT014 26/24 Q1011 NOSIG=
05/01/2022 01:30:00Z	 SAID32 WIBB 050130	METAR WIBB 050130Z 02006KT 8000 SCT014 26/23 Q1011 NOSIG=
05/01/2022 02:00:00Z	 SAID32 WIBB 050200	METAR WIBB 050200Z 00000KT 9999 FEW015 27/23 Q1011 NOSIG=
05/01/2022 02:30:00Z	 SAID32 WIBB 050230	METAR WIBB 050230Z 00000KT 9999 FEW015 28/24 Q1011 NOSIG=
05/01/2022 03:00:00Z	 SAID32 WIBB 050300	METAR WIBB 050300Z 32006KT 9999 BKN013 29/24 Q1011 NOSIG=
05/01/2022 03:30:00Z	 SAID32 WIBB 050330	METAR WIBB 050330Z 34006KT 9999 BKN013 28/24 Q1011 NOSIG=
05/01/2022 04:00:00Z	 SAID32 WIBB 050400	METAR WIBB 050400Z 32007KT 9999 BKN013 30/24 Q1011 NOSIG=
05/01/2022 04:30:00Z	 SAID32 WIBB 050430	METAR WIBB 050430Z 30009KT 9999 BKN013 30/24 Q1010 NOSIG=
05/01/2022 05:00:00Z	 SAID32 WIBB 050500	METAR WIBB 050500Z 36008KT 9999 BKN013 30/24 Q1010 NOSIG=
05/01/2022 05:30:00Z	 SAID32 WIBB 050530	METAR WIBB 050530Z 31008KT 9999 BKN013 31/24 Q1009 NOSIG=
05/01/2022 06:00:00Z	 SAID32 WIBB 050600	METAR WIBB 050600Z 00000KT 9999 FEW017CB 31/24 Q1009=
05/01/2022 06:30:00Z	 SAID32 WIBB 050630	METAR WIBB 050630Z 34008KT 9999 FEW017CB 31/24 Q1008=
05/01/2022 07:00:00Z	 SAID32 WIBB 050700	METAR WIBB 050700Z 33007KT 9999 SCT013 31/23 Q1008 NOSIG=
05/01/2022 07:30:00Z	 SAID32 WIBB 050730	METAR WIBB 050730Z 00000KT 9999 SCT013 31/23 Q1007 NOSIG=
05/01/2022 08:00:00Z	 SAID32 WIBB 050800	METAR WIBB 050800Z 35005KT 9999 SCT013 31/23 Q1007 NOSIG=
05/01/2022 08:30:00Z	 SAID32 WIBB 050830	METAR WIBB 050830Z 00000KT 9999 SCT013 31/23 Q1006 NOSIG=
05/01/2022 09:00:00Z	 SAID32 WIBB 050900	METAR WIBB 050900Z 34005KT 9999 SCT013 31/22 Q1006 NOSIG=
05/01/2022 09:30:00Z	 SAID32 WIBB 050930	METAR WIBB 050930Z 34008KT 9999 SCT013 31/23 Q1006 NOSIG=
05/01/2022 10:00:00Z	 SAID32 WIBB 051000	METAR WIBB 051000Z 02008KT 9999 FEW014 30/23 Q1007 NOSIG=
05/01/2022 10:30:00Z	 SAID32 WIBB 051030	METAR WIBB 051030Z 00000KT 9999 FEW014 29/23 Q1007 NOSIG=
05/01/2022 11:00:00Z	 SAID32 WIBB 051100	METAR WIBB 051100Z 04005KT 9000 FEW014 29/24 Q1007 NOSIG=
05/01/2022 11:30:00Z	 SAID32 WIBB 051130	METAR WIBB 051130Z 03005KT 8000 FEW014 28/24 Q1007 NOSIG=
05/01/2022 12:00:00Z	 SAID32 WIBB 051200	METAR WIBB 051200Z 02005KT 8000 FEW014 28/25 Q1007 NOSIG=
05/01/2022 12:30:00Z	 SAID32 WIBB 051230	METAR WIBB 051230Z 02006KT 8000 FEW014 27/25 Q1008 NOSIG=
05/01/2022 13:30:00Z	 SAID32 WIBB 051330	METAR WIBB 051330Z 00000KT 8000 FEW015 27/26 Q1009=
05/01/2022 14:00:00Z	 SAID32 WIBB 051400	METAR WIBB 051400Z 00000KT 8000 FEW015 27/26 Q1009=
05/01/2022 14:30:00Z	 SAID32 WIBB 051430	METAR WIBB 051430Z 00000KT 8000 FEW015 27/26 Q1009=
05/01/2022 15:00:00Z	 SAID32 WIBB 051500	METAR WIBB 051500Z 00000KT 8000 FEW015 27/26 Q1009=
05/01/2022 15:30:00Z	 SAID32 WIBB 051530	METAR WIBB 051530Z 00000KT 8000 FEW015 26/26 Q1009=
05/01/2022 18:00:00Z	 SAID32 WIBB 051800	METAR WIBB 051800Z 34006KT 8000 FEW015 26/25 Q1010=
05/01/2022 21:00:00Z	 SAID32 WIBB 052100	METAR WIBB 052100Z 00000KT 8000 FEW015 25/24 Q1009=
05/01/2022 22:30:00Z	 SAID32 WIBB 052230	METAR WIBB 052230Z 00000KT 8000 FEW015 24/24 Q1009=
05/01/2022 23:00:00Z	 SAID32 WIBB 052300	METAR WIBB 052300Z 00000KT 7000 FEW015 24/24 Q1009=
05/01/2022 23:30:00Z	 SAID32 WIBB 052330	METAR WIBB 052330Z 00000KT 7000 FEW015 24/24 Q1010=
06/01/2022 00:00:00Z	 SAID32 WIBB 060000	METAR WIBB 060000Z 00000KT 7000 SCT012 24/24 Q1011=
06/01/2022 00:30:00Z	 SAID32 WIBB 060030	METAR WIBB 060030Z 00000KT 7000 SCT012 25/25 Q1011=
06/01/2022 01:00:00Z	 SAID32 WIBB 060100	METAR WIBB 060100Z 34006KT 8000 SCT012 26/25 Q1012 NOAIG=
06/01/2022 01:30:00Z	 SAID32 WIBB 060130	METAR WIBB 060130Z 35007KT 8000 SCT012 26/25 Q1012 NOSIG=
06/01/2022 02:00:00Z	 SAID32 WIBB 060200	METAR WIBB 060200Z 36005KT 8000 BKN010 27/25 Q1012 NOSIG=
06/01/2022 02:30:00Z	 SAID32 WIBB 060230	METAR WIBB 060230Z 32005KT 8000 SCT012 27/25 Q1012 NOSIG=
06/01/2022 03:00:00Z	 SAID32 WIBB 060300	METAR WIBB 060300Z 01006KT 9000 SCT012 27/25 Q1012 NOSIG=
06/01/2022 03:30:00Z	 SAID32 WIBB 060330	METAR WIBB 060330Z 02006KT 9000 SCT012 28/25 Q1011 NOSIG=
06/01/2022 04:00:00Z	 SAID32 WIBB 060400	METAR WIBB 060400Z 34006KT 9000 BKN012 30/24 Q1011 NOSIG=
06/01/2022 04:30:00Z	 SAID32 WIBB 060430	METAR WIBB 060430Z 35008KT 9000 BKN012 30/24 Q1010 NOSIG=
06/01/2022 05:00:00Z	 SAID32 WIBB 060500	METAR WIBB 060500Z 34006KT 8000 SCT012 30/24 Q1010 NOSIG=
06/01/2022 05:30:00Z	 SAID32 WIBB 060530	METAR WIBB 060530Z 02007KT 9000 SCT012 31/24 Q1010 NOSIG=
06/01/2022 06:00:00Z	 SAID32 WIBB 060600	METAR WIBB 060600Z 32007KT 9000 SCT012 32/24 Q1009 NOSIG=
06/01/2022 06:30:00Z	 SAID32 WIBB 060630	METAR WIBB 060630Z 04007KT 9999 SCT012 31/24 Q1008 NOSIG=
06/01/2022 07:30:00Z	 SAID32 WIBB 060730	METAR WIBB 060730Z 01004KT 9000 BKN013 32/22 Q1007=
06/01/2022 08:00:00Z	 SAID32 WIBB 060800	METAR WIBB 060800Z 36004KT 9000 FEW015CB SCT013 31/23 Q1007=
06/01/2022 08:30:00Z	 SAID32 WIBB 060830	METAR WIBB 060830Z 02010KT 9000 SCT013 FEW016CB 31/24 Q1007=
06/01/2022 09:00:00Z	 SAID32 WIBB 060900	METAR WIBB 060900Z 01009KT 9000 SCT013 FEW016CB 31/24 Q1007=
06/01/2022 09:30:00Z	 SAID32 WIBB 060930	METAR WIBB 060930Z 02004KT 9000 TS SCT013 FEW016CB 31/24 Q1007=
06/01/2022 10:00:00Z	 SAID32 WIBB 061000	METAR WIBB 061000Z 06008KT 9000 SCT014 30/24 Q1007 NOSIG=
06/01/2022 10:30:00Z	 SAID32 WIBB 061030	METAR WIBB 061030Z 04009KT 9000 SCT014 30/24 Q1007=
06/01/2022 11:00:00Z	 SAID32 WIBB 061100	METAR WIBB 061100Z 05005KT 9000 SCT014 FEW016CB 29/25 Q1007=
06/01/2022 11:30:00Z	 SAID32 WIBB 061130	METAR WIBB 061130Z 04004KT 8000 SCT014 FEW016CB 29/25 Q1007=
06/01/2022 12:00:00Z	 SAID32 WIBB 061200	METAR WIBB 061200Z 02004KT 8000 SCT014 29/24 Q1008=
06/01/2022 12:30:00Z	 SAID32 WIBB 061230	METAR WIBB 061230Z 01008KT 8000 FEW014 FEW017CB 28/25 Q1009=
06/01/2022 13:00:00Z	 SAID32 WIBB 061300	METAR WIBB 061300Z 35005KT 8000 FEW017CB 28/24 Q1009 NOSIG=
06/01/2022 13:30:00Z	 SAID32 WIBB 061330	METAR WIBB 061330Z 35004KT 8000 FEW017CB 27/24 Q1009 NOSIG=
06/01/2022 14:00:00Z	 SAID32 WIBB 061400	METAR WIBB 061400Z 35005KT 8000 FEW017CB 28/24 Q1010 NOSIG=
06/01/2022 14:30:00Z	 SAID32 WIBB 061430	METAR WIBB 061430Z 00000KT 8000 FEW017CB 27/24 Q1010 NOSIG=
06/01/2022 15:00:00Z	 SAID32 WIBB 061500	METAR WIBB 061500Z 00000KT 8000 FEW017CB 26/24 Q1011 NOSIG=
06/01/2022 15:30:00Z	 SAID32 WIBB 061530	METAR WIBB 061530Z 00000KT 8000 FEW017CB 26/25 Q1011 NOSIG=
06/01/2022 16:00:00Z	 SAID32 WIBB 061600	METAR WIBB 061600Z 00000KT 8000 FEW017CB 26/25 Q1011 NOSIG=
06/01/2022 16:30:00Z	 SAID32 WIBB 061630	METAR WIBB 061630Z 00000KT 8000 FEW017CB 27/25 Q1011 NOSIG=
06/01/2022 17:00:00Z	 SAID32 WIBB 061700	METAR WIBB 061700Z 28005KT 7000 -RA SCT015 FEW017CB 26/25 Q1012 NOSIG=
06/01/2022 17:30:00Z	 SAID32 WIBB 061730	METAR WIBB 061730Z 27005KT 8000 SCT015 26/25 Q1011 NOSIG=
06/01/2022 18:00:00Z	 SAID32 WIBB 061800	METAR WIBB 061800Z 27005KT 8000 SCT015 26/25 Q1011 NOSIG=
06/01/2022 21:00:00Z	 SAID32 WIBB 062100	METAR WIBB 062100Z 00000KT 8000 FEW013 24/24 Q1010 NOSIG=
06/01/2022 22:00:00Z	 SAID32 WIBB 062200	METAR WIBB 062200Z 00000KT 7000 FEW013 24/24 Q1009 NOSIG=
06/01/2022 23:00:00Z	 SAID32 WIBB 062300	METAR WIBB 062300Z 00000KT 7000 BKN012 24/24 Q1010 NOSIG=
06/01/2022 23:30:00Z	 SAID32 WIBB 062330	METAR WIBB 062330Z 00000KT 7000 SCT012 24/24 Q1010 NOSIG=
07/01/2022 00:00:00Z	 SAID32 WIBB 070000	METAR WIBB 070000Z 00000KT 8000 SCT010 24/24 Q1010 NOSIG=
07/01/2022 01:00:00Z	 SAID32 WIBB 070100	METAR WIBB 070100Z 00000KT 8000 SCT010 25/24 Q1011=
07/01/2022 01:30:00Z	 SAID32 WIBB 070130	METAR WIBB 070130Z 15004KT 8000 SCT010 26/24 Q1011 NOSIG=
07/01/2022 02:00:00Z	 SAID32 WIBB 070200	METAR WIBB 070200Z 10005KT 8000 SCT010 26/24 Q1012=
07/01/2022 02:30:00Z	 SAID32 WIBB 070230	METAR WIBB 070230Z 09006KT 8000 SCT010 27/24 Q1011=
07/01/2022 03:00:00Z	 SAID32 WIBB 070300	METAR WIBB 070300Z 05004KT 8000 FEW010 28/24 Q1012=
07/01/2022 03:30:00Z	 SAID32 WIBB 070330	METAR WIBB 070330Z 07004KT 8000 FEW010 28/24 Q1012=
07/01/2022 04:00:00Z	 SAID32 WIBB 070400	METAR WIBB 070400Z 00000KT 8000 SCT010 29/24 Q1012=
07/01/2022 04:30:00Z	 SAID32 WIBB 070430	METAR WIBB 070430Z 00000KT 8000 SCT010 29/25 Q1012=
07/01/2022 05:00:00Z	 SAID32 WIBB 070500	METAR WIBB 070500Z 32005KT 8000 SCT010 FEW015CB 29/25 Q1012=
07/01/2022 05:30:00Z	 SAID32 WIBB 070530	METAR WIBB 070530Z 32005KT 8000 SCT010 FEW015CB 29/25 Q1012=
07/01/2022 06:30:00Z	 SAID32 WIBB 070630	METAR WIBB 070630Z 04005KT 9000 SCT012 31/24 Q1010=
07/01/2022 07:00:00Z	 SAID32 WIBB 070700	METAR WIBB 070700Z 05006KT 9999 SCT012 31/23 Q1009 NOSIG=
07/01/2022 07:30:00Z	 SAID32 WIBB 070730	METAR WIBB 070730Z 05007KT 9999 SCT012 31/23 Q1008 NOSIG=
07/01/2022 08:00:00Z	 SAID32 WIBB 070800	METAR WIBB 070800Z 04006KT 9999 SCT013 30/23 Q1008 NOSIG=
07/01/2022 08:30:00Z	 SAID32 WIBB 070830	METAR WIBB 070830Z 04005KT 9999 SCT013 30/23 Q1008 NOSIG=
07/01/2022 09:00:00Z	 SAID32 WIBB 070900	METAR WIBB 070900Z 05008KT 9999 SCT013 30/23 Q1007 NOSIG=
07/01/2022 10:00:00Z	 SAID32 WIBB 071000	METAR WIBB 071000Z 01004KT 9000 SCT013 30/22 Q1007 NOSIG=
07/01/2022 10:30:00Z	 SAID32 WIBB 071030	METAR WIBB 071030Z 00000KT 9000 SCT013 30/23 Q1008 NOSIG=
07/01/2022 11:00:00Z	 SAID32 WIBB 071100	METAR WIBB 071100Z 00000KT 8000 SCT013 30/23 Q1008 NOSIG=
07/01/2022 11:30:00Z	 SAID32 WIBB 071130	METAR WIBB 071130Z 00000KT 8000 SCT013 29/24 Q1009 NOSIG=
07/01/2022 12:00:00Z	 SAID32 WIBB 071200	METAR WIBB 071200Z 00000KT 8000 SCT013 28/24 Q1009 NOSIG=
07/01/2022 12:30:00Z	 SAID32 WIBB 071230	METAR WIBB 071230Z 00000KT 8000 SCT013 28/24 Q1009 NOSIG=
07/01/2022 13:00:00Z	 SAID32 WIBB 071300	METAR WIBB 071300Z 00000KT 8000 SCT013 28/24 Q1009=
07/01/2022 13:30:00Z	 SAID32 WIBB 071330	METAR WIBB 071330Z 00000KT 8000 FEW014 27/25 Q1010 NOSIG=
07/01/2022 14:00:00Z	 SAID32 WIBB 071400	METAR WIBB 071400Z 00000KT 8000 FEW014 27/24 Q1010 NOSIG=
07/01/2022 14:30:00Z	 SAID32 WIBB 071430	METAR WIBB 071430Z 00000KT 8000 FEW014 26/25 Q1011 NOSIG=
07/01/2022 15:00:00Z	 SAID32 WIBB 071500	METAR WIBB 071500Z 00000KT 8000 FEW014 26/24 Q1011 NOSIG=
07/01/2022 15:30:00Z	 SAID32 WIBB 071530	METAR WIBB 071530Z 00000KT 8000 SCT014 26/25 Q1010 NOSIG=
07/01/2022 16:00:00Z	 SAID32 WIBB 071600	METAR WIBB 071600Z 00000KT 8000 FEW014 25/24 Q1010 NOSIG=
07/01/2022 16:30:00Z	 SAID32 WIBB 071630	METAR WIBB 071630Z 00000KT 8000 FEW014 25/24 Q1010 NOSIG=
07/01/2022 17:00:00Z	 SAID32 WIBB 071700	METAR WIBB 071700Z 00000KT 8000 FEW014 25/24 Q1010 NOSIG=
07/01/2022 17:30:00Z	 SAID32 WIBB 071730	METAR WIBB 071730Z 00000KT 8000 FEW014 25/24 Q1010 NOSIG=
07/01/2022 18:00:00Z	 SAID32 WIBB 071800	METAR WIBB 071800Z 00000KT 7000 FEW014 25/24 Q1010 NOSIG=
07/01/2022 22:00:00Z	 SAID32 WIBB 072200	METAR WIBB 072200Z 00000KT 6000 SCT012 25/25 Q1009 NOSIG=
07/01/2022 22:30:00Z	 SAID32 WIBB 072230	METAR WIBB 072230Z 00000KT 3000 HZ SCT012 25/25 Q1010=
07/01/2022 23:00:00Z	 SAID32 WIBB 072300	METAR WIBB 072300Z 00000KT 3000 HZ SCT012 25/25 Q1010=
07/01/2022 23:30:00Z	 SAID32 WIBB 072330	METAR WIBB 072330Z 00000KT 3000 BR SCT012 25/25 Q1010=
08/01/2022 00:00:00Z	 SAID32 WIBB 080000	METAR WIBB 080000Z 00000KT 3000 BR SCT012 25/25 Q1010=
08/01/2022 00:30:00Z	 SAID32 WIBB 080030	METAR WIBB 080030Z 00000KT 4000 BR SCT012 26/25 Q1011=
08/01/2022 01:00:00Z	 SAID32 WIBB 080100	METAR WIBB 080100Z 00000KT 7000 SCT013 25/24 Q1011 NOSIG=
08/01/2022 01:30:00Z	 SAID32 WIBB 080130	METAR WIBB 080130Z 05006KT 8000 FEW013 26/24 Q1011 NOSIG=
08/01/2022 02:00:00Z	 SAID32 WIBB 080200	METAR WIBB 080200Z 05005KT 9999 SCT012 28/24 Q1011 NOSIG=
08/01/2022 02:30:00Z	 SAID32 WIBB 080230	METAR WIBB 080230Z 06008KT 9999 SCT013 28/24 Q1011 NOSIG=
08/01/2022 03:00:00Z	 SAID32 WIBB 080300	METAR WIBB 080300Z 04008KT 9999 SCT013 29/24 Q1012 NOSIG=
08/01/2022 03:30:00Z	 SAID32 WIBB 080330	METAR WIBB 080330Z 03009KT 9999 SCT013 29/24 Q1012 NOSIG=
08/01/2022 04:00:00Z	 SAID32 WIBB 080400	METAR WIBB 080400Z 05006KT 9999 SCT013 30/23 Q1011 NOSIG=
08/01/2022 04:30:00Z	 SAID32 WIBB 080430	METAR WIBB 080430Z 04009KT 9999 SCT013 30/24 Q1011 NOSIG=
08/01/2022 05:00:00Z	 SAID32 WIBB 080500	METAR WIBB 080500Z 05006KT 9999 SCT012 31/24 Q1010 NOSIG=
08/01/2022 06:00:00Z	 SAID32 WIBB 080600	METAR WIBB 080600Z 05009KT 9999 SCT012 31/23 Q1009 NOSIG=
08/01/2022 06:30:00Z	 SAID32 WIBB 080630	METAR WIBB 080630Z 04008KT 9999 SCT012 31/23 Q1008 NOSIG=
08/01/2022 07:00:00Z	 SAID32 WIBB 080700	METAR WIBB 080700Z 05009KT 9999 SCT012 33/23 Q1007 NOSIG=
08/01/2022 07:30:00Z	 SAID32 WIBB 080730	METAR WIBB 080730Z 04011KT 9999 BKN010 33/23 Q1006=
08/01/2022 08:00:00Z	 SAID32 WIBB 080800	METAR WIBB 080800Z 05010KT 9999 SCT010 33/23 Q1006=
08/01/2022 08:30:00Z	 SAID32 WIBB 080830	METAR WIBB 080830Z 05009KT 9999 SCT012 32/23 Q1006 NOSIG=
08/01/2022 09:00:00Z	 SAID32 WIBB 080900	METAR WIBB 080900Z 07009KT 9000 SCT012 32/24 Q1006 NOSIG=
08/01/2022 09:30:00Z	 SAID32 WIBB 080930	METAR WIBB 080930Z 06011KT 9000 SCT010 FEW015CB 32/24 Q1006 RMK CB TO W=
08/01/2022 10:00:00Z	 SAID32 WIBB 081000	METAR WIBB 081000Z 05008KT 8000 TS SCT010 FEW015CB 31/24 Q1006 RMK CB TO W, SW, AND S=
08/01/2022 10:30:00Z	 SAID32 WIBB 081030	METAR COR WIBB 081030Z 04006KT 8000 TS SCT010 FEW015CB 31/24 Q1007 RMK CB TO W, SW, AND S=
08/01/2022 11:00:00Z	 SAID32 WIBB 081100	METAR WIBB 081100Z 27010KT 8000 SCT012 SCT013CB 30/25 Q1008 RMK CB OVER THE FIELD=
08/01/2022 11:30:00Z	 SAID32 WIBB 081130	METAR WIBB 081130Z 31008KT 5000 -RA BKN009 SCT013CB 26/25 Q1008 RMK CB OVER THE FIELD=
08/01/2022 12:00:00Z	 SAID32 WIBB 081200	METAR WIBB 081200Z 29007KT 6000 -TSRA BKN009 SCT013CB 26/25 Q1009 RMK CB OVER THE FIELD=
08/01/2022 13:00:00Z	 SAID32 WIBB 081300	METAR WIBB 081300Z 00000KT 8000 FEW009 FEW015CB 26/25 Q1010 NOSIG=
08/01/2022 13:30:00Z	 SAID32 WIBB 081330	METAR WIBB 081330Z 00000KT 8000 TS SCT013CB 25/25 Q1010 NOSIG=
08/01/2022 14:00:00Z	 SAID32 WIBB 081400	METAR WIBB 081400Z 00000KT 8000 -TS SCT013CB 25/25 Q1011 NOSIG=
08/01/2022 14:30:00Z	 SAID32 WIBB 081430	METAR WIBB 081430Z 00000KT 8000 -TS SCT013CB 25/25 Q1011 NOSIG=
08/01/2022 15:00:00Z	 SAID32 WIBB 081500	METAR WIBB 081500Z 00000KT 8000 SCT009 FEW015CB 25/25 Q1011 NOSIG=
08/01/2022 15:30:00Z	 SAID32 WIBB 081530	METAR WIBB 081530Z 00000KT 8000 FEW015CB 25/24 Q1011 NOSIG=
08/01/2022 16:00:00Z	 SAID32 WIBB 081600	METAR WIBB 081600Z 00000KT 8000 FEW017CB 25/24 Q1011 NOSIG=
08/01/2022 16:30:00Z	 SAID32 WIBB 081630	METAR WIBB 081630Z 00000KT 8000 FEW017CB 25/24 Q1011 NOSIG=
08/01/2022 17:00:00Z	 SAID32 WIBB 081700	METAR WIBB 081700Z 00000KT 8000 FEW015 25/24 Q1010 NOSIG=
08/01/2022 17:30:00Z	 SAID32 WIBB 081730	METAR WIBB 081730Z 00000KT 8000 FEW015 24/24 Q1010 NOSIG=
08/01/2022 18:00:00Z	 SAID32 WIBB 081800	METAR WIBB 081800Z 00000KT 8000 FEW013 24/24 Q1010 NOSIG=
08/01/2022 18:30:00Z	 SAID32 WIBB 081830	METAR WIBB 081830Z AUTO 28002KT 9999 ////// 24/24 Q1010=
08/01/2022 21:00:00Z	 SAID32 WIBB 082100	METAR WIBB 082100Z 00000KT 8000 FEW017CB 24/24 Q1009 NOSIG=
08/01/2022 22:00:00Z	 SAID32 WIBB 082200	METAR WIBB 082200Z 00000KT 8000 FEW017CB 24/24 Q1009 NOSIG=
08/01/2022 23:00:00Z	 SAID32 WIBB 082300	METAR WIBB 082300Z 00000KT 7000 FEW015 24/24 Q1010 NOSIG=
08/01/2022 23:30:00Z	 SAID32 WIBB 082330	METAR WIBB 082330Z 00000KT 1500 BR SCT009 23/23 Q1010 NOSIG=
08/01/2022 23:40:00Z	 SAID32 WIBB 082340	METAR WIBB 082340Z 00000KT 0500 FG SCT005 23/23 Q1010 NOSIG=
09/01/2022 00:00:00Z	 SAID32 WIBB 090000	METAR WIBB 090000Z 00000KT 0500 FG SCT005 23/23 Q1010 NOSIG=
09/01/2022 00:30:00Z	 SAID32 WIBB 090030	METAR WIBB 090030Z 00000KT 1500 BR SCT005 24/24 Q1010 NOSIG=
09/01/2022 01:00:00Z	 SAID32 WIBB 090100	METAR WIBB 090100Z 00000KT 5000 HZ SCT008 25/25 Q1010=
09/01/2022 01:30:00Z	 SAID32 WIBB 090130	METAR WIBB 090130Z 00000KT 5000 HZ SCT008 25/25 Q1011=
09/01/2022 02:00:00Z	 SAID32 WIBB 090200	METAR WIBB 090200Z 00000KT 5000 HZ SCT010 25/25 Q1011=
09/01/2022 02:30:00Z	 SAID32 WIBB 090230	METAR WIBB 090230Z 00000KT 5000 HZ SCT010 26/24 Q1011=
09/01/2022 03:00:00Z	 SAID32 WIBB 090300	METAR WIBB 090300Z 00000KT 7000 SCT013 27/25 Q1011 NOSIG=
09/01/2022 03:30:00Z	 SAID32 WIBB 090330	METAR WIBB 090330Z 05006MPS 7000 SCT013 29/24 Q1010 NOSIG=
09/01/2022 04:00:00Z	 SAID32 WIBB 090400	METAR WIBB 090400Z 35005KT 7000 SCT013 28/25 Q1010=
09/01/2022 04:30:00Z	 SAID32 WIBB 090430	METAR WIBB 090430Z 00000KT 7000 SCT013 29/24 Q1009 NOSIG=
09/01/2022 05:00:00Z	 SAID32 WIBB 090500	METAR WIBB 090500Z 00000KT 8000 BKN012 29/24 Q1009 NOSIG=
09/01/2022 05:30:00Z	 SAID32 WIBB 090530	METAR WIBB 090530Z 01006KT 8000 BKN012 31/24 Q1008 NOSIG=
09/01/2022 06:00:00Z	 SAID32 WIBB 090600	METAR WIBB 090600Z 03012KT 9999 BKN013 32/23 Q1007 NOSIG=
09/01/2022 06:30:00Z	 SAID32 WIBB 090630	METAR WIBB 090630Z 01005KT 9999 BKN013 32/23 Q1007 RMK NOSIG=
09/01/2022 07:00:00Z	 SAID32 WIBB 090700	METAR WIBB 090700Z 03008KT 9000 SCT012 FEW014CB 31/24 Q1006 RMK CB TO W=
09/01/2022 07:30:00Z	 SAID32 WIBB 090730	METAR WIBB 090730Z 07010KT 9000 BKN010 FEW014CB 32/23 Q1006=
09/01/2022 08:00:00Z	 SAID32 WIBB 090800	METAR WIBB 090800Z 36010KT 9000 SCT012 FEW015CB 32/24 Q1005 RMK CB TO W=
09/01/2022 08:30:00Z	 SAID32 WIBB 090830	METAR WIBB 090830Z 02008KT 9000 SCT012 FEW015CB 32/23 Q1005 RMK CB TO W=
09/01/2022 09:00:00Z	 SAID32 WIBB 090900	METAR WIBB 090900Z 01008KT 9000 SCT013 32/24 Q1005 NOSIG=
09/01/2022 09:30:00Z	 SAID32 WIBB 090930	METAR WIBB 090930Z 01007KT 9000 BKN012 32/23 Q1005 NOSIG=
09/01/2022 10:00:00Z	 SAID32 WIBB 091000	METAR WIBB 091000Z 03006KT 9000 SCT012 31/23 Q1005 NOSIG=
09/01/2022 10:30:00Z	 SAID32 WIBB 091030	METAR WIBB 091030Z 04006KT 8000 SCT012 FEW014CB 31/23 Q1006 RMK CB TO W AND SW=
09/01/2022 11:00:00Z	 SAID32 WIBB 091100	METAR WIBB 091100Z 02007KT 8000 SCT012 FEW014CB 30/24 Q1006 RMK CB TO W AND SW=
09/01/2022 11:30:00Z	 SAID32 WIBB 091130	METAR WIBB 091130Z 36005KT 8000 FEW010 FEW014CB 29/24 Q1006 RMK CB TO W AND SW=
09/01/2022 12:00:00Z	 SAID32 WIBB 091200	METAR WIBB 091200Z 03004KT 8000 SCT010 FEW013CB 29/24 Q1007 RMK CB TO W AND SW=
09/01/2022 12:30:00Z	 SAID32 WIBB 091230	METAR WIBB 091230Z 28007KT 8000 SCT009 SCT013CB 28/25 Q1007=
09/01/2022 13:00:00Z	 SAID32 WIBB 091300	METAR WIBB 091300Z 28005KT 8000 SCT012 FEW015CB 27/24 Q1008=
09/01/2022 13:30:00Z	 SAID32 WIBB 091330	METAR WIBB 091330Z 26005KT 8000 SCT012 FEW015CB 27/25 Q1008=
09/01/2022 14:00:00Z	 SAID32 WIBB 091400	METAR WIBB 091400Z 29005KT 8000 SCT013 FEW015CB 26/24 Q1009=
09/01/2022 14:30:00Z	 SAID32 WIBB 091430	METAR WIBB 091430Z 28005KT 8000 SCT013 FEW015CB 26/24 Q1009=
09/01/2022 15:30:00Z	 SAID32 WIBB 091530	METAR WIBB 091530Z 00000KT 8000 SCT013 FEW015CB 26/25 Q1009=
09/01/2022 16:00:00Z	 SAID32 WIBB 091600	METAR WIBB 091600Z 20005KT 8000 SCT012 FEW015CB 25/25 Q1009=
09/01/2022 16:30:00Z	 SAID32 WIBB 091630	METAR WIBB 091630Z 00000KT 8000 SCT013 FEW015CB 25/24 Q1009=
09/01/2022 17:00:00Z	 SAID32 WIBB 091700	METAR WIBB 091700Z 00000KT 8000 SCT012 FEW015CB 25/25 Q1009=
09/01/2022 17:30:00Z	 SAID32 WIBB 091730	METAR WIBB 091730Z 15005KT 8000 SCT013 FEW015CB 25/25 Q1009=
09/01/2022 18:00:00Z	 SAID32 WIBB 091800	METAR WIBB 091800Z 00000KT 8000 SCT015 25/24 Q1009 NOSIG=
09/01/2022 20:00:00Z	 SAID32 WIBB 092000	METAR WIBB 092000Z 00000KT 8000 SCT015 24/24 Q1008=
09/01/2022 20:30:00Z	 SAID32 WIBB 092030	METAR WIBB 092030Z 00000KT 8000 SCT015 24/24 Q1008=
09/01/2022 21:00:00Z	 SAID32 WIBB 092100	METAR WIBB 092100Z 18005KT 8000 SCT015 24/24 Q1008=
09/01/2022 21:30:00Z	 SAID32 WIBB 092130	METAR WIBB 092130Z 00000KT 8000 FEW015 24/24 Q1008=
09/01/2022 22:00:00Z	 SAID32 WIBB 092200	METAR WIBB 092200Z 00000KT 8000 SCT013 24/24 Q1009=
09/01/2022 23:00:00Z	 SAID32 WIBB 092300	METAR WIBB 092300Z 00000KT 8000 SCT015 24/24 Q1009=
09/01/2022 23:30:00Z	 SAID32 WIBB 092330	METAR WIBB 092330Z 00000KT 8000 FEW015 24/24 Q1009=
10/01/2022 00:00:00Z	 SAID32 WIBB 100000	METAR WIBB 100000Z 00000KT 6000 FEW015 24/24 Q1010 NOSIG=
10/01/2022 00:30:00Z	 SAID32 WIBB 100030	METAR WIBB 100030Z 00000KT 7000 FEW015 24/24 Q1010 NOSIG=
10/01/2022 01:30:00Z	 SAID32 WIBB 100130	METAR WIBB 100130Z 00000KT 8000 FEW014 26/24 Q1011=
10/01/2022 02:00:00Z	 SAID32 WIBB 100200	METAR WIBB 100200Z 00000KT 9000 FEW013 27/24 Q1011=
10/01/2022 02:30:00Z	 SAID32 WIBB 100230	METAR WIBB 100230Z 02004KT 9000 SCT013 28/24 Q1011=
10/01/2022 03:00:00Z	 SAID32 WIBB 100300	METAR WIBB 100300Z 02007KT 9000 SCT012 28/23 Q1011=
10/01/2022 03:30:00Z	 SAID32 WIBB 100330	METAR WIBB 100330Z 01007KT 9000 SCT012 29/24 Q1011=
10/01/2022 04:00:00Z	 SAID32 WIBB 100400	METAR WIBB 100400Z 02005KT 9000 BKN012 29/23 Q1011=
10/01/2022 04:30:00Z	 SAID32 WIBB 100430	METAR WIBB 100430Z 02006KT 9000 BKN012 29/23 Q1011=
10/01/2022 05:00:00Z	 SAID32 WIBB 100500	METAR WIBB 100500Z 02007KT 9000 SCT012 30/23 Q1010=
10/01/2022 05:30:00Z	 SAID32 WIBB 100530	METAR WIBB 100530Z 05007KT 9999 SCT012 30/23 Q1010=
10/01/2022 06:30:00Z	 SAID32 WIBB 100630	METAR WIBB 100630Z 35006KT 9000 SCT012 31/22 Q1009=
10/01/2022 07:00:00Z	 SAID32 WIBB 100700	METAR WIBB 100700Z 34005KT 9000 SCT012 FEW017CB 30/23 Q1008=
10/01/2022 07:30:00Z	 SAID32 WIBB 100730	METAR WIBB 100730Z 31005KT 9000 SCT013 FEW017CB 30/23 Q1008=
10/01/2022 08:00:00Z	 SAID32 WIBB 100800	METAR COR WIBB 100800Z 25006KT 9000 BKN013 30/23 Q1007 NOSIG=
10/01/2022 08:30:00Z	 SAID32 WIBB 100830	METAR WIBB 100830Z 22004KT 9000 BKN012 30/24 Q1007=
10/01/2022 09:00:00Z	 SAID32 WIBB 100900	METAR WIBB 100900Z 00000KT 9000 SCT013 30/24 Q1007 NOSIG=
10/01/2022 09:30:00Z	 SAID32 WIBB 100930	METAR WIBB 100930Z 18004KT 9000 BKN013 29/25 Q1007 NOSIG=
10/01/2022 10:00:00Z	 SAID32 WIBB 101000	METAR WIBB 101000Z 33013KT 8000 SCT012 FEW015CB 28/24 Q1007=
10/01/2022 10:30:00Z	 SAID32 WIBB 101030	METAR WIBB 101030Z 30009KT 8000 SCT013 FEW016CB 27/24 Q1008=
10/01/2022 11:00:00Z	 SAID32 WIBB 101100	METAR WIBB 101100Z 30006KT 8000 SCT013 27/24 Q1009 NOSIG=
10/01/2022 11:30:00Z	 SAID32 WIBB 101130	METAR WIBB 101130Z 31007KT 8000 SCT013 26/24 Q1009 NOSIG=
10/01/2022 12:00:00Z	 SAID32 WIBB 101200	METAR WIBB 101200Z 29005KT 8000 FEW014 26/24 Q1009=
10/01/2022 12:30:00Z	 SAID32 WIBB 101230	METAR WIBB 101230Z 32004KT 8000 FEW014 26/24 Q1010 NOSIG=
10/01/2022 13:00:00Z	 SAID32 WIBB 101300	METAR WIBB 101300Z 31005KT 8000 FEW014 26/24 Q1010 NOSIG=
10/01/2022 13:30:00Z	 SAID32 WIBB 101330	METAR WIBB 101330Z 31005KT 7000 SCT013 25/24 Q1011 NOSIG=
10/01/2022 14:00:00Z	 SAID32 WIBB 101400	METAR WIBB 101400Z 30006KT 7000 BKN010 26/24 Q1011 NOSIG=
10/01/2022 14:30:00Z	 SAID32 WIBB 101430	METAR WIBB 101430Z 33004KT 7000 BKN010 25/24 Q1012 NOSIG=
10/01/2022 15:00:00Z	 SAID32 WIBB 101500	METAR WIBB 101500Z 32004KT 7000 SCT010 26/24 Q1011 NOSIG=
10/01/2022 15:30:00Z	 SAID32 WIBB 101530	METAR WIBB 101530Z 00000KT 7000 SCT010 25/24 Q1012 NOSIG=
10/01/2022 16:00:00Z	 SAID32 WIBB 101600	METAR WIBB 101600Z 00000KT 7000 BKN010 25/24 Q1012 NOSIG=
10/01/2022 16:30:00Z	 SAID32 WIBB 101630	METAR WIBB 101630Z 31004KT 7000 BKN010 25/24 Q1011 NOSIG=
10/01/2022 17:00:00Z	 SAID32 WIBB 101700	METAR WIBB 101700Z 32004KT 7000 SCT013 25/24 Q1011 NOSIG=
10/01/2022 17:30:00Z	 SAID32 WIBB 101730	METAR WIBB 101730Z 00000KT 7000 SCT013 25/24 Q1011 NOSIG=
10/01/2022 19:00:00Z	 SAID32 WIBB 101900	METAR WIBB 101900Z 00000KT 7000 BKN010 24/24 Q1010 NOSIG=
10/01/2022 20:00:00Z	 SAID32 WIBB 102000	METAR WIBB 102000Z 00000KT 7000 BKN010 24/24 Q1010=
10/01/2022 21:00:00Z	 SAID32 WIBB 102100	METAR WIBB 102100Z 00000KT 7000 FEW010 24/23 Q1010 NOSIG=
10/01/2022 21:30:00Z	 SAID32 WIBB 102130	METAR WIBB 102130Z 00000KT 6000 SCT012 24/23 Q1010 NOSIG=
10/01/2022 22:00:00Z	 SAID32 WIBB 102200	METAR COR WIBB 102200Z 00000KT 2000 BR SCT007 24/24 Q1010=
10/01/2022 22:30:00Z	 SAID32 WIBB 102230	METAR WIBB 102230Z 00000KT 1500 BR BKN007 23/23 Q1010=
10/01/2022 23:00:00Z	 SAID32 WIBB 102300	METAR WIBB 102300Z 07004KT 2000 BR SCT008 23/23 Q1010=
10/01/2022 23:30:00Z	 SAID32 WIBB 102330	METAR WIBB 102330Z 00000KT 1000 FG SCT007 23/23 Q1011=
11/01/2022 00:00:00Z	 SAID32 WIBB 110000	METAR WIBB 110000Z 00000KT 0700 FG BKN007 23/23 Q1011=
11/01/2022 00:30:00Z	 SAID32 WIBB 110030	METAR WIBB 110030Z 00000KT 0700 FG BKN007 24/24 Q1012=
11/01/2022 01:00:00Z	 SAID32 WIBB 110100	METAR WIBB 110100Z 10005KT 1000 FG BKN007 24/24 Q1012=
11/01/2022 01:30:00Z	 SAID32 WIBB 110130	METAR WIBB 110130Z 00000KT 2000 BR BKN007 25/24 Q1012=
11/01/2022 02:30:00Z	 SAID32 WIBB 110230	METAR WIBB 110230Z 03005KT 7000 SCT008 27/24 Q1012=
11/01/2022 03:00:00Z	 SAID32 WIBB 110300	METAR WIBB 110300Z 36007KT 7000 BKN008 27/24 Q1012=
11/01/2022 03:30:00Z	 SAID32 WIBB 110330	METAR WIBB 110330Z 33004KT 7000 BKN009 28/24 Q1012=
11/01/2022 04:00:00Z	 SAID32 WIBB 110400	METAR WIBB 110400Z 29004KT 8000 BKN009 28/24 Q1012=
11/01/2022 04:30:00Z	 SAID32 WIBB 110430	METAR WIBB 110430Z 32004KT 8000 BKN010 28/24 Q1012=
11/01/2022 05:00:00Z	 SAID32 WIBB 110500	METAR WIBB 110500Z 00000KT 8000 BKN010 30/24 Q1011=
11/01/2022 05:30:00Z	 SAID32 WIBB 110530	METAR WIBB 110530Z 30006KT 8000 SCT010 29/25 Q1011=
11/01/2022 06:00:00Z	 SAID32 WIBB 110600	METAR WIBB 110600Z 27004KT 8000 BKN010 30/24 Q1010=
11/01/2022 06:30:00Z	 SAID32 WIBB 110630	METAR WIBB 110630Z 06008KT 8000 BKN010 31/24 Q1010=
11/01/2022 07:00:00Z	 SAID32 WIBB 110700	METAR WIBB 110700Z 36012KT 9000 BKN010 30/23 Q1009 NOSIG=
11/01/2022 07:30:00Z	 SAID32 WIBB 110730	METAR WIBB 110730Z 00000KT 5000 -RA BKN010 26/23 Q1009=
11/01/2022 08:00:00Z	 SAID32 WIBB 110800	METAR WIBB 110800Z 00000KT 9000 SCT010 27/24 Q1008 NOSIG=
11/01/2022 08:30:00Z	 SAID32 WIBB 110830	METAR WIBB 110830Z 00000KT 9000 BKN012 29/24 Q1008 NOSIG=
11/01/2022 09:00:00Z	 SAID32 WIBB 110900	METAR WIBB 110900Z 08005KT 9000 SCT013 30/24 Q1008 NOSIG=
11/01/2022 09:30:00Z	 SAID32 WIBB 110930	METAR WIBB 110930Z 00000KT 9000 SCT012 30/24 Q1007 NOSIG=
11/01/2022 10:00:00Z	 SAID32 WIBB 111000	METAR WIBB 111000Z 00000KT 9000 SCT013 29/24 Q1008 NOSIG=
11/01/2022 10:30:00Z	 SAID32 WIBB 111030	METAR WIBB 111030Z 00000KT 8000 SCT013 30/24 Q1008 NOSIG=
11/01/2022 11:00:00Z	 SAID32 WIBB 111100	METAR WIBB 111100Z 00000KT 8000 SCT013 29/23 Q1008 NOSIG=
11/01/2022 11:30:00Z	 SAID32 WIBB 111130	METAR WIBB 111130Z 04005KT 8000 SCT013 28/22 Q1008 NOSIG=
11/01/2022 12:00:00Z	 SAID32 WIBB 111200	METAR WIBB 111200Z 00000KT 8000 SCT013 28/22 Q1009 NOSIG=
11/01/2022 13:00:00Z	 SAID32 WIBB 111300	METAR WIBB 111300Z 04004KT 8000 FEW015 27/22 Q1010 NOSIG=
11/01/2022 13:30:00Z	 SAID32 WIBB 111330	METAR WIBB 111330Z 00000KT 8000 FEW015 25/23 Q1010 NOSIG=
11/01/2022 14:00:00Z	 SAID32 WIBB 111400	METAR WIBB 111400Z 00000KT 8000 FEW015 25/22 Q1011 NOSIG=
11/01/2022 14:30:00Z	 SAID32 WIBB 111430	METAR WIBB 111430Z 00000KT 8000 FEW015 25/22 Q1011 NOSIG=
11/01/2022 15:00:00Z	 SAID32 WIBB 111500	METAR WIBB 111500Z 04004KT 8000 FEW017 26/22 Q1011 NOSIG=
11/01/2022 15:30:00Z	 SAID32 WIBB 111530	METAR WIBB 111530Z 00000KT 8000 FEW017 24/22 Q1011 NOSIG=
11/01/2022 16:00:00Z	 SAID32 WIBB 111600	METAR WIBB 111600Z 00000KT 9000 FEW017 24/22 Q1011 NOSIG=
11/01/2022 16:30:00Z	 SAID32 WIBB 111630	METAR WIBB 111630Z 00000KT 8000 FEW017 23/22 Q1011 NOSIG=
11/01/2022 17:00:00Z	 SAID32 WIBB 111700	METAR WIBB 111700Z 00000KT 7000 FEW015 24/23 Q1011 NOSIG=
11/01/2022 17:30:00Z	 SAID32 WIBB 111730	METAR WIBB 111730Z 00000KT 7000 FEW015 23/23 Q1011 NOSIG=
11/01/2022 18:00:00Z	 SAID32 WIBB 111800	METAR WIBB 111800Z 00000KT 7000 FEW015 23/23 Q1010 NOSIG=
11/01/2022 18:30:00Z	 SAID32 WIBB 111830	METAR WIBB 111830Z 00000KT 6000 FEW014 23/23 Q1010 NOSIG=
11/01/2022 21:00:00Z	 SAID32 WIBB 112100	METAR WIBB 112100Z 00000KT 6000 FEW014 23/23 Q1009 NOSIG=
11/01/2022 22:00:00Z	 SAID32 WIBB 112200	METAR WIBB 112200Z 00000KT 4000 BR SCT013 23/23 Q1009 NOSIG=
11/01/2022 22:30:00Z	 SAID32 WIBB 112230	METAR WIBB 112230Z 00000KT 2000 BR SCT013 23/23 Q1010=
11/01/2022 23:00:00Z	 SAID32 WIBB 112300	METAR WIBB 112300Z 00000KT 4000 BR FEW013 22/22 Q1010 NOSIG=
11/01/2022 23:30:00Z	 SAID32 WIBB 112330	METAR WIBB 112330Z 00000KT 5000 HZ FEW013 22/22 Q1010 NOSIG=
12/01/2022 00:00:00Z	 SAID32 WIBB 120000	METAR WIBB 120000Z 00000KT 5000 HZ FEW015 23/22 Q1011 NOSIG=
12/01/2022 00:30:00Z	 SAID32 WIBB 120030	METAR WIBB 120030Z 00000KT 5000 FEW015 24/24 Q1011 NOSIG=
12/01/2022 01:00:00Z	 SAID32 WIBB 120100	METAR WIBB 120100Z 00000KT 6000 FEW017 25/24 Q1012 NOSIG=
12/01/2022 01:30:00Z	 SAID32 WIBB 120130	METAR WIBB 120130Z 05004KT 6000 FEW017 26/23 Q1012 NOSIG=
12/01/2022 02:00:00Z	 SAID32 WIBB 120200	METAR WIBB 120200Z 08005KT 8000 SCT013 27/24 Q1013 NOSIG=
12/01/2022 02:30:00Z	 SAID32 WIBB 120230	METAR WIBB 120230Z 05006KT 8000 SCT013 28/22 Q1013 NOSIG=
12/01/2022 03:00:00Z	 SAID32 WIBB 120300	METAR WIBB 120300Z 05005KT 9999 SCT013 28/22 Q1013 NOSIG=
12/01/2022 03:30:00Z	 SAID32 WIBB 120330	METAR WIBB 120330Z 02008KT 9999 SCT013 29/23 Q1012 NOSIG=
12/01/2022 04:00:00Z	 SAID32 WIBB 120400	METAR WIBB 120400Z 01007KT 9999 SCT013 29/23 Q1012 NOSIG=
12/01/2022 04:30:00Z	 SAID32 WIBB 120430	METAR WIBB 120430Z 36007KT 9999 SCT013 29/23 Q1012 NOSIG=
12/01/2022 05:00:00Z	 SAID32 WIBB 120500	METAR WIBB 120500Z 04007KT 9999 SCT013 29/22 Q1011 NOSIG=
12/01/2022 05:30:00Z	 SAID32 WIBB 120530	METAR WIBB 120530Z 05007KT 9999 SCT013 30/23 Q1011 NOSIG=
12/01/2022 06:00:00Z	 SAID32 WIBB 120600	METAR WIBB 120600Z 07005KT 9999 SCT013 30/22 Q1011 NOSIG=
12/01/2022 06:30:00Z	 SAID32 WIBB 120630	METAR WIBB 120630Z 05006KT 9999 SCT013 30/20 Q1010 NOSIG=
12/01/2022 07:00:00Z	 SAID32 WIBB 120700	METAR WIBB 120700Z 00000KT 9999 SCT013 30/20 Q1010 NOSIG=
12/01/2022 07:30:00Z	 SAID32 WIBB 120730	METAR WIBB 120730Z 06005KT 9999 SCT013 30/20 Q1009 NOSIG=
12/01/2022 08:00:00Z	 SAID32 WIBB 120800	METAR WIBB 120800Z 00000KT 9999 SCT013 30/21 Q1009 NOSIG=
12/01/2022 08:30:00Z	 SAID32 WIBB 120830	METAR WIBB 120830Z 00000KT 9999 SCT013 30/21 Q1008 NOSIG=
12/01/2022 09:00:00Z	 SAID32 WIBB 120900	METAR WIBB 120900Z 06005KT 9999 SCT013 30/21 Q1008 NOSIG=
12/01/2022 09:30:00Z	 SAID32 WIBB 120930	METAR WIBB 120930Z 06005KT 9999 SCT013 29/21 Q1008 NOSIG=
12/01/2022 10:00:00Z	 SAID32 WIBB 121000	METAR WIBB 121000Z 05004KT 9000 SCT013 29/21 Q1008 NOSIG=
12/01/2022 10:30:00Z	 SAID32 WIBB 121030	METAR WIBB 121030Z 00000KT 9000 SCT013 30/21 Q1008 NOSIG=
12/01/2022 11:00:00Z	 SAID32 WIBB 121100	METAR WIBB 121100Z 00000KT 8000 SCT013 29/21 Q1008 NOSIG=
12/01/2022 11:30:00Z	 SAID32 WIBB 121130	METAR WIBB 121130Z 00000KT 060V140 8000 SCT013 28/22 Q1009 NOSIG=
12/01/2022 12:30:00Z	 SAID32 WIBB 121230	METAR WIBB 121230Z 00000KT 8000 SCT013 27/22 Q1010 NOSIG=
12/01/2022 13:30:00Z	 SAID32 WIBB 121330	METAR WIBB 121330Z 00000KT 8000 FEW015 27/23 Q1011=
12/01/2022 14:00:00Z	 SAID32 WIBB 121400	METAR WIBB 121400Z 00000KT 8000 FEW015 27/23 Q1011=
12/01/2022 14:30:00Z	 SAID32 WIBB 121430	METAR WIBB 121430Z 00000KT 8000 FEW015 27/23 Q1011=
12/01/2022 15:00:00Z	 SAID32 WIBB 121500	METAR WIBB 121500Z 00000KT 8000 FEW015 26/23 Q1012=
12/01/2022 15:30:00Z	 SAID32 WIBB 121530	METAR WIBB 121530Z 00000KT 8000 FEW015 26/22 Q1012=
12/01/2022 16:00:00Z	 SAID32 WIBB 121600	METAR WIBB 121600Z 00000KT 8000 FEW015 26/22 Q1012=
12/01/2022 18:00:00Z	 SAID32 WIBB 121800	METAR WIBB 121800Z 00000KT 8000 FEW015 24/23 Q1011=
12/01/2022 21:00:00Z	 SAID32 WIBB 122100	METAR WIBB 122100Z 00000KT 8000 FEW015 24/23 Q1010=
12/01/2022 22:00:00Z	 SAID32 WIBB 122200	METAR WIBB 122200Z 00000KT 8000 FEW015 24/23 Q1010=
12/01/2022 22:30:00Z	 SAID32 WIBB 122230	METAR WIBB 122230Z 00000KT 8000 FEW015 23/23 Q1010=
12/01/2022 23:00:00Z	 SAID32 WIBB 122300	METAR WIBB 122300Z 00000KT 8000 FEW015 23/23 Q1010=
12/01/2022 23:30:00Z	 SAID32 WIBB 122330	METAR WIBB 122330Z 00000KT 7000 FEW015 23/22 Q1011=
13/01/2022 00:00:00Z	 SAID32 WIBB 130000	METAR WIBB 130000Z 00000KT 7000 NSC 23/22 Q1011=
13/01/2022 00:30:00Z	 SAID32 WIBB 130030	METAR WIBB 130030Z 00000KT 7000 NSC 24/22 Q1011=
13/01/2022 01:00:00Z	 SAID32 WIBB 130100	METAR WIBB 130100Z 04010KT 7000 NSC 25/22 Q1012=
13/01/2022 01:30:00Z	 SAID32 WIBB 130130	METAR WIBB 130130Z 05012KT 8000 NSC 26/22 Q1013 NOSIG=
13/01/2022 02:00:00Z	 SAID32 WIBB 130200	METAR WIBB 130200Z 04010KT 8000 FEW015 27/22 Q1013 NOSIG=
13/01/2022 02:30:00Z	 SAID32 WIBB 130230	METAR WIBB 130230Z 05008KT 8000 FEW015 28/23 Q1013 NOSIG=
13/01/2022 03:00:00Z	 SAID32 WIBB 130300	METAR WIBB 130300Z 05006KT 9000 FEW015 27/23 Q1013 NOSIG=
13/01/2022 03:30:00Z	 SAID32 WIBB 130330	METAR WIBB 130330Z 04008KT 9000 FEW015 28/22 Q1013 NOSIG=
13/01/2022 04:00:00Z	 SAID32 WIBB 130400	METAR WIBB 130400Z 05009KT 9999 FEW015 29/22 Q1012 NOSIG=
13/01/2022 04:30:00Z	 SAID32 WIBB 130430	METAR WIBB 130430Z 08011KT 9999 FEW015 29/22 Q1012=
13/01/2022 05:00:00Z	 SAID32 WIBB 130500	METAR WIBB 130500Z 03008KT 9999 BKN013 29/21 Q1011=
13/01/2022 05:30:00Z	 SAID32 WIBB 130530	METAR WIBB 130530Z 06010KT 8000 BKN012 30/22 Q1010=
13/01/2022 06:00:00Z	 SAID32 WIBB 130600	METAR WIBB 130600Z 02007KT 9999 BKN013 30/20 Q1010 NOSIG=
13/01/2022 06:30:00Z	 SAID32 WIBB 130630	METAR WIBB 130630Z 03007KT 9999 BKN013 30/20 Q1010 NOSIG=
13/01/2022 07:00:00Z	 SAID32 WIBB 130700	METAR WIBB 130700Z 07004KT 9999 SCT014 31/20 Q1009 NOSIG=
13/01/2022 07:30:00Z	 SAID32 WIBB 130730	METAR WIBB 130730Z 06005KT 9999 SCT014 31/20 Q1009 NOSIG=
13/01/2022 08:00:00Z	 SAID32 WIBB 130800	METAR WIBB 130800Z 02007KT 9999 SCT015 31/21 Q1008 NOSIG=
13/01/2022 08:30:00Z	 SAID32 WIBB 130830	METAR WIBB 130830Z 01007KT 9999 SCT015 32/20 Q1008 NOSIG=
13/01/2022 09:00:00Z	 SAID32 WIBB 130900	METAR WIBB 130900Z 05007KT 9999 SCT015 31/21 Q1007 NOSIG=
13/01/2022 09:30:00Z	 SAID32 WIBB 130930	METAR WIBB 130930Z 05006KT 9999 SCT015 31/21 Q1007 NOSIG=
13/01/2022 10:00:00Z	 SAID32 WIBB 131000	METAR WIBB 131000Z 06007KT 9999 SCT015 30/20 Q1007 NOSIG=
13/01/2022 10:30:00Z	 SAID32 WIBB 131030	METAR WIBB 131030Z 06005KT 9000 SCT015 30/21 Q1008 NOSIG=
13/01/2022 11:00:00Z	 SAID32 WIBB 131100	METAR WIBB 131100Z 05004KT 9000 FEW015 29/21 Q1008 NOSIG=
13/01/2022 11:30:00Z	 SAID32 WIBB 131130	METAR WIBB 131130Z 07004KT 8000 FEW015 29/21 Q1009 NOSIG=
13/01/2022 12:00:00Z	 SAID32 WIBB 131200	METAR WIBB 131200Z 05004KT 8000 FEW015 28/21 Q1009 NOSIG=
13/01/2022 12:30:00Z	 SAID32 WIBB 131230	METAR WIBB 131230Z 00000KT 8000 FEW015 28/22 Q1010=
13/01/2022 13:00:00Z	 SAID32 WIBB 131300	METAR WIBB 131300Z 00000KT 8000 FEW015 27/22 Q1010 NOSIG=
13/01/2022 13:30:00Z	 SAID32 WIBB 131330	METAR WIBB 131330Z 00000KT 8000 FEW015 27/22 Q1010 NOSIG=
13/01/2022 14:00:00Z	 SAID32 WIBB 131400	METAR WIBB 131400Z 00000KT 8000 FEW015 26/22 Q1011 NOSIG=
13/01/2022 14:30:00Z	 SAID32 WIBB 131430	METAR WIBB 131430Z 00000KT 8000 FEW015 26/22 Q1011 NOSIG=
13/01/2022 15:00:00Z	 SAID32 WIBB 131500	METAR WIBB 131500Z 00000KT 8000 SCT013 26/22 Q1011 NOSIG=
13/01/2022 15:30:00Z	 SAID32 WIBB 131530	METAR WIBB 131530Z 00000KT 8000 SCT013 24/22 Q1011 NOSIG=
13/01/2022 16:00:00Z	 SAID32 WIBB 131600	METAR WIBB 131600Z 00000KT 8000 SCT013 24/22 Q1011 NOSIG=
13/01/2022 16:30:00Z	 SAID32 WIBB 131630	METAR WIBB 131630Z 00000KT 8000 SCT013 24/23 Q1011 NOSIG=
13/01/2022 17:00:00Z	 SAID32 WIBB 131700	METAR WIBB 131700Z 00000KT 8000 SCT013 23/22 Q1011 NOSIG=
13/01/2022 17:30:00Z	 SAID32 WIBB 131730	METAR WIBB 131730Z 00000KT 8000 SCT013 23/22 Q1010 NOSIG=
13/01/2022 18:00:00Z	 SAID32 WIBB 131800	METAR WIBB 131800Z 00000KT 7000 SCT013 23/22 Q1010 NOSIG=
13/01/2022 21:00:00Z	 SAID32 WIBB 132100	METAR WIBB 132100Z 00000KT 7000 SCT013 24/23 Q1010 NOSIG=
13/01/2022 22:00:00Z	 SAID32 WIBB 132200	METAR WIBB 132200Z 00000KT 7000 SCT013 23/22 Q1010 NOSIG=
13/01/2022 23:00:00Z	 SAID32 WIBB 132300	METAR WIBB 132300Z 00000KT 7000 FEW013 23/21 Q1010 NOSIG=
13/01/2022 23:30:00Z	 SAID32 WIBB 132330	METAR WIBB 132330Z 00000KT 7000 FEW013 23/22 Q1010 NOSIG=
14/01/2022 00:00:00Z	 SAID32 WIBB 140000	METAR WIBB 140000Z 00000KT 7000 FEW015 23/22 Q1011 NOSIG=
14/01/2022 00:30:00Z	 SAID32 WIBB 140030	METAR WIBB 140030Z 00000KT 7000 FEW015 24/22 Q1012=
14/01/2022 01:00:00Z	 SAID32 WIBB 140100	METAR WIBB 140100Z 00000KT CAVOK 24/22 Q1012 NOSIG=
14/01/2022 01:30:00Z	 SAID32 WIBB 140130	METAR WIBB 140130Z 00000KT CAVOK 25/22 Q1013 NOSIG=
14/01/2022 02:00:00Z	 SAID32 WIBB 140200	METAR WIBB 140200Z 05007KT 9999 FEW009 26/23 Q1013 NOSIG=
14/01/2022 02:30:00Z	 SAID32 WIBB 140230	METAR WIBB 140230Z 05007KT 9999 FEW009 27/22 Q1013 NOSIG=
14/01/2022 03:00:00Z	 SAID32 WIBB 140300	METAR WIBB 140300Z 05006KT 9999 FEW009 28/22 Q1013 NOSIG=
14/01/2022 03:30:00Z	 SAID32 WIBB 140330	METAR WIBB 140330Z 04006KT 9999 FEW009 29/23 Q1012 NOSIG=
14/01/2022 04:00:00Z	 SAID32 WIBB 140400	METAR WIBB 140400Z 04005KT 9999 FEW010 29/22 Q1012 NOSIG=
14/01/2022 04:30:00Z	 SAID32 WIBB 140430	METAR WIBB 140430Z 03007KT 9999 FEW010 29/22 Q1011 NOSIG=
14/01/2022 05:00:00Z	 SAID32 WIBB 140500	METAR WIBB 140500Z 05006KT 9999 SCT013 30/22 Q1011 NOSIG=
14/01/2022 05:30:00Z	 SAID32 WIBB 140530	METAR WIBB 140530Z 03007KT 9999 SCT014 30/22 Q1011 NOSIG=
14/01/2022 06:00:00Z	 SAID32 WIBB 140600	METAR WIBB 140600Z 04007KT 9999 SCT014 31/22 Q1010 NOSIG=
14/01/2022 06:30:00Z	 SAID32 WIBB 140630	METAR WIBB 140630Z 04006KT 9999 SCT014 30/21 Q1009 NOSIG=
14/01/2022 07:00:00Z	 SAID32 WIBB 140700	METAR WIBB 140700Z 05009KT 9999 SCT015 31/21 Q1009 NOSIG=
14/01/2022 07:30:00Z	 SAID32 WIBB 140730	METAR WIBB 140730Z 36007KT 8000 SCT015 31/21 Q1008 NOSIG=
14/01/2022 08:00:00Z	 SAID32 WIBB 140800	METAR WIBB 140800Z 03006KT 9999 FEW015 31/20 Q1008 NOSIG=
14/01/2022 08:30:00Z	 SAID32 WIBB 140830	METAR WIBB 140830Z 04008KT 9999 FEW015 31/20 Q1007=
14/01/2022 09:00:00Z	 SAID32 WIBB 140900	METAR WIBB 140900Z 36008KT 9999 SCT014 31/20 Q1007 NOSIG=
14/01/2022 09:30:00Z	 SAID32 WIBB 140930	METAR WIBB 140930Z 06009KT 9999 SCT013 31/20 Q1007=
14/01/2022 10:00:00Z	 SAID32 WIBB 141000	METAR WIBB 141000Z 06007KT 9999 FEW015 31/20 Q1007 NOSIG=
14/01/2022 10:30:00Z	 SAID32 WIBB 141030	METAR WIBB 141030Z 05005KT 9999 FEW015 31/19 Q1008=
14/01/2022 11:00:00Z	 SAID32 WIBB 141100	METAR WIBB 141100Z 05006KT 9000 FEW015 30/20 Q1008 NOSIG=
14/01/2022 11:30:00Z	 SAID32 WIBB 141130	METAR WIBB 141130Z 07005KT 7000 FEW015 29/21 Q1009 NOSIG=
14/01/2022 12:00:00Z	 SAID32 WIBB 141200	METAR WIBB 141200Z 07005KT 8000 FEW015 29/21 Q1009 NOSIG=
14/01/2022 12:30:00Z	 SAID32 WIBB 141230	METAR WIBB 141230Z 05008KT 8000 FEW015 28/21 Q1009 NOSIG=
14/01/2022 13:00:00Z	 SAID32 WIBB 141300	METAR WIBB 141300Z 05006KT 8000 FEW017 27/21 Q1010 NOSIG=
14/01/2022 13:30:00Z	 SAID32 WIBB 141330	METAR WIBB 141330Z 00000KT 8000 FEW015 27/21 Q1010 NOSIG=
14/01/2022 13:30:00Z	 SAID32 WIBB 141330	METAR WIBB 141400Z 00000KT 8000 FEW015 27/21 Q1010 NOSIG=
14/01/2022 14:00:00Z	 SAID32 WIBB 141400	METAR WIBB 141400Z 00000KT 8000 FEW015 27/21 Q1010 NOSIG=
14/01/2022 14:30:00Z	 SAID32 WIBB 141430	METAR WIBB 141430Z 00000KT 8000 FEW013 26/22 Q1011 NOSIG=
14/01/2022 15:00:00Z	 SAID32 WIBB 141500	METAR WIBB 141500Z 07005KT 8000 FEW015 26/21 Q1011 NOSIG=
14/01/2022 15:30:00Z	 SAID32 WIBB 141530	METAR WIBB 141530Z 00000KT 8000 FEW015 26/21 Q1011 NOSIG=
14/01/2022 16:00:00Z	 SAID32 WIBB 141600	METAR WIBB 141600Z 00000KT 8000 FEW015 26/21 Q1011 NOSIG=
14/01/2022 17:00:00Z	 SAID32 WIBB 141700	METAR WIBB 141700Z 00000KT 8000 FEW015 24/22 Q1010 NOSIG=
14/01/2022 17:30:00Z	 SAID32 WIBB 141730	METAR WIBB 141730Z 00000KT 8000 FEW015 23/22 Q1010 NOSIG=
14/01/2022 18:00:00Z	 SAID32 WIBB 141800	METAR WIBB 141800Z 00000KT 7000 FEW013 25/22 Q1010 NOSIG=
14/01/2022 21:00:00Z	 SAID32 WIBB 142100	METAR WIBB 142100Z 00000KT 7000 SCT013 23/22 Q1009=
14/01/2022 22:00:00Z	 SAID32 WIBB 142200	METAR WIBB 142200Z 00000KT 7000 SCT013 22/22 Q1010 NOSIG=
14/01/2022 22:30:00Z	 SAID32 WIBB 142230	METAR WIBB 142230Z 00000KT 7000 SCT013 22/22 Q1010 NOSIG=
14/01/2022 23:00:00Z	 SAID32 WIBB 142300	METAR WIBB 142300Z 00000KT 7000 SCT013 22/22 Q1010 NOSIG=
15/01/2022 00:00:00Z	 SAID32 WIBB 150000	METAR WIBB 150000Z 00000KT 8000 FEW017 23/23 Q1010 NOSIG=
15/01/2022 00:30:00Z	 SAID32 WIBB 150030	METAR WIBB 150030Z 00000KT 8000 FEW017 24/23 Q1011 NOSIG=
15/01/2022 01:00:00Z	 SAID32 WIBB 150100	METAR WIBB 150100Z 00000KT 6000 FEW013 25/22 Q1011 NOSIG=
15/01/2022 01:30:00Z	 SAID32 WIBB 150130	METAR WIBB 150130Z 04007KT 7000 FEW010 26/22 Q1012 NOSIG=
15/01/2022 02:00:00Z	 SAID32 WIBB 150200	METAR WIBB 150200Z 05010KT 8000 FEW010 26/22 Q1012 NOSIG=
15/01/2022 02:30:00Z	 SAID32 WIBB 150230	METAR WIBB 150230Z 05009KT 8000 SCT010 27/22 Q1012 NOSIG=
15/01/2022 03:00:00Z	 SAID32 WIBB 150300	METAR WIBB 150300Z 05011KT 9000 SCT010 28/21 Q1012=
15/01/2022 03:30:00Z	 SAID32 WIBB 150330	METAR WIBB 150330Z 36006KT 9000 SCT010 28/21 Q1012 NOSIG=
15/01/2022 04:00:00Z	 SAID32 WIBB 150400	METAR WIBB 150400Z 04009KT 9000 SCT010 30/21 Q1012 NOSIG=
15/01/2022 04:30:00Z	 SAID32 WIBB 150430	METAR WIBB 150430Z 07011KT 9000 BKN010 29/21 Q1011 NOSIG=
15/01/2022 05:00:00Z	 SAID32 WIBB 150500	METAR WIBB 150500Z 03009KT 9000 BKN010 30/20 Q1011 NOSIG=
15/01/2022 05:30:00Z	 SAID32 WIBB 150530	METAR WIBB 150530Z 10004KT 9000 BKN010 31/19 Q1010 NOSIG=
15/01/2022 06:00:00Z	 SAID32 WIBB 150600	METAR WIBB 150600Z 31008KT 9000 BKN012 31/20 Q1010 NOSIG=
15/01/2022 06:30:00Z	 SAID32 WIBB 150630	METAR WIBB 150630Z 00000KT 9000 BKN012 31/20 Q1009 NOSIG=
15/01/2022 07:00:00Z	 SAID32 WIBB 150700	METAR WIBB 150700Z 32004KT 9000 BKN012 32/20 Q1008 NOSIG=
15/01/2022 07:30:00Z	 SAID32 WIBB 150730	METAR WIBB 150730Z 03008KT 9000 BKN012 31/20 Q1008 NOSIG=
15/01/2022 08:00:00Z	 SAID32 WIBB 150800	METAR WIBB 150800Z 07008KT 8000 BKN012 31/20 Q1007 NOSIG=
15/01/2022 08:30:00Z	 SAID32 WIBB 150830	METAR WIBB 150830Z 00000KT 8000 SCT012 31/20 Q1007 NOSIG=
15/01/2022 09:00:00Z	 SAID32 WIBB 150900	METAR WIBB 150900Z 07005KT 8000 BKN012 31/20 Q1007 NOSIG=
15/01/2022 09:30:00Z	 SAID32 WIBB 150930	METAR WIBB 150930Z 00000KT 8000 SCT013 31/20 Q1007 NOSIG=
15/01/2022 10:00:00Z	 SAID32 WIBB 151000	METAR WIBB 151000Z 00000KT 8000 BKN012 31/20 Q1008 NOSIG=
15/01/2022 10:30:00Z	 SAID32 WIBB 151030	METAR WIBB 151030Z 00000KT 8000 BKN012 31/21 Q1008 NOSIG=
15/01/2022 11:00:00Z	 SAID32 WIBB 151100	METAR WIBB 151100Z 10004KT 8000 SCT010 30/21 Q1008 NOSIG=
15/01/2022 11:30:00Z	 SAID32 WIBB 151130	METAR WIBB 151130Z 06004KT 6000 SCT010 30/21 Q1008=
15/01/2022 12:00:00Z	 SAID32 WIBB 151200	METAR WIBB 151200Z 00000KT 7000 BKN010 29/22 Q1009 NOSIG=
15/01/2022 12:30:00Z	 SAID32 WIBB 151230	METAR WIBB 151230Z 00000KT 7000 BKN010 28/22 Q1010 NOSIG=
15/01/2022 13:00:00Z	 SAID32 WIBB 151300	METAR WIBB 151300Z 05006KT 8000 SCT013 28/22 Q1009 NOSIG=
15/01/2022 13:30:00Z	 SAID32 WIBB 151330	METAR WIBB 151330Z 06006KT 8000 SCT013 28/22 Q1009=
15/01/2022 14:00:00Z	 SAID32 WIBB 151400	METAR WIBB 151400Z 00000KT 8000 FEW013 27/22 Q1010 NOSIG=
15/01/2022 14:30:00Z	 SAID32 WIBB 151430	METAR WIBB 151430Z 00000KT 8000 FEW013 27/22 Q1011=
15/01/2022 15:00:00Z	 SAID32 WIBB 151500	METAR WIBB 151500Z 00000KT 8000 FEW015 27/22 Q1011 NOSIG=
15/01/2022 15:30:00Z	 SAID32 WIBB 151530	METAR WIBB 151530Z 04006KT 8000 FEW013 26/21 Q1011 NOSIG=
15/01/2022 16:00:00Z	 SAID32 WIBB 151600	METAR WIBB 151600Z 00000KT 8000 FEW015 26/21 Q1011 NOSIG=
15/01/2022 16:30:00Z	 SAID32 WIBB 151630	METAR WIBB 151630Z 04005KT 8000 FEW015 26/22 Q1011=
15/01/2022 17:00:00Z	 SAID32 WIBB 151700	METAR WIBB 151700Z 00000KT 8000 FEW015 26/22 Q1010=
15/01/2022 17:30:00Z	 SAID32 WIBB 151730	METAR WIBB 151730Z 00000KT 8000 FEW015 25/22 Q1010=
15/01/2022 18:00:00Z	 SAID32 WIBB 151800	METAR WIBB 151800Z 00000KT 8000 FEW015 24/22 Q1010=
15/01/2022 21:00:00Z	 SAID32 WIBB 152100	METAR WIBB 152100Z 00000KT 8000 FEW015 24/22 Q1009 NOSIG=
15/01/2022 21:30:00Z	 SAID32 WIBB 152130	METAR WIBB 152130Z 00000KT 8000 FEW015 24/22 Q1009 NOSIG=
15/01/2022 22:00:00Z	 SAID32 WIBB 152200	METAR WIBB 152200Z 00000KT 8000 FEW015 24/23 Q1009 NOSIG=
15/01/2022 22:30:00Z	 SAID32 WIBB 152230	METAR WIBB 152230Z 00000KT 8000 SCT015 24/23 Q1010 NOSIG=
15/01/2022 23:00:00Z	 SAID32 WIBB 152300	METAR WIBB 152300Z 00000KT 8000 SCT015 24/23 Q1010=
15/01/2022 23:30:00Z	 SAID32 WIBB 152330	METAR WIBB 152330Z 00000KT 8000 FEW015 24/23 Q1010 NOSIG=
16/01/2022 00:00:00Z	 SAID32 WIBB 160000	METAR WIBB 160000Z 03007KT 8000 FEW015 24/23 Q1010 NOSIG=
16/01/2022 00:30:00Z	 SAID32 WIBB 160030	METAR WIBB 160030Z 05005KT 8000 FEW015 25/23 Q1011 NOSIG=
16/01/2022 01:00:00Z	 SAID32 WIBB 160100	METAR WIBB 160100Z 00000KT 8000 FEW015 25/23 Q1011 NOSIG=
16/01/2022 01:30:00Z	 SAID32 WIBB 160130	METAR WIBB 160130Z 00000KT 8000 NSC 26/24 Q1011=
16/01/2022 02:00:00Z	 SAID32 WIBB 160200	METAR WIBB 160200Z 05006KT 9000 FEW008 27/24 Q1011=
16/01/2022 02:30:00Z	 SAID32 WIBB 160230	METAR WIBB 160230Z 04005KT 9999 FEW009 28/23 Q1011=
16/01/2022 03:00:00Z	 SAID32 WIBB 160300	METAR WIBB 160300Z 05005KT 9999 SCT010 29/23 Q1011=
16/01/2022 03:30:00Z	 SAID32 WIBB 160330	METAR WIBB 160330Z 05005KT 9999 SCT010 30/23 Q1011=
16/01/2022 04:00:00Z	 SAID32 WIBB 160400	METAR WIBB 160400Z 06006KT 9999 SCT010 30/23 Q1011=
16/01/2022 04:30:00Z	 SAID32 WIBB 160430	METAR WIBB 160430Z 06005KT 9999 SCT010 31/23 Q1010=
16/01/2022 05:00:00Z	 SAID32 WIBB 160500	METAR WIBB 160500Z 04004KT 9999 BKN010 31/22 Q1010=
16/01/2022 05:30:00Z	 SAID32 WIBB 160530	METAR WIBB 160530Z 05006KT 9999 BKN010 32/22 Q1010=
16/01/2022 06:00:00Z	 SAID32 WIBB 160600	METAR WIBB 160600Z 05006KT 9999 BKN010 32/22 Q1009=
16/01/2022 06:30:00Z	 SAID32 WIBB 160630	METAR WIBB 160630Z 36005KT 9999 BKN010 31/22 Q1009=
16/01/2022 07:00:00Z	 SAID32 WIBB 160700	METAR WIBB 160700Z 04006KT 9000 BKN010 31/21 Q1009 NOSIG=
16/01/2022 07:30:00Z	 SAID32 WIBB 160730	METAR WIBB 160730Z 00000KT 9000 BKN010 31/21 Q1008 NOSIG=
16/01/2022 08:00:00Z	 SAID32 WIBB 160800	METAR WIBB 160800Z 05005KT 9000 BKN010 31/22 Q1008 NOSIG=
16/01/2022 08:30:00Z	 SAID32 WIBB 160830	METAR WIBB 160830Z 00000KT 9000 BKN010 31/22 Q1007 NOSIG=
16/01/2022 09:00:00Z	 SAID32 WIBB 160900	METAR WIBB 160900Z 00000KT 9000 BKN010 32/21 Q1007 NOSIG=
16/01/2022 09:30:00Z	 SAID32 WIBB 160930	METAR WIBB 160930Z 01009KT 9000 SCT012 32/21 Q1007 NOSIG=
16/01/2022 10:00:00Z	 SAID32 WIBB 161000	METAR WIBB 161000Z 04010KT 9000 SCT010 32/21 Q1007 NOSIG=
16/01/2022 10:30:00Z	 SAID32 WIBB 161030	METAR WIBB 161030Z 01007KT 8000 SCT010 31/22 Q1008 NOSIG=
16/01/2022 11:00:00Z	 SAID32 WIBB 161100	METAR WIBB 161100Z 02005KT 8000 SCT012 30/22 Q1008 NOSIG=
16/01/2022 11:30:00Z	 SAID32 WIBB 161130	METAR WIBB 161130Z 05004KT 8000 SCT010 30/22 Q1008 NOSIG=
16/01/2022 12:00:00Z	 SAID32 WIBB 161200	METAR WIBB 161200Z 05004KT 8000 SCT010 29/22 Q1008 NOSIG=
16/01/2022 12:30:00Z	 SAID32 WIBB 161230	METAR WIBB 161230Z 05006KT 7000 SCT010 29/23 Q1009 NOSIG=
16/01/2022 13:00:00Z	 SAID32 WIBB 161300	METAR WIBB 161300Z 00000KT 8000 NSC 28/24 Q1009 NOSIG=
16/01/2022 13:30:00Z	 SAID32 WIBB 161330	METAR WIBB 161330Z 00000KT 8000 NSC 28/24 Q1010 NOSIG=
16/01/2022 14:00:00Z	 SAID32 WIBB 161400	METAR WIBB 161400Z 00000KT 8000 NSC 28/24 Q1010 NOSIG=
16/01/2022 14:30:00Z	 SAID32 WIBB 161430	METAR WIBB 161430Z 00000KT 8000 NSC 28/24 Q1011 NOSIG=
16/01/2022 15:00:00Z	 SAID32 WIBB 161500	METAR WIBB 161500Z 00000KT 8000 NSC 27/24 Q1010 NOSIG=
16/01/2022 15:30:00Z	 SAID32 WIBB 161530	METAR WIBB 161530Z 00000KT 8000 NSC 27/24 Q1010 NOSIG=
16/01/2022 16:00:00Z	 SAID32 WIBB 161600	METAR WIBB 161600Z 00000KT 8000 NSC 27/24 Q1010 NOSIG=
16/01/2022 16:30:00Z	 SAID32 WIBB 161630	METAR WIBB 161630Z 00000KT 8000 NSC 27/24 Q1011 NOSIG=
16/01/2022 17:00:00Z	 SAID32 WIBB 161700	METAR WIBB 161700Z 00000KT 8000 NSC 26/24 Q1011 NOSIG=
16/01/2022 17:30:00Z	 SAID32 WIBB 161730	METAR WIBB 161730Z 00000KT 8000 NSC 26/24 Q1010 NOSIG=
16/01/2022 18:00:00Z	 SAID32 WIBB 161800	METAR WIBB 161800Z 00000KT 8000 NSC 26/24 Q1010 NOSIG=
16/01/2022 21:00:00Z	 SAID32 WIBB 162100	METAR WIBB 162100Z 00000KT 8000 NSC 24/24 Q1008 NOSIG=
16/01/2022 22:00:00Z	 SAID32 WIBB 162200	METAR WIBB 162200Z 00000KT 8000 NSC 24/24 Q1009 NOSIG=
16/01/2022 23:00:00Z	 SAID32 WIBB 162300	METAR WIBB 162300Z 00000KT 8000 NSC 24/24 Q1009 NOSIG=
16/01/2022 23:30:00Z	 SAID32 WIBB 162330	METAR WIBB 162330Z 00000KT 7000 NSC 24/24 Q1009 NOSIG=
17/01/2022 00:00:00Z	 SAID32 WIBB 170000	METAR WIBB 170000Z 00000KT 7000 NSC 24/24 Q1009 NOSIG=
17/01/2022 00:30:00Z	 SAID32 WIBB 170030	METAR WIBB 170030Z 00000KT 8000 NSC 25/24 Q1011 NOSIG=
17/01/2022 01:00:00Z	 SAID32 WIBB 170100	METAR WIBB 170100Z 00000KT 9000 FEW009 26/24 Q1011 NOSIG=
17/01/2022 01:30:00Z	 SAID32 WIBB 170130	METAR WIBB 170130Z 06004KT 9000 FEW009 27/25 Q1011=
17/01/2022 02:00:00Z	 SAID32 WIBB 170200	METAR WIBB 170200Z 05005KT 9000 FEW009 28/25 Q1011=
17/01/2022 02:30:00Z	 SAID32 WIBB 170230	METAR WIBB 170230Z 05010KT 9999 SCT009 28/24 Q1011=
17/01/2022 03:00:00Z	 SAID32 WIBB 170300	METAR WIBB 170300Z 04006KT 9000 SCT010 29/24 Q1011=
17/01/2022 03:30:00Z	 SAID32 WIBB 170330	METAR WIBB 170330Z 03005KT 9000 BKN010 29/24 Q1011=
17/01/2022 04:00:00Z	 SAID32 WIBB 170400	METAR WIBB 170400Z 05005KT 9999 BKN010 31/24 Q1011=
17/01/2022 04:30:00Z	 SAID32 WIBB 170430	METAR WIBB 170430Z 04005KT 9999 BKN010 30/23 Q1010=
17/01/2022 05:00:00Z	 SAID32 WIBB 170500	METAR WIBB 170500Z 05007KT 9999 BKN010 30/23 Q1010=
17/01/2022 05:30:00Z	 SAID32 WIBB 170530	METAR WIBB 170530Z 06006KT 9999 BKN010 30/23 Q1010=
17/01/2022 06:00:00Z	 SAID32 WIBB 170600	METAR WIBB 170600Z 06007KT 9000 BKN012 30/23 Q1009=
17/01/2022 06:30:00Z	 SAID32 WIBB 170630	METAR WIBB 170630Z 04007KT 9000 BKN012 30/23 Q1008=
17/01/2022 07:00:00Z	 SAID32 WIBB 170700	METAR WIBB 170700Z 32009KT 5000 -RA BKN012 28/25 Q1008=
17/01/2022 07:30:00Z	 SAID32 WIBB 170730	METAR WIBB 170730Z 26006KT 7000 SCT012 26/24 Q1007 RERA=
17/01/2022 08:00:00Z	 SAID32 WIBB 170800	METAR WIBB 170800Z 00000KT 7000 BKN012 FEW017CB 28/25 Q1006=
17/01/2022 08:30:00Z	 SAID32 WIBB 170830	METAR WIBB 170830Z 28004KT 7000 SCT012 FEW017CB 28/26 Q1006 NOSIG=
17/01/2022 09:00:00Z	 SAID32 WIBB 170900	METAR WIBB 170900Z 00000KT 8000 FEW015CB 28/25 Q1006=
17/01/2022 09:30:00Z	 SAID32 WIBB 170930	METAR WIBB 170930Z 00000KT 8000 FEW017CB 29/25 Q1006=
17/01/2022 10:00:00Z	 SAID32 WIBB 171000	METAR WIBB 171000Z 00000KT 8000 SCT013 29/25 Q1006 NOSIG=
17/01/2022 10:30:00Z	 SAID32 WIBB 171030	METAR WIBB 171030Z 00000KT 8000 SCT013 28/26 Q1006=
17/01/2022 11:00:00Z	 SAID32 WIBB 171100	METAR WIBB 171100Z 00000KT 8000 SCT013 28/25 Q1007 NOSIG=
17/01/2022 11:30:00Z	 SAID32 WIBB 171130	METAR WIBB 171130Z 00000KT 8000 SCT013 27/26 Q1007 NOSIG=
17/01/2022 12:00:00Z	 SAID32 WIBB 171200	METAR WIBB 171200Z 00000KT 7000 SCT012 27/26 Q1008 NOSIG=
17/01/2022 12:30:00Z	 SAID32 WIBB 171230	METAR WIBB 171230Z 00000KT 8000 SCT013 27/25 Q1008 NOSIG=
17/01/2022 13:00:00Z	 SAID32 WIBB 171300	METAR WIBB 171300Z 00000KT 7000 SCT013 27/25 Q1009 NOSIG=
17/01/2022 13:30:00Z	 SAID32 WIBB 171330	METAR WIBB 171330Z 00000KT 7000 SCT014 27/25 Q1009 NOSIG=
17/01/2022 14:00:00Z	 SAID32 WIBB 171400	METAR WIBB 171400Z 00000KT 7000 SCT014 26/25 Q1009 NOSIG=
17/01/2022 14:30:00Z	 SAID32 WIBB 171430	METAR WIBB 171430Z 00000KT 7000 SCT014 26/25 Q1010 NOSIG=
17/01/2022 15:00:00Z	 SAID32 WIBB 171500	METAR WIBB 171500Z 00000KT 7000 SCT015 26/25 Q1010 NOSIG=
17/01/2022 16:00:00Z	 SAID32 WIBB 171600	METAR WIBB 171600Z 00000KT 7000 SCT015 26/25 Q1010 NOSIG=
17/01/2022 16:30:00Z	 SAID32 WIBB 171630	METAR WIBB 171630Z 00000KT 7000 SCT015 26/25 Q1010 NOSIG=
17/01/2022 17:00:00Z	 SAID32 WIBB 171700	METAR WIBB 171700Z 00000KT 7000 SCT015 26/25 Q1011 NOSIG=
17/01/2022 17:30:00Z	 SAID32 WIBB 171730	METAR WIBB 171730Z 00000KT 7000 SCT015 26/25 Q1010 NOSIG=
17/01/2022 18:00:00Z	 SAID32 WIBB 171800	METAR WIBB 171800Z 00000KT 7000 SCT014 26/25 Q1010 NOSIG=
17/01/2022 21:00:00Z	 SAID32 WIBB 172100	METAR WIBB 172100Z 00000KT 4000 -TSRA SCT010 FEW015CB 22/22 Q1009 NOSIG=
17/01/2022 22:00:00Z	 SAID32 WIBB 172200	METAR WIBB 172200Z 00000KT 5000 -TSRA SCT009 FEW015CB 22/22 Q1009 NOSIG=
17/01/2022 23:00:00Z	 SAID32 WIBB 172300	METAR WIBB 172300Z 00000KT 6000 RA SCT010 22/22 Q1010 NOSIG=
17/01/2022 23:30:00Z	 SAID32 WIBB 172330	METAR WIBB 172330Z 00000KT 7000 -RA SCT007 22/22 Q1010 NOSIG=
18/01/2022 00:00:00Z	 SAID32 WIBB 180000	METAR WIBB 180000Z 00000KT 8000 -RA SCT008 22/22 Q1010 NOSIG=
18/01/2022 00:30:00Z	 SAID32 WIBB 180030	METAR WIBB 180030Z 00000KT 8000 SCT010 22/22 Q1011 NOSIG=
18/01/2022 01:00:00Z	 SAID32 WIBB 180100	METAR WIBB 180100Z 00000KT 8000 SCT009 22/1011 Q1008=
18/01/2022 01:30:00Z	 SAID32 WIBB 180130	METAR WIBB 180130Z 00000KT 8000 SCT009 23/1011 Q1008=
18/01/2022 02:00:00Z	 SAID32 WIBB 180200	METAR WIBB 180200Z 00000KT 8000 SCT009 23/23 Q1012=
18/01/2022 02:30:00Z	 SAID32 WIBB 180230	METAR COR WIBB 180230Z 00000KT 8000 SCT009 24/23 Q1012=
18/01/2022 03:00:00Z	 SAID32 WIBB 180300	METAR WIBB 180300Z 00000KT 8000 SCT009 26/24 Q1012=
18/01/2022 03:30:00Z	 SAID32 WIBB 180330	METAR WIBB 180330Z 03008KT 8000 SCT010 27/24 Q1011=
18/01/2022 04:00:00Z	 SAID32 WIBB 180400	METAR WIBB 180400Z 35005KT 8000 SCT010 27/24 Q1011=
18/01/2022 04:30:00Z	 SAID32 WIBB 180430	METAR WIBB 180430Z 00000KT 8000 BKN010 27/24 Q1011=
18/01/2022 05:30:00Z	 SAID32 WIBB 180530	METAR WIBB 180530Z 13007KT 8000 SCT012 28/23 Q1010=
18/01/2022 06:00:00Z	 SAID32 WIBB 180600	METAR WIBB 180600Z 34006KT 7000 BKN012 28/24 Q1009=
18/01/2022 07:00:00Z	 SAID32 WIBB 180700	METAR WIBB 180700Z 04005KT 7000 -RA SCT012 25/24 Q1009=
18/01/2022 07:30:00Z	 SAID32 WIBB 180730	METAR WIBB 180730Z 04006KT 9000 SCT012 26/24 Q1008 RERA NOSIG=
18/01/2022 08:00:00Z	 SAID32 WIBB 180800	METAR WIBB 180800Z 02005KT 9000 SCT012 28/24 Q1007 NOSIG=
18/01/2022 08:30:00Z	 SAID32 WIBB 180830	METAR WIBB 180830Z 03007KT 9000 SCT012 28/24 Q1007 NOSIG=
18/01/2022 09:00:00Z	 SAID32 WIBB 180900	METAR WIBB 180900Z 32005KT 9000 SCT012 28/24 Q1007 NOSIG=
18/01/2022 09:30:00Z	 SAID32 WIBB 180930	METAR WIBB 180930Z 30005KT 9000 SCT012 28/24 Q1007 NOSIG=
18/01/2022 10:00:00Z	 SAID32 WIBB 181000	METAR WIBB 181000Z 28008KT 7000 -RA SCT010 26/25 Q1007=
18/01/2022 10:30:00Z	 SAID32 WIBB 181030	METAR WIBB 181030Z 00000KT 8000 SCT012 26/25 Q1007 RERA=
18/01/2022 11:00:00Z	 SAID32 WIBB 181100	METAR WIBB 181100Z 00000KT 9000 SCT013 26/25 Q1007=
18/01/2022 11:30:00Z	 SAID32 WIBB 181130	METAR WIBB 181130Z 00000KT 8000 SCT012 25/24 Q1008=
18/01/2022 12:00:00Z	 SAID32 WIBB 181200	METAR WIBB 181200Z 00000KT 8000 SCT013 25/25 Q1008=
18/01/2022 12:30:00Z	 SAID32 WIBB 181230	METAR WIBB 181230Z 00000KT 7000 SCT013 25/25 Q1008=
18/01/2022 23:00:00Z	 SAID32 WIBB 182300	METAR WIBB 182300Z 00000KT 3000 BR SCT012 23/23 Q1008=
18/01/2022 23:30:00Z	 SAID32 WIBB 182330	METAR WIBB 182330Z 00000KT 1000 BR BKN008 24/23 Q1009=
19/01/2022 00:00:00Z	 SAID32 WIBB 190000	METAR WIBB 190000Z 00000KT 3000 BR BKN010 24/24 Q1009=
19/01/2022 00:06:00Z	 SAID32 WIBB 190006	METAR WIBB 190006Z 00000KT 3000 BR BKN010 24/24 Q1009=
19/01/2022 00:30:00Z	 SAID32 WIBB 190030	METAR WIBB 190030Z 00000KT 3000 BR BKN010 24/24 Q1010=
19/01/2022 01:00:00Z	 SAID32 WIBB 190100	METAR WIBB 190100Z 00000KT 6000 BKN010 24/23 Q1010=
19/01/2022 01:30:00Z	 SAID32 WIBB 190130	METAR WIBB 190130Z 00000KT 6000 BKN010 25/24 Q1010=
19/01/2022 02:00:00Z	 SAID32 WIBB 190200	METAR WIBB 190200Z 00000KT 7000 BKN010 26/24 Q1010 NOSIG=
19/01/2022 02:30:00Z	 SAID32 WIBB 190230	METAR WIBB 190230Z 08005KT 7000 BKN009 26/23 Q1011=
19/01/2022 03:00:00Z	 SAID32 WIBB 190300	METAR WIBB 190300Z 05004KT 7000 BKN010 27/24 Q1011=
19/01/2022 03:30:00Z	 SAID32 WIBB 190330	METAR WIBB 190330Z 05007KT 7000 BKN010 28/23 Q1011 NOSIG=
19/01/2022 04:00:00Z	 SAID32 WIBB 190400	METAR WIBB 190400Z 08008KT 7000 BKN010 28/24 Q1010 NOSIG=
19/01/2022 04:30:00Z	 SAID32 WIBB 190430	METAR WIBB 190430Z 06010KT 7000 BKN010 29/23 Q1010=
19/01/2022 05:00:00Z	 SAID32 WIBB 190500	METAR WIBB 190500Z 04008KT 7000 BKN010 29/23 Q1009=
19/01/2022 05:30:00Z	 SAID32 WIBB 190530	METAR WIBB 190530Z 35009KT 7000 BKN009 FEW015CB 29/23 Q1009=
19/01/2022 06:00:00Z	 SAID32 WIBB 190600	METAR WIBB 190600Z 02008KT 8000 BKN010 FEW014CB 29/23 Q1008 RMK CB TO W=
19/01/2022 06:30:00Z	 SAID32 WIBB 190630	METAR WIBB 190630Z 35007KT 310V070 8000 BKN009 FEW014CB 30/23 Q1008 CB TO NW=
19/01/2022 07:00:00Z	 SAID32 WIBB 190700	METAR WIBB 190700Z 03004KT 9000 SCT013CB 29/28 Q1007 NOSIG=
19/01/2022 07:30:00Z	 SAID32 WIBB 190730	METAR WIBB 190730Z 31005KT 9000 SCT014CB 27/24 Q1007 NOSIG=
19/01/2022 08:30:00Z	 SAID32 WIBB 190830	METAR WIBB 190830Z 19006KT 9999 SCT015CB 29/25 Q1006 NOSIG=
19/01/2022 09:00:00Z	 SAID32 WIBB 190900	METAR WIBB 190900Z 21005KT 9999 SCT015CB 26/24 Q1006 NOSIG=
19/01/2022 09:30:00Z	 SAID32 WIBB 190930	METAR WIBB 190930Z 21005KT 8000 -RA SCT015CB 26/24 Q1007 NOSIG=
19/01/2022 10:00:00Z	 SAID32 WIBB 191000	METAR WIBB 191000Z 03012KT 0500 +RA BKN010CB 24/24 Q1007 NOSIG=
19/01/2022 10:30:00Z	 SAID32 WIBB 191030	METAR WIBB 191030Z 00000KT 1000 +TSRA SCT009 FEW015CB 23/23 Q1008 NOSIG=
19/01/2022 11:00:00Z	 SAID32 WIBB 191100	METAR WIBB 191100Z 30005KT 3000 +RA SCT008 FEW015CB 23/23 Q1008 NOSIG=
19/01/2022 11:30:00Z	 SAID32 WIBB 191130	METAR WIBB 191130Z 29005KT 5000 -RA SCT009 FEW015CB 23/23 Q1009 NOSIG=
19/01/2022 12:00:00Z	 SAID32 WIBB 191200	METAR WIBB 191200Z 27005KT 6000 -RA SCT009 FEW015CB 23/23 Q1009 NOSIG=
19/01/2022 12:30:00Z	 SAID32 WIBB 191230	METAR WIBB 191230Z 00000KT 7000 -RA SCT009 FEW015CB 23/23 Q1009 NOSIG=
19/01/2022 13:00:00Z	 SAID32 WIBB 191300	METAR WIBB 191300Z 00000KT 6000 -RA SCT009 FEW015CB 23/23 Q1010=
19/01/2022 13:30:00Z	 SAID32 WIBB 191330	METAR WIBB 191330Z 00000KT 6000 -RA SCT009 23/23 Q1010=
19/01/2022 14:00:00Z	 SAID32 WIBB 191400	METAR WIBB 191400Z 00000KT 7000 -RA SCT009 23/23 Q1010=
19/01/2022 14:30:00Z	 SAID32 WIBB 191430	METAR WIBB 191430Z 00000KT 7000 SCT009 23/23 Q1010=
19/01/2022 15:00:00Z	 SAID32 WIBB 191500	METAR WIBB 191500Z 00000KT 7000 SCT009 23/23 Q1010=
19/01/2022 18:30:00Z	 SAID32 WIBB 191830	METAR WIBB 191830Z 00000KT 7000 SCT010 23/23 Q1010=
19/01/2022 21:00:00Z	 SAID32 WIBB 192100	METAR WIBB 192100Z 00000KT 6000 SCT008 23/23 Q1008=
19/01/2022 21:30:00Z	 SAID32 WIBB 192130	METAR WIBB 192130Z 00000KT 5000 HZ SCT008 23/23 Q1008=
19/01/2022 22:30:00Z	 SAID32 WIBB 192230	METAR WIBB 192230Z 00000KT 5000 HZ SCT008 23/23 Q1008=
19/01/2022 23:00:00Z	 SAID32 WIBB 192300	METAR WIBB 192300Z 00000KT 4000 HZ SCT008 23/23 Q1009=
19/01/2022 23:30:00Z	 SAID32 WIBB 192330	METAR COR WIBB 192330Z 00000KT 2000 BR SCT008 23/23 Q1009=
20/01/2022 00:00:00Z	 SAID32 WIBB 200000	METAR WIBB 200000Z 00000KT 2000 BR FEW008 23/23 Q1009=
20/01/2022 00:30:00Z	 SAID32 WIBB 200030	METAR WIBB 200030Z 00000KT 3000 BR FEW008 23/23 Q1009=
20/01/2022 01:00:00Z	 SAID32 WIBB 200100	METAR WIBB 200100Z 27006KT 4000 HZ SCT007 24/23 Q1010=
20/01/2022 01:30:00Z	 SAID32 WIBB 200130	METAR WIBB 200130Z 00000KT 5000 HZ SCT007 25/23 Q1010=
20/01/2022 02:00:00Z	 SAID32 WIBB 200200	METAR WIBB 200200Z 00000KT 6000 BKN008 26/23 Q1010=
20/01/2022 02:30:00Z	 SAID32 WIBB 200230	METAR WIBB 200230Z 28004KT 6000 BKN008 26/23 Q1011=
20/01/2022 03:00:00Z	 SAID32 WIBB 200300	METAR WIBB 200300Z 33005KT 7000 BKN008 27/23 Q1010=
20/01/2022 03:30:00Z	 SAID32 WIBB 200330	METAR WIBB 200330Z 04005KT 7000 SCT008 28/23 Q1010=
20/01/2022 04:00:00Z	 SAID32 WIBB 200400	METAR WIBB 200400Z 02007KT 310V070 7000 BKN010 28/23 Q1010=
20/01/2022 04:30:00Z	 SAID32 WIBB 200430	METAR WIBB 200430Z 05008KT 7000 BKN010 29/23 Q1009 NOSIG=
20/01/2022 05:00:00Z	 SAID32 WIBB 200500	METAR WIBB 200500Z 05008KT 350V110 8000 BKN010 29/22 Q1009=
20/01/2022 05:30:00Z	 SAID32 WIBB 200530	METAR WIBB 200530Z 03006KT 8000 BKN010 29/23 Q1009 NOSIG=
20/01/2022 06:00:00Z	 SAID32 WIBB 200600	METAR WIBB 200600Z 04005KT 8000 BKN010 29/23 Q1008 NOSIG=
20/01/2022 06:30:00Z	 SAID32 WIBB 200630	METAR WIBB 200630Z 01007KT 8000 BKN010 30/23 Q1008 NOSIG=
20/01/2022 07:00:00Z	 SAID32 WIBB 200700	METAR WIBB 200700Z 03008KT 9999 SCT014 31/23 Q1007 NOSIG=
20/01/2022 07:30:00Z	 SAID32 WIBB 200730	METAR WIBB 200730Z 00000KT 9999 SCT014 31/22 Q1007 NOSIG=
20/01/2022 08:00:00Z	 SAID32 WIBB 200800	METAR WIBB 200800Z 00000KT 9999 SCT014 31/23 Q1007 NOSIG=
20/01/2022 08:30:00Z	 SAID32 WIBB 200830	METAR WIBB 200830Z 00000KT 9999 SCT014 31/22 Q1006 NOSIG=
20/01/2022 09:00:00Z	 SAID32 WIBB 200900	METAR WIBB 200900Z 00000KT 9999 FEW013 31/23 Q1006 NOSIG=
20/01/2022 09:30:00Z	 SAID32 WIBB 200930	METAR WIBB 200930Z 00000KT 9999 FEW013 31/22 Q1006 NOSIG=
20/01/2022 10:00:00Z	 SAID32 WIBB 201000	METAR WIBB 201000Z 00000KT 9999 FEW013 32/22 Q1006 NOSIG=
20/01/2022 10:30:00Z	 SAID32 WIBB 201030	METAR WIBB 201030Z 07005KT 9999 FEW013 31/22 Q1006 NOSIG=
20/01/2022 11:00:00Z	 SAID32 WIBB 201100	METAR WIBB 201100Z 06005KT 9000 FEW015 30/22 Q1006 NOSIG=
20/01/2022 11:30:00Z	 SAID32 WIBB 201130	METAR WIBB 201130Z 00000KT 9000 FEW015 29/23 Q1006 NOSIG=
20/01/2022 12:00:00Z	 SAID32 WIBB 201200	METAR WIBB 201200Z 00000KT 8000 FEW015 28/24 Q1007 NOSIG=
20/01/2022 12:30:00Z	 SAID32 WIBB 201230	METAR WIBB 201230Z 00000KT 8000 FEW015 28/24 Q1007 NOSIG=
20/01/2022 13:00:00Z	 SAID32 WIBB 201300	METAR WIBB 201300Z 00000KT 8000 FEW015 28/24 Q1008 NOSIG=
20/01/2022 13:30:00Z	 SAID32 WIBB 201330	METAR WIBB 201330Z 00000KT 8000 FEW015 28/25 Q1008=
20/01/2022 14:00:00Z	 SAID32 WIBB 201400	METAR WIBB 201400Z 00000KT 8000 FEW015 28/24 Q1009=
20/01/2022 15:00:00Z	 SAID32 WIBB 201500	METAR WIBB 201500Z 00000KT 8000 FEW015 27/24 Q1009=
20/01/2022 18:00:00Z	 SAID32 WIBB 201800	METAR WIBB 201800Z 00000KT 8000 FEW015 25/24 Q1009=
20/01/2022 21:00:00Z	 SAID32 WIBB 202100	METAR WIBB 202100Z 00000KT 7000 FEW015 25/24 Q1008=
20/01/2022 22:00:00Z	 SAID32 WIBB 202200	METAR WIBB 202200Z 00000KT 7000 FEW015 24/24 Q1008=
20/01/2022 22:30:00Z	 SAID32 WIBB 202230	METAR WIBB 202230Z 00000KT 7000 FEW015 24/24 Q1008=
20/01/2022 23:00:00Z	 SAID32 WIBB 202300	METAR WIBB 202300Z 00000KT 7000 FEW015 24/24 Q1008=
20/01/2022 23:30:00Z	 SAID32 WIBB 202330	METAR WIBB 202330Z 00000KT 6000 FEW015 24/24 Q1008=
21/01/2022 00:00:00Z	 SAID32 WIBB 210000	METAR WIBB 210000Z 00000KT 6000 FEW014 24/24 Q1009=
21/01/2022 00:30:00Z	 SAID32 WIBB 210030	METAR WIBB 210030Z 00000KT 6000 FEW014 25/24 Q1009=
21/01/2022 01:00:00Z	 SAID32 WIBB 210100	METAR WIBB 210100Z 06004KT 6000 BKN010 25/24 Q1010=
21/01/2022 01:30:00Z	 SAID32 WIBB 210130	METAR WIBB 210130Z 00000KT 6000 BKN009 26/24 Q1010=
21/01/2022 02:00:00Z	 SAID32 WIBB 210200	METAR WIBB 210200Z 05007KT 7000 BKN010 26/24 Q1011=
21/01/2022 02:30:00Z	 SAID32 WIBB 210230	METAR WIBB 210230Z 06008KT 7000 BKN010 27/24 Q1011 NOSIG=
21/01/2022 03:00:00Z	 SAID32 WIBB 210300	METAR WIBB 210300Z 04007KT 7000 BKN010 27/24 Q1011 NOSIG=
21/01/2022 03:30:00Z	 SAID32 WIBB 210330	METAR WIBB 210330Z 07008KT 7000 BKN010 27/24 Q1011 NOSIG=
21/01/2022 04:00:00Z	 SAID32 WIBB 210400	METAR WIBB 210400Z 09008KT 050V130 7000 BKN010 29/24 Q1010 NOSIG=
21/01/2022 04:30:00Z	 SAID32 WIBB 210430	METAR WIBB 210430Z 01010KT 7000 BKN010 29/24 Q1010 NOSIG=
21/01/2022 05:00:00Z	 SAID32 WIBB 210500	METAR WIBB 210500Z 36007KT 8000 BKN010 30/23 Q1010=
21/01/2022 05:30:00Z	 SAID32 WIBB 210530	METAR WIBB 210530Z 04008KT 020V100 8000 BKN010 30/24 Q1009=
21/01/2022 06:00:00Z	 SAID32 WIBB 210600	METAR WIBB 210600Z 01006KT 320V180 8000 BKN012 30/23 Q1008=
21/01/2022 06:30:00Z	 SAID32 WIBB 210630	METAR WIBB 210630Z 05006KT 8000 BKN012 30/23 Q1008 NOSIG=
21/01/2022 07:00:00Z	 SAID32 WIBB 210700	METAR WIBB 210700Z 03007KT 9999 SCT013 31/23 Q1007 NOSIG=
21/01/2022 07:30:00Z	 SAID32 WIBB 210730	METAR WIBB 210730Z 06005KT 9999 BKN013 31/23 Q1006 NOSIG=
21/01/2022 08:00:00Z	 SAID32 WIBB 210800	METAR WIBB 210800Z 06005KT 9999 BKN013 32/22 Q1006 NOSIG=
21/01/2022 08:30:00Z	 SAID32 WIBB 210830	METAR WIBB 210830Z 04006KT 9999 BKN013 31/23 Q1006 NOSIG=
21/01/2022 09:00:00Z	 SAID32 WIBB 210900	METAR WIBB 210900Z 03010KT 8000 FEW017CB 32/23 Q1005=
21/01/2022 09:30:00Z	 SAID32 WIBB 210930	METAR WIBB 210930Z 05011KT 8000 FEW017CB 30/24 Q1005=
21/01/2022 10:30:00Z	 SAID32 WIBB 211030	METAR WIBB 211030Z 05006KT 9999 SCT013 29/24 Q1006 NOSIG=
21/01/2022 11:00:00Z	 SAID32 WIBB 211100	METAR WIBB 211100Z 05006KT 9999 SCT013 29/24 Q1006 NOSIG=
21/01/2022 11:30:00Z	 SAID32 WIBB 211130	METAR WIBB 211130Z 05005KT 9999 SCT013 28/25 Q1006 NOSIG=
21/01/2022 12:00:00Z	 SAID32 WIBB 211200	METAR WIBB 211200Z 05005KT 8000 SCT012 28/25 Q1006 NOSIG=
21/01/2022 12:30:00Z	 SAID32 WIBB 211230	METAR WIBB 211230Z 05005KT 8000 SCT012 29/25 Q1006 NOSIG=
21/01/2022 13:00:00Z	 SAID32 WIBB 211300	METAR WIBB 211300Z 00000KT 8000 SCT013 28/25 Q1007 NOSIG=
21/01/2022 13:30:00Z	 SAID32 WIBB 211330	METAR WIBB 211330Z AUTO 06003KT 9999 ////// 31/27 Q1007=
21/01/2022 14:00:00Z	 SAID32 WIBB 211400	METAR COR WIBB 211400Z 00000KT 8000 FEW015 27/25 Q1008 NOSIG=
21/01/2022 14:30:00Z	 SAID32 WIBB 211430	METAR WIBB 211430Z 00000KT 8000 FEW015 27/24 Q1009 NOSIG=
21/01/2022 15:00:00Z	 SAID32 WIBB 211500	METAR WIBB 211500Z 00000KT 8000 FEW015 27/25 Q1009 NOSIG=
21/01/2022 15:30:00Z	 SAID32 WIBB 211530	METAR WIBB 211530Z 23005KT 8000 FEW015 26/25 Q1009 NOSIG=
21/01/2022 16:00:00Z	 SAID32 WIBB 211600	METAR WIBB 211600Z 23005KT 7000 -RA SCT013 26/25 Q1009 NOSIG=
21/01/2022 16:30:00Z	 SAID32 WIBB 211630	METAR WIBB 211630Z 00000KT 8000 SCT013 26/25 Q1009 NOSIG=
21/01/2022 17:00:00Z	 SAID32 WIBB 211700	METAR WIBB 211700Z 00000KT 8000 SCT013 25/25 Q1009 NOSIG=
21/01/2022 17:30:00Z	 SAID32 WIBB 211730	METAR WIBB 211730Z 00000KT 8000 SCT013 25/25 Q1009 NOSIG=
21/01/2022 18:00:00Z	 SAID32 WIBB 211800	METAR WIBB 211800Z 00000KT 8000 SCT013 25/25 Q1009 NOSIG=
21/01/2022 18:30:00Z	 SAID32 WIBB 211830	METAR WIBB 211830Z AUTO 26006KT 9999 -RA ////// 28/28 Q1009=
21/01/2022 19:00:00Z	 SAID32 WIBB 211900	METAR WIBB 211900Z AUTO 28004KT 9999 -RA ////// 28/28 Q1009=
21/01/2022 19:30:00Z	 SAID32 WIBB 211930	METAR WIBB 211930Z AUTO 28003KT 9999 ////// 28/27 Q1009=
21/01/2022 20:00:00Z	 SAID32 WIBB 212000	METAR WIBB 212000Z AUTO 29002KT 9999 ////// 27/27 Q1008=
21/01/2022 20:30:00Z	 SAID32 WIBB 212030	METAR WIBB 212030Z AUTO 25003KT 210V280 9999 ////// 27/27 Q1008=
21/01/2022 21:00:00Z	 SAID32 WIBB 212100	METAR WIBB 212100Z AUTO 27002KT 9999 ////// 27/27 Q1008=
21/01/2022 21:30:00Z	 SAID32 WIBB 212130	METAR WIBB 212130Z AUTO 23002KT 9999 ////// 27/27 Q1008=
21/01/2022 22:00:00Z	 SAID32 WIBB 212200	METAR WIBB 212200Z 00000KT 8000 SCT010 24/23 Q1008 NOSIG=
21/01/2022 22:30:00Z	 SAID32 WIBB 212230	METAR WIBB 212230Z AUTO 01001KT 9999 ////// 27/26 Q1008=
21/01/2022 23:00:00Z	 SAID32 WIBB 212300	METAR WIBB 212300Z 00000KT 8000 FEW013 24/24 Q1009 NOSIG=
21/01/2022 23:30:00Z	 SAID32 WIBB 212330	METAR WIBB 212330Z 00000KT 8000 SCT007 24/24 Q1009 NOSIG=
22/01/2022 00:00:00Z	 SAID32 WIBB 220000	METAR WIBB 220000Z AUTO 13002KT 9999 -RA ////// 27/27 Q1009=
22/01/2022 00:30:00Z	 SAID32 WIBB 220030	METAR WIBB 220030Z 00000KT 8000 SCT008 25/24 Q1010 NOSIG=
22/01/2022 01:00:00Z	 SAID32 WIBB 220100	METAR WIBB 220100Z AUTO 22001KT 9999 -RA ////// 28/27 Q1010=
22/01/2022 01:30:00Z	 SAID32 WIBB 220130	METAR WIBB 220130Z AUTO 22001KT 9999 ////// 29/27 Q1010=
22/01/2022 02:00:00Z	 SAID32 WIBB 220200	METAR WIBB 220200Z 00000KT 8000 SCT008 29/27 Q1010=
22/01/2022 02:30:00Z	 SAID32 WIBB 220230	METAR WIBB 220230Z AUTO 23001KT 9999 ////// 30/27 Q1011=
22/01/2022 03:00:00Z	 SAID32 WIBB 220300	METAR WIBB 220300Z 00000KT 8000 BKN009 31/27 Q1010=
22/01/2022 03:30:00Z	 SAID32 WIBB 220330	METAR WIBB 220330Z 06004KT 8000 BKN009 31/27 Q1010=
22/01/2022 04:00:00Z	 SAID32 WIBB 220400	METAR WIBB 220400Z 00000KT 8000 BKN010 28/24 Q1010=
22/01/2022 04:30:00Z	 SAID32 WIBB 220430	METAR WIBB 220430Z 00000KT 8000 BKN010 32/27 Q1010=
22/01/2022 05:00:00Z	 SAID32 WIBB 220500	METAR WIBB 220500Z 05006KT 9000 BKN010 32/26 Q1009=
22/01/2022 05:30:00Z	 SAID32 WIBB 220530	METAR COR WIBB 220530Z 06004KT 9000 BKN010 29/23 Q1008=
22/01/2022 06:00:00Z	 SAID32 WIBB 220600	METAR WIBB 220600Z 00000KT 9000 SCT010 FEW015CB 30/24 Q1008=
22/01/2022 06:30:00Z	 SAID32 WIBB 220630	METAR WIBB 220630Z 00000KT 8000 SCT010 FEW015CB 32/27 Q1008=
22/01/2022 07:00:00Z	 SAID32 WIBB 220700	METAR WIBB 220700Z 31008KT 6000 -RA BKN010 FEW013CB 29/24 Q1007 RMK CB OVER THE FIELD=
22/01/2022 07:30:00Z	 SAID32 WIBB 220730	METAR WIBB 220730Z 22008KT 7000 BKN010 FEW013CB 27/24 Q1006=
22/01/2022 08:00:00Z	 SAID32 WIBB 220800	METAR WIBB 220800Z 27005KT 7000 -RA SCT010 SCT013CB 27/24 Q1006 RMK CB OVER THE FIELD=
22/01/2022 08:30:00Z	 SAID32 WIBB 220830	METAR WIBB 220830Z 03008KT 0400 TSRA BKN008 SCT013CB 24/24 Q1006 RMK CB OVER THE FIELD=
22/01/2022 09:00:00Z	 SAID32 WIBB 220900	METAR WIBB 220900Z 00000KT 4000 -TSRA BKN009 FEW013CB 24/24 Q1006 CB OVER THE FIELD=
22/01/2022 09:30:00Z	 SAID32 WIBB 220930	METAR WIBB 220930Z 00000KT 6000 -RA BKN010 25/25 Q1006=
22/01/2022 10:00:00Z	 SAID32 WIBB 221000	METAR WIBB 221000Z 00000KT 7000 BKN010 25/24 Q1006=
22/01/2022 10:30:00Z	 SAID32 WIBB 221030	METAR WIBB 221030Z 00000KT 8000 BKN010 28/23 Q1010=
22/01/2022 11:00:00Z	 SAID32 WIBB 221100	METAR WIBB 221100Z 00000KT 7000 SCT012 26/25 Q1006 NOSIG=
22/01/2022 11:30:00Z	 SAID32 WIBB 221130	METAR WIBB 221130Z 00000KT 7000 SCT012 25/25 Q1006 NOSIG=
22/01/2022 12:00:00Z	 SAID32 WIBB 221200	METAR WIBB 221200Z 00000KT 7000 BKN012 25/25 Q1006 NOSIG=
22/01/2022 12:30:00Z	 SAID32 WIBB 221230	METAR WIBB 221230Z 00000KT 6000 BKN012 25/25 Q1007 NOSIG=
22/01/2022 13:00:00Z	 SAID32 WIBB 221300	METAR WIBB 221300Z 00000KT 7000 BKN012 25/25 Q1007 NOSIG=
22/01/2022 13:30:00Z	 SAID32 WIBB 221330	METAR WIBB 221330Z 00000KT 6000 BKN012 25/25 Q1007=
22/01/2022 14:00:00Z	 SAID32 WIBB 221400	METAR WIBB 221400Z 00000KT 6000 SCT012 25/25 Q1007=
22/01/2022 14:30:00Z	 SAID32 WIBB 221430	METAR WIBB 221430Z 00000KT 7000 FEW012 24/24 Q1008 NOSIG=
22/01/2022 15:00:00Z	 SAID32 WIBB 221500	METAR WIBB 221500Z 00000KT 4000 HZ SCT012 24/24 Q1008=
22/01/2022 15:30:00Z	 SAID32 WIBB 221530	METAR WIBB 221530Z 00000KT 5000 HZ SCT012 24/24 Q1008=
22/01/2022 16:00:00Z	 SAID32 WIBB 221600	METAR WIBB 221600Z 00000KT 5000 HZ SCT012 24/24 Q1008=
22/01/2022 16:30:00Z	 SAID32 WIBB 221630	METAR WIBB 221630Z 00000KT 5000 BR SCT012 24/24 Q1008=
22/01/2022 17:00:00Z	 SAID32 WIBB 221700	METAR WIBB 221700Z 20005KT 7000 SCT012 23/23 Q1008=
22/01/2022 17:30:00Z	 SAID32 WIBB 221730	METAR WIBB 221730Z 20005KT 8000 SCT013 23/23 Q1008=
22/01/2022 18:00:00Z	 SAID32 WIBB 221800	METAR WIBB 221800Z 00000KT 7000 SCT013 23/23 Q1008=
22/01/2022 19:00:00Z	 SAID32 WIBB 221900	METAR WIBB 221900Z 00000KT 8000 FEW015 23/23 Q1007=
22/01/2022 21:00:00Z	 SAID32 WIBB 222100	METAR WIBB 222100Z 00000KT 5000 HZ BKN010 24/24 Q1007=
22/01/2022 21:30:00Z	 SAID32 WIBB 222130	METAR WIBB 222130Z 00000KT 5000 HZ BKN010 24/24 Q1007=
22/01/2022 22:00:00Z	 SAID32 WIBB 222200	METAR WIBB 222200Z 00000KT 5000 HZ BKN010 24/24 Q1007=
22/01/2022 22:30:00Z	 SAID32 WIBB 222230	METAR WIBB 222230Z 00000KT 5000 HZ BKN010 24/24 Q1008=
22/01/2022 23:00:00Z	 SAID32 WIBB 222300	METAR WIBB 222300Z 00000KT 6000 BKN008 FEW013CB 24/24 Q1008=
22/01/2022 23:30:00Z	 SAID32 WIBB 222330	METAR WIBB 222330Z 00000KT 3000 BR BKN010 FEW013CB 24/24 Q1008=
23/01/2022 00:00:00Z	 SAID32 WIBB 230000	METAR WIBB 230000Z 00000KT 3000 BR SCT010 FEW015CB 24/24 Q1009=
23/01/2022 00:30:00Z	 SAID32 WIBB 230030	METAR WIBB 230030Z 00000KT 4000 HZ SCT012 FEW015CB 24/24 Q1009=
23/01/2022 01:00:00Z	 SAID32 WIBB 230100	METAR WIBB 230100Z 00000KT 5000 HZ SCT010 FEW015CB 24/24 Q1009=
23/01/2022 01:30:00Z	 SAID32 WIBB 230130	METAR WIBB 230130Z 00000KT 7000 SCT010 28/27 Q1010=
23/01/2022 02:00:00Z	 SAID32 WIBB 230200	METAR WIBB 230200Z 00000KT 8000 SCT008 28/27 Q1010=
23/01/2022 02:30:00Z	 SAID32 WIBB 230230	METAR WIBB 230230Z 09005KT 8000 SCT010 29/27 Q1010=
23/01/2022 03:00:00Z	 SAID32 WIBB 230300	METAR WIBB 230300Z 07005KT 8000 SCT010 26/24 Q1010=
23/01/2022 03:30:00Z	 SAID32 WIBB 230330	METAR WIBB 230330Z 12006KT 8000 SCT010 27/28 Q1010=
23/01/2022 04:00:00Z	 SAID32 WIBB 230400	METAR WIBB 230400Z 11004KT 8000 SCT010 31/28 Q1010=
23/01/2022 04:30:00Z	 SAID32 WIBB 230430	METAR WIBB 230430Z 12004KT 9000 SCT010 32/27 Q1009=
23/01/2022 05:00:00Z	 SAID32 WIBB 230500	METAR WIBB 230500Z 00000KT 9000 SCT010 32/28 Q1009=
23/01/2022 05:30:00Z	 SAID32 WIBB 230530	METAR WIBB 230530Z 00000KT 9000 SCT012 30/25 Q1008=
23/01/2022 06:00:00Z	 SAID32 WIBB 230600	METAR WIBB 230600Z 36004KT 9000 SCT012 30/25 Q1007=
23/01/2022 06:30:00Z	 SAID32 WIBB 230630	METAR WIBB 230630Z 00000KT 9000 SCT012 31/24 Q1007=
23/01/2022 07:00:00Z	 SAID32 WIBB 230700	METAR WIBB 230700Z 02005KT 9000 BKN012 31/24 Q1006 NOSIG=
23/01/2022 07:30:00Z	 SAID32 WIBB 230730	METAR WIBB 230730Z 00000KT 9000 BKN012 31/23 Q1006 NOSIG=
23/01/2022 08:00:00Z	 SAID32 WIBB 230800	METAR WIBB 230800Z 06005KT 9000 SCT012 32/23 Q1005 NOSIG=
23/01/2022 08:30:00Z	 SAID32 WIBB 230830	METAR WIBB 230830Z 00000KT 9000 BKN012 31/24 Q1005 NOSIG=
23/01/2022 09:00:00Z	 SAID32 WIBB 230900	METAR WIBB 230900Z 06007KT 8000 BKN012 31/24 Q1005 NOSIG=
23/01/2022 09:30:00Z	 SAID32 WIBB 230930	METAR WIBB 230930Z 06004KT 6000 -RA SCT010 FEW013CB 31/24 Q1005 RMK CB OVER THE FIELD=
23/01/2022 10:00:00Z	 SAID32 WIBB 231000	METAR WIBB 231000Z 18013KT 3000 RA SCT010 SCT013CB 28/24 Q1005 TEMPO TL1130 4000 RA RMK CB OVER THE FIELD=
23/01/2022 10:30:00Z	 SAID32 WIBB 231030	METAR WIBB 231030Z 18007KT 4000 RA SCT010 SCT013CB 26/25 Q1005 CB OVER THE FIELD=
23/01/2022 11:00:00Z	 SAID32 WIBB 231100	METAR WIBB 231100Z 17004KT 6000 -TSRA SCT010 SCT013CB 26/25 Q1006 RMK CB OVER THE FIELD=
23/01/2022 11:30:00Z	 SAID32 WIBB 231130	METAR WIBB 231130Z 21012KT 6000 -TSRA BKN008 SCT010CB 25/25 Q1007 RMK CB OVER THE FIELD=
23/01/2022 12:00:00Z	 SAID32 WIBB 231200	METAR WIBB 231200Z 21012KT 6000 -TSRA BKN008 SCT010CB 25/25 Q1007 TEMPO TL1330 4000 TSRA RMK CB OVER THE FIELD=
23/01/2022 12:30:00Z	 SAID32 WIBB 231230	METAR WIBB 231230Z 20008KT 5000 -TSRA BKN008 SCT010CB 25/24 Q1007 RMK CB OVER THE FIELD=
23/01/2022 13:00:00Z	 SAID32 WIBB 231300	METAR WIBB 231300Z 19005KT 6000 -RA FEW010 25/24 Q1008=
23/01/2022 13:30:00Z	 SAID32 WIBB 231330	METAR WIBB 231330Z 00000KT 6000 -RA SCT010 FEW013CB 25/24 Q1008=
23/01/2022 14:00:00Z	 SAID32 WIBB 231400	METAR WIBB 231400Z 00000KT 6000 -RA BKN010 FEW013CB 25/25 Q1009=
23/01/2022 14:30:00Z	 SAID32 WIBB 231430	METAR WIBB 231430Z 00000KT 6000 -RA BKN010 25/25 Q1009=
23/01/2022 15:00:00Z	 SAID32 WIBB 231500	METAR WIBB 231500Z 00000KT 6000 -RA BKN010 25/25 Q1009=
23/01/2022 15:30:00Z	 SAID32 WIBB 231530	METAR WIBB 231530Z 00000KT 6000 -RA BKN010 25/25 Q1009=
23/01/2022 16:00:00Z	 SAID32 WIBB 231600	METAR WIBB 231600Z 00000KT 7000 SCT010 25/25 Q1009 RERA=
23/01/2022 17:00:00Z	 SAID32 WIBB 231700	METAR WIBB 231700Z 00000KT 7000 SCT013 24/24 Q1009=
23/01/2022 18:00:00Z	 SAID32 WIBB 231800	METAR WIBB 231800Z 00000KT 6000 SCT010 24/24 Q1008=
23/01/2022 18:30:00Z	 SAID32 WIBB 231830	METAR WIBB 231830Z 00000KT 5000 -RA FEW013CB 24/24 Q1008=
23/01/2022 21:00:00Z	 SAID32 WIBB 232100	METAR WIBB 232100Z 00000KT 5000 -RA FEW013CB 24/24 Q1007=
23/01/2022 21:30:00Z	 SAID32 WIBB 232130	METAR WIBB 232130Z 00000KT 2000 TSRA SCT013CB 24/24 Q1008=
23/01/2022 23:30:00Z	 SAID32 WIBB 232330	METAR WIBB 232330Z 00000KT 2000 TSRA SCT013CB 24/24 Q1008=
24/01/2022 00:00:00Z	 SAID32 WIBB 240000	METAR WIBB 240000Z 00000KT 1000 RA BKN010 23/23 Q1008=
24/01/2022 00:30:00Z	 SAID32 WIBB 240030	METAR WIBB 240030Z 00000KT 1500 -RA BKN010 24/24 Q1009=
24/01/2022 01:00:00Z	 SAID32 WIBB 240100	METAR WIBB 240100Z 00000KT 5000 -RA BKN009 24/24 Q1009 NOSIG=
24/01/2022 01:30:00Z	 SAID32 WIBB 240130	METAR WIBB 240130Z 00000KT 6000 -RA BKN009 24/24 Q1010 NOSIG=
24/01/2022 02:00:00Z	 SAID32 WIBB 240200	METAR WIBB 240200Z 00000KT 8000 SCT010 24/24 Q1009 NOSIG=
24/01/2022 02:30:00Z	 SAID32 WIBB 240230	METAR WIBB 240230Z 00000KT 8000 SCT010 25/25 Q1010 NOSIG=
24/01/2022 03:00:00Z	 SAID32 WIBB 240300	METAR WIBB 240300Z 00000KT 9000 SCT010 26/25 Q1009 NOSIG=
24/01/2022 03:30:00Z	 SAID32 WIBB 240330	METAR WIBB 240330Z 00000KT 9000 FEW010 27/25 Q1009 NOSIG=
24/01/2022 04:00:00Z	 SAID32 WIBB 240400	METAR WIBB 240400Z 00000KT 9000 FEW013 27/25 Q1009 NOSIG=
24/01/2022 04:30:00Z	 SAID32 WIBB 240430	METAR WIBB 240430Z 00000KT 9000 FEW015 27/25 Q1009 NOSIG=
24/01/2022 05:00:00Z	 SAID32 WIBB 240500	METAR WIBB 240500Z 00000KT 9000 FEW010 28/25 Q1008 NOSIG=
24/01/2022 05:30:00Z	 SAID32 WIBB 240530	METAR WIBB 240530Z 00000KT 9000 FEW010 28/25 Q1008 NOSIG=
24/01/2022 06:00:00Z	 SAID32 WIBB 240600	METAR WIBB 240600Z 00000KT 9000 SCT010 29/25 Q1007 NOSIG=
24/01/2022 06:30:00Z	 SAID32 WIBB 240630	METAR WIBB 240630Z 00000KT 9000 SCT010 29/25 Q1007 NOSIG=
24/01/2022 07:00:00Z	 SAID32 WIBB 240700	METAR WIBB 240700Z 33006KT 7000 -RA SCT010 29/25 Q1006=
24/01/2022 07:30:00Z	 SAID32 WIBB 240730	METAR WIBB 240730Z 32005KT 7000 -RA SCT010 29/25 Q1006=
24/01/2022 08:00:00Z	 SAID32 WIBB 240800	METAR WIBB 240800Z 32007KT 8000 SCT012 30/25 Q1005=
24/01/2022 08:30:00Z	 SAID32 WIBB 240830	METAR WIBB 240830Z 32005KT 8000 SCT012 30/25 Q1005=
24/01/2022 09:00:00Z	 SAID32 WIBB 240900	METAR WIBB 240900Z 30005KT 8000 SCT012 29/25 Q1004=
24/01/2022 09:30:00Z	 SAID32 WIBB 240930	METAR WIBB 240930Z 32005KT 8000 SCT012 30/25 Q1004=
24/01/2022 10:00:00Z	 SAID32 WIBB 241000	METAR WIBB 241000Z 00000KT 8000 FEW015 30/25 Q1005=
24/01/2022 10:30:00Z	 SAID32 WIBB 241030	METAR WIBB 241030Z 00000KT 8000 FEW015 30/25 Q1005=
24/01/2022 10:34:00Z	 SAID32 WIBB 241034	METAR WIBB 241034Z 30002KT 8000 FEW015 30/28 Q1005=
24/01/2022 11:00:00Z	 SAID32 WIBB 241100	METAR WIBB 241100Z 00000KT 8000 FEW015 29/26 Q1006=
24/01/2022 11:30:00Z	 SAID32 WIBB 241130	METAR WIBB 241130Z 32005KT 9999 FEW015 29/26 Q1006=
24/01/2022 12:00:00Z	 SAID32 WIBB 241200	METAR WIBB 241200Z 00000KT 8000 FEW015 28/26 Q1006=
24/01/2022 12:30:00Z	 SAID32 WIBB 241230	METAR WIBB 241230Z 00000KT 9999 FEW016 28/26 Q1006=
24/01/2022 13:00:00Z	 SAID32 WIBB 241300	METAR WIBB 241300Z 00000KT 8000 FEW016 27/26 Q1007=
24/01/2022 14:00:00Z	 SAID32 WIBB 241400	METAR WIBB 241400Z 00000KT 8000 FEW015 27/26 Q1007=
24/01/2022 14:30:00Z	 SAID32 WIBB 241430	METAR WIBB 241430Z 00000KT 8000 FEW015 27/26 Q1008=
24/01/2022 15:00:00Z	 SAID32 WIBB 241500	METAR WIBB 241500Z 00000KT 8000 FEW015 27/26 Q1008=
24/01/2022 15:30:00Z	 SAID32 WIBB 241530	METAR WIBB 241530Z 00000KT 8000 FEW015 27/26 Q1008=
24/01/2022 16:00:00Z	 SAID32 WIBB 241600	METAR WIBB 241600Z 00000KT 8000 FEW015 26/26 Q1008=
24/01/2022 16:30:00Z	 SAID32 WIBB 241630	METAR WIBB 241630Z 00000KT 7000 TS SCT012 FEW015CB 27/25 Q1008=
24/01/2022 18:00:00Z	 SAID32 WIBB 241800	METAR WIBB 241800Z 00000KT 7000 SCT014 25/24 Q1008=
24/01/2022 21:00:00Z	 SAID32 WIBB 242100	METAR WIBB 242100Z 34005KT 7000 FEW014 24/24 Q1007=
24/01/2022 22:30:00Z	 SAID32 WIBB 242230	METAR WIBB 242230Z 00000KT 7000 FEW014 24/24 Q1007=
24/01/2022 23:00:00Z	 SAID32 WIBB 242300	METAR WIBB 242300Z 00000KT 7000 FEW015 24/24 Q1007=
24/01/2022 23:30:00Z	 SAID32 WIBB 242330	METAR WIBB 242330Z 00000KT 7000 FEW015 24/24 Q1008=
25/01/2022 00:00:00Z	 SAID32 WIBB 250000	METAR WIBB 250000Z 00000KT 7000 SCT013 24/24 Q1008=
25/01/2022 00:30:00Z	 SAID32 WIBB 250030	METAR WIBB 250030Z 00000KT 7000 SCT013 24/24 Q1009=
25/01/2022 01:00:00Z	 SAID32 WIBB 250100	METAR WIBB 250100Z 00000KT 6000 BKN010 25/24 Q1009=
25/01/2022 01:30:00Z	 SAID32 WIBB 250130	METAR WIBB 250130Z 00000KT 6000 BKN012 25/24 Q1010 NOSIG=
25/01/2022 02:00:00Z	 SAID32 WIBB 250200	METAR WIBB 250200Z 00000KT 7000 SCT010 26/24 Q1010=
25/01/2022 02:30:00Z	 SAID32 WIBB 250230	METAR WIBB 250230Z 34005KT 7000 BKN010 27/24 Q1010 NOSIG=
25/01/2022 03:00:00Z	 SAID32 WIBB 250300	METAR WIBB 250300Z 02007KT 8000 BKN010 28/24 Q1010=
25/01/2022 03:30:00Z	 SAID32 WIBB 250330	METAR WIBB 250330Z 03006KT 8000 BKN010 28/24 Q1009=
25/01/2022 04:00:00Z	 SAID32 WIBB 250400	METAR WIBB 250400Z 35008KT 8000 BKN010 28/25 Q1009=
25/01/2022 05:00:00Z	 SAID32 WIBB 250500	METAR WIBB 250500Z 36006KT 8000 BKN010 28/25 Q1008=
25/01/2022 05:30:00Z	 SAID32 WIBB 250530	METAR WIBB 250530Z 36008KT 8000 BKN010 29/25 Q1008=
25/01/2022 06:00:00Z	 SAID32 WIBB 250600	METAR WIBB 250600Z 36005KT 8000 BKN010 FEW013CB 29/25 Q1007 RMK CB TO N AND S=
25/01/2022 06:30:00Z	 SAID32 WIBB 250630	METAR WIBB 250630Z 02007KT 8000 BKN010 FEW013CB 29/25 Q1007 CB TO S=
25/01/2022 07:00:00Z	 SAID32 WIBB 250700	METAR WIBB 250700Z 00000KT 8000 BKN012 FEW015CB 30/25 Q1006=
25/01/2022 07:30:00Z	 SAID32 WIBB 250730	METAR WIBB 250730Z 08004KT 350V100 8000 BKN012 FEW015CB 30/24 Q1006=
25/01/2022 08:00:00Z	 SAID32 WIBB 250800	METAR WIBB 250800Z 13005KT 7000 -RA BKN012 FEW015CB 29/25 Q1005=
25/01/2022 08:30:00Z	 SAID32 WIBB 250830	METAR WIBB 250830Z 17007KT 8000 BKN012 FEW015CB 29/25 Q1005=
25/01/2022 09:00:00Z	 SAID32 WIBB 250900	METAR WIBB 250900Z 18005KT 8000 TS SCT015CB 29/26 Q1005=
25/01/2022 09:30:00Z	 SAID32 WIBB 250930	METAR WIBB 250930Z 03017KT 060V180 7000 TS SCT015CB 28/25 Q1006=
25/01/2022 10:00:00Z	 SAID32 WIBB 251000	METAR WIBB 251000Z 34010KT 7000 TS SCT015CB 26/24 Q1005=
25/01/2022 10:30:00Z	 SAID32 WIBB 251030	METAR WIBB 251030Z 00000KT 7000 TS SCT015CB 26/24 Q1005=
25/01/2022 11:00:00Z	 SAID32 WIBB 251100	METAR WIBB 251100Z 03004KT 7000 FEW015CB 26/24 Q1006=
25/01/2022 11:30:00Z	 SAID32 WIBB 251130	METAR WIBB 251130Z 03005KT 6000 -RA BKN012 FEW015CB 25/23 Q1007=
25/01/2022 12:00:00Z	 SAID32 WIBB 251200	METAR WIBB 251200Z 00000KT 6000 -RA BKN012 25/24 Q1008=
25/01/2022 12:30:00Z	 SAID32 WIBB 251230	METAR WIBB 251230Z 00000KT 6000 -RA BKN012 FEW015CB 25/24 Q1008=
25/01/2022 13:00:00Z	 SAID32 WIBB 251300	METAR WIBB 251300Z 00000KT 7000 SCT012 FEW015CB 25/24 Q1009 RERA RMK CB TO S=
25/01/2022 13:30:00Z	 SAID32 WIBB 251330	METAR WIBB 251330Z 24005KT 7000 SCT012 FEW015CB 25/24 Q1009 RMK CB TO S=
25/01/2022 14:00:00Z	 SAID32 WIBB 251400	METAR WIBB 251400Z 00000KT 7000 SCT012 FEW015CB 25/24 Q1009 RMK CB TO S=
25/01/2022 14:30:00Z	 SAID32 WIBB 251430	METAR WIBB 251430Z 00000KT 7000 SCT012 FEW015CB 25/24 Q1009 RMK CB TO S=
25/01/2022 15:00:00Z	 SAID32 WIBB 251500	METAR WIBB 251500Z 00000KT 7000 SCT013 FEW015CB 25/24 Q1009 RMK CB TO S=
25/01/2022 15:30:00Z	 SAID32 WIBB 251530	METAR WIBB 251530Z 00000KT 7000 SCT013 FEW015CB 25/24 Q1009 RMK CB TO S=
25/01/2022 16:00:00Z	 SAID32 WIBB 251600	METAR WIBB 251600Z 00000KT 7000 SCT013 24/24 Q1009 NOSIG=
25/01/2022 16:30:00Z	 SAID32 WIBB 251630	METAR WIBB 251630Z 00000KT 7000 SCT013 24/24 Q1009 NOSIG=
25/01/2022 17:00:00Z	 SAID32 WIBB 251700	METAR WIBB 251700Z 00000KT 7000 SCT013 24/24 Q1009 NOSIG=
25/01/2022 17:30:00Z	 SAID32 WIBB 251730	METAR WIBB 251730Z 35006KT 7000 SCT013 24/24 Q1010=
25/01/2022 18:00:00Z	 SAID32 WIBB 251800	METAR WIBB 251800Z 33005KT 7000 SCT013 FEW016CB 24/24 Q1009 RMK CB TO NE=
25/01/2022 18:30:00Z	 SAID32 WIBB 251830	METAR WIBB 251830Z 00000KT 7000 SCT013 FEW016CB 24/24 Q1009 RMK CB TO NE=
25/01/2022 19:00:00Z	 SAID32 WIBB 251900	METAR WIBB 251900Z 00000KT 3000 RA BKN013 FEW016CB 24/24 Q1009 RMK CB OVER THE FIELD=
25/01/2022 19:30:00Z	 SAID32 WIBB 251930	METAR WIBB 251930Z 00000KT 2000 RA BKN013 FEW016CB 24/24 Q1009 RMK CB OVER THE FIELD=
25/01/2022 20:00:00Z	 SAID32 WIBB 252000	METAR WIBB 252000Z 02007KT 1000 TSRA BKN012 FEW015CB 24/24 Q1009 RMK CB OVER THE FIELD=
25/01/2022 20:30:00Z	 SAID32 WIBB 252030	METAR WIBB 252030Z 04008KT 0800 +TSRA BKN012 FEW015CB 24/24 Q1009 RMK CB OVER THE FIELD=
25/01/2022 21:00:00Z	 SAID32 WIBB 252100	METAR WIBB 252100Z 05005KT 0500 +TSRA BKN012 FEW015CB 23/23 Q1009 RMK CB OVER THE FIELD=
25/01/2022 21:30:00Z	 SAID32 WIBB 252130	METAR WIBB 252130Z 00000KT 3000 RA BKN010 23/23 Q1009 RETS=
25/01/2022 22:00:00Z	 SAID32 WIBB 252200	METAR WIBB 252200Z 08005KT 3000 RA BKN010 22/22 Q1009=
25/01/2022 22:30:00Z	 SAID32 WIBB 252230	METAR WIBB 252230Z 09005KT 5000 -RA BKN010 23/23 Q1009=
25/01/2022 23:00:00Z	 SAID32 WIBB 252300	METAR WIBB 252300Z 06006KT 5000 -RA BKN010 23/23 Q1009=
25/01/2022 23:30:00Z	 SAID32 WIBB 252330	METAR WIBB 252330Z 00000KT 4000 -RA BKN010 23/23 Q1010=
26/01/2022 00:00:00Z	 SAID32 WIBB 260000	METAR COR WIBB 260000Z 08005KT 5000 BR SCT007 23/23 Q1010 RERA=
26/01/2022 00:00:00Z	 SAID32 WIBB 260000 CCA	METAR COR WIBB 260000Z 08005KT 5000 BR SCT007 23/23 Q1010 RERA=
26/01/2022 00:30:00Z	 SAID32 WIBB 260030	METAR WIBB 260030Z 07008KT 4000 BR SCT007 23/22 Q1010=
26/01/2022 01:00:00Z	 SAID32 WIBB 260100	METAR WIBB 260100Z 08006KT 7000 SCT010 23/22 Q1010=
26/01/2022 01:30:00Z	 SAID32 WIBB 260130	METAR WIBB 260130Z 00000KT 8000 SCT012 23/22 Q1011=
26/01/2022 02:00:00Z	 SAID32 WIBB 260200	METAR WIBB 260200Z 25007KT 8000 SCT012 24/22 Q1010=
26/01/2022 02:30:00Z	 SAID32 WIBB 260230	METAR WIBB 260230Z 25005KT 8000 SCT012 24/22 Q1011 NOSIG=
26/01/2022 03:00:00Z	 SAID32 WIBB 260300	METAR WIBB 260300Z 00000KT 8000 SCT013 24/23 Q1010=
26/01/2022 03:30:00Z	 SAID32 WIBB 260330	METAR WIBB 260330Z 00000KT 8000 SCT013 25/22 Q1010=
26/01/2022 04:00:00Z	 SAID32 WIBB 260400	METAR WIBB 260400Z 00000KT 9000 SCT013 26/22 Q1010 NOSIG=
26/01/2022 04:30:00Z	 SAID32 WIBB 260430	METAR WIBB 260430Z 27005KT 9000 SCT001 26/23 Q1009=
26/01/2022 05:00:00Z	 SAID32 WIBB 260500	METAR WIBB 260500Z 30005KT 9000 SCT013 26/02 Q1009=
26/01/2022 05:30:00Z	 SAID32 WIBB 260530	METAR WIBB 260530Z 35007KT 9000 SCT001 27/23 Q1009=
26/01/2022 06:00:00Z	 SAID32 WIBB 260600	METAR WIBB 260600Z 00000KT 9000 SCT013 27/23 Q1008=
26/01/2022 06:30:00Z	 SAID32 WIBB 260630	METAR WIBB 260630Z 33005KT 9000 FEW013 28/23 Q1008=
26/01/2022 07:00:00Z	 SAID32 WIBB 260700	METAR WIBB 260700Z 26007KT 8000 BKN010 29/24 Q1008=
26/01/2022 07:30:00Z	 SAID32 WIBB 260730	METAR WIBB 260730Z 31008KT 8000 BKN010 29/24 Q1007=
26/01/2022 08:00:00Z	 SAID32 WIBB 260800	METAR WIBB 260800Z 33007KT 280V350 8000 SCT010 29/23 Q1007=
26/01/2022 08:30:00Z	 SAID32 WIBB 260830	METAR WIBB 260830Z 31005KT 230V360 8000 SCT012 29/24 Q1006=
26/01/2022 09:00:00Z	 SAID32 WIBB 260900	METAR WIBB 260900Z 00000KT 8000 SCT013 29/24 Q1006 NOSIG=
26/01/2022 10:30:00Z	 SAID32 WIBB 261030	METAR WIBB 261030Z 22006KT 8000 SCT013 28/24 Q1006 NOSIG=
26/01/2022 11:00:00Z	 SAID32 WIBB 261100	METAR WIBB 261100Z 23004KT 8000 FEW013 FEW014CB 28/24 Q1007 RMK CB TO NE=
26/01/2022 12:00:00Z	 SAID32 WIBB 261200	METAR WIBB 261200Z 00000KT 8000 SCT013 27/24 Q1007 NOSIG=
26/01/2022 12:30:00Z	 SAID32 WIBB 261230	METAR WIBB 261230Z 00000KT 7000 SCT010 26/25 Q1007 NOSIG=
26/01/2022 13:00:00Z	 SAID32 WIBB 261300	METAR WIBB 261300Z 00000KT 8000 FEW010 26/25 Q1008 NOSIG=
26/01/2022 13:30:00Z	 SAID32 WIBB 261330	METAR WIBB 261330Z 00000KT 8000 FEW010 26/25 Q1008 NOSIG=
26/01/2022 14:00:00Z	 SAID32 WIBB 261400	METAR WIBB 261400Z 00000KT 8000 FEW012 26/25 Q1009 NOSIG=
26/01/2022 14:30:00Z	 SAID32 WIBB 261430	METAR WIBB 261430Z 00000KT 8000 FEW012 25/25 Q1009 NOSIG=
26/01/2022 15:00:00Z	 SAID32 WIBB 261500	METAR WIBB 261500Z 00000KT 8000 NSC 25/25 Q1009 NOSIG=
26/01/2022 15:30:00Z	 SAID32 WIBB 261530	METAR WIBB 261530Z 00000KT 8000 NSC 25/25 Q1009 NOSIG=
26/01/2022 16:00:00Z	 SAID32 WIBB 261600	METAR WIBB 261600Z 00000KT 8000 NSC 25/25 Q1009 NOSIG=
26/01/2022 16:30:00Z	 SAID32 WIBB 261630	METAR WIBB 261630Z 00000KT 8000 NSC 25/25 Q1009 NOSIG=
26/01/2022 17:00:00Z	 SAID32 WIBB 261700	METAR WIBB 261700Z 00000KT 8000 NSC 25/25 Q1009 NOSIG=
26/01/2022 17:30:00Z	 SAID32 WIBB 261730	METAR WIBB 261730Z 00000KT 8000 NSC 25/25 Q1009 NOSIG=
26/01/2022 18:00:00Z	 SAID32 WIBB 261800	METAR WIBB 261800Z 00000KT 8000 NSC 25/25 Q1008 NOSIG=
26/01/2022 22:00:00Z	 SAID32 WIBB 262200	METAR WIBB 262200Z 00000KT 7000 NSC 24/24 Q1008 NOSIG=
26/01/2022 23:00:00Z	 SAID32 WIBB 262300	METAR WIBB 262300Z 00000KT 6000 FEW010 23/23 Q1008 NOSIG=
26/01/2022 23:30:00Z	 SAID32 WIBB 262330	METAR WIBB 262330Z 00000KT 3000 BR FEW010 23/23 Q1008 NOSIG=
27/01/2022 00:00:00Z	 SAID32 WIBB 270000	METAR WIBB 270000Z 00000KT 6000 NSC 23/23 Q1008 NOSIG=
27/01/2022 00:30:00Z	 SAID32 WIBB 270030	METAR WIBB 270030Z 00000KT 6000 NSC 24/24 Q1009 NOSIG=
27/01/2022 01:00:00Z	 SAID32 WIBB 270100	METAR WIBB 270100Z 00000KT 7000 NSC 25/24 Q1009=
27/01/2022 01:30:00Z	 SAID32 WIBB 270130	METAR WIBB 270130Z 00000KT 7000 NSC 25/24 Q1010=
27/01/2022 02:00:00Z	 SAID32 WIBB 270200	METAR WIBB 270200Z 00000KT 9000 NSC 26/24 Q1010=
27/01/2022 02:30:00Z	 SAID32 WIBB 270230	METAR WIBB 270230Z 00000KT 9000 SCT013 27/24 Q1010=
27/01/2022 03:00:00Z	 SAID32 WIBB 270300	METAR WIBB 270300Z 09005KT 9999 SCT013 28/24 Q1010=
27/01/2022 03:30:00Z	 SAID32 WIBB 270330	METAR WIBB 270330Z 00000KT 9999 SCT013 28/24 Q1010=
27/01/2022 04:00:00Z	 SAID32 WIBB 270400	METAR WIBB 270400Z 00000KT 9999 SCT013 28/24 Q1010=
27/01/2022 04:30:00Z	 SAID32 WIBB 270430	METAR WIBB 270430Z 10005KT 9999 SCT013 29/23 Q1010=
27/01/2022 05:30:00Z	 SAID32 WIBB 270530	METAR WIBB 270530Z 09005KT 9999 SCT013 30/22 Q1009=
27/01/2022 06:00:00Z	 SAID32 WIBB 270600	METAR WIBB 270600Z 09007KT 9999 SCT013 31/21 Q1009=
27/01/2022 06:30:00Z	 SAID32 WIBB 270630	METAR WIBB 270630Z 04008KT 9999 SCT013 31/22 Q1008=
27/01/2022 07:00:00Z	 SAID32 WIBB 270700	METAR WIBB 270700Z 05005KT 9999 SCT013 31/22 Q1008=
27/01/2022 07:30:00Z	 SAID32 WIBB 270730	METAR WIBB 270730Z 08006KT 9999 SCT013 31/21 Q1007=
27/01/2022 08:00:00Z	 SAID32 WIBB 270800	METAR WIBB 270800Z 05005KT 9999 SCT013 31/21 Q1007=
27/01/2022 08:30:00Z	 SAID32 WIBB 270830	METAR WIBB 270830Z 08005KT 9999 SCT013 31/21 Q1006=
27/01/2022 09:00:00Z	 SAID32 WIBB 270900	METAR WIBB 270900Z 09007KT 9999 SCT013 31/21 Q1006=
27/01/2022 09:30:00Z	 SAID32 WIBB 270930	METAR WIBB 270930Z 09007KT 9000 SCT013 31/21 Q1006=
27/01/2022 10:00:00Z	 SAID32 WIBB 271000	METAR WIBB 271000Z 08007KT 9000 FEW014 31/22 Q1006=
27/01/2022 10:30:00Z	 SAID32 WIBB 271030	METAR WIBB 271030Z 07006KT 9000 FEW014 31/22 Q1006=
27/01/2022 11:00:00Z	 SAID32 WIBB 271100	METAR WIBB 271100Z 06005KT 9000 SCT014 30/22 Q1006=
27/01/2022 11:30:00Z	 SAID32 WIBB 271130	METAR WIBB 271130Z 00000KT 8000 SCT013 29/22 Q1006=
27/01/2022 12:00:00Z	 SAID32 WIBB 271200	METAR WIBB 271200Z 05005KT 8000 SCT013 28/23 Q1007=
27/01/2022 12:30:00Z	 SAID32 WIBB 271230	METAR WIBB 271230Z 02005KT 8000 SCT013 28/23 Q1007=
27/01/2022 13:00:00Z	 SAID32 WIBB 271300	METAR WIBB 271300Z 03004KT 7000 SCT013 28/23 Q1008 NOSIG=
27/01/2022 13:30:00Z	 SAID32 WIBB 271330	METAR WIBB 271330Z 04005KT 7000 SCT013 28/24 Q1008 NOSIG=
27/01/2022 14:00:00Z	 SAID32 WIBB 271400	METAR WIBB 271400Z 00000KT 7000 FEW014 27/24 Q1009 NOSIG=
27/01/2022 14:30:00Z	 SAID32 WIBB 271430	METAR WIBB 271430Z 00000KT 7000 FEW014 27/24 Q1009 NOSIG=
27/01/2022 15:00:00Z	 SAID32 WIBB 271500	METAR WIBB 271500Z 00000KT 7000 FEW014 27/24 Q1009 NOSIG=
27/01/2022 15:30:00Z	 SAID32 WIBB 271530	METAR COR WIBB 271530Z 00000KT 7000 FEW010 25/24 Q1010 NOSIG=
27/01/2022 16:00:00Z	 SAID32 WIBB 271600	METAR WIBB 271600Z 00000KT 7000 SCT010 25/24 Q1010 NOSIG=
27/01/2022 16:30:00Z	 SAID32 WIBB 271630	METAR WIBB 271630Z 05004KT 7000 SCT010 26/23 Q1009 NOSIG=
27/01/2022 17:00:00Z	 SAID32 WIBB 271700	METAR COR WIBB 271700Z 00000KT 7000 FEW014 24/24 Q1009 NOSIG=
27/01/2022 17:30:00Z	 SAID32 WIBB 271730	METAR WIBB 271730Z 00000KT 7000 FEW014 24/24 Q1009 NOSIG=
27/01/2022 18:00:00Z	 SAID32 WIBB 271800	METAR WIBB 271800Z 00000KT 7000 FEW015 24/23 Q1009 NOSIG=
27/01/2022 19:00:00Z	 SAID32 WIBB 271900	METAR WIBB 271900Z 00000KT 7000 FEW015 24/24 Q1008 NOSIG=
27/01/2022 19:30:00Z	 SAID32 WIBB 271930	METAR WIBB 271930Z 00000KT 6000 FEW013 23/23 Q1008=
27/01/2022 20:00:00Z	 SAID32 WIBB 272000	METAR WIBB 272000Z 00000KT 6000 FEW013 23/23 Q1008=
27/01/2022 21:30:00Z	 SAID32 WIBB 272130	METAR WIBB 272130Z 00000KT 6000 FEW013 23/23 Q1008=
27/01/2022 22:00:00Z	 SAID32 WIBB 272200	METAR WIBB 272200Z 00000KT 6000 FEW013 23/23 Q1008=
27/01/2022 22:30:00Z	 SAID32 WIBB 272230	METAR WIBB 272230Z 00000KT 5000 HZ FEW012 23/23 Q1009=
27/01/2022 23:00:00Z	 SAID32 WIBB 272300	METAR WIBB 272300Z 00000KT 6000 SCT010 23/23 Q1009=
27/01/2022 23:30:00Z	 SAID32 WIBB 272330	METAR WIBB 272330Z 00000KT 3000 BR SCT010 23/23 Q1009=
28/01/2022 00:00:00Z	 SAID32 WIBB 280000	METAR WIBB 280000Z 00000KT 4000 HZ SCT007 23/23 Q1009=
28/01/2022 00:30:00Z	 SAID32 WIBB 280030	METAR WIBB 280030Z 00000KT 4000 HZ SCT007 24/24 Q1010=
28/01/2022 01:00:00Z	 SAID32 WIBB 280100	METAR WIBB 280100Z 00000KT 7000 SCT012 26/24 Q1010=
28/01/2022 01:30:00Z	 SAID32 WIBB 280130	METAR WIBB 280130Z 00000KT 8000 SCT013 26/24 Q1011=
28/01/2022 02:00:00Z	 SAID32 WIBB 280200	METAR WIBB 280200Z 00000KT 8000 SCT012 26/24 Q1011=
28/01/2022 02:30:00Z	 SAID32 WIBB 280230	METAR WIBB 280230Z 00000KT 8000 SCT012 26/24 Q1011=
28/01/2022 03:00:00Z	 SAID32 WIBB 280300	METAR WIBB 280300Z 09005KT 8000 SCT012 27/24 Q1011=
28/01/2022 03:30:00Z	 SAID32 WIBB 280330	METAR WIBB 280330Z 03005KT 9999 SCT012 28/24 Q1011=
28/01/2022 04:00:00Z	 SAID32 WIBB 280400	METAR WIBB 280400Z 00000KT 9000 SCT012 28/23 Q1011=
28/01/2022 04:30:00Z	 SAID32 WIBB 280430	METAR WIBB 280430Z 00000KT 9000 SCT012 29/23 Q1011=
28/01/2022 05:00:00Z	 SAID32 WIBB 280500	METAR WIBB 280500Z 00000KT 9999 SCT013 29/23 Q1010=
28/01/2022 05:30:00Z	 SAID32 WIBB 280530	METAR WIBB 280530Z 00000KT 9999 SCT013 30/22 Q1010=
28/01/2022 06:00:00Z	 SAID32 WIBB 280600	METAR WIBB 280600Z 00000KT 9999 SCT013 30/22 Q1009=
28/01/2022 06:30:00Z	 SAID32 WIBB 280630	METAR WIBB 280630Z 13005KT 9999 SCT013 30/22 Q1009=
28/01/2022 07:00:00Z	 SAID32 WIBB 280700	METAR WIBB 280700Z 00000KT 9999 SCT015 31/22 Q1008 NOSIG=
28/01/2022 07:30:00Z	 SAID32 WIBB 280730	METAR WIBB 280730Z 00000KT 9999 SCT015 31/22 Q1007 NOSIG=
28/01/2022 08:00:00Z	 SAID32 WIBB 280800	METAR WIBB 280800Z 00000KT 9999 SCT015 31/22 Q1007 NOSIG=
28/01/2022 08:30:00Z	 SAID32 WIBB 280830	METAR WIBB 280830Z 00000KT 9999 SCT015 32/22 Q1006 NOSIG=
28/01/2022 09:00:00Z	 SAID32 WIBB 280900	METAR WIBB 280900Z 07005KT 9999 SCT015 32/22 Q1006 NOSIG=
28/01/2022 09:30:00Z	 SAID32 WIBB 280930	METAR WIBB 280930Z 00000KT 9999 SCT015 31/22 Q1006 NOSIG=
28/01/2022 10:00:00Z	 SAID32 WIBB 281000	METAR WIBB 281000Z 00000KT 9999 FEW015 32/22 Q1006 NOSIG=
28/01/2022 10:30:00Z	 SAID32 WIBB 281030	METAR WIBB 281030Z 04004KT 9999 FEW015 31/22 Q1006 NOSIG=
28/01/2022 11:00:00Z	 SAID32 WIBB 281100	METAR WIBB 281100Z 00000KT 9000 NSC 31/22 Q1006 NOSIG=
28/01/2022 11:30:00Z	 SAID32 WIBB 281130	METAR WIBB 281130Z 00000KT 9000 NSC 30/23 Q1006 NOSIG=
28/01/2022 12:00:00Z	 SAID32 WIBB 281200	METAR WIBB 281200Z 00000KT 8000 NSC 29/23 Q1006 NOSIG=
28/01/2022 12:30:00Z	 SAID32 WIBB 281230	METAR WIBB 281230Z 00000KT 8000 NSC 27/25 Q1007 NOSIG=
28/01/2022 13:00:00Z	 SAID32 WIBB 281300	METAR WIBB 281300Z 00000KT 8000 NSC 27/24 Q1007=
28/01/2022 13:30:00Z	 SAID32 WIBB 281330	METAR WIBB 281330Z 00000KT 8000 NSC 27/25 Q1008=
28/01/2022 15:00:00Z	 SAID32 WIBB 281500	METAR WIBB 281500Z 00000KT 8000 NSC 26/24 Q1009=
28/01/2022 16:00:00Z	 SAID32 WIBB 281600	METAR WIBB 281600Z 00000KT 8000 NSC 26/25 Q1010=
28/01/2022 17:00:00Z	 SAID32 WIBB 281700	METAR WIBB 281700Z 00000KT 8000 NSC 24/24 Q1010=
28/01/2022 18:00:00Z	 SAID32 WIBB 281800	METAR WIBB 281800Z 00000KT 8000 NSC 24/24 Q1009=
28/01/2022 21:00:00Z	 SAID32 WIBB 282100	METAR WIBB 282100Z 00000KT 7000 NSC 24/23 Q1008=
28/01/2022 22:00:00Z	 SAID32 WIBB 282200	METAR WIBB 282200Z 00000KT 8000 NSC 23/23 Q1008=
28/01/2022 23:00:00Z	 SAID32 WIBB 282300	METAR WIBB 282300Z 00000KT 7000 NSC 23/23 Q1009=
28/01/2022 23:30:00Z	 SAID32 WIBB 282330	METAR WIBB 282330Z 00000KT 6000 NSC 23/23 Q1009=
29/01/2022 00:00:00Z	 SAID32 WIBB 290000	METAR WIBB 290000Z 00000KT 5000 HZ FEW015 24/24 Q1009=
29/01/2022 00:30:00Z	 SAID32 WIBB 290030	METAR WIBB 290030Z 00000KT 6000 FEW015 24/24 Q1010=
29/01/2022 01:00:00Z	 SAID32 WIBB 290100	METAR WIBB 290100Z 20005KT 6000 SCT012 25/25 Q1010=
29/01/2022 01:30:00Z	 SAID32 WIBB 290130	METAR WIBB 290130Z 21005KT 7000 SCT012 25/25 Q1011 NOSIG=
29/01/2022 02:00:00Z	 SAID32 WIBB 290200	METAR WIBB 290200Z 00000KT 8000 SCT012 26/25 Q1011 NOSIG=
29/01/2022 02:30:00Z	 SAID32 WIBB 290230	METAR WIBB 290230Z 00000KT 8000 SCT012 28/25 Q1011=
29/01/2022 03:00:00Z	 SAID32 WIBB 290300	METAR WIBB 290300Z 06006KT 9000 FEW013 29/25 Q1011=
29/01/2022 03:30:00Z	 SAID32 WIBB 290330	METAR WIBB 290330Z 06006KT 9999 FEW013 29/25 Q1010=
29/01/2022 04:00:00Z	 SAID32 WIBB 290400	METAR WIBB 290400Z 11005KT 9999 SCT013 29/24 Q1010 NOSIG=
29/01/2022 04:30:00Z	 SAID32 WIBB 290430	METAR WIBB 290430Z 14005KT 9999 SCT013 30/24 Q1010 NOSIG=
29/01/2022 05:00:00Z	 SAID32 WIBB 290500	METAR WIBB 290500Z 19007KT 9999 SCT013 31/23 Q1009 NOSIG=
29/01/2022 05:30:00Z	 SAID32 WIBB 290530	METAR WIBB 290530Z 29005KT 9999 SCT013 30/23 Q1009 NOSIG=
29/01/2022 06:00:00Z	 SAID32 WIBB 290600	METAR WIBB 290600Z 20005KT 9999 SCT013 31/23 Q1008 NOSIG=
29/01/2022 07:00:00Z	 SAID32 WIBB 290700	METAR WIBB 290700Z 00000KT 9000 SCT013 31/23 Q1007=
29/01/2022 07:30:00Z	 SAID32 WIBB 290730	METAR WIBB 290730Z 00000KT 9000 SCT013 31/22 Q1006=
29/01/2022 08:00:00Z	 SAID32 WIBB 290800	METAR WIBB 290800Z 00000KT 9000 SCT013 31/22 Q1006=
29/01/2022 08:30:00Z	 SAID32 WIBB 290830	METAR WIBB 290830Z 00000KT 9000 SCT013 31/22 Q1005=
29/01/2022 09:00:00Z	 SAID32 WIBB 290900	METAR WIBB 290900Z 00000KT 9000 SCT013 32/21 Q1005=
29/01/2022 09:30:00Z	 SAID32 WIBB 290930	METAR WIBB 290930Z 00000KT 9000 SCT013 32/22 Q1005=
29/01/2022 10:00:00Z	 SAID32 WIBB 291000	METAR WIBB 291000Z 00000KT 9000 SCT013 32/21 Q1004=
29/01/2022 10:30:00Z	 SAID32 WIBB 291030	METAR WIBB 291030Z 00000KT 9000 SCT013 31/23 Q1004=
29/01/2022 11:00:00Z	 SAID32 WIBB 291100	METAR WIBB 291100Z 00000KT 8000 SCT013 31/24 Q1005=
29/01/2022 11:30:00Z	 SAID32 WIBB 291130	METAR WIBB 291130Z 00000KT 8000 SCT013 30/24 Q1006=
29/01/2022 12:00:00Z	 SAID32 WIBB 291200	METAR WIBB 291200Z 00000KT 8000 SCT013 29/25 Q1006=
29/01/2022 12:30:00Z	 SAID32 WIBB 291230	METAR WIBB 291230Z 00000KT 8000 SCT013 28/25 Q1007=
29/01/2022 13:00:00Z	 SAID32 WIBB 291300	METAR WIBB 291300Z 00000KT 7000 SCT012 28/26 Q1008=
29/01/2022 13:30:00Z	 SAID32 WIBB 291330	METAR WIBB 291330Z 00000KT 6000 SCT012 27/26 Q1008=
29/01/2022 14:00:00Z	 SAID32 WIBB 291400	METAR WIBB 291400Z 00000KT 7000 SCT012 27/26 Q1009=
29/01/2022 14:30:00Z	 SAID32 WIBB 291430	METAR WIBB 291430Z 00000KT 7000 SCT012 27/26 Q1009=
29/01/2022 15:00:00Z	 SAID32 WIBB 291500	METAR WIBB 291500Z 00000KT 7000 SCT012 27/25 Q1009=
29/01/2022 16:00:00Z	 SAID32 WIBB 291600	METAR WIBB 291600Z 00000KT 7000 SCT012 26/25 Q1009=
29/01/2022 16:30:00Z	 SAID32 WIBB 291630	METAR WIBB 291630Z 00000KT 7000 SCT012 26/25 Q1009=
29/01/2022 17:30:00Z	 SAID32 WIBB 291730	METAR WIBB 291730Z 00000KT 7000 SCT012 25/24 Q1008=
29/01/2022 18:00:00Z	 SAID32 WIBB 291800	METAR WIBB 291800Z 00000KT 7000 SCT012 25/24 Q1008=
29/01/2022 21:00:00Z	 SAID32 WIBB 292100	METAR WIBB 292100Z 00000KT 7000 SCT012 25/25 Q1007=
29/01/2022 23:30:00Z	 SAID32 WIBB 292330	METAR WIBB 292330Z 00000KT 7000 SCT010 25/25 Q1008=
30/01/2022 00:00:00Z	 SAID32 WIBB 300000	METAR WIBB 300000Z 00000KT 7000 BKN010 FEW015CB 25/25 Q1009=
30/01/2022 00:30:00Z	 SAID32 WIBB 300030	METAR WIBB 300030Z 00000KT 7000 BKN010 FEW015CB 26/25 Q1010=
30/01/2022 01:00:00Z	 SAID32 WIBB 300100	METAR WIBB 300100Z 00000KT 7000 SCT012 FEW017CB 26/25 Q1010 NOSIG=
30/01/2022 01:30:00Z	 SAID32 WIBB 300130	METAR WIBB 300130Z 00000KT 7000 SCT013 26/25 Q1010 NOSIG=
30/01/2022 02:30:00Z	 SAID32 WIBB 300230	METAR WIBB 300230Z 00000KT 8000 SCT010 27/25 Q1011 NOSIG=
30/01/2022 03:00:00Z	 SAID32 WIBB 300300	METAR WIBB 300300Z 00000KT 8000 SCT012 28/25 Q1011 NOSIG=
30/01/2022 03:30:00Z	 SAID32 WIBB 300330	METAR WIBB 300330Z 00000KT 9000 SCT012 29/25 Q1011 NOSIG=
30/01/2022 04:00:00Z	 SAID32 WIBB 300400	METAR WIBB 300400Z 00000KT 9999 SCT013 29/25 Q1010 NOSIG=
30/01/2022 04:30:00Z	 SAID32 WIBB 300430	METAR WIBB 300430Z 00000KT 9999 SCT012 30/24 Q1010 NOSIG=
30/01/2022 05:00:00Z	 SAID32 WIBB 300500	METAR WIBB 300500Z 02005KT 9999 SCT013 30/24 Q1010 NOSIG=
30/01/2022 05:30:00Z	 SAID32 WIBB 300530	METAR WIBB 300530Z 04000KT 9999 SCT015 31/24 Q1009 NOSIG=
30/01/2022 06:00:00Z	 SAID32 WIBB 300600	METAR WIBB 300600Z 00000KT 9999 SCT015 32/23 Q1008 NOSIG=
30/01/2022 07:00:00Z	 SAID32 WIBB 300700	METAR WIBB 300700Z 32008KT 9999 SCT015 32/23 Q1007=
30/01/2022 07:30:00Z	 SAID32 WIBB 300730	METAR WIBB 300730Z 09007KT 9999 SCT015 32/24 Q1006 NOSIG=
30/01/2022 08:00:00Z	 SAID32 WIBB 300800	METAR WIBB 300800Z 04008KT 9999 SCT015 32/24 Q1005 NOSIG=
30/01/2022 08:30:00Z	 SAID32 WIBB 300830	METAR WIBB 300830Z 06007KT 9999 FEW015 32/24 Q1005 NOSIG=
30/01/2022 09:00:00Z	 SAID32 WIBB 300900	METAR WIBB 300900Z 05008KT 9999 SCT013 32/24 Q1004 NOSIG=
30/01/2022 09:30:00Z	 SAID32 WIBB 300930	METAR WIBB 300930Z 06006KT 9999 SCT013 32/24 Q1004=
30/01/2022 10:00:00Z	 SAID32 WIBB 301000	METAR WIBB 301000Z 06008KT 9999 SCT013 32/24 Q1004 NOSIG=
30/01/2022 10:30:00Z	 SAID32 WIBB 301030	METAR WIBB 301030Z 03009KT 9000 SCT013 32/23 Q1005=
30/01/2022 11:00:00Z	 SAID32 WIBB 301100	METAR WIBB 301100Z 02008G18KT 9000 SCT013 31/24 Q1005=
30/01/2022 11:30:00Z	 SAID32 WIBB 301130	METAR WIBB 301130Z 02005KT 8000 SCT013 29/23 Q1006=
30/01/2022 12:00:00Z	 SAID32 WIBB 301200	METAR WIBB 301200Z 02006KT 8000 SCT013 28/23 Q1006=
30/01/2022 12:30:00Z	 SAID32 WIBB 301230	METAR WIBB 301230Z 02005KT 8000 SCT013 28/23 Q1006=
30/01/2022 13:00:00Z	 SAID32 WIBB 301300	METAR WIBB 301300Z 02006KT 8000 SCT013 28/23 Q1007 NOSIG=
30/01/2022 13:30:00Z	 SAID32 WIBB 301330	METAR WIBB 301330Z 03005KT 8000 SCT013 27/24 Q1008 NOSIG=
30/01/2022 14:00:00Z	 SAID32 WIBB 301400	METAR WIBB 301400Z 00000KT 8000 SCT013 27/24 Q1008=
30/01/2022 14:30:00Z	 SAID32 WIBB 301430	METAR WIBB 301430Z 00000KT 8000 SCT013 27/24 Q1008 NOSIG=
30/01/2022 15:00:00Z	 SAID32 WIBB 301500	METAR WIBB 301500Z 00000KT 8000 SCT015 26/24 Q1009=
30/01/2022 15:30:00Z	 SAID32 WIBB 301530	METAR WIBB 301530Z 00000KT 8000 SCT015 FEW017CB 26/25 Q1009=
30/01/2022 16:00:00Z	 SAID32 WIBB 301600	METAR WIBB 301600Z 00000KT 8000 SCT015 FEW017CB 26/24 Q1009=
30/01/2022 16:30:00Z	 SAID32 WIBB 301630	METAR WIBB 301630Z 00000KT 8000 SCT015 26/24 Q1009=
30/01/2022 17:00:00Z	 SAID32 WIBB 301700	METAR WIBB 301700Z 30006KT 8000 SCT015 26/24 Q1009=
30/01/2022 17:30:00Z	 SAID32 WIBB 301730	METAR WIBB 301730Z 00000KT 8000 SCT013 25/24 Q1009 NOSIG=
30/01/2022 18:00:00Z	 SAID32 WIBB 301800	METAR WIBB 301800Z 26005KT 8000 SCT013 25/24 Q1009 NOSIG=
30/01/2022 21:00:00Z	 SAID32 WIBB 302100	METAR WIBB 302100Z 00000KT 8000 BKN013 25/24 Q1007 NOSIG=
30/01/2022 21:30:00Z	 SAID32 WIBB 302130	METAR WIBB 302130Z 05005KT 8000 BKN013 25/24 Q1007=
30/01/2022 22:00:00Z	 SAID32 WIBB 302200	METAR WIBB 302200Z 00000KT 6000 BKN013 24/24 Q1007=
30/01/2022 22:30:00Z	 SAID32 WIBB 302230	METAR WIBB 302230Z 00000KT 5000 HZ SCT013 24/24 Q1008=
30/01/2022 23:00:00Z	 SAID32 WIBB 302300	METAR WIBB 302300Z 00000KT 5000 HZ SCT013 24/24 Q1008=
30/01/2022 23:30:00Z	 SAID32 WIBB 302330	METAR WIBB 302330Z 00000KT 3000 BR FEW015 24/24 Q1008=
31/01/2022 00:00:00Z	 SAID32 WIBB 310000	METAR WIBB 310000Z 00000KT 4000 HZ FEW015 24/24 Q1008=
31/01/2022 00:30:00Z	 SAID32 WIBB 310030	METAR WIBB 310030Z 00000KT 5000 HZ FEW015 25/25 Q1009=
31/01/2022 01:00:00Z	 SAID32 WIBB 310100	METAR WIBB 310100Z 00000KT 6000 FEW015 26/24 Q1009=
31/01/2022 01:30:00Z	 SAID32 WIBB 310130	METAR WIBB 310130Z 00000KT 7000 FEW015 27/24 Q1010 NOSIG=
31/01/2022 02:00:00Z	 SAID32 WIBB 310200	METAR WIBB 310200Z 00000KT 7000 SCT010 27/24 Q1010=
31/01/2022 02:30:00Z	 SAID32 WIBB 310230	METAR WIBB 310230Z 05005KT 030V200 7000 SCT010 28/25 Q1010=
31/01/2022 03:00:00Z	 SAID32 WIBB 310300	METAR WIBB 310300Z 34006KT 8000 BKN010 28/24 Q1010=
31/01/2022 03:30:00Z	 SAID32 WIBB 310330	METAR WIBB 310330Z 03005KT 8000 BKN010 29/24 Q1010=
31/01/2022 04:00:00Z	 SAID32 WIBB 310400	METAR WIBB 310400Z 35007KT 8000 BKN010 29/24 Q1010 NOSIG=
31/01/2022 04:30:00Z	 SAID32 WIBB 310430	METAR WIBB 310430Z 35006KT 8000 BKN012 29/24 Q1009 NOSIG=
31/01/2022 05:00:00Z	 SAID32 WIBB 310500	METAR WIBB 310500Z 04009KT 8000 BKN010 31/24 Q1009 NOSIG=
31/01/2022 05:30:00Z	 SAID32 WIBB 310530	METAR WIBB 310530Z 33006KT 8000 BKN010 31/23 Q1008 NOSIG=
31/01/2022 06:00:00Z	 SAID32 WIBB 310600	METAR WIBB 310600Z 00000KT 8000 BKN010 31/23 Q1008=
31/01/2022 06:30:00Z	 SAID32 WIBB 310630	METAR WIBB 310630Z 05005KT 8000 BKN010 31/23 Q1007 NOSIG=
31/01/2022 07:00:00Z	 SAID32 WIBB 310700	METAR WIBB 310700Z 04005KT 9999 SCT015 31/23 Q1007 NOSIG=
31/01/2022 07:30:00Z	 SAID32 WIBB 310730	METAR WIBB 310730Z 00000KT 9999 SCT015 31/23 Q1006 NOSIG=
31/01/2022 08:00:00Z	 SAID32 WIBB 310800	METAR WIBB 310800Z 00000KT 9999 SCT015 31/22 Q1005 NOSIG=
31/01/2022 08:30:00Z	 SAID32 WIBB 310830	METAR WIBB 310830Z 00000KT 9999 SCT017 31/23 Q1005 NOSIG=
31/01/2022 09:00:00Z	 SAID32 WIBB 310900	METAR WIBB 310900Z 00000KT 9999 SCT017 31/24 Q1005 NOSIG=
31/01/2022 09:30:00Z	 SAID32 WIBB 310930	METAR WIBB 310930Z 19007KT 9000 SCT017CB 30/25 Q1005 NOSIG=
31/01/2022 10:00:00Z	 SAID32 WIBB 311000	METAR WIBB 311000Z 18005KT 9000 SCT017 30/25 Q1005 NOSIG=
31/01/2022 10:30:00Z	 SAID32 WIBB 311030	METAR WIBB 311030Z 17005KT 9000 SCT017 29/25 Q1005 NOSIG=
31/01/2022 11:00:00Z	 SAID32 WIBB 311100	METAR WIBB 311100Z 16005KT 9000 SCT017 29/25 Q1005 NOSIG=
31/01/2022 11:30:00Z	 SAID32 WIBB 311130	METAR WIBB 311130Z 00000KT 8000 SCT017 29/25 Q1005 NOSIG=
31/01/2022 12:00:00Z	 SAID32 WIBB 311200	METAR WIBB 311200Z 00000KT 8000 SCT015 29/25 Q1006 NOSIG=
31/01/2022 12:30:00Z	 SAID32 WIBB 311230	METAR WIBB 311230Z 00000KT 8000 SCT015 28/26 Q1006 NOSIG=
31/01/2022 13:00:00Z	 SAID32 WIBB 311300	METAR WIBB 311300Z 00000KT 8000 FEW015 28/26 Q1007=
31/01/2022 13:30:00Z	 SAID32 WIBB 311330	METAR WIBB 311330Z 00000KT 8000 FEW015 28/25 Q1007=
31/01/2022 14:00:00Z	 SAID32 WIBB 311400	METAR WIBB 311400Z 00000KT 8000 FEW015 28/24 Q1008=
31/01/2022 14:30:00Z	 SAID32 WIBB 311430	METAR WIBB 311430Z 00000KT 8000 FEW015 27/25 Q1008=
31/01/2022 15:00:00Z	 SAID32 WIBB 311500	METAR WIBB 311500Z 00000KT 8000 FEW015 27/25 Q1008=
31/01/2022 15:30:00Z	 SAID32 WIBB 311530	METAR WIBB 311530Z 00000KT 8000 FEW015 27/25 Q1008=
31/01/2022 18:00:00Z	 SAID32 WIBB 311800	METAR WIBB 311800Z 00000KT 8000 FEW015 26/25 Q1008=
31/01/2022 21:00:00Z	 SAID32 WIBB 312100	METAR WIBB 312100Z 00000KT 6000 SCT013 25/25 Q1006=
31/01/2022 21:30:00Z	 SAID32 WIBB 312130	METAR WIBB 312130Z 00000KT 6000 -RA SCT013 FEW015CB 25/25 Q1006=
31/01/2022 22:30:00Z	 SAID32 WIBB 312230	METAR WIBB 312230Z 00000KT 3000 VCTS RA SCT010 FEW013CB 25/25 Q1007 TL0030 TSRA SCT010=
31/01/2022 23:00:00Z	 SAID32 WIBB 312300	METAR WIBB 312300Z 00000KT 4000 R R36/1700 TSRA SCT010 FEW014CB 24/24 Q1007=
31/01/2022 23:30:00Z	 SAID32 WIBB 312330	METAR WIBB 312330Z 00000KT 4000 TSRA SCT010 FEW014CB 24/24 Q1007=
