01/04/2021 00:00:00Z	 SAID34 WIJJ 010000	METAR WIJJ 010000Z 14003KT 8000 SCT013 24/23 Q1007 NOSIG=
01/04/2021 00:30:00Z	 SAID34 WIJJ 010030	METAR WIJJ 010030Z AUTO VRB02KT 9999 FEW005 24/24 Q1007=
01/04/2021 01:00:00Z	 SAID34 WIJJ 010100	METAR WIJJ 010100Z 02002KT 9999 FEW006 25/24 Q1008 NOSIG=
01/04/2021 01:30:00Z	 SAID34 WIJJ 010130	METAR WIJJ 010130Z 05003KT 360V140 9999 FEW013 25/24 Q1008 NOSIG=
01/04/2021 02:00:00Z	 SAID34 WIJJ 010200	METAR WIJJ 010200Z 10003KT 030V160 9999 FEW015 26/24 Q1009 NOSIG=
01/04/2021 02:30:00Z	 SAID34 WIJJ 010230	METAR COR WIJJ 010230Z 11003KT 060V170 9999 NSC 28/24 Q1008 NOSIG=
01/04/2021 03:00:00Z	 SAID34 WIJJ 010300	METAR WIJJ 010300Z 07004KT 020V130 9999 NSC 29/23 Q1008 NOSIG=
01/04/2021 03:30:00Z	 SAID34 WIJJ 010330	METAR WIJJ 010330Z 11002KT 9999 NSC 29/23 Q1008 NOSIG=
01/04/2021 04:00:00Z	 SAID34 WIJJ 010400	METAR WIJJ 010400Z 09003KT 030V170 9999 NSC 29/23 Q1008 NOSIG=
01/04/2021 04:30:00Z	 SAID34 WIJJ 010430	METAR WIJJ 010430Z 15002KT 9999 NSC 30/23 Q1008 NOSIG=
01/04/2021 05:00:00Z	 SAID34 WIJJ 010500	METAR WIJJ 010500Z 04002KT 9999 FEW015 31/21 Q1007 NOSIG=
01/04/2021 05:30:00Z	 SAID34 WIJJ 010530	METAR WIJJ 010530Z 35004KT 310V060 9999 FEW016 31/21 Q1007 NOSIG=
01/04/2021 06:00:00Z	 SAID34 WIJJ 010600	METAR WIJJ 010600Z 29005KT 9999 FEW016 32/23 Q1006 NOSIG=
01/04/2021 06:30:00Z	 SAID34 WIJJ 010630	METAR WIJJ 010630Z 31004KT 240V360 9999 FEW017 32/24 Q1006 NOSIG=
01/04/2021 07:00:00Z	 SAID34 WIJJ 010700	METAR WIJJ 010700Z 23004KT 9999 SCT017 32/24 Q1005 NOSIG=
01/04/2021 07:30:00Z	 SAID34 WIJJ 010730	METAR WIJJ 010730Z 26004KT 170V310 9999 SCT016 31/23 Q1005 NOSIG=
01/04/2021 08:00:00Z	 SAID34 WIJJ 010800	METAR WIJJ 010800Z 24004KT 180V280 9999 SCT017 33/24 Q1005 NOSIG=
01/04/2021 08:30:00Z	 SAID34 WIJJ 010830	METAR WIJJ 010830Z 24003KT 180V290 9999 SCT017 33/24 Q1004 NOSIG=
01/04/2021 09:00:00Z	 SAID34 WIJJ 010900	METAR WIJJ 010900Z 26004KT 9999 SCT017 32/23 Q1004 NOSIG=
01/04/2021 09:30:00Z	 SAID34 WIJJ 010930	METAR WIJJ 010930Z 24006KT 210V270 9999 SCT016 31/23 Q1004 NOSIG=
01/04/2021 10:00:00Z	 SAID34 WIJJ 011000	METAR WIJJ 011000Z 23004KT 180V260 9999 FEW016 31/23 Q1004 NOSIG=
01/04/2021 10:30:00Z	 SAID34 WIJJ 011030	METAR WIJJ 011030Z 26005KT 200V290 9999 FEW017 31/23 Q1004 NOSIG=
01/04/2021 11:00:00Z	 SAID34 WIJJ 011100	METAR WIJJ 011100Z 25005KT 9999 FEW017 30/22 Q1004 NOSIG=
01/04/2021 11:30:00Z	 SAID34 WIJJ 011130	METAR WIJJ 011130Z 26001KT 9999 FEW017 30/23 Q1004 NOSIG=
01/04/2021 12:00:00Z	 SAID34 WIJJ 011200	METAR WIJJ 011200Z 24001KT 9000 FEW017 28/25 Q1005 NOSIG=
01/04/2021 12:30:00Z	 SAID34 WIJJ 011230	METAR WIJJ 011230Z 02002KT 9999 FEW016 29/25 Q1005 NOSIG=
01/04/2021 13:00:00Z	 SAID34 WIJJ 011300	METAR WIJJ 011300Z 12001KT 6000 FEW016 29/25 Q1005 NOSIG=
01/04/2021 13:30:00Z	 SAID34 WIJJ 011330	METAR WIJJ 011330Z 12002KT 5000 HZ FEW016 28/25 Q1006 NOSIG=
01/04/2021 14:00:00Z	 SAID34 WIJJ 011400	METAR WIJJ 011400Z 17002KT 4300 HZ FEW016 28/25 Q1006 NOSIG=
01/04/2021 14:30:00Z	 SAID34 WIJJ 011430	METAR WIJJ 011430Z 16002KT 7000 HZ FEW016 27/25 Q1006 NOSIG=
01/04/2021 15:00:00Z	 SAID34 WIJJ 011500	METAR WIJJ 011500Z 19002KT 9999 FEW016 28/25 Q1007 NOSIG=
01/04/2021 15:30:00Z	 SAID34 WIJJ 011530	METAR WIJJ 011530Z 18002KT 9000 FEW016 27/25 Q1007 NOSIG=
01/04/2021 16:00:00Z	 SAID34 WIJJ 011600	METAR WIJJ 011600Z 17001KT 9999 FEW016 27/25 Q1007 NOSIG=
01/04/2021 16:30:00Z	 SAID34 WIJJ 011630	METAR WIJJ 011630Z 04003KT 9000 FEW016 27/25 Q1007 NOSIG=
01/04/2021 17:00:00Z	 SAID34 WIJJ 011700	METAR WIJJ 011700Z 04001KT 8000 FEW016 27/25 Q1007 NOSIG=
01/04/2021 17:30:00Z	 SAID34 WIJJ 011730	METAR WIJJ 011730Z 00000KT 7000 FEW016 27/25 Q1007 NOSIG=
01/04/2021 18:00:00Z	 SAID34 WIJJ 011800	METAR WIJJ 011800Z 36002KT 9000 FEW016 27/25 Q1007 NOSIG=
01/04/2021 18:30:00Z	 SAID34 WIJJ 011830	METAR WIJJ 011830Z 35003KT 7000 FEW016 27/25 Q1006 NOSIG=
01/04/2021 19:00:00Z	 SAID34 WIJJ 011900	METAR WIJJ 011900Z 35001KT 7000 FEW016 27/25 Q1006 NOSIG=
01/04/2021 19:30:00Z	 SAID34 WIJJ 011930	METAR WIJJ 011930Z 20001KT 7000 FEW016 27/25 Q1006 NOSIG=
01/04/2021 20:00:00Z	 SAID34 WIJJ 012000	METAR WIJJ 012000Z 17002KT 6000 FEW016 26/25 Q1006 NOSIG=
01/04/2021 20:30:00Z	 SAID34 WIJJ 012030	METAR WIJJ 012030Z 17002KT 6000 FEW016 26/25 Q1006 NOSIG=
01/04/2021 21:00:00Z	 SAID34 WIJJ 012100	METAR WIJJ 012100Z 18002KT 6000 FEW016 26/25 Q1005 NOSIG=
01/04/2021 21:30:00Z	 SAID34 WIJJ 012130	METAR WIJJ 012130Z 14001KT 6000 FEW016 26/25 Q1006 NOSIG=
01/04/2021 22:00:00Z	 SAID34 WIJJ 012200	METAR WIJJ 012200Z 14002KT 4900 HZ FEW016 26/25 Q1006 NOSIG=
01/04/2021 22:30:00Z	 SAID34 WIJJ 012230	METAR WIJJ 012230Z 13002KT 4200 HZ FEW016 26/25 Q1006 NOSIG=
01/04/2021 23:00:00Z	 SAID34 WIJJ 012300	METAR WIJJ 012300Z 12001KT 3600 HZ FEW016 26/25 Q1006 NOSIG=
01/04/2021 23:30:00Z	 SAID34 WIJJ 012330	METAR WIJJ 012330Z 20001KT 1600 HZ FEW016 26/25 Q1006 NOSIG=
02/04/2021 00:00:00Z	 SAID34 WIJJ 020000	METAR WIJJ 020000Z 21001KT 2600 HZ FEW016 26/25 Q1007 NOSIG=
02/04/2021 00:30:00Z	 SAID34 WIJJ 020030	METAR WIJJ 020030Z 21002KT 3500 HZ FEW016 26/25 Q1007 NOSIG=
02/04/2021 00:49:00Z	 SAID34 WIJJ 020049	METAR WIJJ 020049Z 16002KT 8000 FEW016 27/25 Q1008 NOSIG=
02/04/2021 01:00:00Z	 SAID34 WIJJ 020100	METAR WIJJ 020100Z 16002KT 8000 FEW016 27/25 Q1008 NOSIG=
02/04/2021 01:30:00Z	 SAID34 WIJJ 020130	METAR WIJJ 020130Z 08003KT 9999 FEW016 29/25 Q1008 NOSIG=
02/04/2021 02:00:00Z	 SAID34 WIJJ 020200	METAR WIJJ 020200Z 09003KT 9999 FEW016 29/25 Q1008 NOSIG=
02/04/2021 02:30:00Z	 SAID34 WIJJ 020230	METAR WIJJ 020230Z 35005KT 310V020 9999 FEW016 31/24 Q1008 NOSIG=
02/04/2021 03:00:00Z	 SAID34 WIJJ 020300	METAR WIJJ 020300Z 30006KT 280V340 9999 FEW015 31/24 Q1008 NOSIG=
02/04/2021 03:30:00Z	 SAID34 WIJJ 020330	METAR WIJJ 020330Z 28010KT 270V360 9999 FEW015 32/23 Q1008 NOSIG=
02/04/2021 04:00:00Z	 SAID34 WIJJ 020400	METAR WIJJ 020400Z 31010KT 250V340 9999 FEW015 33/22 Q1008 NOSIG=
02/04/2021 04:30:00Z	 SAID34 WIJJ 020430	METAR WIJJ 020430Z 31011KT 9999 FEW015 33/22 Q1007 NOSIG=
02/04/2021 05:00:00Z	 SAID34 WIJJ 020500	METAR WIJJ 020500Z 31010KT 9999 FEW015 34/23 Q1006 NOSIG=
02/04/2021 05:30:00Z	 SAID34 WIJJ 020530	METAR WIJJ 020530Z 30007KT 9999 FEW015 34/23 Q1006 NOSIG=
02/04/2021 06:00:00Z	 SAID34 WIJJ 020600	METAR WIJJ 020600Z 33007KT 9999 FEW016 34/23 Q1005 NOSIG=
02/04/2021 06:30:00Z	 SAID34 WIJJ 020630	METAR WIJJ 020630Z 34007KT 9999 FEW016 34/22 Q1004 NOSIG=
02/04/2021 07:00:00Z	 SAID34 WIJJ 020700	METAR WIJJ 020700Z 32008KT 9999 SCT016 35/23 Q1004 NOSIG=
02/04/2021 07:30:00Z	 SAID34 WIJJ 020730	METAR WIJJ 020730Z 30010KT 9999 SCT016 35/22 Q1004 NOSIG=
02/04/2021 08:00:00Z	 SAID34 WIJJ 020800	METAR WIJJ 020800Z 35011KT 9999 SCT016 34/23 Q1003 NOSIG=
02/04/2021 08:30:00Z	 SAID34 WIJJ 020830	METAR WIJJ 020830Z 34008KT 9999 SCT015 33/22 Q1003 NOSIG=
02/04/2021 09:00:00Z	 SAID34 WIJJ 020900	METAR WIJJ 020900Z 35008KT 9999 SCT016 35/23 Q1003 NOSIG=
02/04/2021 09:30:00Z	 SAID34 WIJJ 020930	METAR WIJJ 020930Z 32011KT 9999 SCT016 34/23 Q1003 NOSIG=
02/04/2021 10:00:00Z	 SAID34 WIJJ 021000	METAR WIJJ 021000Z 32008KT 9999 FEW016 34/23 Q1003 NOSIG=
02/04/2021 10:30:00Z	 SAID34 WIJJ 021030	METAR WIJJ 021030Z 32008KT 9999 FEW016 34/23 Q1003 NOSIG=
02/04/2021 11:00:00Z	 SAID34 WIJJ 021100	METAR WIJJ 021100Z 32006KT 9999 FEW015 34/23 Q1004 NOSIG=
02/04/2021 11:30:00Z	 SAID34 WIJJ 021130	METAR WIJJ 021130Z 33003KT 9999 FEW015 32/23 Q1004 NOSIG=
02/04/2021 12:00:00Z	 SAID34 WIJJ 021200	METAR WIJJ 021200Z 01005KT 9999 FEW015 32/25 Q1004 NOSIG=
02/04/2021 12:30:00Z	 SAID34 WIJJ 021230	METAR WIJJ 021230Z 01005KT 330V040 9999 FEW015 30/24 Q1005 NOSIG=
02/04/2021 13:00:00Z	 SAID34 WIJJ 021300	METAR WIJJ 021300Z 02004KT 9999 FEW015 29/25 Q1006 NOSIG=
02/04/2021 13:30:00Z	 SAID34 WIJJ 021330	METAR WIJJ 021330Z 00000KT 9999 FEW015 29/25 Q1007 NOSIG=
02/04/2021 14:00:00Z	 SAID34 WIJJ 021400	METAR WIJJ 021400Z 02003KT 9999 FEW015 29/25 Q1007 NOSIG=
02/04/2021 14:30:00Z	 SAID34 WIJJ 021430	METAR WIJJ 021430Z 34002KT 9999 FEW015 29/25 Q1007 NOSIG=
02/04/2021 15:00:00Z	 SAID34 WIJJ 021500	METAR WIJJ 021500Z 01002KT 9999 FEW015 29/25 Q1007 NOSIG=
02/04/2021 15:30:00Z	 SAID34 WIJJ 021530	METAR WIJJ 021530Z 01003KT 9999 FEW016 29/25 Q1007 NOSIG=
02/04/2021 16:00:00Z	 SAID34 WIJJ 021600	METAR WIJJ 021600Z 01002KT 9999 SCT016 29/25 Q1007 NOSIG=
02/04/2021 16:30:00Z	 SAID34 WIJJ 021630	METAR WIJJ 021630Z 34003KT 9999 SCT016 29/25 Q1007 NOSIG=
02/04/2021 17:00:00Z	 SAID34 WIJJ 021700	METAR WIJJ 021700Z 34005KT 9999 SCT016 29/25 Q1007 NOSIG=
02/04/2021 17:30:00Z	 SAID34 WIJJ 021730	METAR WIJJ 021730Z 34006KT 9999 SCT016 28/25 Q1007 NOSIG=
02/04/2021 18:00:00Z	 SAID34 WIJJ 021800	METAR WIJJ 021800Z 31006KT 9999 FEW016 28/23 Q1006 NOSIG=
02/04/2021 18:30:00Z	 SAID34 WIJJ 021830	METAR WIJJ 021830Z 33008KT 9999 SCT016 27/23 Q1006 NOSIG=
02/04/2021 19:00:00Z	 SAID34 WIJJ 021900	METAR WIJJ 021900Z 34007KT 9999 SCT016 27/23 Q1006 NOSIG=
02/04/2021 19:30:00Z	 SAID34 WIJJ 021930	METAR WIJJ 021930Z 33007KT 9999 SCT015 27/22 Q1006 NOSIG=
02/04/2021 20:00:00Z	 SAID34 WIJJ 022000	METAR WIJJ 022000Z 32007KT 9999 SCT015 26/22 Q1006 NOSIG=
02/04/2021 20:30:00Z	 SAID34 WIJJ 022030	METAR WIJJ 022030Z 31008KT 9999 SCT015 26/22 Q1005 NOSIG=
02/04/2021 21:00:00Z	 SAID34 WIJJ 022100	METAR WIJJ 022100Z 36003KT 9999 SCT015 26/22 Q1007 NOSIG=
02/04/2021 21:30:00Z	 SAID34 WIJJ 022130	METAR WIJJ 022130Z 35003KT 9999 SCT015 26/22 Q1007 NOSIG=
02/04/2021 22:00:00Z	 SAID34 WIJJ 022200	METAR WIJJ 022200Z 34004KT 9999 SCT015 26/22 Q1007 NOSIG=
02/04/2021 22:30:00Z	 SAID34 WIJJ 022230	METAR WIJJ 022230Z 34004KT 9999 SCT015 25/22 Q1007 NOSIG=
02/04/2021 23:00:00Z	 SAID34 WIJJ 022300	METAR WIJJ 022300Z 35005KT 9999 FEW015 25/22 Q1007 NOSIG=
02/04/2021 23:30:00Z	 SAID34 WIJJ 022330	METAR WIJJ 022330Z AUTO 35004KT 310V010 9999 NCD 25/22 Q1008=
03/04/2021 00:00:00Z	 SAID34 WIJJ 030000	METAR WIJJ 030000Z 34006KT 9999 FEW015 25/22 Q1008 NOSIG=
03/04/2021 00:30:00Z	 SAID34 WIJJ 030030	METAR WIJJ 030030Z 34007KT 9999 FEW015 26/22 Q1008 NOSIG=
03/04/2021 01:00:00Z	 SAID34 WIJJ 030100	METAR WIJJ 030100Z 34007KT 9999 FEW015 27/22 Q1009 NOSIG=
03/04/2021 01:30:00Z	 SAID34 WIJJ 030130	METAR WIJJ 030130Z 32007KT 9999 FEW015 27/22 Q1009 NOSIG=
03/04/2021 02:00:00Z	 SAID34 WIJJ 030200	METAR WIJJ 030200Z 30007KT 9999 FEW015 29/23 Q1009 NOSIG=
03/04/2021 02:30:00Z	 SAID34 WIJJ 030230	METAR WIJJ 030230Z 34009KT 9999 FEW015 30/22 Q1009 NOSIG=
03/04/2021 03:00:00Z	 SAID34 WIJJ 030300	METAR WIJJ 030300Z 30010KT CAVOK 31/22 Q1009 NOSIG=
03/04/2021 03:30:00Z	 SAID34 WIJJ 030330	METAR WIJJ 030330Z 33011KT CAVOK 31/22 Q1008 NOSIG=
03/04/2021 04:00:00Z	 SAID34 WIJJ 030400	METAR WIJJ 030400Z 35009KT 300V040 9999 FEW015 32/23 Q1008 NOSIG=
03/04/2021 04:30:00Z	 SAID34 WIJJ 030430	METAR WIJJ 030430Z 35008KT 300V030 9999 FEW015 32/24 Q1008 NOSIG=
03/04/2021 05:00:00Z	 SAID34 WIJJ 030500	METAR WIJJ 030500Z 35009KT 310V040 9999 SCT015 32/23 Q1007 NOSIG=
03/04/2021 05:30:00Z	 SAID34 WIJJ 030530	METAR WIJJ 030530Z 34008KT 9999 SCT015 33/24 Q1007 NOSIG=
03/04/2021 06:00:00Z	 SAID34 WIJJ 030600	METAR WIJJ 030600Z 33009KT 270V010 9999 SCT015 33/23 Q1006 NOSIG=
03/04/2021 06:30:00Z	 SAID34 WIJJ 030630	METAR WIJJ 030630Z 32011KT 9999 BKN015 33/23 Q1006 NOSIG=
03/04/2021 07:00:00Z	 SAID34 WIJJ 030700	METAR WIJJ 030700Z 30010KT 270V350 9999 BKN015 34/23 Q1005 NOSIG=
03/04/2021 07:30:00Z	 SAID34 WIJJ 030730	METAR WIJJ 030730Z 32011KT 9999 BKN015 33/23 Q1005 NOSIG=
03/04/2021 08:00:00Z	 SAID34 WIJJ 030800	METAR WIJJ 030800Z 32008KT 9999 SCT015 33/23 Q1005 NOSIG=
03/04/2021 08:30:00Z	 SAID34 WIJJ 030830	METAR WIJJ 030830Z 01008KT 340V050 9999 SCT015 32/24 Q1005 NOSIG=
03/04/2021 09:00:00Z	 SAID34 WIJJ 030900	METAR WIJJ 030900Z 34010KT 9999 SCT015 32/24 Q1005 NOSIG=
03/04/2021 09:30:00Z	 SAID34 WIJJ 030930	METAR WIJJ 030930Z 35009KT 9999 SCT015 32/24 Q1005 NOSIG=
03/04/2021 10:00:00Z	 SAID34 WIJJ 031000	METAR WIJJ 031000Z 01009KT 9999 FEW015CB FEW016 31/24 Q1005 NOSIG RMK CB TO NE=
03/04/2021 10:30:00Z	 SAID34 WIJJ 031030	METAR WIJJ 031030Z 35008KT 9999 - FEW015CB FEW016 30/23 Q1005 NOSIG RMK CB TO E=
03/04/2021 11:00:00Z	 SAID34 WIJJ 031100	METAR WIJJ 031100Z 36006KT 330V040 9999 SCT015 28/23 Q1005 NOSIG=
03/04/2021 11:30:00Z	 SAID34 WIJJ 031130	METAR WIJJ 031130Z 02005KT 9999 SCT015 28/23 Q1005 NOSIG=
03/04/2021 12:00:00Z	 SAID34 WIJJ 031200	METAR WIJJ 031200Z 03004KT 360V070 9999 FEW015 28/23 Q1006 NOSIG=
03/04/2021 12:30:00Z	 SAID34 WIJJ 031230	METAR WIJJ 031230Z 04005KT 9999 FEW017 26/23 Q1006 NOSIG=
03/04/2021 13:00:00Z	 SAID34 WIJJ 031300	METAR WIJJ 031300Z 04004KT 360V060 9999 FEW017 26/23 Q1006 NOSIG=
03/04/2021 13:30:00Z	 SAID34 WIJJ 031330	METAR WIJJ 031330Z 02003KT 9999 FEW017 26/23 Q1006 NOSIG=
03/04/2021 14:00:00Z	 SAID34 WIJJ 031400	METAR WIJJ 031400Z 34003KT 320V030 9999 FEW017 26/23 Q1007 NOSIG=
03/04/2021 14:30:00Z	 SAID34 WIJJ 031430	METAR WIJJ 031430Z 03003KT 9999 FEW017 26/23 Q1007 NOSIG=
03/04/2021 15:00:00Z	 SAID34 WIJJ 031500	METAR WIJJ 031500Z 34001KT 9999 FEW017 26/24 Q1007 NOSIG=
03/04/2021 15:30:00Z	 SAID34 WIJJ 031530	METAR WIJJ 031530Z 31002KT 9999 FEW017 25/24 Q1008 NOSIG=
03/04/2021 16:00:00Z	 SAID34 WIJJ 031600	METAR WIJJ 031600Z 33002KT 9999 FEW017 27/24 Q1008 NOSIG=
03/04/2021 16:30:00Z	 SAID34 WIJJ 031630	METAR WIJJ 031630Z 33004KT 9999 FEW017 27/24 Q1008 NOSIG=
03/04/2021 17:00:00Z	 SAID34 WIJJ 031700	METAR WIJJ 031700Z 35003KT 9999 FEW017 27/24 Q1008 NOSIG=
03/04/2021 17:30:00Z	 SAID34 WIJJ 031730	METAR WIJJ 031730Z 32002KT 9999 FEW017 26/24 Q1008 NOSIG=
03/04/2021 18:00:00Z	 SAID34 WIJJ 031800	METAR WIJJ 031800Z 30003KT 9999 FEW015 26/24 Q1008 NOSIG=
03/04/2021 18:30:00Z	 SAID34 WIJJ 031830	METAR WIJJ 031830Z 34003KT 9999 FEW015 27/24 Q1007 NOSIG=
03/04/2021 19:00:00Z	 SAID34 WIJJ 031900	METAR WIJJ 031900Z 32001KT 9999 FEW015 25/24 Q1007 NOSIG=
03/04/2021 19:30:00Z	 SAID34 WIJJ 031930	METAR WIJJ 031930Z 24002KT 9999 FEW015 26/24 Q1006 NOSIG=
03/04/2021 20:00:00Z	 SAID34 WIJJ 032000	METAR WIJJ 032000Z 24001KT 9999 FEW015 25/24 Q1006 NOSIG=
03/04/2021 20:30:00Z	 SAID34 WIJJ 032030	METAR WIJJ 032030Z 22002KT 9000 FEW015 25/24 Q1006 NOSIG=
03/04/2021 21:00:00Z	 SAID34 WIJJ 032100	METAR WIJJ 032100Z 32003KT 9999 FEW015 25/24 Q1007 NOSIG=
03/04/2021 21:30:00Z	 SAID34 WIJJ 032130	METAR WIJJ 032130Z 01003KT 340V040 9999 FEW015 26/24 Q1007 NOSIG=
03/04/2021 22:00:00Z	 SAID34 WIJJ 032200	METAR WIJJ 032200Z 03003KT 340V040 9999 FEW015 26/24 Q1007 NOSIG=
03/04/2021 22:30:00Z	 SAID34 WIJJ 032230	METAR WIJJ 032230Z 03003KT 360V070 8000 FEW015 26/24 Q1007 NOSIG=
03/04/2021 23:00:00Z	 SAID34 WIJJ 032300	METAR WIJJ 032300Z 31005KT 8000 SCT015 25/24 Q1007 NOSIG=
03/04/2021 23:30:00Z	 SAID34 WIJJ 032330	METAR WIJJ 032330Z 35004KT 9000 FEW017 26/23 Q1008 NOSIG=
04/04/2021 00:00:00Z	 SAID34 WIJJ 040000	METAR WIJJ 040000Z 02004KT 350V060 9000 FEW017 25/23 Q1008 NOSIG=
04/04/2021 00:30:00Z	 SAID34 WIJJ 040030	METAR WIJJ 040030Z 34003KT 9999 FEW015 26/23 Q1008 NOSIG=
04/04/2021 01:00:00Z	 SAID34 WIJJ 040100	METAR WIJJ 040100Z 33004KT 310V010 9999 FEW015 26/24 Q1009 NOSIG=
04/04/2021 01:30:00Z	 SAID34 WIJJ 040130	METAR WIJJ 040130Z 34003KT 9999 FEW015 27/24 Q1009 NOSIG=
04/04/2021 02:00:00Z	 SAID34 WIJJ 040200	METAR WIJJ 040200Z 32004KT 9999 FEW016 28/23 Q1009 NOSIG=
04/04/2021 02:30:00Z	 SAID34 WIJJ 040230	METAR WIJJ 040230Z 30004KT 9999 FEW016 28/23 Q1009 NOSIG=
04/04/2021 03:00:00Z	 SAID34 WIJJ 040300	METAR WIJJ 040300Z 30010KT 9999 FEW016 30/23 Q1009 NOSIG=
04/04/2021 03:30:00Z	 SAID34 WIJJ 040330	METAR WIJJ 040330Z 29008KT 9999 FEW016 30/24 Q1009 NOSIG=
04/04/2021 04:00:00Z	 SAID34 WIJJ 040400	METAR WIJJ 040400Z 30009KT 9999 FEW016 30/23 Q1009 NOSIG=
04/04/2021 04:30:00Z	 SAID34 WIJJ 040430	METAR WIJJ 040430Z 29007KT 9999 FEW016 30/23 Q1008 NOSIG=
04/04/2021 05:00:00Z	 SAID34 WIJJ 040500	METAR WIJJ 040500Z 31006KT 9999 FEW016 31/23 Q1008 NOSIG=
04/04/2021 05:30:00Z	 SAID34 WIJJ 040530	METAR WIJJ 040530Z 30004KT 9999 FEW016 31/23 Q1007 NOSIG=
04/04/2021 06:00:00Z	 SAID34 WIJJ 040600	METAR WIJJ 040600Z 30007KT 9999 FEW016 32/23 Q1006 NOSIG=
04/04/2021 06:30:00Z	 SAID34 WIJJ 040630	METAR WIJJ 040630Z 29006KT 9999 FEW016 32/23 Q1006 NOSIG=
04/04/2021 07:00:00Z	 SAID34 WIJJ 040700	METAR WIJJ 040700Z 30007KT 9999 FEW016 34/23 Q1006 NOSIG=
04/04/2021 07:30:00Z	 SAID34 WIJJ 040730	METAR WIJJ 040730Z 28009KT 9999 FEW016 33/23 Q1005 NOSIG=
04/04/2021 08:00:00Z	 SAID34 WIJJ 040800	METAR WIJJ 040800Z 29008KT 9999 FEW016 33/23 Q1005 NOSIG=
04/04/2021 08:30:00Z	 SAID34 WIJJ 040830	METAR WIJJ 040830Z 29006KT 9999 FEW016 33/23 Q1005 NOSIG=
04/04/2021 09:00:00Z	 SAID34 WIJJ 040900	METAR WIJJ 040900Z 29007KT 9999 FEW016 33/24 Q1005 NOSIG=
04/04/2021 09:30:00Z	 SAID34 WIJJ 040930	METAR WIJJ 040930Z 30008KT 9999 FEW016 32/24 Q1005 NOSIG=
04/04/2021 10:00:00Z	 SAID34 WIJJ 041000	METAR WIJJ 041000Z 30007KT 9999 FEW016 32/23 Q1005 NOSIG=
04/04/2021 10:30:00Z	 SAID34 WIJJ 041030	METAR WIJJ 041030Z 32005KT 9999 FEW016 32/23 Q1005 NOSIG=
04/04/2021 11:00:00Z	 SAID34 WIJJ 041100	METAR WIJJ 041100Z 35004KT 9999 FEW016 32/24 Q1005 NOSIG=
04/04/2021 11:30:00Z	 SAID34 WIJJ 041130	METAR WIJJ 041130Z 36003KT 9999 FEW016 31/24 Q1005 NOSIG=
04/04/2021 12:00:00Z	 SAID34 WIJJ 041200	METAR WIJJ 041200Z 35002KT 9999 FEW016 31/24 Q1006 NOSIG=
04/04/2021 12:30:00Z	 SAID34 WIJJ 041230	METAR WIJJ 041230Z 05004KT 9999 FEW016 29/24 Q1006 NOSIG=
04/04/2021 13:00:00Z	 SAID34 WIJJ 041300	METAR WIJJ 041300Z 03005KT 9999 FEW016 29/25 Q1007 NOSIG=
04/04/2021 13:30:00Z	 SAID34 WIJJ 041330	METAR WIJJ 041330Z 04005KT 9999 FEW016 29/25 Q1007 NOSIG=
04/04/2021 14:00:00Z	 SAID34 WIJJ 041400	METAR WIJJ 041400Z 04004KT 9999 FEW016 29/25 Q1007 NOSIG=
04/04/2021 14:30:00Z	 SAID34 WIJJ 041430	METAR WIJJ 041430Z 04004KT 9999 FEW016 28/25 Q1008 NOSIG=
04/04/2021 15:00:00Z	 SAID34 WIJJ 041500	METAR WIJJ 041500Z 03004KT 9999 FEW016 28/25 Q1008 NOSIG=
04/04/2021 15:30:00Z	 SAID34 WIJJ 041530	METAR WIJJ 041530Z 04003KT 9999 FEW016 27/25 Q1009 NOSIG=
04/04/2021 16:00:00Z	 SAID34 WIJJ 041600	METAR WIJJ 041600Z 03003KT 9999 FEW016 28/25 Q1009 NOSIG=
04/04/2021 16:30:00Z	 SAID34 WIJJ 041630	METAR WIJJ 041630Z 16002KT 9999 FEW016 27/25 Q1009 NOSIG=
04/04/2021 17:00:00Z	 SAID34 WIJJ 041700	METAR WIJJ 041700Z 15002KT 9999 FEW015 27/25 Q1009 NOSIG=
04/04/2021 17:30:00Z	 SAID34 WIJJ 041730	METAR WIJJ 041730Z 15002KT 9999 FEW015 27/25 Q1009 NOSIG=
04/04/2021 18:00:00Z	 SAID34 WIJJ 041800	METAR WIJJ 041800Z 00000KT 9999 FEW015 27/25 Q1009 NOSIG=
04/04/2021 18:30:00Z	 SAID34 WIJJ 041830	METAR WIJJ 041830Z 00000KT 9999 FEW015 27/25 Q1008 NOSIG=
04/04/2021 19:00:00Z	 SAID34 WIJJ 041900	METAR WIJJ 041900Z 00000KT 9999 FEW015 27/25 Q1008 NOSIG=
04/04/2021 19:30:00Z	 SAID34 WIJJ 041930	METAR WIJJ 041930Z 25002KT 9999 FEW015 27/25 Q1008 NOSIG=
04/04/2021 20:00:00Z	 SAID34 WIJJ 042000	METAR WIJJ 042000Z 31003KT 9999 FEW015 27/25 Q1008 NOSIG=
04/04/2021 20:30:00Z	 SAID34 WIJJ 042030	METAR WIJJ 042030Z 31002KT 9999 FEW015 27/25 Q1008 NOSIG=
04/04/2021 21:00:00Z	 SAID34 WIJJ 042100	METAR WIJJ 042100Z 31004KT 9999 FEW015 27/24 Q1008 NOSIG=
04/04/2021 21:30:00Z	 SAID34 WIJJ 042130	METAR WIJJ 042130Z 32004KT 9999 FEW015 27/24 Q1008 NOSIG=
04/04/2021 22:30:00Z	 SAID34 WIJJ 042230	METAR WIJJ 042230Z 30003KT 9999 FEW015 27/24 Q1008 NOSIG=
04/04/2021 23:00:00Z	 SAID34 WIJJ 042300	METAR WIJJ 042300Z 30003KT 9999 FEW015 27/23 Q1008 NOSIG=
04/04/2021 23:30:00Z	 SAID34 WIJJ 042330	METAR WIJJ 042330Z 32003KT 9999 FEW016 26/23 Q1008 NOSIG=
05/04/2021 00:00:00Z	 SAID34 WIJJ 050000	METAR WIJJ 050000Z 32002KT 9999 FEW016 27/24 Q1009 NOSIG=
05/04/2021 00:30:00Z	 SAID34 WIJJ 050030	METAR WIJJ 050030Z 00000KT 9999 FEW016 27/25 Q1009 NOSIG=
05/04/2021 01:00:00Z	 SAID34 WIJJ 050100	METAR WIJJ 050100Z 29002KT 9999 FEW016 28/24 Q1010 NOSIG=
05/04/2021 01:30:00Z	 SAID34 WIJJ 050130	METAR WIJJ 050130Z 30006KT 270V330 9999 FEW016 29/24 Q1010 NOSIG=
05/04/2021 02:00:00Z	 SAID34 WIJJ 050200	METAR WIJJ 050200Z 30006KT 270V330 9999 FEW016 29/24 Q1010 NOSIG=
05/04/2021 02:30:00Z	 SAID34 WIJJ 050230	METAR WIJJ 050230Z 30007KT 260V330 9999 FEW016 30/24 Q1011 NOSIG=
05/04/2021 03:00:00Z	 SAID34 WIJJ 050300	METAR WIJJ 050300Z 30008KT 9999 FEW016 31/25 Q1011 NOSIG=
05/04/2021 03:30:00Z	 SAID34 WIJJ 050330	METAR WIJJ 050330Z 30007KT 250V330 9999 FEW016 31/24 Q1010 NOSIG=
05/04/2021 04:00:00Z	 SAID34 WIJJ 050400	METAR WIJJ 050400Z 31010KT 280V340 9999 SCT016 32/24 Q1010 NOSIG=
05/04/2021 04:30:00Z	 SAID34 WIJJ 050430	METAR WIJJ 050430Z 31006KT 240V010 9999 SCT016 32/23 Q1009 NOSIG=
05/04/2021 05:00:00Z	 SAID34 WIJJ 050500	METAR WIJJ 050500Z 33006KT 260V020 9999 SCT016 33/24 Q1009 NOSIG=
05/04/2021 05:30:00Z	 SAID34 WIJJ 050530	METAR WIJJ 050530Z 29004KT 220V360 9999 SCT016 33/23 Q1008 NOSIG=
05/04/2021 06:00:00Z	 SAID34 WIJJ 050600	METAR WIJJ 050600Z 29004KT 9999 SCT016 33/24 Q1007 NOSIG=
05/04/2021 06:30:00Z	 SAID34 WIJJ 050630	METAR WIJJ 050630Z 34004KT 290V060 9999 SCT016 34/22 Q1006 NOSIG=
05/04/2021 07:00:00Z	 SAID34 WIJJ 050700	METAR WIJJ 050700Z 28004KT 9999 SCT017 34/23 Q1006 NOSIG=
05/04/2021 07:30:00Z	 SAID34 WIJJ 050730	METAR WIJJ 050730Z 28005KT 210V330 9999 SCT017 34/21 Q1006 NOSIG=
05/04/2021 08:00:00Z	 SAID34 WIJJ 050800	METAR WIJJ 050800Z 28006KT 9999 SCT017 33/21 Q1006 NOSIG=
05/04/2021 08:30:00Z	 SAID34 WIJJ 050830	METAR WIJJ 050830Z 25003KT 9999 SCT017 34/22 Q1006 NOSIG=
05/04/2021 09:00:00Z	 SAID34 WIJJ 050900	METAR WIJJ 050900Z 27003KT 9999 SCT017 33/23 Q1005 NOSIG=
05/04/2021 09:30:00Z	 SAID34 WIJJ 050930	METAR WIJJ 050930Z 24005KT 190V290 9999 SCT017 33/24 Q1005 NOSIG=
05/04/2021 10:00:00Z	 SAID34 WIJJ 051000	METAR WIJJ 051000Z 25004KT 220V280 9999 FEW017 32/23 Q1006 NOSIG=
05/04/2021 10:30:00Z	 SAID34 WIJJ 051030	METAR WIJJ 051030Z 24004KT 9999 FEW017 32/23 Q1006 NOSIG=
05/04/2021 11:00:00Z	 SAID34 WIJJ 051100	METAR WIJJ 051100Z 25003KT 9999 VCTS FEW014CB BKN015 31/23 Q1006 NOSIG RMK CB TO N-E=
05/04/2021 11:30:00Z	 SAID34 WIJJ 051130	METAR WIJJ 051130Z 01006KT 9999 VCTS FEW014CB SCT015 29/24 Q1007 NOSIG RMK CB TO E=
05/04/2021 12:00:00Z	 SAID34 WIJJ 051200	METAR WIJJ 051200Z 01009KT 9999 SCT015 28/22 Q1008 NOSIG=
05/04/2021 12:30:00Z	 SAID34 WIJJ 051230	METAR WIJJ 051230Z 02004KT 330V080 9999 FEW015CB 27/23 Q1008 NOSIG RMK CB TO E=
05/04/2021 13:00:00Z	 SAID34 WIJJ 051300	METAR WIJJ 051300Z 01007KT 9999 SCT015 27/23 Q1009 NOSIG=
05/04/2021 13:30:00Z	 SAID34 WIJJ 051330	METAR WIJJ 051330Z 01007KT 340V040 9999 SCT015 26/22 Q1009 NOSIG=
05/04/2021 14:00:00Z	 SAID34 WIJJ 051400	METAR WIJJ 051400Z 01006KT 340V040 9999 SCT015 27/23 Q1009 NOSIG=
05/04/2021 14:30:00Z	 SAID34 WIJJ 051430	METAR WIJJ 051430Z 01006KT 340V040 9999 SCT015 26/23 Q1009 NOSIG=
05/04/2021 15:00:00Z	 SAID34 WIJJ 051500	METAR WIJJ 051500Z 03004KT 330V060 9999 SCT015 27/24 Q1010 NOSIG=
05/04/2021 15:30:00Z	 SAID34 WIJJ 051530	METAR WIJJ 051530Z 04003KT 350V130 9999 SCT014 26/24 Q1010 NOSIG=
05/04/2021 16:00:00Z	 SAID34 WIJJ 051600	METAR WIJJ 051600Z 36003KT 320V030 9999 -RA SCT014 26/24 Q1010 NOSIG=
05/04/2021 16:30:00Z	 SAID34 WIJJ 051630	METAR WIJJ 051630Z 36002KT 9999 SCT015 26/24 Q1010 RERA NOSIG=
05/04/2021 17:00:00Z	 SAID34 WIJJ 051700	METAR WIJJ 051700Z 33002KT 9999 SCT015 26/24 Q1010 NOSIG=
05/04/2021 17:30:00Z	 SAID34 WIJJ 051730	METAR WIJJ 051730Z 32002KT 9999 SCT014 26/24 Q1010 NOSIG=
05/04/2021 18:00:00Z	 SAID34 WIJJ 051800	METAR WIJJ 051800Z 31006KT 9999 SCT014 26/24 Q1010 NOSIG=
05/04/2021 18:30:00Z	 SAID34 WIJJ 051830	METAR WIJJ 051830Z 30004KT 9999 SCT014 26/25 Q1009 NOSIG=
05/04/2021 19:00:00Z	 SAID34 WIJJ 051900	METAR WIJJ 051900Z 30003KT 9999 -RA SCT013 26/25 Q1009 NOSIG=
05/04/2021 19:30:00Z	 SAID34 WIJJ 051930	METAR WIJJ 051930Z 29003KT 9999 SCT013 26/25 Q1008 RERA NOSIG=
05/04/2021 20:00:00Z	 SAID34 WIJJ 052000	METAR WIJJ 052000Z 29003KT 9999 SCT014 26/25 Q1009 NOSIG=
05/04/2021 20:30:00Z	 SAID34 WIJJ 052030	METAR WIJJ 052030Z 30005KT 9999 SCT013 26/25 Q1009 NOSIG=
05/04/2021 21:00:00Z	 SAID34 WIJJ 052100	METAR WIJJ 052100Z 31011KT 260V320 5000 -RA SCT013 26/24 Q1009 NOSIG=
05/04/2021 21:30:00Z	 SAID34 WIJJ 052130	METAR WIJJ 052130Z 33008KT 9999 -RA FEW010CB SCT013 26/24 Q1009 NOSIG RMK CB TO SE=
05/04/2021 22:00:00Z	 SAID34 WIJJ 052200	METAR WIJJ 052200Z 32003KT 9999 FEW012CB SCT013 25/23 Q1008 RERA NOSIG RMK CB TO E=
05/04/2021 22:30:00Z	 SAID34 WIJJ 052230	METAR WIJJ 052230Z 35002KT 9999 SCT013 25/23 Q1009 NOSIG=
05/04/2021 23:00:00Z	 SAID34 WIJJ 052300	METAR WIJJ 052300Z 05003KT 9999 SCT012 25/23 Q1009 NOSIG=
05/04/2021 23:30:00Z	 SAID34 WIJJ 052330	METAR WIJJ 052330Z 09003KT 050V140 9999 SCT013 25/23 Q1009 NOSIG=
06/04/2021 00:00:00Z	 SAID34 WIJJ 060000	METAR WIJJ 060000Z 27002KT 9999 FEW013 25/23 Q1010 NOSIG=
06/04/2021 00:30:00Z	 SAID34 WIJJ 060030	METAR WIJJ 060030Z 30002KT 9999 SCT015 25/24 Q1010 NOSIG=
06/04/2021 01:00:00Z	 SAID34 WIJJ 060100	METAR WIJJ 060100Z 30004KT 9999 FEW015 25/24 Q1011 NOSIG=
06/04/2021 01:30:00Z	 SAID34 WIJJ 060130	METAR WIJJ 060130Z 27003KT 9999 FEW016 26/25 Q1011 NOSIG=
06/04/2021 02:00:00Z	 SAID34 WIJJ 060200	METAR WIJJ 060200Z 26004KT 230V310 9999 FEW016 27/26 Q1011 NOSIG=
06/04/2021 02:30:00Z	 SAID34 WIJJ 060230	METAR WIJJ 060230Z 28005KT 240V300 9999 NSC 28/26 Q1011 NOSIG=
06/04/2021 03:00:00Z	 SAID34 WIJJ 060300	METAR WIJJ 060300Z 27005KT 240V320 9999 NSC 30/26 Q1011 NOSIG=
06/04/2021 03:30:00Z	 SAID34 WIJJ 060330	METAR WIJJ 060330Z 30008KT 270V340 9999 NSC 29/23 Q1010 NOSIG=
06/04/2021 04:00:00Z	 SAID34 WIJJ 060400	METAR WIJJ 060400Z 30005KT 270V340 9999 NSC 30/23 Q1010 NOSIG=
06/04/2021 04:30:00Z	 SAID34 WIJJ 060430	METAR WIJJ 060430Z 32007KT 280V350 9999 NSC 31/22 Q1010 NOSIG=
06/04/2021 05:00:00Z	 SAID34 WIJJ 060500	METAR WIJJ 060500Z 33007KT 300V020 9999 FEW016 31/23 Q1009 NOSIG=
06/04/2021 05:30:00Z	 SAID34 WIJJ 060530	METAR WIJJ 060530Z 30008KT 280V340 9999 FEW016 31/23 Q1009 NOSIG=
06/04/2021 06:00:00Z	 SAID34 WIJJ 060600	METAR WIJJ 060600Z AUTO 30009KT 9999 NCD 32/23 Q1008=
06/04/2021 06:30:00Z	 SAID34 WIJJ 060630	METAR WIJJ 060630Z 30008KT 250V320 9999 FEW017 32/24 Q1008 NOSIG=
06/04/2021 07:00:00Z	 SAID34 WIJJ 060700	METAR WIJJ 060700Z 32008KT 9999 SCT016 33/25 Q1007 NOSIG=
06/04/2021 07:30:00Z	 SAID34 WIJJ 060730	METAR WIJJ 060730Z 29005KT 230V330 9999 SCT016 33/25 Q1007 NOSIG=
06/04/2021 08:00:00Z	 SAID34 WIJJ 060800	METAR WIJJ 060800Z 33005KT 270V040 9999 SCT017 32/24 Q1006 NOSIG=
06/04/2021 08:30:00Z	 SAID34 WIJJ 060830	METAR WIJJ 060830Z 35005KT 290V030 9999 FEW016 32/23 Q1006 NOSIG=
06/04/2021 09:00:00Z	 SAID34 WIJJ 060900	METAR WIJJ 060900Z 31003KT 9999 FEW016 32/24 Q1006 NOSIG=
06/04/2021 09:30:00Z	 SAID34 WIJJ 060930	METAR WIJJ 060930Z 33005KT 280V360 9999 FEW016 32/23 Q1006 NOSIG=
06/04/2021 10:00:00Z	 SAID34 WIJJ 061000	METAR WIJJ 061000Z 32003KT 270V010 9999 FEW017 31/24 Q1006 NOSIG=
06/04/2021 10:30:00Z	 SAID34 WIJJ 061030	METAR WIJJ 061030Z 02003KT 9999 FEW017 31/23 Q1006 NOSIG=
06/04/2021 11:00:00Z	 SAID34 WIJJ 061100	METAR WIJJ 061100Z 01003KT 290V030 9999 FEW015CB 31/23 Q1007 NOSIG RMK CB TO N AND SW=
06/04/2021 11:30:00Z	 SAID34 WIJJ 061130	METAR WIJJ 061130Z 04004KT 6000 FEW017 30/24 Q1007 NOSIG=
06/04/2021 12:00:00Z	 SAID34 WIJJ 061200	METAR WIJJ 061200Z 04004KT 9999 FEW017 30/25 Q1008 NOSIG=
06/04/2021 12:30:00Z	 SAID34 WIJJ 061230	METAR WIJJ 061230Z 03004KT 9999 FEW016 29/25 Q1009 NOSIG=
06/04/2021 13:00:00Z	 SAID34 WIJJ 061300	METAR WIJJ 061300Z 02002KT 9999 FEW016 30/24 Q1009 NOSIG=
06/04/2021 13:30:00Z	 SAID34 WIJJ 061330	METAR WIJJ 061330Z 02003KT 9999 FEW016 29/24 Q1009 NOSIG=
06/04/2021 14:00:00Z	 SAID34 WIJJ 061400	METAR WIJJ 061400Z 08001KT 9999 FEW016 29/25 Q1010 NOSIG=
06/04/2021 14:30:00Z	 SAID34 WIJJ 061430	METAR WIJJ 061430Z 14003KT 9999 FEW016 28/25 Q1011 NOSIG=
06/04/2021 15:00:00Z	 SAID34 WIJJ 061500	METAR WIJJ 061500Z 09002KT 9999 FEW016 28/25 Q1011 NOSIG=
06/04/2021 15:30:00Z	 SAID34 WIJJ 061530	METAR WIJJ 061530Z 13002KT 7000 HZ FEW015CB FEW016 28/25 Q1011 RMK CB TO W=
06/04/2021 16:00:00Z	 SAID34 WIJJ 061600	METAR WIJJ 061600Z 16007KT 9999 FEW015 SCT016 27/25 Q1011 RMK CB TO W=
06/04/2021 16:30:00Z	 SAID34 WIJJ 061630	METAR WIJJ 061630Z 07005KT 7000 -TSRA FEW010CB SCT012 26/25 Q1010 RMK CB TO NW=
06/04/2021 17:00:00Z	 SAID34 WIJJ 061700	METAR WIJJ 061700Z 15004KT 9999 TS FEW015CB FEW016 26/24 Q1010 RMK CB TO NE=
06/04/2021 17:30:00Z	 SAID34 WIJJ 061730	METAR WIJJ 061730Z 13003KT 9999 TS FEW015CB FEW016 25/24 Q1010 RMK CB TO NE=
06/04/2021 18:00:00Z	 SAID34 WIJJ 061800	METAR WIJJ 061800Z 14002KT 9999 TS FEW015CB FEW016 25/23 Q1010 RMK CB TO NE=
06/04/2021 18:30:00Z	 SAID34 WIJJ 061830	METAR WIJJ 061830Z 34001KT 9999 FEW015CB FEW016 25/23 Q1009 RMK CB TO NW=
06/04/2021 19:00:00Z	 SAID34 WIJJ 061900	METAR WIJJ 061900Z 29006KT 9999 FEW015CB FEW016 25/24 Q1010 RMK CB TO NW=
06/04/2021 19:30:00Z	 SAID34 WIJJ 061930	METAR WIJJ 061930Z 28014KT 9999 FEW015CB SCT016 25/24 Q1010 RMK CB TO W=
06/04/2021 20:00:00Z	 SAID34 WIJJ 062000	METAR WIJJ 062000Z 29015KT 0600 -TSRA FEW010CB SCT011 24/24 Q1011 RMK CB ALL RWY=
06/04/2021 20:01:00Z	 SAID34 WIJJ 062001	METAR WIJJ 062001Z 34007KT 9999 FEW010CB SCT011 24/23 Q1010 RMK CB TO E=
06/04/2021 21:00:00Z	 SAID34 WIJJ 062100	METAR WIJJ 062100Z 36003KT 8000 -RA FEW010CB FEW011 23/22 Q1010 RMK CB TO SE=
06/04/2021 21:30:00Z	 SAID34 WIJJ 062130	METAR WIJJ 062130Z 34003KT 8000 -RA FEW011 SCT012 23/23 Q1010 RMK CB TO NW=
06/04/2021 22:00:00Z	 SAID34 WIJJ 062200	METAR WIJJ 062200Z 31005KT 8000 -RA SCT010 23/22 Q1010 NOSIG=
06/04/2021 22:30:00Z	 SAID34 WIJJ 062230	METAR WIJJ 062230Z 28003KT 9000 -RA SCT012 23/22 Q1010 NOSIG=
06/04/2021 23:00:00Z	 SAID34 WIJJ 062300	METAR WIJJ 062300Z 31004KT 9999 FEW012 23/22 Q1010 NOSIG=
06/04/2021 23:30:00Z	 SAID34 WIJJ 062330	METAR WIJJ 062330Z 30006KT 9999 FEW014 23/22 Q1010 NOSIG=
07/04/2021 00:00:00Z	 SAID34 WIJJ 070000	METAR WIJJ 070000Z 29003KT 9999 FEW016 24/23 Q1011 NOSIG=
07/04/2021 00:30:00Z	 SAID34 WIJJ 070030	METAR WIJJ 070030Z 32004KT 9999 FEW016 24/23 Q1011 NOSIG=
07/04/2021 01:00:00Z	 SAID34 WIJJ 070100	METAR WIJJ 070100Z 00000KT 9999 FEW016 24/23 Q1011 NOSIG=
07/04/2021 01:30:00Z	 SAID34 WIJJ 070130	METAR WIJJ 070130Z 21001KT 9999 FEW016 25/24 Q1012 NOSIG=
07/04/2021 02:00:00Z	 SAID34 WIJJ 070200	METAR WIJJ 070200Z 33001KT 9999 FEW016 26/24 Q1012 NOSIG=
07/04/2021 03:00:00Z	 SAID34 WIJJ 070300	METAR WIJJ 070300Z 30003KT 9999 FEW016 28/23 Q1011 NOSIG=
07/04/2021 03:30:00Z	 SAID34 WIJJ 070330	METAR WIJJ 070330Z 30005KT 9999 FEW016 29/23 Q1011 NOSIG=
07/04/2021 04:00:00Z	 SAID34 WIJJ 070400	METAR WIJJ 070400Z 32002KT 9999 FEW016 30/25 Q1011 NOSIG=
07/04/2021 04:30:00Z	 SAID34 WIJJ 070430	METAR WIJJ 070430Z 27003KT 9999 FEW016 31/24 Q1010 NOSIG=
07/04/2021 05:00:00Z	 SAID34 WIJJ 070500	METAR WIJJ 070500Z 33005KT 9999 FEW016 32/25 Q1010 NOSIG=
07/04/2021 05:30:00Z	 SAID34 WIJJ 070530	METAR WIJJ 070530Z 32004KT 9999 FEW016 32/25 Q1009 NOSIG=
07/04/2021 06:00:00Z	 SAID34 WIJJ 070600	METAR COR WIJJ 070600Z 31005KT 9999 SCT015 33/25 Q1008 NOSIG=
07/04/2021 06:30:00Z	 SAID34 WIJJ 070630	METAR WIJJ 070630Z 34004KT 9999 SCT015 33/25 Q1008 NOSIG=
07/04/2021 07:00:00Z	 SAID34 WIJJ 070700	METAR WIJJ 070700Z 34005KT 9999 SCT015 33/25 Q1007 NOSIG=
07/04/2021 07:30:00Z	 SAID34 WIJJ 070730	METAR WIJJ 070730Z 34005KT 9999 SCT015 33/24 Q1007 NOSIG=
07/04/2021 08:30:00Z	 SAID34 WIJJ 070830	METAR WIJJ 070830Z 33006KT 9999 SCT015 33/24 Q1006 NOSIG=
07/04/2021 09:00:00Z	 SAID34 WIJJ 070900	METAR WIJJ 070900Z 02008KT 9999 SCT015 32/26 Q1006 NOSIG=
07/04/2021 09:30:00Z	 SAID34 WIJJ 070930	METAR WIJJ 070930Z 03008KT 9999 SCT015 32/26 Q1006 NOSIG=
07/04/2021 10:00:00Z	 SAID34 WIJJ 071000	METAR WIJJ 071000Z 04004KT 9999 SCT015 32/25 Q1006 NOSIG=
07/04/2021 11:00:00Z	 SAID34 WIJJ 071100	METAR WIJJ 071100Z 05005KT 9999 FEW015 31/25 Q1007 NOSIG=
07/04/2021 11:30:00Z	 SAID34 WIJJ 071130	METAR WIJJ 071130Z AUTO 04003KT 9999 NCD 30/24 Q1007=
07/04/2021 12:00:00Z	 SAID34 WIJJ 071200	METAR WIJJ 071200Z 03005KT 9999 FEW016 30/25 Q1007 NOSIG=
07/04/2021 12:30:00Z	 SAID34 WIJJ 071230	METAR WIJJ 071230Z 03003KT 9999 FEW016 30/24 Q1008 NOSIG=
07/04/2021 13:00:00Z	 SAID34 WIJJ 071300	METAR WIJJ 071300Z 05004KT 9999 FEW016 29/24 Q1008 NOSIG=
07/04/2021 13:30:00Z	 SAID34 WIJJ 071330	METAR WIJJ 071330Z 04004KT 9999 FEW016 28/24 Q1008 NOSIG=
07/04/2021 14:00:00Z	 SAID34 WIJJ 071400	METAR WIJJ 071400Z 00000KT 9999 FEW016 28/24 Q1009 NOSIG=
07/04/2021 14:30:00Z	 SAID34 WIJJ 071430	METAR WIJJ 071430Z 04004KT 9999 FEW016 27/24 Q1009 NOSIG=
07/04/2021 15:00:00Z	 SAID34 WIJJ 071500	METAR WIJJ 071500Z 03004KT 9999 SCT016 27/24 Q1010 NOSIG=
07/04/2021 15:30:00Z	 SAID34 WIJJ 071530	METAR WIJJ 071530Z 02003KT 350V060 9999 SCT016 27/24 Q1009 NOSIG=
07/04/2021 16:00:00Z	 SAID34 WIJJ 071600	METAR WIJJ 071600Z 00000KT 9999 FEW016 27/24 Q1010 NOSIG=
07/04/2021 16:30:00Z	 SAID34 WIJJ 071630	METAR WIJJ 071630Z 00000KT 9999 SCT016 27/24 Q1010 NOSIG=
07/04/2021 17:00:00Z	 SAID34 WIJJ 071700	METAR WIJJ 071700Z 00000KT 9999 FEW015CB SCT016 27/24 Q1009 NOSIG RMK CB TO SE=
07/04/2021 17:30:00Z	 SAID34 WIJJ 071730	METAR WIJJ 071730Z 00000KT 9999 FEW015CB SCT016 27/24 Q1009 NOSIG RMK CB TO SE=
07/04/2021 18:00:00Z	 SAID34 WIJJ 071800	METAR WIJJ 071800Z 18008KT 150V220 9999 FEW015CB SCT016 25/24 Q1009 NOSIG RMK CB TO SE-S=
07/04/2021 18:30:00Z	 SAID34 WIJJ 071830	METAR WIJJ 071830Z 22002KT 9999 FEW015CB SCT016 26/24 Q1009 NOSIG RMK CB TO SE-S=
07/04/2021 19:00:00Z	 SAID34 WIJJ 071900	METAR WIJJ 071900Z 06004KT 9999 FEW015CB BKN016 25/24 Q1008 NOSIG RMK CB TO SE=
07/04/2021 19:30:00Z	 SAID34 WIJJ 071930	METAR WIJJ 071930Z 07003KT 9999 FEW015CB BKN016 25/23 Q1008 NOSIG RMK CB TO SW-W=
07/04/2021 20:00:00Z	 SAID34 WIJJ 072000	METAR WIJJ 072000Z 06004KT 9999 FEW015CB BKN016 25/24 Q1008 NOSIG RMK CB TO SW-W=
07/04/2021 20:30:00Z	 SAID34 WIJJ 072030	METAR WIJJ 072030Z 26011G24KT 220V300 9999 TS SCT010CB BKN011 24/23 Q1010 NOSIG=
07/04/2021 21:00:00Z	 SAID34 WIJJ 072100	METAR WIJJ 072100Z 27017G28KT 240V300 0300 TSRA SCT006CB OVC007 22/20 Q1010 NOSIG RMK CB AT AIRPORT=
07/04/2021 21:30:00Z	 SAID34 WIJJ 072130	METAR WIJJ 072130Z 30007KT 250V330 2000 -TSRA SCT007CB BKN008 21/20 Q1010 NOSIG RMK CB AT AIRPORT=
07/04/2021 22:00:00Z	 SAID34 WIJJ 072200	METAR WIJJ 072200Z 11005KT 060V210 7000 TSRA SCT010CB BKN011 21/20 Q1009 NOSIG RMK CB ALQDS=
07/04/2021 22:30:00Z	 SAID34 WIJJ 072230	METAR WIJJ 072230Z 13003KT 060V180 5000 RA OVC010CB 22/20 Q1009 NOSIG RMK RETS=
07/04/2021 23:00:00Z	 SAID34 WIJJ 072300	METAR WIJJ 072300Z 13004KT 110V170 6000 -RA OVC010 22/20 Q1009 NOSIG=
07/04/2021 23:30:00Z	 SAID34 WIJJ 072330	METAR WIJJ 072330Z 11004KT 080V160 6000 -RA OVC010 22/20 Q1009 NOSIG=
08/04/2021 00:00:00Z	 SAID34 WIJJ 080000	METAR WIJJ 080000Z 09003KT 040V150 7000 -RA BKN008 22/21 Q1009 NOSIG=
08/04/2021 00:30:00Z	 SAID34 WIJJ 080030	METAR WIJJ 080030Z 32003KT 290V010 8000 -RA BKN010 22/21 Q1010 NOSIG=
08/04/2021 01:00:00Z	 SAID34 WIJJ 080100	METAR WIJJ 080100Z 02002KT 9000 SCT010 23/22 Q1010 RERA NOSIG=
08/04/2021 01:30:00Z	 SAID34 WIJJ 080130	METAR WIJJ 080130Z 33002KT 7000 -RA SCT011 23/22 Q1010 NOSIG=
08/04/2021 02:00:00Z	 SAID34 WIJJ 080200	METAR WIJJ 080200Z 34002KT 6000 SCT011 23/22 Q1011 NOSIG=
08/04/2021 02:30:00Z	 SAID34 WIJJ 080230	METAR WIJJ 080230Z 01002KT 3000 BR SCT011 23/22 Q1011 RERA NOSIG=
08/04/2021 03:00:00Z	 SAID34 WIJJ 080300	METAR WIJJ 080300Z 06002KT 2600 BR SCT005 24/23 Q1010 NOSIG=
08/04/2021 03:30:00Z	 SAID34 WIJJ 080330	METAR WIJJ 080330Z 34002KT 4000 BR SCT008 25/24 Q1010 NOSIG=
08/04/2021 04:00:00Z	 SAID34 WIJJ 080400	METAR WIJJ 080400Z 32005KT 5000 HZ SCT010 25/24 Q1010 NOSIG=
08/04/2021 04:30:00Z	 SAID34 WIJJ 080430	METAR WIJJ 080430Z 32008KT 9000 SCT012 27/25 Q1009 NOSIG=
08/04/2021 05:00:00Z	 SAID34 WIJJ 080500	METAR WIJJ 080500Z 33010KT 9999 FEW013 28/25 Q1009 NOSIG=
08/04/2021 05:30:00Z	 SAID34 WIJJ 080530	METAR WIJJ 080530Z 33009KT 9999 SCT013 28/25 Q1008 NOSIG=
08/04/2021 06:00:00Z	 SAID34 WIJJ 080600	METAR WIJJ 080600Z 34008KT 9999 SCT015 29/24 Q1008 NOSIG=
08/04/2021 06:30:00Z	 SAID34 WIJJ 080630	METAR WIJJ 080630Z 36007KT 330V050 9999 FEW015 30/24 Q1007 NOSIG=
08/04/2021 07:00:00Z	 SAID34 WIJJ 080700	METAR WIJJ 080700Z 03008KT 010V070 9999 FEW015 30/24 Q1007 NOSIG=
08/04/2021 07:30:00Z	 SAID34 WIJJ 080730	METAR WIJJ 080730Z 02007KT 330V040 9999 FEW015 30/24 Q1006 NOSIG=
08/04/2021 08:00:00Z	 SAID34 WIJJ 080800	METAR WIJJ 080800Z 01005KT 9999 FEW015 29/24 Q1006 NOSIG=
08/04/2021 08:30:00Z	 SAID34 WIJJ 080830	METAR WIJJ 080830Z 29005KT 9999 SCT015 29/25 Q1006 NOSIG=
08/04/2021 09:00:00Z	 SAID34 WIJJ 080900	METAR WIJJ 080900Z 35006KT 300V030 9999 SCT015 30/24 Q1006 NOSIG=
08/04/2021 09:30:00Z	 SAID34 WIJJ 080930	METAR WIJJ 080930Z 34005KT 9999 SCT015 30/24 Q1006 NOSIG=
08/04/2021 10:00:00Z	 SAID34 WIJJ 081000	METAR WIJJ 081000Z 36004KT 320V050 9999 SCT015 30/24 Q1006 NOSIG=
08/04/2021 10:30:00Z	 SAID34 WIJJ 081030	METAR WIJJ 081030Z 35004KT 320V020 9999 FEW015 30/24 Q1007 NOSIG=
08/04/2021 11:00:00Z	 SAID34 WIJJ 081100	METAR WIJJ 081100Z 34003KT 290V040 9999 FEW015 30/24 Q1007 NOSIG=
08/04/2021 11:30:00Z	 SAID34 WIJJ 081130	METAR WIJJ 081130Z 02002KT 9999 FEW015 29/24 Q1007 NOSIG=
08/04/2021 12:00:00Z	 SAID34 WIJJ 081200	METAR WIJJ 081200Z 07002KT 9999 FEW015 27/25 Q1007 NOSIG=
08/04/2021 12:30:00Z	 SAID34 WIJJ 081230	METAR WIJJ 081230Z 02003KT 9000 FEW015 28/24 Q1008 NOSIG=
08/04/2021 13:00:00Z	 SAID34 WIJJ 081300	METAR WIJJ 081300Z 02003KT 9000 FEW016 27/25 Q1008 NOSIG=
08/04/2021 13:30:00Z	 SAID34 WIJJ 081330	METAR WIJJ 081330Z 36004KT 9999 FEW016 27/25 Q1008 NOSIG=
08/04/2021 14:00:00Z	 SAID34 WIJJ 081400	METAR WIJJ 081400Z 36003KT 9000 FEW016 27/25 Q1008 NOSIG=
08/04/2021 14:30:00Z	 SAID34 WIJJ 081430	METAR WIJJ 081430Z 06001KT 9000 FEW016 26/25 Q1009 NOSIG=
08/04/2021 15:00:00Z	 SAID34 WIJJ 081500	METAR WIJJ 081500Z 08001KT 6000 FEW017 26/25 Q1009 NOSIG=
08/04/2021 15:30:00Z	 SAID34 WIJJ 081530	METAR WIJJ 081530Z 08001KT 6000 FEW017 25/25 Q1009 NOSIG=
08/04/2021 16:00:00Z	 SAID34 WIJJ 081600	METAR WIJJ 081600Z 08001KT 6000 FEW017 25/25 Q1009 NOSIG=
08/04/2021 16:30:00Z	 SAID34 WIJJ 081630	METAR WIJJ 081630Z 14001KT 4700 HZ FEW017 25/24 Q1010 NOSIG=
08/04/2021 17:00:00Z	 SAID34 WIJJ 081700	METAR WIJJ 081700Z 21001KT 4500 HZ FEW016 25/25 Q1010 NOSIG=
08/04/2021 17:30:00Z	 SAID34 WIJJ 081730	METAR WIJJ 081730Z 20001KT 4400 HZ FEW016 25/25 Q1010 NOSIG=
08/04/2021 18:00:00Z	 SAID34 WIJJ 081800	METAR WIJJ 081800Z 25001KT 4100 HZ FEW016 25/25 Q1009 NOSIG=
08/04/2021 18:30:00Z	 SAID34 WIJJ 081830	METAR WIJJ 081830Z 24001KT 4800 HZ FEW015CB 25/25 Q1009 NOSIG RMK CB TO SW-NW=
08/04/2021 19:00:00Z	 SAID34 WIJJ 081900	METAR WIJJ 081900Z 29010G27KT 250V340 5000 -RA FEW006CB BKN007 24/24 Q1009 NOSIG RMK CB TO SW-NW=
08/04/2021 19:30:00Z	 SAID34 WIJJ 081930	METAR WIJJ 081930Z 30008KT 4100 TSRA FEW006CB SCT007 24/24 Q1010 NOSIG RMK CB TO SW-NW=
08/04/2021 20:00:00Z	 SAID34 WIJJ 082000	METAR WIJJ 082000Z 31010KT 9999 TS FEW008CB SCT010 23/22 Q1009 NOSIG RMK RERA=
08/04/2021 20:30:00Z	 SAID34 WIJJ 082030	METAR WIJJ 082030Z 25003KT 170V300 9999 FEW012CB SCT015 23/22 Q1008 NOSIG RMK RETS=
08/04/2021 21:00:00Z	 SAID34 WIJJ 082100	METAR WIJJ 082100Z 05003KT 010V120 9999 FEW014CB SCT015 23/22 Q1009 NOSIG RMK CB TO N-E=
08/04/2021 21:30:00Z	 SAID34 WIJJ 082130	METAR WIJJ 082130Z 05002KT 9999 FEW014CB SCT015 23/22 Q1008 NOSIG RMK CB TO N-E=
08/04/2021 22:00:00Z	 SAID34 WIJJ 082200	METAR WIJJ 082200Z 01003KT 9999 FEW014CB SCT015 23/22 Q1008 NOSIG RMK CB TO N AND E=
08/04/2021 22:30:00Z	 SAID34 WIJJ 082230	METAR WIJJ 082230Z 05003KT 020V080 9999 FEW014CB SCT015 23/22 Q1008 NOSIG RMK CB TO N AND E=
08/04/2021 23:00:00Z	 SAID34 WIJJ 082300	METAR WIJJ 082300Z 05003KT 9999 FEW015CB 22/22 Q1009 NOSIG RMK CB TO N AND E=
08/04/2021 23:30:00Z	 SAID34 WIJJ 082330	METAR WIJJ 082330Z 04002KT 9999 NSC 23/22 Q1009 NOSIG=
09/04/2021 00:00:00Z	 SAID34 WIJJ 090000	METAR WIJJ 090000Z 35002KT 9999 -RA FEW015 23/22 Q1009 NOSIG=
09/04/2021 00:30:00Z	 SAID34 WIJJ 090030	METAR WIJJ 090030Z 33004KT 9999 FEW016 23/22 Q1009 NOSIG=
09/04/2021 01:00:00Z	 SAID34 WIJJ 090100	METAR WIJJ 090100Z 34004KT 8000 FEW016 24/22 Q1010 NOSIG=
09/04/2021 01:30:00Z	 SAID34 WIJJ 090130	METAR WIJJ 090130Z 33003KT 9000 FEW016 24/22 Q1011 NOSIG=
09/04/2021 02:00:00Z	 SAID34 WIJJ 090200	METAR WIJJ 090200Z 00000KT 8000 FEW016 25/22 Q1011 NOSIG=
09/04/2021 02:30:00Z	 SAID34 WIJJ 090230	METAR WIJJ 090230Z 13001KT 9999 FEW016 26/22 Q1011 NOSIG=
09/04/2021 03:00:00Z	 SAID34 WIJJ 090300	METAR WIJJ 090300Z 29004KT 9999 FEW016 26/23 Q1011 NOSIG=
09/04/2021 03:30:00Z	 SAID34 WIJJ 090330	METAR WIJJ 090330Z 36003KT 9999 FEW016 28/23 Q1011 NOSIG=
09/04/2021 04:00:00Z	 SAID34 WIJJ 090400	METAR WIJJ 090400Z 36004KT 320V030 9999 FEW016 28/24 Q1011 NOSIG=
09/04/2021 04:30:00Z	 SAID34 WIJJ 090430	METAR WIJJ 090430Z 30005KT 9999 FEW018 28/24 Q1010 NOSIG=
09/04/2021 05:00:00Z	 SAID34 WIJJ 090500	METAR WIJJ 090500Z 33005KT 9999 SCT018 28/24 Q1010 NOSIG=
09/04/2021 05:30:00Z	 SAID34 WIJJ 090530	METAR WIJJ 090530Z 34003KT 9999 SCT018 28/24 Q1009 NOSIG=
09/04/2021 06:00:00Z	 SAID34 WIJJ 090600	METAR WIJJ 090600Z 34003KT 9999 SCT018 29/25 Q1008 NOSIG=
09/04/2021 06:30:00Z	 SAID34 WIJJ 090630	METAR WIJJ 090630Z 30004KT 9999 SCT018 29/25 Q1008 NOSIG=
09/04/2021 07:00:00Z	 SAID34 WIJJ 090700	METAR WIJJ 090700Z 27005KT 9999 SCT018 29/25 Q1007 NOSIG=
09/04/2021 07:30:00Z	 SAID34 WIJJ 090730	METAR WIJJ 090730Z 31005KT 9999 SCT018 30/25 Q1007 NOSIG=
09/04/2021 08:00:00Z	 SAID34 WIJJ 090800	METAR WIJJ 090800Z 31006KT 9999 SCT018 30/24 Q1006 NOSIG=
09/04/2021 08:30:00Z	 SAID34 WIJJ 090830	METAR WIJJ 090830Z 33006KT 9999 SCT018 30/24 Q1006 NOSIG=
09/04/2021 09:00:00Z	 SAID34 WIJJ 090900	METAR WIJJ 090900Z 33004KT 9999 FEW018 30/25 Q1006 NOSIG=
09/04/2021 09:30:00Z	 SAID34 WIJJ 090930	METAR WIJJ 090930Z 31004KT 9999 FEW018 30/25 Q1006 NOSIG=
09/04/2021 10:00:00Z	 SAID34 WIJJ 091000	METAR WIJJ 091000Z 35005KT 9999 FEW018 30/24 Q1006 NOSIG=
09/04/2021 10:30:00Z	 SAID34 WIJJ 091030	METAR WIJJ 091030Z 33003KT 9999 FEW018 29/24 Q1006 NOSIG=
09/04/2021 11:00:00Z	 SAID34 WIJJ 091100	METAR WIJJ 091100Z 35002KT 9999 FEW018 30/25 Q1007 NOSIG=
09/04/2021 11:30:00Z	 SAID34 WIJJ 091130	METAR WIJJ 091130Z 02002KT 7000 FEW018TCU 29/25 Q1007 NOSIG=
09/04/2021 12:00:00Z	 SAID34 WIJJ 091200	METAR WIJJ 091200Z 04002KT 7000 FEW018 29/26 Q1008 NOSIG=
09/04/2021 12:30:00Z	 SAID34 WIJJ 091230	METAR WIJJ 091230Z 11002KT 5000 HZ FEW018 28/25 Q1008 NOSIG=
09/04/2021 13:00:00Z	 SAID34 WIJJ 091300	METAR WIJJ 091300Z 10002KT 5000 HZ FEW016 28/25 Q1008 NOSIG=
09/04/2021 13:30:00Z	 SAID34 WIJJ 091330	METAR WIJJ 091330Z 16002KT 4000 HZ FEW016 27/25 Q1009 NOSIG=
09/04/2021 14:00:00Z	 SAID34 WIJJ 091400	METAR WIJJ 091400Z 18002KT 4000 HZ FEW016 27/25 Q1009 NOSIG=
09/04/2021 14:30:00Z	 SAID34 WIJJ 091430	METAR WIJJ 091430Z 10002KT 4200 HZ FEW015 27/25 Q1010 NOSIG=
09/04/2021 15:00:00Z	 SAID34 WIJJ 091500	METAR WIJJ 091500Z 09001KT 3500 HZ FEW015 27/25 Q1010 NOSIG=
09/04/2021 15:30:00Z	 SAID34 WIJJ 091530	METAR WIJJ 091530Z 07002KT 4100 HZ FEW015 26/25 Q1010 NOSIG=
09/04/2021 16:00:00Z	 SAID34 WIJJ 091600	METAR WIJJ 091600Z 06002KT 3300 HZ FEW015 26/24 Q1009 NOSIG=
09/04/2021 16:30:00Z	 SAID34 WIJJ 091630	METAR WIJJ 091630Z 11001KT 3200 HZ FEW014 25/24 Q1009 NOSIG=
09/04/2021 17:00:00Z	 SAID34 WIJJ 091700	METAR WIJJ 091700Z 16002KT 2500 HZ FEW014 26/25 Q1009 NOSIG=
09/04/2021 17:30:00Z	 SAID34 WIJJ 091730	METAR WIJJ 091730Z 11002KT 4000 HZ FEW014 26/25 Q1009 NOSIG=
09/04/2021 18:00:00Z	 SAID34 WIJJ 091800	METAR WIJJ 091800Z 10002KT 4300 HZ FEW014 25/24 Q1009 NOSIG=
09/04/2021 18:30:00Z	 SAID34 WIJJ 091830	METAR WIJJ 091830Z 29001KT 3100 HZ FEW014 25/24 Q1009 NOSIG=
09/04/2021 19:00:00Z	 SAID34 WIJJ 091900	METAR WIJJ 091900Z 24001KT 3000 HZ FEW014 25/24 Q1009 NOSIG=
09/04/2021 19:30:00Z	 SAID34 WIJJ 091930	METAR WIJJ 091930Z 33002KT 2900 HZ FEW014 25/24 Q1009 NOSIG=
09/04/2021 20:00:00Z	 SAID34 WIJJ 092000	METAR WIJJ 092000Z 25001KT 2800 HZ FEW014 25/24 Q1009 NOSIG=
09/04/2021 20:30:00Z	 SAID34 WIJJ 092030	METAR WIJJ 092030Z 10002KT 4300 HZ FEW013 25/24 Q1009 NOSIG=
09/04/2021 21:00:00Z	 SAID34 WIJJ 092100	METAR WIJJ 092100Z 22003KT 3400 HZ SCT013 25/24 Q1009 NOSIG=
09/04/2021 21:30:00Z	 SAID34 WIJJ 092130	METAR WIJJ 092130Z 20001KT 4600 HZ SCT013 25/24 Q1009 NOSIG=
09/04/2021 22:00:00Z	 SAID34 WIJJ 092200	METAR WIJJ 092200Z 34003KT 5000 HZ SCT013 25/24 Q1009 NOSIG=
09/04/2021 22:30:00Z	 SAID34 WIJJ 092230	METAR WIJJ 092230Z 34004KT 7000 -RA SCT013 25/24 Q1009 NOSIG=
09/04/2021 23:00:00Z	 SAID34 WIJJ 092300	METAR WIJJ 092300Z 32003KT 290V360 9000 SCT013CB 25/24 Q1010 RERA TEMPO 2000 TSRA RMK CB TO SW-NW=
09/04/2021 23:30:00Z	 SAID34 WIJJ 092330	METAR WIJJ 092330Z 33010KT 1000 RA SCT008CB SCT010 24/23 Q1011 NOSIG RMK CB TO SW-NW=
10/04/2021 00:00:00Z	 SAID34 WIJJ 100000	METAR WIJJ 100000Z 17005KT 2000 -TSRA SCT008CB SCT010 24/23 Q1011 NOSIG RMK CB TO SW-NW=
10/04/2021 00:30:00Z	 SAID34 WIJJ 100030	METAR WIJJ 100030Z 06002KT 7000 -RA FEW010CB SCT011 23/23 Q1011 NOSIG RMK S-W=
10/04/2021 01:00:00Z	 SAID34 WIJJ 100100	METAR WIJJ 100100Z 29004KT 3000 -RA BKN011 23/23 Q1011 NOSIG=
10/04/2021 01:30:00Z	 SAID34 WIJJ 100130	METAR WIJJ 100130Z 27006KT 240V300 5000 -RA BKN011 24/23 Q1012 NOSIG=
10/04/2021 02:00:00Z	 SAID34 WIJJ 100200	METAR WIJJ 100200Z 28005KT 250V310 9999 -RA BKN011 23/22 Q1013 NOSIG=
10/04/2021 02:30:00Z	 SAID34 WIJJ 100230	METAR WIJJ 100230Z 27006KT 240V300 9999 -RA BKN012 23/22 Q1013 NOSIG=
10/04/2021 03:00:00Z	 SAID34 WIJJ 100300	METAR WIJJ 100300Z 29005KT 260V320 9999 BKN013 25/25 Q1013 NOSIG=
10/04/2021 03:30:00Z	 SAID34 WIJJ 100330	METAR WIJJ 100330Z 28005KT 9999 BKN014 26/26 Q1013 NOSIG=
10/04/2021 04:00:00Z	 SAID34 WIJJ 100400	METAR WIJJ 100400Z 28005KT 240V320 9999 SCT014 28/27 Q1012 NOSIG=
10/04/2021 04:30:00Z	 SAID34 WIJJ 100430	METAR WIJJ 100430Z 29005KT 240V310 9999 SCT015 28/26 Q1012 NOSIG=
10/04/2021 05:00:00Z	 SAID34 WIJJ 100500	METAR COR WIJJ 100500Z 31004KT 280V340 9999 SCT015 29/26 Q1011 NOSIG=
10/04/2021 05:30:00Z	 SAID34 WIJJ 100530	METAR WIJJ 100530Z 33004KT 280V360 9999 SCT015 30/23 Q1011 NOSIG=
10/04/2021 06:00:00Z	 SAID34 WIJJ 100600	METAR WIJJ 100600Z 30006KT 260V340 9999 SCT015 27/23 Q1011 NOSIG=
10/04/2021 06:30:00Z	 SAID34 WIJJ 100630	METAR WIJJ 100630Z 32007KT 280V340 9999 SCT015 28/23 Q1010 NOSIG=
10/04/2021 07:00:00Z	 SAID34 WIJJ 100700	METAR WIJJ 100700Z AUTO 31007KT 270V340 9999 NCD 29/24 Q1009=
10/04/2021 07:30:00Z	 SAID34 WIJJ 100730	METAR WIJJ 100730Z 30007KT 9999 SCT015 29/24 Q1009 NOSIG=
10/04/2021 08:00:00Z	 SAID34 WIJJ 100800	METAR WIJJ 100800Z 30009KT 9999 SCT016 29/24 Q1008 NOSIG=
10/04/2021 08:30:00Z	 SAID34 WIJJ 100830	METAR WIJJ 100830Z 29006KT 240V320 9999 SCT016 29/23 Q1008 NOSIG=
10/04/2021 09:00:00Z	 SAID34 WIJJ 100900	METAR WIJJ 100900Z 29005KT 230V320 9999 FEW017 30/24 Q1008 NOSIG=
10/04/2021 09:30:00Z	 SAID34 WIJJ 100930	METAR WIJJ 100930Z 27007KT 240V300 9999 FEW017 30/23 Q1008 NOSIG=
10/04/2021 10:00:00Z	 SAID34 WIJJ 101000	METAR WIJJ 101000Z 26004KT 230V310 9999 FEW017 30/24 Q1008 NOSIG=
10/04/2021 10:30:00Z	 SAID34 WIJJ 101030	METAR WIJJ 101030Z 27003KT 220V320 9999 FEW017 29/24 Q1008 NOSIG=
10/04/2021 11:00:00Z	 SAID34 WIJJ 101100	METAR WIJJ 101100Z 23003KT 9999 FEW017 28/24 Q1008 NOSIG=
10/04/2021 11:30:00Z	 SAID34 WIJJ 101130	METAR WIJJ 101130Z 19003KT 9999 FEW017 28/24 Q1009 NOSIG=
10/04/2021 12:00:00Z	 SAID34 WIJJ 101200	METAR WIJJ 101200Z 18002KT 9999 FEW017 27/24 Q1009 NOSIG=
10/04/2021 12:30:00Z	 SAID34 WIJJ 101230	METAR WIJJ 101230Z 22003KT 9999 FEW017 26/24 Q1009 NOSIG=
10/04/2021 13:00:00Z	 SAID34 WIJJ 101300	METAR WIJJ 101300Z 20004KT 9999 FEW015 27/24 Q1010 NOSIG=
10/04/2021 13:30:00Z	 SAID34 WIJJ 101330	METAR WIJJ 101330Z 18003KT 9999 FEW017 26/25 Q1010 NOSIG=
10/04/2021 14:00:00Z	 SAID34 WIJJ 101400	METAR WIJJ 101400Z 20002KT 9999 FEW017 26/25 Q1011 NOSIG=
10/04/2021 14:30:00Z	 SAID34 WIJJ 101430	METAR WIJJ 101430Z 14003KT 9999 FEW016 25/25 Q1011 NOSIG=
10/04/2021 15:00:00Z	 SAID34 WIJJ 101500	METAR WIJJ 101500Z 15002KT 5000 HZ FEW016 26/24 Q1011 NOSIG=
10/04/2021 15:30:00Z	 SAID34 WIJJ 101530	METAR WIJJ 101530Z 13003KT 7000 FEW016 26/24 Q1011 NOSIG=
10/04/2021 16:00:00Z	 SAID34 WIJJ 101600	METAR WIJJ 101600Z 13003KT 5000 HZ FEW016 25/24 Q1011 NOSIG=
10/04/2021 16:30:00Z	 SAID34 WIJJ 101630	METAR WIJJ 101630Z 15001KT 4000 HZ FEW016 25/24 Q1012 NOSIG=
10/04/2021 17:00:00Z	 SAID34 WIJJ 101700	METAR WIJJ 101700Z 16002KT 5000 HZ FEW016 25/24 Q1011 NOSIG=
10/04/2021 17:30:00Z	 SAID34 WIJJ 101730	METAR WIJJ 101730Z 18001KT 5000 HZ FEW016 25/24 Q1011 NOSIG=
10/04/2021 18:00:00Z	 SAID34 WIJJ 101800	METAR WIJJ 101800Z 15001KT 5000 HZ FEW016 25/24 Q1011 NOSIG=
10/04/2021 18:30:00Z	 SAID34 WIJJ 101830	METAR WIJJ 101830Z 15002KT 4000 HZ FEW016 25/24 Q1011 NOSIG=
10/04/2021 19:00:00Z	 SAID34 WIJJ 101900	METAR WIJJ 101900Z 16003KT 3000 HZ FEW015 24/24 Q1010 NOSIG=
10/04/2021 19:30:00Z	 SAID34 WIJJ 101930	METAR WIJJ 101930Z 15002KT 3000 HZ FEW015 24/24 Q1010 NOSIG=
10/04/2021 20:00:00Z	 SAID34 WIJJ 102000	METAR WIJJ 102000Z 18002KT 5000 HZ FEW015 24/23 Q1010 NOSIG=
10/04/2021 20:30:00Z	 SAID34 WIJJ 102030	METAR WIJJ 102030Z 18002KT 5000 HZ FEW015 24/23 Q1010 NOSIG=
10/04/2021 21:00:00Z	 SAID34 WIJJ 102100	METAR WIJJ 102100Z 18002KT 5000 HZ FEW015 24/23 Q1010 NOSIG=
10/04/2021 21:30:00Z	 SAID34 WIJJ 102130	METAR WIJJ 102130Z 19001KT 5000 HZ FEW015 24/23 Q1010 NOSIG=
10/04/2021 22:00:00Z	 SAID34 WIJJ 102200	METAR WIJJ 102200Z 15002KT 5000 HZ FEW015 24/23 Q1010 NOSIG=
10/04/2021 22:30:00Z	 SAID34 WIJJ 102230	METAR WIJJ 102230Z 18001KT 5000 HZ FEW015 24/23 Q1010 NOSIG=
10/04/2021 23:00:00Z	 SAID34 WIJJ 102300	METAR WIJJ 102300Z 18002KT 5000 HZ FEW016 24/23 Q1010 NOSIG=
10/04/2021 23:30:00Z	 SAID34 WIJJ 102330	METAR WIJJ 102330Z 22002KT 5000 HZ FEW017 24/23 Q1010 NOSIG=
11/04/2021 00:00:00Z	 SAID34 WIJJ 110000	METAR WIJJ 110000Z 25002KT 5000 HZ FEW017 24/23 Q1011 NOSIG=
11/04/2021 00:30:00Z	 SAID34 WIJJ 110030	METAR WIJJ 110030Z 27002KT 6000 NSC 24/24 Q1012 NOSIG=
11/04/2021 01:00:00Z	 SAID34 WIJJ 110100	METAR WIJJ 110100Z 26002KT 7000 NSC 25/24 Q1012 NOSIG=
11/04/2021 01:30:00Z	 SAID34 WIJJ 110130	METAR WIJJ 110130Z 28001KT 9000 FEW016 27/25 Q1012 NOSIG=
11/04/2021 02:00:00Z	 SAID34 WIJJ 110200	METAR WIJJ 110200Z 32001KT 9999 FEW015 28/24 Q1013 NOSIG=
11/04/2021 02:30:00Z	 SAID34 WIJJ 110230	METAR WIJJ 110230Z 05003KT 340V120 9999 SCT015 29/24 Q1012 NOSIG=
11/04/2021 03:00:00Z	 SAID34 WIJJ 110300	METAR WIJJ 110300Z 03004KT 330V110 9999 BKN015 30/24 Q1012 NOSIG=
11/04/2021 03:30:00Z	 SAID34 WIJJ 110330	METAR WIJJ 110330Z 36005KT 290V060 9999 SCT016 31/25 Q1012 NOSIG=
11/04/2021 04:00:00Z	 SAID34 WIJJ 110400	METAR WIJJ 110400Z 01006KT 320V070 9999 BKN016 31/24 Q1012 NOSIG=
11/04/2021 04:30:00Z	 SAID34 WIJJ 110430	METAR WIJJ 110430Z 36004KT 9999 SCT017 31/24 Q1011 NOSIG=
11/04/2021 05:00:00Z	 SAID34 WIJJ 110500	METAR WIJJ 110500Z 03004KT 300V090 9999 BKN017 32/24 Q1011 NOSIG=
11/04/2021 05:30:00Z	 SAID34 WIJJ 110530	METAR WIJJ 110530Z 04005KT 320V080 9999 BKN017 32/23 Q1011 NOSIG=
11/04/2021 06:00:00Z	 SAID34 WIJJ 110600	METAR WIJJ 110600Z 36006KT 300V050 9999 BKN017 33/24 Q1010 NOSIG=
11/04/2021 06:30:00Z	 SAID34 WIJJ 110630	METAR WIJJ 110630Z 36007KT 330V080 9999 BKN017 33/23 Q1009 NOSIG=
11/04/2021 07:00:00Z	 SAID34 WIJJ 110700	METAR WIJJ 110700Z 02004KT 9999 SCT017 34/23 Q1008 NOSIG=
11/04/2021 07:30:00Z	 SAID34 WIJJ 110730	METAR WIJJ 110730Z 34005KT 290V030 9999 SCT018 34/23 Q1008 NOSIG=
11/04/2021 08:00:00Z	 SAID34 WIJJ 110800	METAR WIJJ 110800Z 35007KT 320V020 9999 BKN017 34/24 Q1007 NOSIG=
11/04/2021 08:30:00Z	 SAID34 WIJJ 110830	METAR WIJJ 110830Z 02007KT 9999 SCT017 33/24 Q1007 NOSIG=
11/04/2021 09:00:00Z	 SAID34 WIJJ 110900	METAR WIJJ 110900Z 05009KT 9999 BKN017 33/24 Q1007 NOSIG=
11/04/2021 09:30:00Z	 SAID34 WIJJ 110930	METAR WIJJ 110930Z 04006KT 010V070 9999 SCT016 32/24 Q1007 NOSIG=
11/04/2021 10:00:00Z	 SAID34 WIJJ 111000	METAR WIJJ 111000Z 03008KT 350V070 9999 VCTS FEW015CB SCT016 32/23 Q1007 NOSIG RMK CB TO E-S=
11/04/2021 10:30:00Z	 SAID34 WIJJ 111030	METAR WIJJ 111030Z 01009KT 340V040 9999 VCTS FEW015CB SCT016 32/23 Q1007 NOSIG RMK CB TO SE-SW=
11/04/2021 11:00:00Z	 SAID34 WIJJ 111100	METAR WIJJ 111100Z 03005KT 010V070 9000 VCTS FEW014CB SCT015 31/23 Q1008 NOSIG RMK CB TO SE AND S=
11/04/2021 11:30:00Z	 SAID34 WIJJ 111130	METAR WIJJ 111130Z 13008KT 9999 FEW014CB SCT015 28/24 Q1009 NOSIG RMK RETS=
11/04/2021 12:00:00Z	 SAID34 WIJJ 111200	METAR WIJJ 111200Z 14005KT 9999 VCTS FEW014CB SCT015 27/24 Q1009 NOSIG RMK CB TO S AND SW=
11/04/2021 12:30:00Z	 SAID34 WIJJ 111230	METAR WIJJ 111230Z 20008KT 9999 -RA FEW014CB SCT015 27/24 Q1011 RMK CB TO SW=
11/04/2021 13:00:00Z	 SAID34 WIJJ 111300	METAR WIJJ 111300Z 16008KT 9000 -RA FEW015CB FEW016 25/23 Q1011 RMK CB TO S AND SW=
11/04/2021 13:30:00Z	 SAID34 WIJJ 111330	METAR WIJJ 111330Z 15008KT 2700 -RA FEW015CB SCT016 24/23 Q1011 RMK CB TO SE=
11/04/2021 14:00:00Z	 SAID34 WIJJ 111400	METAR WIJJ 111400Z 18005KT 9999 -RA FEW015CB FEW016 24/22 Q1012 NOSIG RMK CB TO E=
11/04/2021 14:30:00Z	 SAID34 WIJJ 111430	METAR WIJJ 111430Z 16005KT 9999 -RA SCT015 24/22 Q1012=
11/04/2021 15:00:00Z	 SAID34 WIJJ 111500	METAR WIJJ 111500Z 14004KT 9999 -RA SCT015 24/22 Q1013 NOSIG=
11/04/2021 15:30:00Z	 SAID34 WIJJ 111530	METAR WIJJ 111530Z 17002KT 9999 FEW015 23/22 Q1013 NOSIG=
11/04/2021 16:00:00Z	 SAID34 WIJJ 111600	METAR WIJJ 111600Z 25001KT 9999 FEW015 24/23 Q1013 NOSIG=
11/04/2021 16:30:00Z	 SAID34 WIJJ 111630	METAR WIJJ 111630Z 09001KT 9999 FEW015 24/23 Q1013 NOSIG=
11/04/2021 17:00:00Z	 SAID34 WIJJ 111700	METAR WIJJ 111700Z 11003KT 9999 FEW010 24/23 Q1013 NOSIG=
11/04/2021 17:30:00Z	 SAID34 WIJJ 111730	METAR WIJJ 111730Z 22001KT 9999 FEW015 24/23 Q1013 NOSIG=
11/04/2021 18:00:00Z	 SAID34 WIJJ 111800	METAR WIJJ 111800Z 27001KT 9999 FEW015 24/23 Q1013 NOSIG=
11/04/2021 18:30:00Z	 SAID34 WIJJ 111830	METAR WIJJ 111830Z 25003KT 9999 FEW015 24/23 Q1013 NOSIG=
11/04/2021 19:00:00Z	 SAID34 WIJJ 111900	METAR WIJJ 111900Z 23003KT 9999 FEW015 24/23 Q1013 NOSIG=
11/04/2021 19:30:00Z	 SAID34 WIJJ 111930	METAR WIJJ 111930Z 28005KT 9999 SCT010 24/23 Q1012 NOSIG=
11/04/2021 20:00:00Z	 SAID34 WIJJ 112000	METAR WIJJ 112000Z 26004KT 9999 SCT010 24/23 Q1012 NOSIG=
11/04/2021 20:01:00Z	 SAID34 WIJJ 112001	METAR WIJJ 112001Z 34002KT 9999 FEW015 24/23 Q1011 NOSIG=
11/04/2021 20:30:00Z	 SAID34 WIJJ 112030	METAR WIJJ 112030Z 27004KT 9999 FEW015 24/23 Q1011 NOSIG=
11/04/2021 21:00:00Z	 SAID34 WIJJ 112100	METAR WIJJ 112100Z 34002KT 9999 FEW015 24/23 Q1011 NOSIG=
11/04/2021 21:30:00Z	 SAID34 WIJJ 112130	METAR WIJJ 112130Z 30002KT 9999 FEW015 24/23 Q1011 NOSIG=
11/04/2021 22:00:00Z	 SAID34 WIJJ 112200	METAR WIJJ 112200Z 29002KT 9999 FEW015 24/23 Q1011 NOSIG=
11/04/2021 22:30:00Z	 SAID34 WIJJ 112230	METAR WIJJ 112230Z 30004KT 9999 FEW015 24/23 Q1011 NOSIG=
11/04/2021 23:00:00Z	 SAID34 WIJJ 112300	METAR WIJJ 112300Z 25002KT 9999 FEW015 24/23 Q1011 NOSIG=
11/04/2021 23:30:00Z	 SAID34 WIJJ 112330	METAR WIJJ 112330Z 27003KT 9999 SCT013 24/23 Q1011 NOSIG=
12/04/2021 00:00:00Z	 SAID34 WIJJ 120000	METAR WIJJ 120000Z 30004KT 9999 BKN012 25/23 Q1012 NOSIG=
12/04/2021 00:30:00Z	 SAID34 WIJJ 120030	METAR WIJJ 120030Z 31055KT 9999 BKN012 25/23 Q1012 NOSIG=
12/04/2021 01:00:00Z	 SAID34 WIJJ 120100	METAR WIJJ 120100Z 33004KT 9999 BKN012 25/23 Q1012 NOSIG=
12/04/2021 01:30:00Z	 SAID34 WIJJ 120130	METAR WIJJ 120130Z 29003KT 9999 SCT012 25/24 Q1013 NOSIG=
12/04/2021 02:00:00Z	 SAID34 WIJJ 120200	METAR WIJJ 120200Z 26003KT 200V310 9999 BKN012 26/24 Q1013 NOSIG=
12/04/2021 02:30:00Z	 SAID34 WIJJ 120230	METAR WIJJ 120230Z 20004KT 150V250 9999 SCT012 26/24 Q1013 NOSIG=
12/04/2021 03:00:00Z	 SAID34 WIJJ 120300	METAR WIJJ 120300Z 15003KT 090V180 9999 SCT013 28/24 Q1013 NOSIG=
12/04/2021 03:30:00Z	 SAID34 WIJJ 120330	METAR WIJJ 120330Z 14003KT 9999 SCT013 28/24 Q1012 NOSIG=
12/04/2021 04:00:00Z	 SAID34 WIJJ 120400	METAR WIJJ 120400Z 12003KT 9999 SCT014 30/24 Q1014 NOSIG=
12/04/2021 04:30:00Z	 SAID34 WIJJ 120430	METAR WIJJ 120430Z 12003KT 9999 SCT014 30/24 Q1014 NOSIG=
12/04/2021 05:00:00Z	 SAID34 WIJJ 120500	METAR WIJJ 120500Z 12004KT 9999 SCT014 30/24 Q1012 NOSIG=
12/04/2021 05:30:00Z	 SAID34 WIJJ 120530	METAR WIJJ 120530Z 12003KT 9999 FEW014 30/24 Q1011 NOSIG=
12/04/2021 06:00:00Z	 SAID34 WIJJ 120600	METAR WIJJ 120600Z 16005KT 9999 SCT014 31/25 Q1011 NOSIG=
12/04/2021 06:30:00Z	 SAID34 WIJJ 120630	METAR WIJJ 120630Z 12002KT 9999 SCT014 31/25 Q1011 NOSIG=
12/04/2021 07:00:00Z	 SAID34 WIJJ 120700	METAR WIJJ 120700Z 12004KT 9999 SCT014 32/25 Q1010 NOSIG=
12/04/2021 07:30:00Z	 SAID34 WIJJ 120730	METAR WIJJ 120730Z 13004KT 9999 SCT014 32/25 Q1009 NOSIG=
12/04/2021 08:00:00Z	 SAID34 WIJJ 120800	METAR WIJJ 120800Z 12005KT 9999 SCT014 32/25 Q1009 NOSIG=
12/04/2021 08:30:00Z	 SAID34 WIJJ 120830	METAR WIJJ 120830Z 03003KT 9999 SCT014 32/25 Q1008 NOSIG=
12/04/2021 09:00:00Z	 SAID34 WIJJ 120900	METAR WIJJ 120900Z 08003KT 9999 SCT014 31/25 Q1008 NOSIG=
12/04/2021 09:30:00Z	 SAID34 WIJJ 120930	METAR WIJJ 120930Z 13004KT 9999 SCT014 31/25 Q1009 NOSIG=
12/04/2021 10:00:00Z	 SAID34 WIJJ 121000	METAR WIJJ 121000Z 13003KT 9999 SCT014 30/25 Q1009 NOSIG=
12/04/2021 10:30:00Z	 SAID34 WIJJ 121030	METAR WIJJ 121030Z 09003KT 9999 FEW015 30/25 Q1009 NOSIG=
12/04/2021 11:00:00Z	 SAID34 WIJJ 121100	METAR WIJJ 121100Z 03003KT 9999 FEW015 30/25 Q1009 NOSIG=
12/04/2021 11:30:00Z	 SAID34 WIJJ 121130	METAR WIJJ 121130Z AUTO 09002KT 9000 NCD ///// Q1009=
12/04/2021 12:00:00Z	 SAID34 WIJJ 121200	METAR WIJJ 121200Z 31002KT 9999 FEW015 30/25 Q1009 NOSIG=
12/04/2021 12:30:00Z	 SAID34 WIJJ 121230	METAR WIJJ 121230Z 33002KT 7000 FEW015 28/25 Q1009 NOSIG=
12/04/2021 13:00:00Z	 SAID34 WIJJ 121300	METAR WIJJ 121300Z 06002KT 5000 HZ FEW015 28/25 Q1010 NOSIG=
12/04/2021 13:30:00Z	 SAID34 WIJJ 121330	METAR WIJJ 121330Z 02004KT 350V050 6000 FEW016 27/25 Q1011 NOSIG=
12/04/2021 14:00:00Z	 SAID34 WIJJ 121400	METAR WIJJ 121400Z 01004KT 9999 FEW016 27/24 Q1011 NOSIG=
12/04/2021 14:30:00Z	 SAID34 WIJJ 121430	METAR WIJJ 121430Z 04002KT 9999 FEW016 27/25 Q1011 NOSIG=
12/04/2021 15:00:00Z	 SAID34 WIJJ 121500	METAR WIJJ 121500Z 00000KT 9999 FEW016 26/24 Q1012 NOSIG=
12/04/2021 15:30:00Z	 SAID34 WIJJ 121530	METAR WIJJ 121530Z 35003KT 9999 FEW016 27/24 Q1012 NOSIG=
12/04/2021 16:00:00Z	 SAID34 WIJJ 121600	METAR WIJJ 121600Z 00000KT 9999 FEW016 26/24 Q1012 NOSIG=
12/04/2021 16:30:00Z	 SAID34 WIJJ 121630	METAR WIJJ 121630Z 00000KT 9999 FEW016 26/24 Q1012 NOSIG=
12/04/2021 17:00:00Z	 SAID34 WIJJ 121700	METAR WIJJ 121700Z 00000KT 9999 FEW016 26/24 Q1012 NOSIG=
12/04/2021 17:30:00Z	 SAID34 WIJJ 121730	METAR WIJJ 121730Z 00000KT 7000 FEW016 26/24 Q1011 NOSIG=
12/04/2021 18:00:00Z	 SAID34 WIJJ 121800	METAR WIJJ 121800Z 00000KT 5000 HZ FEW016 25/24 Q1011 NOSIG=
12/04/2021 18:30:00Z	 SAID34 WIJJ 121830	METAR WIJJ 121830Z 00000KT 4000 HZ FEW016 25/24 Q1011 NOSIG=
12/04/2021 19:00:00Z	 SAID34 WIJJ 121900	METAR WIJJ 121900Z 00000KT 3000 HZ FEW016 24/24 Q1011 NOSIG=
12/04/2021 19:30:00Z	 SAID34 WIJJ 121930	METAR WIJJ 121930Z 00000KT 3000 HZ FEW016 24/24 Q1011 NOSIG=
12/04/2021 20:00:00Z	 SAID34 WIJJ 122000	METAR WIJJ 122000Z 17002KT 3000 HZ FEW016 24/24 Q1011 NOSIG=
12/04/2021 20:30:00Z	 SAID34 WIJJ 122030	METAR WIJJ 122030Z 00000KT 4000 HZ FEW016 24/24 Q1011 NOSIG=
12/04/2021 21:00:00Z	 SAID34 WIJJ 122100	METAR WIJJ 122100Z 00000KT 3000 HZ FEW016 24/24 Q1011 NOSIG=
12/04/2021 21:30:00Z	 SAID34 WIJJ 122130	METAR WIJJ 122130Z 13002KT 3000 HZ FEW016 24/24 Q1010 NOSIG=
12/04/2021 22:00:00Z	 SAID34 WIJJ 122200	METAR WIJJ 122200Z 18002KT 3000 HZ FEW016 24/24 Q1010 NOSIG=
12/04/2021 22:30:00Z	 SAID34 WIJJ 122230	METAR WIJJ 122230Z 14002KT 3000 HZ FEW015 24/24 Q1010 NOSIG=
12/04/2021 23:00:00Z	 SAID34 WIJJ 122300	METAR WIJJ 122300Z 00000KT 3000 HZ FEW015 24/24 Q1010 NOSIG=
12/04/2021 23:30:00Z	 SAID34 WIJJ 122330	METAR WIJJ 122330Z 17003KT 3000 HZ FEW015 24/24 Q1010 NOSIG=
13/04/2021 00:00:00Z	 SAID34 WIJJ 130000	METAR WIJJ 130000Z 15002KT 4000 HZ FEW015 24/24 Q1011 NOSIG=
13/04/2021 00:30:00Z	 SAID34 WIJJ 130030	METAR WIJJ 130030Z 15003KT 8000 FEW015 25/24 Q1012 NOSIG=
13/04/2021 01:00:00Z	 SAID34 WIJJ 130100	METAR WIJJ 130100Z 15004KT 120V190 7000 FEW015 26/25 Q1012 NOSIG=
13/04/2021 01:30:00Z	 SAID34 WIJJ 130130	METAR WIJJ 130130Z 17004KT 120V210 9999 FEW015 27/25 Q1012 NOSIG=
13/04/2021 02:00:00Z	 SAID34 WIJJ 130200	METAR WIJJ 130200Z 14003KT 100V190 CAVOK 28/25 Q1012 NOSIG=
13/04/2021 02:30:00Z	 SAID34 WIJJ 130230	METAR WIJJ 130230Z 15003KT 060V220 9999 FEW015 29/25 Q1012 NOSIG=
13/04/2021 03:00:00Z	 SAID34 WIJJ 130300	METAR WIJJ 130300Z 11003KT 9999 FEW015 30/25 Q1012 NOSIG=
13/04/2021 03:30:00Z	 SAID34 WIJJ 130330	METAR WIJJ 130330Z 15004KT 9999 SCT015 31/25 Q1012 NOSIG=
13/04/2021 04:00:00Z	 SAID34 WIJJ 130400	METAR WIJJ 130400Z 15003KT 110V230 9999 SCT015 31/24 Q1012 NOSIG=
13/04/2021 04:30:00Z	 SAID34 WIJJ 130430	METAR WIJJ 130430Z 18002KT 9999 SCT015 31/24 Q1012 NOSIG=
13/04/2021 05:00:00Z	 SAID34 WIJJ 130500	METAR WIJJ 130500Z 12003KT 9999 FEW015CB SCT016 32/25 Q1011 NOSIG RMK CB TO N=
13/04/2021 05:30:00Z	 SAID34 WIJJ 130530	METAR WIJJ 130530Z 11003KT 9999 FEW015CB SCT016 32/23 Q1010 NOSIG RMK CB TO N=
13/04/2021 06:00:00Z	 SAID34 WIJJ 130600	METAR WIJJ 130600Z 16003KT 9999 FEW015CB SCT016 32/23 Q1010 NOSIG RMK CB TO NE=
13/04/2021 06:30:00Z	 SAID34 WIJJ 130630	METAR WIJJ 130630Z 34006KT 310V020 9999 FEW015CB SCT016 31/24 Q1009 NOSIG RMK CB TO N=
13/04/2021 07:00:00Z	 SAID34 WIJJ 130700	METAR WIJJ 130700Z 03004KT 360V060 9999 FEW015CB SCT016 32/25 Q1009 NOSIG RMK CB TO NE=
13/04/2021 07:30:00Z	 SAID34 WIJJ 130730	METAR WIJJ 130730Z 05003KT 020V080 9999 SCT015CB 31/24 Q1008 NOSIG RMK CB TO NW - E=
13/04/2021 08:00:00Z	 SAID34 WIJJ 130800	METAR WIJJ 130800Z 05004KT 9999 SCT015CB 31/24 Q1008 NOSIG RMK CB TO NW- E=
13/04/2021 08:30:00Z	 SAID34 WIJJ 130830	METAR WIJJ 130830Z 12002KT 9999 FEW015CB SCT016 32/24 Q1008 NOSIG RMK CB TO E=
13/04/2021 09:00:00Z	 SAID34 WIJJ 130900	METAR WIJJ 130900Z 03009KT 9999 SCT015CB 30/25 Q1008 NOSIG RMK CB TO W-NE=
13/04/2021 09:30:00Z	 SAID34 WIJJ 130930	METAR WIJJ 130930Z 36010KT 9999 TS BKN015CB 28/24 Q1008 NOSIG RMK CB TO SE-N=
13/04/2021 10:00:00Z	 SAID34 WIJJ 131000	METAR WIJJ 131000Z 33007KT 300V010 9999 TS FEW015CB SCT016 28/25 Q1008 NOSIG RMK CB TO SW=
13/04/2021 10:11:00Z	 SAID34 WIJJ 131011	METAR WIJJ 131011Z 34005KT 9999 FEW015CB 27/24 Q1008 NOSIG RMK CB TO S=
13/04/2021 10:30:00Z	 SAID34 WIJJ 131030	METAR WIJJ 131030Z 35004KT 320V040 9999 FEW015CB 27/24 Q1008 NOSIG RMK CB TO W=
13/04/2021 11:00:00Z	 SAID34 WIJJ 131100	METAR WIJJ 131100Z 10002KT 9999 FEW015CB 27/24 Q1008 NOSIG RMK CB TO NW=
13/04/2021 11:30:00Z	 SAID34 WIJJ 131130	METAR WIJJ 131130Z 15003KT 7000 SCT015 26/24 Q1009 NOSIG=
13/04/2021 12:00:00Z	 SAID34 WIJJ 131200	METAR WIJJ 131200Z 21001KT 9000 FEW015 26/25 Q1009 NOSIG=
13/04/2021 12:30:00Z	 SAID34 WIJJ 131230	METAR WIJJ 131230Z 17002KT 9000 FEW016 26/25 Q1010 NOSIG=
13/04/2021 13:00:00Z	 SAID34 WIJJ 131300	METAR WIJJ 131300Z 04001KT 8000 FEW016 27/25 Q1011 NOSIG=
13/04/2021 13:30:00Z	 SAID34 WIJJ 131330	METAR WIJJ 131330Z 36002KT 9000 FEW015 26/25 Q1011 NOSIG=
13/04/2021 14:00:00Z	 SAID34 WIJJ 131400	METAR WIJJ 131400Z 30001KT 7000 NSC 26/25 Q1011 NOSIG=
13/04/2021 14:30:00Z	 SAID34 WIJJ 131430	METAR WIJJ 131430Z 18002KT 6000 NSC 26/25 Q1012 NOSIG=
13/04/2021 15:00:00Z	 SAID34 WIJJ 131500	METAR WIJJ 131500Z 22006KT 190V250 9999 SCT016 26/24 Q1012 NOSIG=
13/04/2021 15:30:00Z	 SAID34 WIJJ 131530	METAR WIJJ 131530Z 23004KT 9999 FEW016 25/24 Q1012 NOSIG=
13/04/2021 16:00:00Z	 SAID34 WIJJ 131600	METAR WIJJ 131600Z 24005KT 9999 FEW016 25/24 Q1012 NOSIG=
13/04/2021 16:30:00Z	 SAID34 WIJJ 131630	METAR WIJJ 131630Z 25004KT 9999 FEW016 25/23 Q1012 NOSIG=
13/04/2021 17:00:00Z	 SAID34 WIJJ 131700	METAR WIJJ 131700Z 25004KT 9999 FEW015CB 25/24 Q1012 RMK CB TO N=
13/04/2021 17:30:00Z	 SAID34 WIJJ 131730	METAR WIJJ 131730Z 23003KT 9999 FEW015CB 25/24 Q1012 NOSIG RMK CB TO N=
13/04/2021 18:00:00Z	 SAID34 WIJJ 131800	METAR WIJJ 131800Z 25005KT 9999 FEW014CB SCT015 25/23 Q1012 NOSIG RMK CB TO N AND SE=
13/04/2021 18:30:00Z	 SAID34 WIJJ 131830	METAR WIJJ 131830Z 26008KT 9999 FEW014CB SCT015 25/23 Q1011 NOSIG RMK CB TO N=
13/04/2021 19:00:00Z	 SAID34 WIJJ 131900	METAR WIJJ 131900Z 24005KT 200V270 9999 FEW014CB SCT015 25/23 Q1011 NOSIG RMK CB TO N AND SW=
13/04/2021 19:30:00Z	 SAID34 WIJJ 131930	METAR WIJJ 131930Z 19005KT 160V230 9999 FEW014CB SCT015 24/23 Q1010 NOSIG RMK CB TO N AND NE=
13/04/2021 20:00:00Z	 SAID34 WIJJ 132000	METAR WIJJ 132000Z 15004KT 130V200 9999 FEW014CB SCT015 24/23 Q1010 NOSIG CB TO N AND NE=
13/04/2021 20:30:00Z	 SAID34 WIJJ 132030	METAR WIJJ 132030Z 13003KT 110V180 9999 FEW014CB SCT015 24/23 Q1010 NOSIG RMK CB TO N AND NE=
13/04/2021 21:00:00Z	 SAID34 WIJJ 132100	METAR WIJJ 132100Z 16003KT 9999 FEW007 24/23 Q1010 NOSIG=
13/04/2021 21:30:00Z	 SAID34 WIJJ 132130	METAR WIJJ 132130Z 13003KT 110V180 8000 -RA FEW012CB 24/23 Q1010 NOSIG RMK CB TO NE=
13/04/2021 22:00:00Z	 SAID34 WIJJ 132200	METAR WIJJ 132200Z 26002KT 9999 -RA FEW012CB SCT013 24/23 Q1010 NOSIG RMK CB TO NE=
13/04/2021 22:30:00Z	 SAID34 WIJJ 132230	METAR WIJJ 132230Z 28002KT 9999 FEW013 24/23 Q1011 NOSIG RMK RERA=
13/04/2021 23:00:00Z	 SAID34 WIJJ 132300	METAR WIJJ 132300Z 28001KT 9999 FEW016 24/23 Q1011 NOSIG=
13/04/2021 23:30:00Z	 SAID34 WIJJ 132330	METAR WIJJ 132330Z 01002KT 9999 FEW015 24/23 Q1011 NOSIG=
14/04/2021 00:00:00Z	 SAID34 WIJJ 140000	METAR WIJJ 140000Z 04002KT 5000 -RA FEW015 24/23 Q1011 NOSIG=
14/04/2021 00:30:00Z	 SAID34 WIJJ 140030	METAR WIJJ 140030Z 02002KT 6000 -RA FEW014 24/23 Q1012 NOSIG=
14/04/2021 01:00:00Z	 SAID34 WIJJ 140100	METAR WIJJ 140100Z 04002KT 4000 -RA FEW015 25/24 Q1012 NOSIG=
14/04/2021 01:30:00Z	 SAID34 WIJJ 140130	METAR WIJJ 140130Z 00000KT 7000 -RA FEW015 25/24 Q1012 NOSIG=
14/04/2021 02:00:00Z	 SAID34 WIJJ 140200	METAR WIJJ 140200Z 14002KT 8000 -RA FEW010 25/24 Q1013 NOSIG=
14/04/2021 02:30:00Z	 SAID34 WIJJ 140230	METAR WIJJ 140230Z 11001KT 8000 -RA FEW015 25/24 Q1013 NOSIG=
14/04/2021 03:00:00Z	 SAID34 WIJJ 140300	METAR WIJJ 140300Z 16002KT 9999 -RA FEW010 26/24 Q1013 NOSIG=
14/04/2021 03:30:00Z	 SAID34 WIJJ 140330	METAR WIJJ 140330Z 16003KT 7000 -RA FEW012 26/24 Q1013 NOSIG=
14/04/2021 04:00:00Z	 SAID34 WIJJ 140400	METAR WIJJ 140400Z 14004KT 7000 -RA FEW013 26/24 Q1012 NOSIG=
14/04/2021 04:30:00Z	 SAID34 WIJJ 140430	METAR WIJJ 140430Z 16003KT 9000 -RA FEW010 27/24 Q1012 NOSIG=
14/04/2021 05:00:00Z	 SAID34 WIJJ 140500	METAR WIJJ 140500Z 14003KT 9999 -RA FEW013 27/25 Q1011 NOSIG=
14/04/2021 05:30:00Z	 SAID34 WIJJ 140530	METAR WIJJ 140530Z 16003KT 9999 -RA SCT014 28/25 Q1011 NOSIG=
14/04/2021 06:00:00Z	 SAID34 WIJJ 140600	METAR WIJJ 140600Z 22004KT 9999 FEW014 28/25 Q1010 NOSIG=
14/04/2021 06:30:00Z	 SAID34 WIJJ 140630	METAR WIJJ 140630Z 25004KT 9999 FEW015 29/25 Q1010 NOSIG=
14/04/2021 07:00:00Z	 SAID34 WIJJ 140700	METAR WIJJ 140700Z 25003KT 9999 FEW016 29/25 Q1009 NOSIG=
14/04/2021 07:30:00Z	 SAID34 WIJJ 140730	METAR WIJJ 140730Z 28004KT 9999 FEW018 29/25 Q1009 NOSIG=
14/04/2021 08:00:00Z	 SAID34 WIJJ 140800	METAR WIJJ 140800Z 30003KT 9999 FEW018 30/24 Q1008 NOSIG=
14/04/2021 08:30:00Z	 SAID34 WIJJ 140830	METAR WIJJ 140830Z 33006KT 9999 FEW018 29/24 Q1007 NOSIG=
14/04/2021 09:00:00Z	 SAID34 WIJJ 140900	METAR WIJJ 140900Z 35006KT 9999 FEW015CB FEW016 30/25 Q1007 NOSIG RMK CB TO E=
14/04/2021 09:30:00Z	 SAID34 WIJJ 140930	METAR WIJJ 140930Z 29004KT 9999 FEW018 30/25 Q1007 NOSIG=
14/04/2021 10:00:00Z	 SAID34 WIJJ 141000	METAR WIJJ 141000Z 36005KT 9999 FEW015CB FEW016 30/25 Q1008 NOSIG RMK CB TO SE=
14/04/2021 10:30:00Z	 SAID34 WIJJ 141030	METAR WIJJ 141030Z 36004KT 9999 FEW015CB FEW016 30/25 Q1008 NOSIG RMK CB TO SE=
14/04/2021 11:00:00Z	 SAID34 WIJJ 141100	METAR WIJJ 141100Z 36004KT 9999 FEW015CB FEW016 29/25 Q1008 NOSIG RMK CB TO SE=
14/04/2021 11:30:00Z	 SAID34 WIJJ 141130	METAR WIJJ 141130Z 01004KT 9999 FEW015CB FEW016 28/25 Q1008 NOSIG RMK CB TO W=
14/04/2021 12:00:00Z	 SAID34 WIJJ 141200	METAR WIJJ 141200Z 02002KT 9999 FEW015CB FEW016 28/25 Q1009 NOSIG RMK CB TO W=
14/04/2021 12:30:00Z	 SAID34 WIJJ 141230	METAR WIJJ 141230Z 03003KT 9999 FEW016 28/25 Q1010 NOSIG=
14/04/2021 13:00:00Z	 SAID34 WIJJ 141300	METAR WIJJ 141300Z 02003KT 9999 FEW016 27/24 Q1010 NOSIG=
14/04/2021 13:30:00Z	 SAID34 WIJJ 141330	METAR WIJJ 141330Z 01002KT 9999 FEW015 27/25 Q1010 NOSIG=
14/04/2021 14:00:00Z	 SAID34 WIJJ 141400	METAR WIJJ 141400Z 32003KT 9999 FEW015 27/25 Q1010 NOSIG=
14/04/2021 14:30:00Z	 SAID34 WIJJ 141430	METAR WIJJ 141430Z 06003KT 9999 FEW016 27/25 Q1011 NOSIG=
14/04/2021 15:00:00Z	 SAID34 WIJJ 141500	METAR WIJJ 141500Z 03003KT 9999 FEW016 27/25 Q1011 NOSIG=
14/04/2021 15:30:00Z	 SAID34 WIJJ 141530	METAR WIJJ 141530Z 04001KT 9999 FEW016 27/25 Q1011 NOSIG=
14/04/2021 16:00:00Z	 SAID34 WIJJ 141600	METAR WIJJ 141600Z 08002KT 9999 FEW015 26/25 Q1011 NOSIG=
14/04/2021 16:30:00Z	 SAID34 WIJJ 141630	METAR WIJJ 141630Z 11002KT 9999 FEW015 26/24 Q1011 NOSIG=
14/04/2021 17:00:00Z	 SAID34 WIJJ 141700	METAR WIJJ 141700Z 10001KT 9999 FEW015 26/24 Q1011 NOSIG=
14/04/2021 17:30:00Z	 SAID34 WIJJ 141730	METAR WIJJ 141730Z 25002KT 9999 FEW015 26/24 Q1010 NOSIG=
14/04/2021 18:00:00Z	 SAID34 WIJJ 141800	METAR WIJJ 141800Z 21003KT 9999 FEW015 26/24 Q1010 NOSIG=
14/04/2021 18:30:00Z	 SAID34 WIJJ 141830	METAR WIJJ 141830Z 14001KT 6000 FEW015 25/24 Q1009 NOSIG=
14/04/2021 19:00:00Z	 SAID34 WIJJ 141900	METAR WIJJ 141900Z 33002KT 6000 FEW015 25/24 Q1009 NOSIG=
14/04/2021 19:30:00Z	 SAID34 WIJJ 141930	METAR WIJJ 141930Z 00000KT 8000 FEW015 25/24 Q1009 NOSIG=
14/04/2021 20:00:00Z	 SAID34 WIJJ 142000	METAR WIJJ 142000Z 00000KT 9999 SCT015 25/24 Q1009 NOSIG=
14/04/2021 20:30:00Z	 SAID34 WIJJ 142030	METAR WIJJ 142030Z 14004KT 5000 HZ SCT015 25/24 Q1009 NOSIG=
14/04/2021 21:00:00Z	 SAID34 WIJJ 142100	METAR WIJJ 142100Z 16002KT 5000 HZ SCT015 25/24 Q1009 NOSIG=
14/04/2021 21:30:00Z	 SAID34 WIJJ 142130	METAR WIJJ 142130Z 18002KT 5000 HZ SCT015 25/24 Q1009 NOSIG=
14/04/2021 22:00:00Z	 SAID34 WIJJ 142200	METAR WIJJ 142200Z 16003KT 8000 SCT015 24/23 Q1009 NOSIG=
14/04/2021 22:30:00Z	 SAID34 WIJJ 142230	METAR WIJJ 142230Z 00000KT 9999 SCT016 24/23 Q1009 NOSIG=
14/04/2021 23:00:00Z	 SAID34 WIJJ 142300	METAR WIJJ 142300Z 13001KT 6000 SCT015 24/23 Q1009 NOSIG=
14/04/2021 23:30:00Z	 SAID34 WIJJ 142330	METAR WIJJ 142330Z 20001KT 6000 FEW016 25/23 Q1010 NOSIG=
15/04/2021 00:00:00Z	 SAID34 WIJJ 150000	METAR WIJJ 150000Z 13001KT 9999 FEW016 25/24 Q1010 NOSIG=
15/04/2021 00:30:00Z	 SAID34 WIJJ 150030	METAR WIJJ 150030Z 00000KT 9999 FEW016 26/24 Q1010 NOSIG=
15/04/2021 01:00:00Z	 SAID34 WIJJ 150100	METAR WIJJ 150100Z 00000KT 9999 FEW016 28/24 Q1011 NOSIG=
15/04/2021 01:30:00Z	 SAID34 WIJJ 150130	METAR WIJJ 150130Z 14002KT 9999 FEW016 29/23 Q1012 NOSIG=
15/04/2021 02:00:00Z	 SAID34 WIJJ 150200	METAR WIJJ 150200Z 13002KT 9999 FEW017 30/21 Q1012 NOSIG=
15/04/2021 02:30:00Z	 SAID34 WIJJ 150230	METAR WIJJ 150230Z 12002KT 9999 FEW017 30/21 Q1012 NOSIG=
15/04/2021 03:00:00Z	 SAID34 WIJJ 150300	METAR WIJJ 150300Z 07003KT 030V170 9999 FEW017 31/22 Q1012 NOSIG=
15/04/2021 03:30:00Z	 SAID34 WIJJ 150330	METAR WIJJ 150330Z 01002KT 9999 FEW017 31/22 Q1012 NOSIG=
15/04/2021 04:00:00Z	 SAID34 WIJJ 150400	METAR WIJJ 150400Z 22003KT 9999 FEW017 31/22 Q1011 NOSIG=
15/04/2021 04:30:00Z	 SAID34 WIJJ 150430	METAR WIJJ 150430Z 32004KT 270V020 9999 SCT016 32/22 Q1010 NOSIG=
15/04/2021 05:00:00Z	 SAID34 WIJJ 150500	METAR WIJJ 150500Z 33005KT 9999 SCT016 32/22 Q1010 NOSIG=
15/04/2021 05:30:00Z	 SAID34 WIJJ 150530	METAR WIJJ 150530Z 30002KT 9999 SCT016 32/22 Q1010 NOSIG=
15/04/2021 06:00:00Z	 SAID34 WIJJ 150600	METAR WIJJ 150600Z 00000KT 9999 FEW015CB BKN016 31/23 Q1009 NOSIG RMK CB TO SE AND NW=
15/04/2021 06:30:00Z	 SAID34 WIJJ 150630	METAR WIJJ 150630Z 36006KT 320V060 9999 FEW015CB BKN016 32/23 Q1008 NOSIG RMK CB TO E AND SW=
15/04/2021 07:00:00Z	 SAID34 WIJJ 150700	METAR WIJJ 150700Z 36005KT 310V060 9999 FEW015CB BKN016 33/22 Q1008 NOSIG RMK CB TO NE-SE=
15/04/2021 07:30:00Z	 SAID34 WIJJ 150730	METAR WIJJ 150730Z 02003KT 9999 FEW015CB SCT016 33/23 Q1007 NOSIG RMK CB ALQDS=
15/04/2021 08:00:00Z	 SAID34 WIJJ 150800	METAR WIJJ 150800Z 14004KT 090V150 9999 VCTS FEW015CB SCT016 33/23 Q1007 NOSIG RMK CB TO N, E AND S=
15/04/2021 08:30:00Z	 SAID34 WIJJ 150830	METAR WIJJ 150830Z AUTO 12007KT 070V140 9999 VCTS NCD 33/23 Q1007=
15/04/2021 09:00:00Z	 SAID34 WIJJ 150900	METAR WIJJ 150900Z 08012KT 050V110 9999 VCTS RA SCT014CB BKN015 27/24 Q1007 TEMPO TL0930 4000 TSRA RMK CB ALQDS=
15/04/2021 09:30:00Z	 SAID34 WIJJ 150930	METAR COR WIJJ 150930Z 09008KT 9999 TS FEW014CB BKN015 27/24 Q1007 NOSIG RMK CB ALQDS=
15/04/2021 10:00:00Z	 SAID34 WIJJ 151000	METAR WIJJ 151000Z 13004KT 090V180 9999 SCT015 26/23 Q1008 NOSIG RMK RETS=
15/04/2021 10:30:00Z	 SAID34 WIJJ 151030	METAR WIJJ 151030Z 08003KT 040V120 9999 FEW013CB BKN015 26/23 Q1008 NOSIG RMK CB TO SW AND NW=
15/04/2021 11:00:00Z	 SAID34 WIJJ 151100	METAR WIJJ 151100Z 13002KT 9999 -RA BKN014 26/23 Q1008 NOSIG=
15/04/2021 11:30:00Z	 SAID34 WIJJ 151130	METAR WIJJ 151130Z 16003KT 130V190 9999 -RA BKN014 25/24 Q1009 NOSIG=
15/04/2021 12:00:00Z	 SAID34 WIJJ 151200	METAR WIJJ 151200Z 11003KT 050V160 9999 BKN015 26/24 Q1009 NOSIG=
15/04/2021 12:30:00Z	 SAID34 WIJJ 151230	METAR WIJJ 151230Z 21002KT 9999 FEW015CB SCT016 26/24 Q1010 NOSIG RMK CB TO N=
15/04/2021 13:00:00Z	 SAID34 WIJJ 151300	METAR WIJJ 151300Z 33004KT 300V360 9999 SCT015 26/23 Q1011 NOSIG=
15/04/2021 13:30:00Z	 SAID34 WIJJ 151330	METAR WIJJ 151330Z 33003KT 9999 FEW015 26/23 Q1010 NOSIG=
15/04/2021 14:00:00Z	 SAID34 WIJJ 151400	METAR WIJJ 151400Z 20002KT 9999 FEW015 26/24 Q1011 NOSIG=
15/04/2021 14:30:00Z	 SAID34 WIJJ 151430	METAR WIJJ 151430Z 19002KT 9999 FEW015CB 26/24 Q1011 NOSIG=
15/04/2021 15:00:00Z	 SAID34 WIJJ 151500	METAR WIJJ 151500Z 21003KT 9999 FEW015 26/24 Q1011 NOSIG RMK CB TO N=
15/04/2021 15:30:00Z	 SAID34 WIJJ 151530	METAR WIJJ 151530Z 23004KT 9999 FEW015CB 25/24 Q1012 NOSIG RMK CB TO SW=
15/04/2021 16:00:00Z	 SAID34 WIJJ 151600	METAR WIJJ 151600Z 24004KT 9999 SCT015 26/24 Q1012 NOSIG=
15/04/2021 16:30:00Z	 SAID34 WIJJ 151630	METAR WIJJ 151630Z 25006KT 9999 SCT014 25/24 Q1012 NOSIG=
15/04/2021 17:00:00Z	 SAID34 WIJJ 151700	METAR WIJJ 151700Z 25007KT 220V280 9999 SCT014 25/24 Q1012 NOSIG=
15/04/2021 17:30:00Z	 SAID34 WIJJ 151730	METAR WIJJ 151730Z 24005KT 9999 FEW012CB SCT013 25/24 Q1011 NOSIG RMK CB TO SW=
15/04/2021 18:00:00Z	 SAID34 WIJJ 151800	METAR WIJJ 151800Z 24005KT 210V270 9999 SCT015 25/23 Q1011 NOSIG=
15/04/2021 18:30:00Z	 SAID34 WIJJ 151830	METAR WIJJ 151830Z 22008KT 190V250 9999 SCT014 25/23 Q1011 NOSIG=
15/04/2021 19:00:00Z	 SAID34 WIJJ 151900	METAR WIJJ 151900Z 22008KT 190V260 9999 SCT012 25/23 Q1011 NOSIG=
15/04/2021 19:30:00Z	 SAID34 WIJJ 151930	METAR WIJJ 151930Z 22004KT 190V250 9999 SCT013 25/23 Q1010 NOSIG=
15/04/2021 20:00:00Z	 SAID34 WIJJ 152000	METAR WIJJ 152000Z 24003KT 210V280 9999 SCT013 24/22 Q1010 NOSIG=
15/04/2021 20:30:00Z	 SAID34 WIJJ 152030	METAR WIJJ 152030Z 24004KT 9999 SCT013 24/22 Q1010 NOSIG=
15/04/2021 21:00:00Z	 SAID34 WIJJ 152100	METAR WIJJ 152100Z 27004KT 240V320 9999 SCT013 24/22 Q1010 NOSIG=
15/04/2021 21:30:00Z	 SAID34 WIJJ 152130	METAR WIJJ 152130Z 21002KT 9999 SCT013 24/22 Q1010 NOSIG=
15/04/2021 22:00:00Z	 SAID34 WIJJ 152200	METAR WIJJ 152200Z 20002KT 9999 SCT013 23/22 Q1010 NOSIG=
15/04/2021 22:30:00Z	 SAID34 WIJJ 152230	METAR WIJJ 152230Z 23002KT 9999 FEW013 23/22 Q1010 NOSIG=
15/04/2021 23:00:00Z	 SAID34 WIJJ 152300	METAR WIJJ 152300Z 19002KT 6000 FEW013 23/22 Q1010 NOSIG=
15/04/2021 23:30:00Z	 SAID34 WIJJ 152330	METAR WIJJ 152330Z 20001KT 9999 FEW013 23/22 Q1010 NOSIG=
16/04/2021 00:00:00Z	 SAID34 WIJJ 160000	METAR WIJJ 160000Z 15001KT 9999 FEW013 23/22 Q1010 NOSIG=
16/04/2021 00:30:00Z	 SAID34 WIJJ 160030	METAR WIJJ 160030Z 22002KT 9000 NSC 24/23 Q1011 NOSIG=
16/04/2021 01:00:00Z	 SAID34 WIJJ 160100	METAR WIJJ 160100Z 21003KT 130V280 9999 NSC 25/22 Q1011 NOSIG=
16/04/2021 01:30:00Z	 SAID34 WIJJ 160130	METAR WIJJ 160130Z 19002KT 9999 NSC 26/23 Q1012 NOSIG=
16/04/2021 02:00:00Z	 SAID34 WIJJ 160200	METAR WIJJ 160200Z 19003KT 130V240 9999 NSC 28/23 Q1012 NOSIG=
16/04/2021 02:30:00Z	 SAID34 WIJJ 160230	METAR WIJJ 160230Z 14004KT 100V170 9999 NSC 29/23 Q1012 NOSIG=
16/04/2021 03:00:00Z	 SAID34 WIJJ 160300	METAR WIJJ 160300Z 15005KT 070V210 9999 NSC 29/24 Q1012 NOSIG=
16/04/2021 03:30:00Z	 SAID34 WIJJ 160330	METAR WIJJ 160330Z 13005KT 090V190 9999 FEW015 31/23 Q1011 NOSIG=
16/04/2021 04:00:00Z	 SAID34 WIJJ 160400	METAR WIJJ 160400Z 10005KT 060V150 9999 SCT016 31/23 Q1011 NOSIG=
16/04/2021 04:30:00Z	 SAID34 WIJJ 160430	METAR WIJJ 160430Z 11005KT 050V160 9999 FEW016 32/24 Q1010 NOSIG=
16/04/2021 05:00:00Z	 SAID34 WIJJ 160500	METAR WIJJ 160500Z 10003KT 9999 BKN017 32/24 Q1010 NOSIG=
16/04/2021 05:30:00Z	 SAID34 WIJJ 160530	METAR WIJJ 160530Z 07004KT 020V140 9999 BKN017 33/23 Q1009 NOSIG=
16/04/2021 06:00:00Z	 SAID34 WIJJ 160600	METAR WIJJ 160600Z 15002KT 9999 BKN017 32/23 Q1009 NOSIG=
16/04/2021 06:30:00Z	 SAID34 WIJJ 160630	METAR WIJJ 160630Z 15003KT 9999 BKN017 33/23 Q1008 NOSIG=
16/04/2021 07:00:00Z	 SAID34 WIJJ 160700	METAR WIJJ 160700Z 14002KT 9999 BKN017 33/24 Q1008 NOSIG=
16/04/2021 07:30:00Z	 SAID34 WIJJ 160730	METAR WIJJ 160730Z 13003KT 9999 BKN017 34/24 Q1007 NOSIG=
16/04/2021 08:00:00Z	 SAID34 WIJJ 160800	METAR WIJJ 160800Z 15004KT 090V210 9999 FEW016CB BKN017 32/23 Q1007 NOSIG RMK CB TO N AND NW=
16/04/2021 08:30:00Z	 SAID34 WIJJ 160830	METAR WIJJ 160830Z 05003KT 9999 BKN017 33/23 Q1006 NOSIG=
16/04/2021 09:00:00Z	 SAID34 WIJJ 160900	METAR WIJJ 160900Z 36004KT 340V040 9999 BKN017 32/23 Q1006 NOSIG=
16/04/2021 09:30:00Z	 SAID34 WIJJ 160930	METAR WIJJ 160930Z 11004KT 9999 BKN016 32/23 Q1006 NOSIG=
16/04/2021 10:00:00Z	 SAID34 WIJJ 161000	METAR WIJJ 161000Z 06004KT 9999 BKN016 32/23 Q1007 NOSIG=
16/04/2021 10:30:00Z	 SAID34 WIJJ 161030	METAR WIJJ 161030Z 06002KT 9999 TS FEW014CB SCT015 32/23 Q1007 NOSIG RMK CB TO SW AND NW=
16/04/2021 11:00:00Z	 SAID34 WIJJ 161100	METAR WIJJ 161100Z 29006KT 250V320 9999 TS FEW014CB SCT015 28/23 Q1007 NOSIG RMK CB TO NE AND SW AND W=
16/04/2021 11:30:00Z	 SAID34 WIJJ 161130	METAR WIJJ 161130Z 25008KT 8000 -TSRA FEW013CB BKN015 27/24 Q1008 TEMPO TL1230 2000 TSRA RMK CB TO S-NW=
16/04/2021 12:00:00Z	 SAID34 WIJJ 161200	METAR WIJJ 161200Z 30007KT 250V350 2500 -TSRA FEW012CB BKN014 26/23 Q1008 TEMPO TL1230 2000 TSRA RMK CB TO ALQDS=
16/04/2021 12:30:00Z	 SAID34 WIJJ 161230	METAR WIJJ 161230Z AUTO 34006KT 320V020 8000 -TSRA SCT034 BKN048 OVC070 26/24 Q1009=
16/04/2021 13:00:00Z	 SAID34 WIJJ 161300	METAR WIJJ 161300Z 01005KT 6000 -TSRA FEW015CB FEW016 26/24 Q1010 RMK CB ALL RWY=
16/04/2021 13:30:00Z	 SAID34 WIJJ 161330	METAR WIJJ 161330Z 01003KT 9000 -TSRA FEW015CB FEW016 25/24 Q1010 RMK CB TO NE=
16/04/2021 14:00:00Z	 SAID34 WIJJ 161400	METAR WIJJ 161400Z 07003KT 9000 -TSRA FEW010CB FEW011 25/24 Q1011 RMK CB ALL RWY=
16/04/2021 14:30:00Z	 SAID34 WIJJ 161430	METAR WIJJ 161430Z 33002KT 7000 -RA SCT016 25/24 Q1011 NOSIG=
16/04/2021 15:00:00Z	 SAID34 WIJJ 161500	METAR WIJJ 161500Z 32004KT 5000 -RA FEW015 25/24 Q1011 NOSIG=
16/04/2021 15:30:00Z	 SAID34 WIJJ 161530	METAR WIJJ 161530Z 32002KT 5000 -RA SCT015 25/24 Q1011 NOSIG=
16/04/2021 16:00:00Z	 SAID34 WIJJ 161600	METAR WIJJ 161600Z 11002KT 5000 BR FEW015 25/24 Q1010 NOSIG=
16/04/2021 16:30:00Z	 SAID34 WIJJ 161630	METAR WIJJ 161630Z 04002KT 9999 FEW015 25/24 Q1010 NOSIG=
16/04/2021 17:00:00Z	 SAID34 WIJJ 161700	METAR WIJJ 161700Z 11002KT 9999 FEW015 25/24 Q1010 NOSIG=
16/04/2021 17:30:00Z	 SAID34 WIJJ 161730	METAR WIJJ 161730Z 00000KT 9000 FEW015 25/24 Q1010 NOSIG=
16/04/2021 18:00:00Z	 SAID34 WIJJ 161800	METAR WIJJ 161800Z 00000KT 9999 FEW015 25/24 Q1010 NOSIG=
16/04/2021 18:30:00Z	 SAID34 WIJJ 161830	METAR WIJJ 161830Z 08002KT 9999 FEW015 25/24 Q1010 NOSIG=
16/04/2021 19:00:00Z	 SAID34 WIJJ 161900	METAR WIJJ 161900Z 14002KT 9999 SCT016 25/24 Q1009 NOSIG=
16/04/2021 19:30:00Z	 SAID34 WIJJ 161930	METAR WIJJ 161930Z 18003KT 9999 FEW015 25/24 Q1009 NOSIG=
16/04/2021 20:00:00Z	 SAID34 WIJJ 162000	METAR WIJJ 162000Z 18003KT 9999 FEW015CB FEW016 25/24 Q1010 RMK CB TO S AND N=
16/04/2021 20:30:00Z	 SAID34 WIJJ 162030	METAR WIJJ 162030Z 17003KT 9999 FEW015CB FEW016 25/24 Q1010 RMK CB TO S AND N=
16/04/2021 21:00:00Z	 SAID34 WIJJ 162100	METAR WIJJ 162100Z 13002KT 9999 TS FEW015CB FEW016 26/24 Q1010 RMK CB TO S AND N=
16/04/2021 21:30:00Z	 SAID34 WIJJ 162130	METAR WIJJ 162130Z 16011G22KT 0800 -TSRA FEW010CB SCT011 24/23 Q1010 RMK CB ALL RWY=
16/04/2021 22:00:00Z	 SAID34 WIJJ 162200	METAR WIJJ 162200Z 19005KT 4500 -TSRA FEW011CB SCT012 24/23 Q1011 RMK CB ALL RWY=
16/04/2021 22:30:00Z	 SAID34 WIJJ 162230	METAR WIJJ 162230Z 13005KT 4400 -TSRA FEW015CB SCT016 23/22 Q1011 TEMPO 3000 TSRA SCT010CB OVC010 RMK CB ALL RWY=
16/04/2021 23:00:00Z	 SAID34 WIJJ 162300	METAR WIJJ 162300Z 35002KT 9000 -TSRA FEW015CB FEW016 23/22 Q1011 TEMPO 6000 TSRA FEW010CB OVC010 RMK CB TO NE=
16/04/2021 23:30:00Z	 SAID34 WIJJ 162330	METAR WIJJ 162330Z 01002KT 5000 -TSRA FEW015CB SCT016 23/22 Q1011 TEMPO 5000 -TSRA FEW010CB OVC010 RMK CB ALL RWY=
17/04/2021 00:00:00Z	 SAID34 WIJJ 170000	METAR WIJJ 170000Z 01002KT 3100 -TSRA FEW012CB FEW013 23/23 Q1012 RMK CB ALL RWY=
17/04/2021 00:30:00Z	 SAID34 WIJJ 170030	METAR WIJJ 170030Z 30002KT 5000 -TSRA FEW012CB BKN014 23/23 Q1012 RMK CB TO S AND NE=
17/04/2021 01:00:00Z	 SAID34 WIJJ 170100	METAR WIJJ 170100Z 27002KT 5000 -RA FEW012CB BKN014 23/23 Q1012 RMK CB TO S=
17/04/2021 01:30:00Z	 SAID34 WIJJ 170130	METAR WIJJ 170130Z 31002KT 8000 -RA BKN014 23/23 Q1013 RMK NOSIG=
17/04/2021 02:00:00Z	 SAID34 WIJJ 170200	METAR WIJJ 170200Z 20002KT 8000 -RA BKN014 23/23 Q1013 RMK NOSIG=
17/04/2021 02:30:00Z	 SAID34 WIJJ 170230	METAR WIJJ 170230Z 00000KT 8000 -RA BKN014 24/24 Q1014 RMK NOSIG=
17/04/2021 03:00:00Z	 SAID34 WIJJ 170300	METAR WIJJ 170300Z 18003KT 8000 -RA BKN014 25/24 Q1014 RMK NOSIG=
17/04/2021 03:30:00Z	 SAID34 WIJJ 170330	METAR WIJJ 170330Z 00000KT 9999 -RA BKN013 25/24 Q1013 NOSIG=
17/04/2021 04:00:00Z	 SAID34 WIJJ 170400	METAR WIJJ 170400Z 27004KT 9999 BKN013 26/24 Q1013 NOSIG=
17/04/2021 04:30:00Z	 SAID34 WIJJ 170430	METAR WIJJ 170430Z 26006KT 9999 -RA BKN013 26/24 Q1013 NOSIG=
17/04/2021 05:00:00Z	 SAID34 WIJJ 170500	METAR WIJJ 170500Z 29006KT 9999 -RA BKN013 26/24 Q1013 NOSIG=
17/04/2021 05:30:00Z	 SAID34 WIJJ 170530	METAR WIJJ 170530Z 30007KT 9999 BKN014 26/24 Q1012 RERA NOSIG=
17/04/2021 06:00:00Z	 SAID34 WIJJ 170600	METAR WIJJ 170600Z 32009KT 9999 -RA BKN013 26/24 Q1012 NOSIG=
17/04/2021 06:30:00Z	 SAID34 WIJJ 170630	METAR WIJJ 170630Z 30008KT 9999 BKN013 26/24 Q1012 NOSIG=
17/04/2021 07:00:00Z	 SAID34 WIJJ 170700	METAR WIJJ 170700Z 32016KT 9999 FEW013CB BKN014 25/24 Q1012 NOSIG=
17/04/2021 07:30:00Z	 SAID34 WIJJ 170730	METAR WIJJ 170730Z 29008KT 9999 BKN013 24/23 Q1011 NOSIG=
17/04/2021 08:00:00Z	 SAID34 WIJJ 170800	METAR WIJJ 170800Z 27012KT 9999 FEW013CB BKN015 24/23 Q1011 RMK CB TO SE=
17/04/2021 08:30:00Z	 SAID34 WIJJ 170830	METAR WIJJ 170830Z 27008KT 9999 BKN013 24/23 Q1011 NOSIG=
17/04/2021 09:00:00Z	 SAID34 WIJJ 170900	METAR WIJJ 170900Z 28008KT 9999 -RA BKN014 24/23 Q1011 NOSIG=
17/04/2021 09:30:00Z	 SAID34 WIJJ 170930	METAR WIJJ 170930Z 29004KT 9999 BKN014 24/22 Q1011 NOSIG=
17/04/2021 10:00:00Z	 SAID34 WIJJ 171000	METAR WIJJ 171000Z 28004KT 9999 SCT014 24/22 Q1011 NOSIG=
17/04/2021 10:30:00Z	 SAID34 WIJJ 171030	METAR WIJJ 171030Z 24004KT 9999 SCT015 24/22 Q1011 NOSIG=
17/04/2021 11:30:00Z	 SAID34 WIJJ 171130	METAR WIJJ 171130Z 18002KT 9999 SCT015 24/23 Q1012 NOSIG=
17/04/2021 12:00:00Z	 SAID34 WIJJ 171200	METAR WIJJ 171200Z 09002 9999 SCT015 24/22 Q1012 NOSIG=
17/04/2021 12:30:00Z	 SAID34 WIJJ 171230	METAR WIJJ 171230Z 10002KT 9999 SCT015 24/22 Q1013 NOSIG=
17/04/2021 13:00:00Z	 SAID34 WIJJ 171300	METAR WIJJ 171300Z 13003KT 120V180 9999 SCT015 23/23 Q1013 NOSIG=
17/04/2021 13:30:00Z	 SAID34 WIJJ 171330	METAR WIJJ 171330Z 15002KT 9999 SCT015 23/23 Q1013 NOSIG=
17/04/2021 14:00:00Z	 SAID34 WIJJ 171400	METAR WIJJ 171400Z 22002KT 9999 SCT015 23/23 Q1013 NOSIG=
17/04/2021 14:30:00Z	 SAID34 WIJJ 171430	METAR WIJJ 171430Z 17004KT 9999 SCT015 23/23 Q1013 NOSIG=
17/04/2021 15:00:00Z	 SAID34 WIJJ 171500	METAR WIJJ 171500Z 18003KT 140V220 9999 BKN015 23/22 Q1013 NOSIG=
17/04/2021 15:30:00Z	 SAID34 WIJJ 171530	METAR WIJJ 171530Z 16004KT 9999 BKN015 23/22 Q1013 NOSIG=
17/04/2021 16:00:00Z	 SAID34 WIJJ 171600	METAR WIJJ 171600Z 15003KT 130V190 9999 SCT015 23/22 Q1013 NOSIG=
17/04/2021 16:30:00Z	 SAID34 WIJJ 171630	METAR WIJJ 171630Z 19002KT 9999 BKN015 23/22 Q1012 NOSIG=
17/04/2021 17:00:00Z	 SAID34 WIJJ 171700	METAR WIJJ 171700Z 20002KT 9999 SCT015 23/22 Q1012 NOSIG=
17/04/2021 17:30:00Z	 SAID34 WIJJ 171730	METAR WIJJ 171730Z 20002KT 9999 SCT015 23/22 Q1011 NOSIG=
17/04/2021 18:00:00Z	 SAID34 WIJJ 171800	METAR WIJJ 171800Z 17003KT 150V210 9999 SCT016 23/22 Q1010 NOSIG=
17/04/2021 18:30:00Z	 SAID34 WIJJ 171830	METAR WIJJ 171830Z 23002KT 8000 SCT016 23/22 Q1010 NOSIG=
17/04/2021 19:00:00Z	 SAID34 WIJJ 171900	METAR WIJJ 171900Z 25003KT 9999 BKN015 23/22 Q1010 NOSIG=
17/04/2021 19:30:00Z	 SAID34 WIJJ 171930	METAR WIJJ 171930Z 13002KT 8000 BKN015 23/22 Q1011 NOSIG=
17/04/2021 20:00:00Z	 SAID34 WIJJ 172000	METAR WIJJ 172000Z 00000KT 9999 BKN015 23/22 Q1011 NOSIG=
17/04/2021 20:30:00Z	 SAID34 WIJJ 172030	METAR WIJJ 172030Z 00000KT 9999 BKN015 23/22 Q1011 NOSIG=
17/04/2021 21:00:00Z	 SAID34 WIJJ 172100	METAR WIJJ 172100Z 33005KT 9999 BKN014 23/23 Q1011 NOSIG=
17/04/2021 21:30:00Z	 SAID34 WIJJ 172130	METAR WIJJ 172130Z 32005KT 9999 BKN014 23/23 Q1011 NOSIG=
17/04/2021 22:00:00Z	 SAID34 WIJJ 172200	METAR WIJJ 172200Z 33003KT 9999 SCT015 23/23 Q1011 NOSIG=
17/04/2021 22:30:00Z	 SAID34 WIJJ 172230	METAR WIJJ 172230Z 26002KT 9000 SCT015 23/23 Q1011 NOSIG=
17/04/2021 23:00:00Z	 SAID34 WIJJ 172300	METAR WIJJ 172300Z 13002KT 5000 HZ BKN013 23/23 Q1012 NOSIG=
17/04/2021 23:30:00Z	 SAID34 WIJJ 172330	METAR WIJJ 172330Z 00000KT 5000 HZ BKN013 23/23 Q1012 NOSIG=
18/04/2021 00:00:00Z	 SAID34 WIJJ 180000	METAR WIJJ 180000Z 18002KT 4000 HZ SCT014 23/23 Q1013 NOSIG=
18/04/2021 00:30:00Z	 SAID34 WIJJ 180030	METAR WIJJ 180030Z 26001KT 4000 HZ SCT014 24/23 Q1013 NOSIG=
18/04/2021 01:00:00Z	 SAID34 WIJJ 180100	METAR WIJJ 180100Z 27001KT 8000 SCT010 24/23 Q1013 NOSIG=
18/04/2021 01:30:00Z	 SAID34 WIJJ 180130	METAR WIJJ 180130Z 33001KT 9999 FEW012 25/24 Q1013 NOSIG=
18/04/2021 02:00:00Z	 SAID34 WIJJ 180200	METAR WIJJ 180200Z 29001KT 9999 -RA FEW013 25/24 Q1013 NOSIG=
18/04/2021 02:30:00Z	 SAID34 WIJJ 180230	METAR WIJJ 180230Z 01002KT 9999 FEW014 26/23 Q1013 RERA NOSIG=
18/04/2021 03:00:00Z	 SAID34 WIJJ 180300	METAR WIJJ 180300Z 34003KT 280V030 9999 FEW014 26/24 Q1013 NOSIG=
18/04/2021 03:30:00Z	 SAID34 WIJJ 180330	METAR WIJJ 180330Z 25001KT 9999 FEW015 27/24 Q1013 NOSIG=
18/04/2021 04:00:00Z	 SAID34 WIJJ 180400	METAR WIJJ 180400Z 17001KT 9999 SCT015 27/24 Q1013 NOSIG=
18/04/2021 04:30:00Z	 SAID34 WIJJ 180430	METAR WIJJ 180430Z 12001KT 9999 FEW015 29/24 Q1012 NOSIG=
18/04/2021 05:00:00Z	 SAID34 WIJJ 180500	METAR WIJJ 180500Z 11002KT 9999 FEW015 30/23 Q1012 NOSIG=
18/04/2021 05:30:00Z	 SAID34 WIJJ 180530	METAR WIJJ 180530Z 32002KT 9999 FEW015 31/22 Q1011 NOSIG=
18/04/2021 06:00:00Z	 SAID34 WIJJ 180600	METAR WIJJ 180600Z 32003KT 9999 FEW015 31/22 Q1011 NOSIG=
18/04/2021 06:30:00Z	 SAID34 WIJJ 180630	METAR WIJJ 180630Z 01002KT 9999 FEW015 31/22 Q1010 NOSIG=
18/04/2021 07:00:00Z	 SAID34 WIJJ 180700	METAR WIJJ 180700Z 31002KT 9999 FEW015 31/22 Q1010 NOSIG=
18/04/2021 07:30:00Z	 SAID34 WIJJ 180730	METAR WIJJ 180730Z 34004KT 260V070 9999 FEW015 32/22 Q1009 NOSIG=
18/04/2021 08:00:00Z	 SAID34 WIJJ 180800	METAR WIJJ 180800Z 03004KT 350V070 9999 FEW015 32/21 Q1009 NOSIG=
18/04/2021 08:30:00Z	 SAID34 WIJJ 180830	METAR WIJJ 180830Z 36001KT 9999 SCT015 32/21 Q1009 NOSIG=
18/04/2021 09:00:00Z	 SAID34 WIJJ 180900	METAR WIJJ 180900Z 10004KT 360V150 9999 SCT015 32/22 Q1008 NOSIG=
18/04/2021 09:30:00Z	 SAID34 WIJJ 180930	METAR WIJJ 180930Z 10003KT 070V140 9999 SCT015 31/23 Q1008 NOSIG=
18/04/2021 10:00:00Z	 SAID34 WIJJ 181000	METAR WIJJ 181000Z 14004KT 9999 FEW015 31/23 Q1009 NOSIG=
18/04/2021 10:30:00Z	 SAID34 WIJJ 181030	METAR WIJJ 181030Z 13004KT 9999 FEW015 31/24 Q1009 NOSIG=
18/04/2021 11:00:00Z	 SAID34 WIJJ 181100	METAR WIJJ 181100Z 14004KT 9999 FEW015 30/24 Q1009 NOSIG=
18/04/2021 11:30:00Z	 SAID34 WIJJ 181130	METAR WIJJ 181130Z 12003KT 9999 VV005 29/24 Q1009 NOSIG=
18/04/2021 12:00:00Z	 SAID34 WIJJ 181200	METAR WIJJ 181200Z 10002KT 9999 FEW015 30/24 Q1010 NOSIG=
18/04/2021 12:30:00Z	 SAID34 WIJJ 181230	METAR WIJJ 181230Z 09001KT 9999 FEW017 27/25 Q1010 NOSIG=
18/04/2021 13:00:00Z	 SAID34 WIJJ 181300	METAR WIJJ 181300Z 10002KT 7000 NSC 26/25 Q1010 NOSIG=
18/04/2021 13:30:00Z	 SAID34 WIJJ 181330	METAR WIJJ 181330Z 11001KT 7000 NSC 26/24 Q1010 NOSIG=
18/04/2021 14:00:00Z	 SAID34 WIJJ 181400	METAR WIJJ 181400Z 16001KT 8000 NSC 25/24 Q1011 NOSIG=
18/04/2021 14:30:00Z	 SAID34 WIJJ 181430	METAR WIJJ 181430Z 14002KT 6000 NSC 25/24 Q1011 NOSIG=
18/04/2021 15:00:00Z	 SAID34 WIJJ 181500	METAR WIJJ 181500Z 21001KT 8000 NSC 25/24 Q1011 NOSIG=
18/04/2021 15:30:00Z	 SAID34 WIJJ 181530	METAR WIJJ 181530Z 14002KT 5000 HZ NSC 25/24 Q1011 NOSIG=
18/04/2021 16:00:00Z	 SAID34 WIJJ 181600	METAR WIJJ 181600Z 08002KT 5000 HZ NSC 25/24 Q1011 NOSIG=
18/04/2021 16:30:00Z	 SAID34 WIJJ 181630	METAR WIJJ 181630Z 15001KT 5000 HZ NSC 24/23 Q1011 NOSIG=
18/04/2021 17:00:00Z	 SAID34 WIJJ 181700	METAR WIJJ 181700Z 22002KT 5000 HZ NSC 24/23 Q1011 NOSIG=
18/04/2021 17:30:00Z	 SAID34 WIJJ 181730	METAR WIJJ 181730Z 25002KT 5000 HZ NSC 24/23 Q1011 NOSIG=
18/04/2021 18:00:00Z	 SAID34 WIJJ 181800	METAR WIJJ 181800Z 17002KT 6000 NSC 24/23 Q1011 NOSIG=
18/04/2021 18:30:00Z	 SAID34 WIJJ 181830	METAR WIJJ 181830Z 15002KT 6000 NSC 24/23 Q1010 NOSIG=
18/04/2021 19:00:00Z	 SAID34 WIJJ 181900	METAR WIJJ 181900Z 15001KT 6000 NSC 24/23 Q1010 NOSIG=
18/04/2021 19:30:00Z	 SAID34 WIJJ 181930	METAR WIJJ 181930Z 15002KT 7000 NSC 23/22 Q1010 NOSIG=
18/04/2021 20:00:00Z	 SAID34 WIJJ 182000	METAR WIJJ 182000Z 10003KT 7000 NSC 23/22 Q1009 NOSIG=
18/04/2021 20:30:00Z	 SAID34 WIJJ 182030	METAR WIJJ 182030Z 11002KT 6000 NSC 23/22 Q1009 NOSIG=
18/04/2021 21:00:00Z	 SAID34 WIJJ 182100	METAR WIJJ 182100Z 14001KT 6000 NSC 23/22 Q1010 NOSIG=
18/04/2021 21:30:00Z	 SAID34 WIJJ 182130	METAR WIJJ 182130Z 20004KT 5000 HZ NSC 23/22 Q1010 NOSIG=
18/04/2021 22:00:00Z	 SAID34 WIJJ 182200	METAR WIJJ 182200Z 24003KT 210V290 9999 NSC 23/22 Q1010 NOSIG=
18/04/2021 22:30:00Z	 SAID34 WIJJ 182230	METAR WIJJ 182230Z 25002KT 9999 NSC 23/22 Q1011 NOSIG=
18/04/2021 23:00:00Z	 SAID34 WIJJ 182300	METAR WIJJ 182300Z 15002KT 9999 FEW016 23/22 Q1011 NOSIG=
18/04/2021 23:30:00Z	 SAID34 WIJJ 182330	METAR WIJJ 182330Z 31002KT 9999 FEW016 23/22 Q1011 NOSIG=
19/04/2021 00:00:00Z	 SAID34 WIJJ 190000	METAR WIJJ 190000Z 16001KT 9999 NSC 24/23 Q1011 NOSIG=
19/04/2021 00:30:00Z	 SAID34 WIJJ 190030	METAR WIJJ 190030Z 14002KT 9999 FEW016 26/23 Q1012 NOSIG=
19/04/2021 01:00:00Z	 SAID34 WIJJ 190100	METAR WIJJ 190100Z 15004KT 9999 FEW016 27/24 Q1012 NOSIG=
19/04/2021 01:30:00Z	 SAID34 WIJJ 190130	METAR WIJJ 190130Z 13004KT 9999 FEW016 28/24 Q1012 NOSIG=
19/04/2021 02:00:00Z	 SAID34 WIJJ 190200	METAR WIJJ 190200Z 13005KT 9999 FEW016 29/25 Q1012 NOSIG=
19/04/2021 02:30:00Z	 SAID34 WIJJ 190230	METAR WIJJ 190230Z 16005KT 9999 FEW018 30/25 Q1012 NOSIG=
19/04/2021 03:00:00Z	 SAID34 WIJJ 190300	METAR WIJJ 190300Z 12005KT 9999 FEW018 30/25 Q1012 NOSIG=
19/04/2021 03:30:00Z	 SAID34 WIJJ 190330	METAR WIJJ 190330Z 12003KT 9999 FEW018 31/25 Q1012 NOSIG=
19/04/2021 04:00:00Z	 SAID34 WIJJ 190400	METAR WIJJ 190400Z 15004KT 9999 SCT018 31/25 Q1012 NOSIG=
19/04/2021 04:30:00Z	 SAID34 WIJJ 190430	METAR WIJJ 190430Z AUTO 18003KT 140V220 9999 SCT032 BKN043 BKN050 31/24 Q1011=
19/04/2021 05:00:00Z	 SAID34 WIJJ 190500	METAR WIJJ 190500Z 14003KT 9999 SCT018 32/25 Q1010 NOSIG=
19/04/2021 05:30:00Z	 SAID34 WIJJ 190530	METAR WIJJ 190530Z 20005KT 9999 SCT018 32/25 Q1010 NOSIG=
19/04/2021 06:00:00Z	 SAID34 WIJJ 190600	METAR WIJJ 190600Z 14003KT 9999 SCT018TCU 33/25 Q1009 NOSIG=
19/04/2021 06:30:00Z	 SAID34 WIJJ 190630	METAR WIJJ 190630Z 29003KT 9999 SCT018TCU 32/25 Q1009 NOSIG=
19/04/2021 07:00:00Z	 SAID34 WIJJ 190700	METAR WIJJ 190700Z 02004KT 9999 SCT018 33/25 Q1008 NOSIG=
19/04/2021 07:30:00Z	 SAID34 WIJJ 190730	METAR WIJJ 190730Z 30003KT 9999 SCT018TCU 33/25 Q1007 NOSIG=
19/04/2021 08:00:00Z	 SAID34 WIJJ 190800	METAR WIJJ 190800Z 28004KT 9999 SCT016TCU 33/26 Q1007 NOSIG=
19/04/2021 08:30:00Z	 SAID34 WIJJ 190830	METAR WIJJ 190830Z 20006KT 7000 -RA SCT016TCU 32/26 Q1007=
19/04/2021 09:00:00Z	 SAID34 WIJJ 190900	METAR WIJJ 190900Z 11003KT 6000 -RA FEW015CB FEW016 31/26 Q1007 RMK CB TO N=
19/04/2021 09:30:00Z	 SAID34 WIJJ 190930	METAR WIJJ 190930Z 16008KT 7000 -RA FEW015CB FEW016 29/24 Q1007 RMK CB TO NE=
19/04/2021 10:00:00Z	 SAID34 WIJJ 191000	METAR WIJJ 191000Z 04002KT 9000 -RA FEW015CB FEW016 29/25 Q1007 NOSIG=
19/04/2021 10:30:00Z	 SAID34 WIJJ 191030	METAR WIJJ 191030Z 03005KT 9999 FEW016TCU 30/25 Q1007 NOSIG=
19/04/2021 11:00:00Z	 SAID34 WIJJ 191100	METAR WIJJ 191100Z 03003KT 9999 FEW015CB FEW016 30/26 Q1007 NOSIG RMK CB TO SW=
19/04/2021 11:30:00Z	 SAID34 WIJJ 191130	METAR WIJJ 191130Z 04002KT 9999 FEW015CB FEW016 29/26 Q1007 NOSIG RMK CB TO SW=
19/04/2021 12:00:00Z	 SAID34 WIJJ 191200	METAR WIJJ 191200Z 15003KT 9999 FEW018 29/26 Q1008 NOSIG=
19/04/2021 12:30:00Z	 SAID34 WIJJ 191230	METAR WIJJ 191230Z 06003KT 9999 BKN014 28/26 Q1009 NOSIG=
19/04/2021 13:00:00Z	 SAID34 WIJJ 191300	METAR WIJJ 191300Z 07004KT 9999 FEW016 28/25 Q1009 NOSIG=
19/04/2021 13:30:00Z	 SAID34 WIJJ 191330	METAR WIJJ 191330Z 04002KT 9999 FEW141 27/26 Q1009 NOSIG=
19/04/2021 14:00:00Z	 SAID34 WIJJ 191400	METAR WIJJ 191400Z 07003KT 9999 FEW016 27/25 Q1009 NOSIG=
19/04/2021 14:30:00Z	 SAID34 WIJJ 191430	METAR WIJJ 191430Z 07002KT 9999 FEW016 26/26 Q1010 NOSIG=
19/04/2021 15:00:00Z	 SAID34 WIJJ 191500	METAR WIJJ 191500Z 00000KT 9999 FEW017 27/25 Q1010 NOSIG=
19/04/2021 15:30:00Z	 SAID34 WIJJ 191530	METAR WIJJ 191530Z 13002KT 9999 FEW017 26/25 Q1010 NOSIG=
19/04/2021 16:00:00Z	 SAID34 WIJJ 191600	METAR WIJJ 191600Z VRB00KT 9999 FEW017 27/25 Q1010 NOSIG=
19/04/2021 16:30:00Z	 SAID34 WIJJ 191630	METAR WIJJ 191630Z 07002KT 9999 SCT016 26/25 Q1010 NOSIG=
19/04/2021 17:00:00Z	 SAID34 WIJJ 191700	METAR WIJJ 191700Z 10002KT 9999 SCT017 26/25 Q1010 NOSIG=
19/04/2021 17:30:00Z	 SAID34 WIJJ 191730	METAR WIJJ 191730Z 00000KT 9000 VCTS FEW015CB SCT016 25/25 Q1010 NOSIG RMK CB TO SW-W=
19/04/2021 18:00:00Z	 SAID34 WIJJ 191800	METAR WIJJ 191800Z 17002KT 8000 VCTS SCT015CB 26/25 Q1010 NOSIG RMK CB TO SW-NW=
19/04/2021 21:00:00Z	 SAID34 WIJJ 192100	METAR WIJJ 192100Z 26002KT 7000 SCT015 25/25 Q1009 NOSIG=
19/04/2021 21:30:00Z	 SAID34 WIJJ 192130	METAR WIJJ 192130Z 26002KT 8000 SCT015 25/25 Q1009 NOSIG=
19/04/2021 22:00:00Z	 SAID34 WIJJ 192200	METAR WIJJ 192200Z 24002KT 7000 VCTS SCT015CB 25/25 Q1009 NOSIG RMK CB TO S-NW=
19/04/2021 22:30:00Z	 SAID34 WIJJ 192230	METAR WIJJ 192230Z 23003KT 7000 VCTS SCT015CB BKN016 25/25 Q1009 TEMPO 0800 TSRA SCT010CB OVC012=
19/04/2021 23:00:00Z	 SAID34 WIJJ 192300	METAR WIJJ 192300Z 23007KT 7000 VCTS SCT016CB BKN017 25/25 Q1010 TEMPO 0800 TSRA SCT010CB OVC012 RMK CB ALQDS=
19/04/2021 23:30:00Z	 SAID34 WIJJ 192330	METAR WIJJ 192330Z 18013KT 0300 TSRA OVC010CB 23/23 Q1011 TEMPO 0800 TSRA SCT010CB OVC012 RMK CB ALQDS=
20/04/2021 00:00:00Z	 SAID34 WIJJ 200000	METAR WIJJ 200000Z 17007KT 2600 TSRA OVC010CB 23/22 Q1011 TEMPO FM0020 4000 RA FEW010CB BKN013 RMK CB ALQDS=
20/04/2021 00:30:00Z	 SAID34 WIJJ 200030	METAR WIJJ 200030Z 00000KT 4000 TSRA SCT010CB BKN011 23/22 Q1011 TEMPO TL0100 4000 RA RMK CB ALQDS=
20/04/2021 01:00:00Z	 SAID34 WIJJ 200100	METAR WIJJ 200100Z 04003KT 4000 TSRA SCT010CB BKN011 23/23 Q1013 NOSIG=
20/04/2021 01:30:00Z	 SAID34 WIJJ 200130	METAR WIJJ 200130Z 34003KT 310V010 2000 VCTS RA SCT010CB BKN011 23/23 Q1013 NOSIG RMK TEMPO TL0300 3000 RA=
20/04/2021 02:00:00Z	 SAID34 WIJJ 200200	METAR WIJJ 200200Z 30005KT 6000 -RA FEW010CB BKN011 24/23 Q1013 NOSIG RMK RETS=
20/04/2021 02:30:00Z	 SAID34 WIJJ 200230	METAR COR WIJJ 200230Z 29002KT 6000 RA FEW011CB BKN012 24/23 Q1013 NOSIG RMK CB ALQDS=
20/04/2021 03:00:00Z	 SAID34 WIJJ 200300	METAR WIJJ 200300Z 32003KT 270V350 9999 -RA FEW011CB SCT012 23/23 Q1013 NOSIG RMK CB TO N-NE=
20/04/2021 03:30:00Z	 SAID34 WIJJ 200330	METAR WIJJ 200330Z 01002KT 9999 -RA SCT013 24/23 Q1013 NOSIG=
20/04/2021 04:00:00Z	 SAID34 WIJJ 200400	METAR WIJJ 200400Z 09003KT 040V120 5000 -RA FEW011CB BKN012 24/23 Q1013 NOSIG RMK CB TO N AND SE=
20/04/2021 04:30:00Z	 SAID34 WIJJ 200430	METAR WIJJ 200430Z 06002KT 5000 -RA BKN012 24/24 Q1012 NOSIG=
20/04/2021 05:00:00Z	 SAID34 WIJJ 200500	METAR WIJJ 200500Z 01004KT 6000 -RA BKN012 24/23 Q1012 NOSIG=
20/04/2021 05:30:00Z	 SAID34 WIJJ 200530	METAR WIJJ 200530Z 34005KT 9999 SCT012 25/23 Q1010 NOSIG RMK RERA=
20/04/2021 06:00:00Z	 SAID34 WIJJ 200600	METAR WIJJ 200600Z 29003KT 260V320 9999 BKN012 25/24 Q1010 NOSIG=
20/04/2021 06:30:00Z	 SAID34 WIJJ 200630	METAR WIJJ 200630Z 27003KT 220V320 9999 BKN012 26/24 Q1009 NOSIG=
20/04/2021 07:00:00Z	 SAID34 WIJJ 200700	METAR WIJJ 200700Z 25002KT 9999 BKN013 26/24 Q1009 NOSIG=
20/04/2021 07:30:00Z	 SAID34 WIJJ 200730	METAR WIJJ 200730Z 00000KT 9999 BKN013 26/24 Q1009 NOSIG=
20/04/2021 08:00:00Z	 SAID34 WIJJ 200800	METAR WIJJ 200800Z 00000KT 9999 BKN014 26/24 Q1009 NOSIG=
20/04/2021 08:30:00Z	 SAID34 WIJJ 200830	METAR WIJJ 200830Z 25002KT 9999 BKN015 27/24 Q1008 NOSIG=
20/04/2021 09:00:00Z	 SAID34 WIJJ 200900	METAR WIJJ 200900Z 27004KT 240V310 9999 SCT015 27/24 Q1008 NOSIG=
20/04/2021 09:30:00Z	 SAID34 WIJJ 200930	METAR WIJJ 200930Z 28003KT 250V320 9999 FEW016 27/24 Q1008 NOSIG=
20/04/2021 10:00:00Z	 SAID34 WIJJ 201000	METAR WIJJ 201000Z 22002KT 9999 SCT015 27/24 Q1008 NOSIG=
20/04/2021 10:30:00Z	 SAID34 WIJJ 201030	METAR WIJJ 201030Z 14002KT 9999 FEW016 27/24 Q1008 NOSIG=
20/04/2021 11:00:00Z	 SAID34 WIJJ 201100	METAR WIJJ 201100Z 12002KT 9999 FEW016 27/24 Q1008 NOSIG=
20/04/2021 11:30:00Z	 SAID34 WIJJ 201130	METAR WIJJ 201130Z 05003KT 8000 SCT015 26/24 Q1009 NOSIG=
20/04/2021 12:00:00Z	 SAID34 WIJJ 201200	METAR WIJJ 201200Z 05003KT 8000 FEW016 26/24 Q1009 NOSIG=
20/04/2021 12:30:00Z	 SAID34 WIJJ 201230	METAR WIJJ 201230Z 05003KT 9999 FEW016 26/24 Q1010 NOSIG=
20/04/2021 13:00:00Z	 SAID34 WIJJ 201300	METAR WIJJ 201300Z 06004KT 9999 FEW016 26/24 Q1010 NOSIG=
20/04/2021 13:30:00Z	 SAID34 WIJJ 201330	METAR WIJJ 201330Z 10003KT 8000 FEW015 25/24 Q1010 NOSIG=
20/04/2021 14:00:00Z	 SAID34 WIJJ 201400	METAR WIJJ 201400Z 13001KT 4000 HZ FEW015 25/24 Q1011 NOSIG=
20/04/2021 14:30:00Z	 SAID34 WIJJ 201430	METAR WIJJ 201430Z 14001KT 2800 HZ FEW015 25/24 Q1011 NOSIG=
20/04/2021 15:00:00Z	 SAID34 WIJJ 201500	METAR WIJJ 201500Z 12002KT 4000 BR FEW015 25/24 Q1011 NOSIG=
20/04/2021 15:30:00Z	 SAID34 WIJJ 201530	METAR WIJJ 201530Z 10002KT 3000 HZ FEW015 25/24 Q1011 NOSIG=
20/04/2021 16:00:00Z	 SAID34 WIJJ 201600	METAR WIJJ 201600Z 10003KT 3000 HZ FEW014 24/23 Q1011 NOSIG=
20/04/2021 16:30:00Z	 SAID34 WIJJ 201630	METAR WIJJ 201630Z 15003KT 4000 HZ FEW014 24/23 Q1011 NOSIG=
20/04/2021 17:00:00Z	 SAID34 WIJJ 201700	METAR WIJJ 201700Z 18002KT 5000 HZ FEW014 24/23 Q1011 NOSIG=
20/04/2021 17:30:00Z	 SAID34 WIJJ 201730	METAR WIJJ 201730Z 19002KT 6000 FEW014 24/23 Q1010 NOSIG=
20/04/2021 18:00:00Z	 SAID34 WIJJ 201800	METAR WIJJ 201800Z 27002KT 5000 HZ SCT014 24/23 Q1010 NOSIG=
20/04/2021 18:30:00Z	 SAID34 WIJJ 201830	METAR WIJJ 201830Z 12002KT 5000 HZ SCT013 24/23 Q1010 NOSIG=
20/04/2021 19:00:00Z	 SAID34 WIJJ 201900	METAR WIJJ 201900Z 14002KT 5000 HZ SCT013 24/23 Q1010 NOSIG=
20/04/2021 19:30:00Z	 SAID34 WIJJ 201930	METAR WIJJ 201930Z 05002KT 5000 HZ SCT013 24/23 Q1010 NOSIG=
20/04/2021 20:00:00Z	 SAID34 WIJJ 202000	METAR WIJJ 202000Z 02002KT 3500 HZ SCT013 24/23 Q1009 NOSIG=
20/04/2021 20:30:00Z	 SAID34 WIJJ 202030	METAR WIJJ 202030Z 36002KT 2000 BR SCT010 23/23 Q1009 NOSIG=
20/04/2021 21:00:00Z	 SAID34 WIJJ 202100	METAR WIJJ 202100Z 13001KT 1400 BR SCT007 24/23 Q1009 NOSIG=
20/04/2021 21:30:00Z	 SAID34 WIJJ 202130	METAR WIJJ 202130Z 12003KT 2000 BR VV005 23/23 Q1009 NOSIG=
20/04/2021 22:00:00Z	 SAID34 WIJJ 202200	METAR WIJJ 202200Z 12001KT 1000 FG SCT005 23/23 Q1010 NOSIG=
20/04/2021 22:30:00Z	 SAID34 WIJJ 202230	METAR WIJJ 202230Z 18001KT 0100 FG OVC003 23/23 Q1010 NOSIG=
20/04/2021 23:00:00Z	 SAID34 WIJJ 202300	METAR WIJJ 202300Z 13001KT 0050 FG OVC003 23/23 Q1010 NOSIG=
20/04/2021 23:30:00Z	 SAID34 WIJJ 202330	METAR WIJJ 202330Z 23001KT 0050 FG OVC003 23/23 Q1011 TEMPO TL0200 1000 FG OVC010=
21/04/2021 00:00:00Z	 SAID34 WIJJ 210000	METAR WIJJ 210000Z 16002KT 0800 FG SCT006 23/23 Q1011 NOSIG=
21/04/2021 00:30:00Z	 SAID34 WIJJ 210030	METAR WIJJ 210030Z 15003KT 120V190 7000 FEW015 24/23 Q1011 NOSIG=
21/04/2021 01:00:00Z	 SAID34 WIJJ 210100	METAR WIJJ 210100Z 16006KT 9999 FEW012 25/24 Q1011 NOSIG=
21/04/2021 02:00:00Z	 SAID34 WIJJ 210200	METAR WIJJ 210200Z 14005KT 110V190 9999 NSC 28/25 Q1012 NOSIG=
21/04/2021 02:30:00Z	 SAID34 WIJJ 210230	METAR WIJJ 210230Z 14005KT 110V190 9999 FEW014 29/25 Q1012 NOSIG=
21/04/2021 03:00:00Z	 SAID34 WIJJ 210300	METAR WIJJ 210300Z 16007KT 130V190 9999 SCT015 29/24 Q1011 NOSIG=
21/04/2021 03:30:00Z	 SAID34 WIJJ 210330	METAR WIJJ 210330Z 15005KT 110V190 9999 BKN016 30/25 Q1011 NOSIG=
21/04/2021 04:00:00Z	 SAID34 WIJJ 210400	METAR WIJJ 210400Z 13006KT 080V160 9999 BKN016 31/24 Q1011 NOSIG=
21/04/2021 04:30:00Z	 SAID34 WIJJ 210430	METAR WIJJ 210430Z 14005KT 100V190 9999 BKN016 31/24 Q1010 NOSIG=
21/04/2021 05:30:00Z	 SAID34 WIJJ 210530	METAR WIJJ 210530Z 14004KT 100V200 9999 BKN017 32/24 Q1010 NOSIG=
21/04/2021 06:00:00Z	 SAID34 WIJJ 210600	METAR WIJJ 210600Z 16005KT 120V190 9999 BKN017 32/25 Q1009 NOSIG=
21/04/2021 06:30:00Z	 SAID34 WIJJ 210630	METAR WIJJ 210630Z 10005KT 050V160 9999 SCT018 32/22 Q1008 NOSIG=
21/04/2021 07:00:00Z	 SAID34 WIJJ 210700	METAR WIJJ 210700Z 15005KT 090V220 9999 BKN018 33/23 Q1008 NOSIG=
21/04/2021 07:30:00Z	 SAID34 WIJJ 210730	METAR WIJJ 210730Z 16005KT 120V190 9999 SCT018 33/23 Q1007 NOSIG=
21/04/2021 08:00:00Z	 SAID34 WIJJ 210800	METAR WIJJ 210800Z 12006KT 060V150 9999 SCT018 33/23 Q1007 NOSIG=
21/04/2021 08:30:00Z	 SAID34 WIJJ 210830	METAR WIJJ 210830Z 17003KT 100V250 9999 SCT018 33/22 Q1007 NOSIG=
21/04/2021 09:00:00Z	 SAID34 WIJJ 210900	METAR WIJJ 210900Z 15003KT 110V230 9999 SCT018 33/23 Q1006 NOSIG=
21/04/2021 09:30:00Z	 SAID34 WIJJ 210930	METAR WIJJ 210930Z 15003KT 090V250 9999 SCT018 34/22 Q1006 NOSIG=
21/04/2021 10:00:00Z	 SAID34 WIJJ 211000	METAR WIJJ 211000Z 14006KT 9999 SCT018 33/24 Q1006 NOSIG=
21/04/2021 10:30:00Z	 SAID34 WIJJ 211030	METAR WIJJ 211030Z 16003KT 9999 FEW018 31/24 Q1007 NOSIG=
21/04/2021 11:00:00Z	 SAID34 WIJJ 211100	METAR WIJJ 211100Z 14003KT 8000 FEW018 30/25 Q1008 NOSIG=
21/04/2021 11:30:00Z	 SAID34 WIJJ 211130	METAR WIJJ 211130Z 14002KT 6000 FEW018 30/24 Q1008 NOSIG=
21/04/2021 12:00:00Z	 SAID34 WIJJ 211200	METAR WIJJ 211200Z AUTO 08005KT 9000 BKN049 29/25 Q1009=
21/04/2021 12:30:00Z	 SAID34 WIJJ 211230	METAR WIJJ 211230Z 06002KT 9999 FEW015CB FEW016 29/24 Q1009=
21/04/2021 13:00:00Z	 SAID34 WIJJ 211300	METAR WIJJ 211300Z 05002KT 9999 FEW016 29/26 Q1009 NOSIG=
21/04/2021 13:30:00Z	 SAID34 WIJJ 211330	METAR WIJJ 211330Z 01002KT 9999 FEW016 29/26 Q1009 NOSIG=
21/04/2021 14:00:00Z	 SAID34 WIJJ 211400	METAR WIJJ 211400Z 04003KT 9999 FEW016 29/26 Q1010 NOSIG=
21/04/2021 14:30:00Z	 SAID34 WIJJ 211430	METAR WIJJ 211430Z 05004KT 9999 FEW016 28/26 Q1010 NOSIG=
21/04/2021 15:00:00Z	 SAID34 WIJJ 211500	METAR WIJJ 211500Z 07003KT 9999 FEW016 28/25 Q1011 NOSIG=
21/04/2021 15:30:00Z	 SAID34 WIJJ 211530	METAR WIJJ 211530Z AUTO VRB02KT 9999 SCT050 27/25 Q1011=
21/04/2021 16:00:00Z	 SAID34 WIJJ 211600	METAR WIJJ 211600Z 08003KT 9999 FEW016 28/25 Q1011 NOSIG=
21/04/2021 16:30:00Z	 SAID34 WIJJ 211630	METAR WIJJ 211630Z 08003KT 9999 FEW016 27/25 Q1011 NOSIG=
21/04/2021 17:00:00Z	 SAID34 WIJJ 211700	METAR WIJJ 211700Z 09003KT 9999 FEW016 27/25 Q1010 NOSIG=
21/04/2021 17:30:00Z	 SAID34 WIJJ 211730	METAR WIJJ 211730Z 10002KT 9999 FEW016 26/25 Q1010 NOSIG=
21/04/2021 18:00:00Z	 SAID34 WIJJ 211800	METAR WIJJ 211800Z 14002KT 9999 FEW016 26/25 Q1010 NOSIG=
21/04/2021 18:30:00Z	 SAID34 WIJJ 211830	METAR WIJJ 211830Z 11004KT 9000 FEW016 26/25 Q1009 NOSIG=
21/04/2021 19:00:00Z	 SAID34 WIJJ 211900	METAR WIJJ 211900Z 12003KT 9999 FEW016 26/24 Q1008 NOSIG=
21/04/2021 19:30:00Z	 SAID34 WIJJ 211930	METAR WIJJ 211930Z 13002KT 9999 FEW026 26/24 Q1009 NOSIG=
21/04/2021 20:00:00Z	 SAID34 WIJJ 212000	METAR WIJJ 212000Z 18003KT 9999 FEW016 25/24 Q1009 NOSIG=
21/04/2021 20:30:00Z	 SAID34 WIJJ 212030	METAR WIJJ 212030Z 17003KT 9999 FEW016 25/24 Q1009 NOSIG=
21/04/2021 21:00:00Z	 SAID34 WIJJ 212100	METAR WIJJ 212100Z 15002KT 9999 FEW016 25/24 Q1009 NOSIG=
21/04/2021 21:30:00Z	 SAID34 WIJJ 212130	METAR WIJJ 212130Z 13002KT 9999 FEW016 25/24 Q1008 NOSIG=
21/04/2021 22:00:00Z	 SAID34 WIJJ 212200	METAR WIJJ 212200Z 10002KT 6000 FEW016 25/24 Q1009 NOSIG=
21/04/2021 22:30:00Z	 SAID34 WIJJ 212230	METAR WIJJ 212230Z 10003KT 6000 FEW016 25/24 Q1009 NOSIG=
21/04/2021 23:00:00Z	 SAID34 WIJJ 212300	METAR WIJJ 212300Z 15001KT 5000 HZ FEW016 25/24 Q1009 NOSIG=
21/04/2021 23:30:00Z	 SAID34 WIJJ 212330	METAR WIJJ 212330Z 17002KT 4400 HZ FEW016 25/24 Q1010 NOSIG=
22/04/2021 00:00:00Z	 SAID34 WIJJ 220000	METAR WIJJ 220000Z 17003KT 9000 FEW016 25/24 Q1010 NOSIG=
22/04/2021 00:30:00Z	 SAID34 WIJJ 220030	METAR WIJJ 220030Z 14004KT 9999 FEW016 27/26 Q1011 NOSIG=
22/04/2021 01:00:00Z	 SAID34 WIJJ 220100	METAR WIJJ 220100Z 13005KT 9999 FEW017 27/25 Q1011 NOSIG=
22/04/2021 01:30:00Z	 SAID34 WIJJ 220130	METAR WIJJ 220130Z 12003KT 9999 FEW017 29/26 Q1011 NOSIG=
22/04/2021 02:00:00Z	 SAID34 WIJJ 220200	METAR WIJJ 220200Z 12005KT 9999 FEW013 29/25 Q1012 NOSIG=
22/04/2021 02:30:00Z	 SAID34 WIJJ 220230	METAR WIJJ 220230Z 12005KT 9999 FEW013 31/26 Q1012 NOSIG=
22/04/2021 03:00:00Z	 SAID34 WIJJ 220300	METAR WIJJ 220300Z 16007KT 9999 SCT013 30/25 Q1012 NOSIG=
22/04/2021 03:30:00Z	 SAID34 WIJJ 220330	METAR WIJJ 220330Z 13007KT 9999 SCT013 30/25 Q1011 NOSIG=
22/04/2021 04:00:00Z	 SAID34 WIJJ 220400	METAR WIJJ 220400Z 15006KT 9999 SCT013 31/25 Q1011 NOSIG=
22/04/2021 04:30:00Z	 SAID34 WIJJ 220430	METAR WIJJ 220430Z 15005KT 9999 BKN012 31/25 Q1010 NOSIG=
22/04/2021 05:00:00Z	 SAID34 WIJJ 220500	METAR WIJJ 220500Z 16005KT 9999 SCT012 32/23 Q1010 NOSIG=
22/04/2021 05:30:00Z	 SAID34 WIJJ 220530	METAR WIJJ 220530Z 18007KT 9999 SCT013 32/24 Q1009 NOSIG=
22/04/2021 06:00:00Z	 SAID34 WIJJ 220600	METAR WIJJ 220600Z 23007KT 9999 FEW014CB SCT015 32/24 Q1009 NOSIG RMK CB TO NW=
22/04/2021 06:30:00Z	 SAID34 WIJJ 220630	METAR WIJJ 220630Z 21007KT 9999 SCT014CB BKN015 31/25 Q1008 NOSIG RMK CB TO NW-NE=
22/04/2021 07:00:00Z	 SAID34 WIJJ 220700	METAR WIJJ 220700Z 25010KT 9999 SCT016 31/25 Q1008 NOSIG=
22/04/2021 07:30:00Z	 SAID34 WIJJ 220730	METAR WIJJ 220730Z 25009KT 9999 SCT015CB BKN016 30/26 Q1008 NOSIG RMK CB TO NE-S=
22/04/2021 08:00:00Z	 SAID34 WIJJ 220800	METAR WIJJ 220800Z 26010KT 9999 SCT015CB BKN016 30/24 Q1008 NOSIG RMK CB TO NE-S=
22/04/2021 08:30:00Z	 SAID34 WIJJ 220830	METAR WIJJ 220830Z 30008KT 9999 SCT015CB BKN016 29/25 Q1008 TEMPO 3000 TSRA SCT010CB OVC010 RMK CB TO NE-S=
22/04/2021 09:00:00Z	 SAID34 WIJJ 220900	METAR WIJJ 220900Z 32005KT 9999 VCTS SCT017CB 29/25 Q1008 TEMPO 3000 TSRA SCT010CB OVC010 RMK CB TO N-SE=
22/04/2021 09:30:00Z	 SAID34 WIJJ 220930	METAR WIJJ 220930Z 02005KT 9999 FEW016CB BKN017 27/25 Q1008 NOSIG RMK CB TO SE=
22/04/2021 10:00:00Z	 SAID34 WIJJ 221000	METAR WIJJ 221000Z 03005KT 9999 BKN016CB 27/24 Q1009 NOSIG RMK CB TO SE=
22/04/2021 10:30:00Z	 SAID34 WIJJ 221030	METAR WIJJ 221030Z 06005KT 9999 BKN016CB 25/25 Q1009 NOSIG RMK CB TO SE=
22/04/2021 11:00:00Z	 SAID34 WIJJ 221100	METAR WIJJ 221100Z 06003KT 9999 FEW012CB BKN013 26/24 Q1010 NOSIG RMK CB TO SE=
22/04/2021 11:30:00Z	 SAID34 WIJJ 221130	METAR WIJJ 221130Z 10002KT 9999 FEW013CB BKN014 25/25 Q1010 NOSIG RMK CB TO SE=
22/04/2021 12:00:00Z	 SAID34 WIJJ 221200	METAR WIJJ 221200Z 12002KT 9999 SCT015CB 26/24 Q1010 NOSIG RMK CB TO SE=
22/04/2021 12:30:00Z	 SAID34 WIJJ 221230	METAR WIJJ 221230Z 14003KT 110V180 9999 SCT015 25/24 Q1010 NOSIG=
22/04/2021 13:00:00Z	 SAID34 WIJJ 221300	METAR WIJJ 221300Z 18002KT 9999 SCT015 25/24 Q1010 NOSIG=
22/04/2021 13:30:00Z	 SAID34 WIJJ 221330	METAR WIJJ 221330Z 28002KT 9999 SCT015 25/24 Q1011 NOSIG=
22/04/2021 14:00:00Z	 SAID34 WIJJ 221400	METAR WIJJ 221400Z 00000KT 9999 SCT016 25/24 Q1011 NOSIG=
22/04/2021 14:30:00Z	 SAID34 WIJJ 221430	METAR WIJJ 221430Z 16002KT 8000 SCT015 25/24 Q1011 NOSIG=
22/04/2021 15:00:00Z	 SAID34 WIJJ 221500	METAR WIJJ 221500Z 27002KT 9999 SCT016 24/24 Q1011 NOSIG=
22/04/2021 15:30:00Z	 SAID34 WIJJ 221530	METAR WIJJ 221530Z 00000KT 9999 SCT016 25/24 Q1012 NOSIG=
22/04/2021 16:00:00Z	 SAID34 WIJJ 221600	METAR WIJJ 221600Z 11003KT 6000 SCT016 25/24 Q1012 NOSIG=
22/04/2021 16:30:00Z	 SAID34 WIJJ 221630	METAR WIJJ 221630Z 10002KT 5000 HZ SCT015 25/24 Q1012 NOSIG=
22/04/2021 17:00:00Z	 SAID34 WIJJ 221700	METAR COR WIJJ 221700Z 09005KT 5000 HZ SCT016 25/24 Q1011 NOSIG=
22/04/2021 17:30:00Z	 SAID34 WIJJ 221730	METAR WIJJ 221730Z 08002KT 4000 HZ SCT015 25/24 Q1011 NOSIG=
22/04/2021 18:00:00Z	 SAID34 WIJJ 221800	METAR WIJJ 221800Z 16003KT 2000 BR FEW016 24/23 Q1010 NOSIG=
22/04/2021 18:30:00Z	 SAID34 WIJJ 221830	METAR WIJJ 221830Z 00000KT 2500 BR SCT016 24/23 Q1010 NOSIG=
22/04/2021 19:00:00Z	 SAID34 WIJJ 221900	METAR WIJJ 221900Z 00000KT 4000 HZ SCT015 24/24 Q1010 NOSIG=
22/04/2021 19:30:00Z	 SAID34 WIJJ 221930	METAR WIJJ 221930Z 00000KT 3500 HZ SCT015 24/24 Q1010 NOSIG=
22/04/2021 20:00:00Z	 SAID34 WIJJ 222000	METAR WIJJ 222000Z 00000KT 3000 BR BKN012 24/24 Q1009 NOSIG=
22/04/2021 20:30:00Z	 SAID34 WIJJ 222030	METAR WIJJ 222030Z 14002KT 2500 BR BKN012 24/23 Q1009 NOSIG=
22/04/2021 21:00:00Z	 SAID34 WIJJ 222100	METAR WIJJ 222100Z 12003KT 0500 FG VV008 24/23 Q1009 NOSIG=
22/04/2021 21:30:00Z	 SAID34 WIJJ 222130	METAR WIJJ 222130Z 25002KT 0400 FG BKN008 24/23 Q1009 NOSIG=
22/04/2021 22:00:00Z	 SAID34 WIJJ 222200	METAR WIJJ 222200Z 30002KT 0900 FG BKN010 24/23 Q1009 NOSIG=
22/04/2021 22:30:00Z	 SAID34 WIJJ 222230	METAR WIJJ 222230Z 32002KT 3000 HZ BKN010 24/24 Q1009 NOSIG=
22/04/2021 23:00:00Z	 SAID34 WIJJ 222300	METAR WIJJ 222300Z 30002KT 2000 BR BKN010 24/24 Q1010 NOSIG=
23/04/2021 00:00:00Z	 SAID34 WIJJ 230000	METAR WIJJ 230000Z 18002KT 0400 FG BKN010 24/24 Q1011 NOSIG=
23/04/2021 00:30:00Z	 SAID34 WIJJ 230030	METAR WIJJ 230030Z 25002KT 0500 FG OVC006 24/24 Q1011 NOSIG=
23/04/2021 01:00:00Z	 SAID34 WIJJ 230100	METAR WIJJ 230100Z 24002KT 3000 BR OVC008 25/24 Q1012 NOSIG=
23/04/2021 01:30:00Z	 SAID34 WIJJ 230130	METAR WIJJ 230130Z 18002KT 6000 FEW010 26/24 Q1012 NOSIG=
23/04/2021 02:00:00Z	 SAID34 WIJJ 230200	METAR WIJJ 230200Z 21003KT 170V240 8000 FEW013 27/24 Q1012 NOSIG=
23/04/2021 02:30:00Z	 SAID34 WIJJ 230230	METAR WIJJ 230230Z 19002KT 9999 FEW013 28/24 Q1012 NOSIG=
23/04/2021 03:00:00Z	 SAID34 WIJJ 230300	METAR WIJJ 230300Z 16003KT 110V240 9999 FEW014 28/24 Q1012 NOSIG=
23/04/2021 03:19:00Z	 SAID34 WIJJ 230319	METAR WIJJ 230319Z 13003KT 9999 FEW014 30/24 Q1011 NOSIG=
23/04/2021 03:30:00Z	 SAID34 WIJJ 230330	METAR WIJJ 230330Z 13003KT 9999 FEW014 30/24 Q1011 NOSIG=
23/04/2021 04:00:00Z	 SAID34 WIJJ 230400	METAR WIJJ 230400Z 17004KT 110V260 9999 FEW014 30/24 Q1011 NOSIG=
23/04/2021 04:30:00Z	 SAID34 WIJJ 230430	METAR WIJJ 230430Z AUTO VRB03KT 9999 FEW027 31/22 Q1010=
23/04/2021 05:00:00Z	 SAID34 WIJJ 230500	METAR WIJJ 230500Z 13002KT 9999 SCT015 31/24 Q1010 NOSIG=
23/04/2021 05:30:00Z	 SAID34 WIJJ 230530	METAR WIJJ 230530Z 15003KT 050V220 9999 SCT015 32/24 Q1009 NOSIG=
23/04/2021 06:00:00Z	 SAID34 WIJJ 230600	METAR WIJJ 230600Z 16003KT 9999 SCT015 32/23 Q1009 NOSIG=
23/04/2021 06:30:00Z	 SAID34 WIJJ 230630	METAR WIJJ 230630Z 18004KT 120V260 9999 SCT015 32/24 Q1008 NOSIG=
23/04/2021 07:00:00Z	 SAID34 WIJJ 230700	METAR WIJJ 230700Z 08003KT 9999 SCT015 32/24 Q1007 NOSIG=
23/04/2021 07:30:00Z	 SAID34 WIJJ 230730	METAR WIJJ 230730Z 14004KT 100V190 9999 SCT015 33/24 Q1007 NOSIG=
23/04/2021 08:00:00Z	 SAID34 WIJJ 230800	METAR WIJJ 230800Z 14004KT 050V190 9999 SCT015 32/24 Q1006 NOSIG=
23/04/2021 08:30:00Z	 SAID34 WIJJ 230830	METAR WIJJ 230830Z 07003KT 010V150 9999 SCT015 32/23 Q1006 NOSIG=
23/04/2021 09:00:00Z	 SAID34 WIJJ 230900	METAR WIJJ 230900Z 11003KT 070V170 9999 SCT015 33/23 Q1006 NOSIG=
23/04/2021 09:30:00Z	 SAID34 WIJJ 230930	METAR WIJJ 230930Z 11007KT 090V160 9999 SCT015 33/23 Q1006 NOSIG=
23/04/2021 10:00:00Z	 SAID34 WIJJ 231000	METAR WIJJ 231000Z 14005KT 9999 SCT015 33/24 Q1007 NOSIG=
23/04/2021 10:30:00Z	 SAID34 WIJJ 231030	METAR WIJJ 231030Z 14003KT 110V170 9999 FEW015 32/24 Q1007 NOSIG=
23/04/2021 11:00:00Z	 SAID34 WIJJ 231100	METAR WIJJ 231100Z 15004KT 9999 FEW015CB 32/24 Q1007 NOSIG RMK CB TO W=
23/04/2021 11:30:00Z	 SAID34 WIJJ 231130	METAR WIJJ 231130Z 11004KT 9999 FEW015CB 30/24 Q1007 NOSIG RMK CB TO W=
23/04/2021 12:00:00Z	 SAID34 WIJJ 231200	METAR WIJJ 231200Z 13002KT 9999 FEW015 31/25 Q1008 NOSIG RMK CB TO SW=
23/04/2021 12:30:00Z	 SAID34 WIJJ 231230	METAR WIJJ 231230Z 12002KT 9999 FEW015 29/24 Q1009 NOSIG=
23/04/2021 13:00:00Z	 SAID34 WIJJ 231300	METAR WIJJ 231300Z 16002KT 9000 NSC 28/24 Q1009 NOSIG=
23/04/2021 13:30:00Z	 SAID34 WIJJ 231330	METAR WIJJ 231330Z 13002KT 9000 NSC 28/25 Q1009 NOSIG=
23/04/2021 14:00:00Z	 SAID34 WIJJ 231400	METAR WIJJ 231400Z 09002KT 9999 NSC 28/25 Q1010 NOSIG=
23/04/2021 14:30:00Z	 SAID34 WIJJ 231430	METAR WIJJ 231430Z 13001KT 8000 NSC 27/25 Q1010 NOSIG=
23/04/2021 15:00:00Z	 SAID34 WIJJ 231500	METAR WIJJ 231500Z 13002KT 8000 NSC 27/24 Q1010 NOSIG=
23/04/2021 15:30:00Z	 SAID34 WIJJ 231530	METAR WIJJ 231530Z 11002KT 6000 FEW016CB 27/25 Q1010 NOSIG RMK CB TO SE=
23/04/2021 16:00:00Z	 SAID34 WIJJ 231600	METAR WIJJ 231600Z 12004KT 9999 FEW016 27/25 Q1010 NOSIG=
23/04/2021 16:30:00Z	 SAID34 WIJJ 231630	METAR WIJJ 231630Z 14006KT 9000 FEW016 27/25 Q1010 NOSIG=
23/04/2021 17:00:00Z	 SAID34 WIJJ 231700	METAR WIJJ 231700Z 14005KT 8000 FEW016 26/25 Q1010 NOSIG=
23/04/2021 17:30:00Z	 SAID34 WIJJ 231730	METAR WIJJ 231730Z 15005KT 120V190 9999 FEW016 26/24 Q1010 NOSIG=
23/04/2021 18:00:00Z	 SAID34 WIJJ 231800	METAR WIJJ 231800Z 14007KT 9999 FEW016 25/23 Q1010 NOSIG=
23/04/2021 18:30:00Z	 SAID34 WIJJ 231830	METAR WIJJ 231830Z 15005KT 9999 FEW016 25/23 Q1010 NOSIG=
23/04/2021 19:00:00Z	 SAID34 WIJJ 231900	METAR WIJJ 231900Z 16004KT 9999 FEW008 24/22 Q1009 NOSIG=
23/04/2021 19:30:00Z	 SAID34 WIJJ 231930	METAR WIJJ 231930Z 17003KT 120V200 9999 FEW015 24/22 Q1009 NOSIG=
23/04/2021 20:00:00Z	 SAID34 WIJJ 232000	METAR WIJJ 232000Z 15003KT 9999 FEW015 24/22 Q1009 NOSIG=
23/04/2021 20:30:00Z	 SAID34 WIJJ 232030	METAR WIJJ 232030Z 15003KT 120V200 9999 FEW015 23/22 Q1009 NOSIG=
23/04/2021 21:00:00Z	 SAID34 WIJJ 232100	METAR WIJJ 232100Z 15003KT 100V210 9999 FEW016CB 23/22 Q1009 NOSIG RMK CB TO NE=
23/04/2021 21:30:00Z	 SAID34 WIJJ 232130	METAR WIJJ 232130Z 17002KT 9999 FEW015 23/22 Q1009 NOSIG=
23/04/2021 22:00:00Z	 SAID34 WIJJ 232200	METAR WIJJ 232200Z 12003KT 9999 FEW015 23/22 Q1009 NOSIG=
23/04/2021 22:30:00Z	 SAID34 WIJJ 232230	METAR WIJJ 232230Z 09002KT 9999 FEW015 23/22 Q1009 NOSIG=
23/04/2021 23:00:00Z	 SAID34 WIJJ 232300	METAR WIJJ 232300Z 05002KT 9999 FEW016 23/22 Q1009 NOSIG=
23/04/2021 23:30:00Z	 SAID34 WIJJ 232330	METAR COR WIJJ 232330Z 03003KT 340V050 9999 FEW016 23/22 Q1010 NOSIG=
24/04/2021 00:00:00Z	 SAID34 WIJJ 240000	METAR WIJJ 240000Z 29001KT 9999 FEW015CB FEW016 24/22 Q1011 NOSIG RMK CB TO N AND NW=
24/04/2021 00:30:00Z	 SAID34 WIJJ 240030	METAR WIJJ 240030Z 13002KT 9999 FEW015CB 26/22 Q1011 NOSIG RMK CB TO N=
24/04/2021 01:00:00Z	 SAID34 WIJJ 240100	METAR WIJJ 240100Z 16004KT 9999 FEW016 26/22 Q1011 NOSIG=
24/04/2021 01:30:00Z	 SAID34 WIJJ 240130	METAR WIJJ 240130Z 14003KT 9999 FEW017 27/22 Q1011 NOSIG=
24/04/2021 02:00:00Z	 SAID34 WIJJ 240200	METAR WIJJ 240200Z 14003KT 9999 FEW018 28/23 Q1012 NOSIG=
24/04/2021 02:30:00Z	 SAID34 WIJJ 240230	METAR WIJJ 240230Z 16004KT 9999 FEW018 29/23 Q1012 NOSIG=
24/04/2021 03:00:00Z	 SAID34 WIJJ 240300	METAR WIJJ 240300Z 11005KT 9999 FEW018 30/23 Q1011 NOSIG=
24/04/2021 03:30:00Z	 SAID34 WIJJ 240330	METAR WIJJ 240330Z 12005KT 9999 FEW018 31/23 Q1011 NOSIG=
24/04/2021 04:00:00Z	 SAID34 WIJJ 240400	METAR WIJJ 240400Z 12005KT 9999 FEW018 31/23 Q1011 NOSIG=
24/04/2021 04:30:00Z	 SAID34 WIJJ 240430	METAR WIJJ 240430Z 19003KT 9999 FEW018 31/23 Q1011 NOSIG=
24/04/2021 05:00:00Z	 SAID34 WIJJ 240500	METAR WIJJ 240500Z 10004KT 9999 FEW018 32/23 Q1010 NOSIG=
24/04/2021 05:30:00Z	 SAID34 WIJJ 240530	METAR WIJJ 240530Z 14002KT 9999 FEW018 32/23 Q1009 NOSIG=
24/04/2021 06:00:00Z	 SAID34 WIJJ 240600	METAR WIJJ 240600Z 09003KT 9999 FEW018 32/24 Q1009 NOSIG=
24/04/2021 06:30:00Z	 SAID34 WIJJ 240630	METAR WIJJ 240630Z 13005KT 9999 FEW018 32/24 Q1008 NOSIG=
24/04/2021 07:00:00Z	 SAID34 WIJJ 240700	METAR WIJJ 240700Z 14004KT 9999 FEW018 32/24 Q1007 NOSIG=
24/04/2021 07:30:00Z	 SAID34 WIJJ 240730	METAR WIJJ 240730Z 19004KT 9999 FEW018 33/24 Q1007 NOSIG=
24/04/2021 08:00:00Z	 SAID34 WIJJ 240800	METAR WIJJ 240800Z 12003KT 9999 FEW018 33/25 Q1007 NOSIG=
24/04/2021 08:30:00Z	 SAID34 WIJJ 240830	METAR WIJJ 240830Z 13003KT 9999 FEW018 32/25 Q1007 NOSIG=
24/04/2021 09:00:00Z	 SAID34 WIJJ 240900	METAR WIJJ 240900Z 13004KT 9999 FEW018 33/25 Q1007 NOSIG=
24/04/2021 09:30:00Z	 SAID34 WIJJ 240930	METAR WIJJ 240930Z 11005KT 9999 FEW018 32/25 Q1007 NOSIG=
24/04/2021 10:00:00Z	 SAID34 WIJJ 241000	METAR WIJJ 241000Z 04006KT 9999 FEW018TCU 31/27 Q1007 NOSIG=
24/04/2021 10:30:00Z	 SAID34 WIJJ 241030	METAR WIJJ 241030Z 04005KT 9999 FEW018TCU 29/25 Q1007 NOSIG=
24/04/2021 11:00:00Z	 SAID34 WIJJ 241100	METAR WIJJ 241100Z 05004KT 9999 FEW018 30/26 Q1008 NOSIG=
24/04/2021 11:30:00Z	 SAID34 WIJJ 241130	METAR WIJJ 241130Z 02002KT 9999 FEW018 29/25 Q1008 NOSIG=
24/04/2021 12:00:00Z	 SAID34 WIJJ 241200	METAR WIJJ 241200Z 02004KT 9999 FEW018 29/25 Q1008 NOSIG=
24/04/2021 12:30:00Z	 SAID34 WIJJ 241230	METAR WIJJ 241230Z 04004KT 9999 FEW018 28/25 Q1009 NOSIG=
24/04/2021 13:00:00Z	 SAID34 WIJJ 241300	METAR WIJJ 241300Z 35003KT 9999 FEW017 28/25 Q1009 NOSIG=
24/04/2021 13:30:00Z	 SAID34 WIJJ 241330	METAR WIJJ 241330Z 34004KT 9999 FEW017 27/26 Q1010 NOSIG=
24/04/2021 14:00:00Z	 SAID34 WIJJ 241400	METAR WIJJ 241400Z 33003KT 9999 FEW017 28/25 Q1010 NOSIG=
24/04/2021 14:30:00Z	 SAID34 WIJJ 241430	METAR WIJJ 241430Z 32003KT 8000 SCT016 27/26 Q1010 NOSIG=
24/04/2021 15:00:00Z	 SAID34 WIJJ 241500	METAR WIJJ 241500Z 32003KT 9999 FEW017 27/25 Q1011 NOSIG=
24/04/2021 15:30:00Z	 SAID34 WIJJ 241530	METAR WIJJ 241530Z 31004KT 9999 FEW017 27/26 Q1011 NOSIG=
24/04/2021 16:00:00Z	 SAID34 WIJJ 241600	METAR WIJJ 241600Z 32003KT 9999 FEW017 27/25 Q1011 NOSIG=
24/04/2021 16:30:00Z	 SAID34 WIJJ 241630	METAR WIJJ 241630Z 32003KT 9999 FEW016 27/26 Q1011 NOSIG=
24/04/2021 17:00:00Z	 SAID34 WIJJ 241700	METAR WIJJ 241700Z 31004KT 9999 FEW017 27/25 Q1011 NOSIG=
24/04/2021 17:30:00Z	 SAID34 WIJJ 241730	METAR WIJJ 241730Z AUTO VRB02KT 9999 FEW043 FEW085 FEW290 26/24 Q1010=
24/04/2021 18:00:00Z	 SAID34 WIJJ 241800	METAR WIJJ 241800Z 00000KT 9999 FEW100 26/25 Q1010 NOSIG=
24/04/2021 18:30:00Z	 SAID34 WIJJ 241830	METAR WIJJ 241830Z 00000KT 9999 FEW015 26/25 Q1010 NOSIG=
24/04/2021 19:00:00Z	 SAID34 WIJJ 241900	METAR WIJJ 241900Z 00000KT 8000 FEW018 26/25 Q1010 NOSIG=
24/04/2021 19:30:00Z	 SAID34 WIJJ 241930	METAR WIJJ 241930Z 00000KT 8000 FEW018 26/25 Q1010 NOSIG=
24/04/2021 20:00:00Z	 SAID34 WIJJ 242000	METAR WIJJ 242000Z 30003KT 7000 FEW018 26/25 Q1009 NOSIG=
24/04/2021 20:30:00Z	 SAID34 WIJJ 242030	METAR WIJJ 242030Z 31003KT 6000 FEW018 26/25 Q1009 NOSIG=
24/04/2021 21:00:00Z	 SAID34 WIJJ 242100	METAR WIJJ 242100Z 31002KT 6000 FEW017 26/25 Q1009 NOSIG=
24/04/2021 21:01:00Z	 SAID34 WIJJ 242101	METAR WIJJ 242101Z 29003KT 6000 FEW016 26/25 Q1009 NOSIG=
24/04/2021 21:30:00Z	 SAID34 WIJJ 242130	METAR WIJJ 242130Z 29003KT 6000 FEW016 26/25 Q1009 NOSIG=
24/04/2021 22:00:00Z	 SAID34 WIJJ 242200	METAR WIJJ 242200Z 28002KT 5000 HZ FEW017 26/25 Q1009 NOSIG=
24/04/2021 22:30:00Z	 SAID34 WIJJ 242230	METAR WIJJ 242230Z 00000KT 4700 HZ FEW018 25/25 Q1010 NOSIG=
24/04/2021 23:00:00Z	 SAID34 WIJJ 242300	METAR WIJJ 242300Z 00000KT 3900 BR FEW015 26/25 Q1010 TEMPO 2000 BR FEW017=
24/04/2021 23:30:00Z	 SAID34 WIJJ 242330	METAR WIJJ 242330Z 00000KT 1700 BR FEW015 25/25 Q1010 NOSIG=
25/04/2021 00:00:00Z	 SAID34 WIJJ 250000	METAR WIJJ 250000Z 00000KT 1600 BR SCT013 25/25 Q1011 BECMG FM0100 3000 BR FEW017=
25/04/2021 00:30:00Z	 SAID34 WIJJ 250030	METAR WIJJ 250030Z 00000KT 3100 BR SCT014 26/25 Q1011 NOSIG=
25/04/2021 01:00:00Z	 SAID34 WIJJ 250100	METAR WIJJ 250100Z 00000KT 3500 HZ FEW015 28/25 Q1011 NOSIG=
25/04/2021 01:30:00Z	 SAID34 WIJJ 250130	METAR WIJJ 250130Z 14006KT 3000 HZ SCT015 28/25 Q1012 NOSIG=
25/04/2021 02:00:00Z	 SAID34 WIJJ 250200	METAR WIJJ 250200Z 13006KT 110V170 6000 SCT015 28/25 Q1012 NOSIG=
25/04/2021 02:30:00Z	 SAID34 WIJJ 250230	METAR WIJJ 250230Z 16004KT 130V200 9999 SCT016 29/25 Q1012 NOSIG=
25/04/2021 03:00:00Z	 SAID34 WIJJ 250300	METAR WIJJ 250300Z 14004KT 070V200 9999 SCT016 31/25 Q1012 NOSIG=
25/04/2021 03:30:00Z	 SAID34 WIJJ 250330	METAR WIJJ 250330Z 15005KT 110V190 9999 SCT016 30/24 Q1011 NOSIG=
25/04/2021 04:00:00Z	 SAID34 WIJJ 250400	METAR WIJJ 250400Z 13006KT 080V180 9999 BKN016 31/24 Q1011 NOSIG=
25/04/2021 04:30:00Z	 SAID34 WIJJ 250430	METAR WIJJ 250430Z 14007KT 9999 BKN016 31/24 Q1011 NOSIG=
25/04/2021 05:00:00Z	 SAID34 WIJJ 250500	METAR WIJJ 250500Z 13007KT 100V160 9999 SCT016 32/24 Q1010 NOSIG=
25/04/2021 05:30:00Z	 SAID34 WIJJ 250530	METAR WIJJ 250530Z 12004KT 030V180 9999 BKN016 32/24 Q1010 NOSIG=
25/04/2021 06:00:00Z	 SAID34 WIJJ 250600	METAR WIJJ 250600Z 14007KT 9999 SCT016 33/24 Q1009 NOSIG=
25/04/2021 06:30:00Z	 SAID34 WIJJ 250630	METAR WIJJ 250630Z 14004KT 9999 SCT016 32/24 Q1008 NOSIG=
25/04/2021 07:00:00Z	 SAID34 WIJJ 250700	METAR WIJJ 250700Z 14005KT 110V170 9999 SCT016 32/23 Q1008 NOSIG=
25/04/2021 07:30:00Z	 SAID34 WIJJ 250730	METAR WIJJ 250730Z 14003KT 090V180 9999 SCT017 34/23 Q1007 NOSIG=
25/04/2021 08:00:00Z	 SAID34 WIJJ 250800	METAR WIJJ 250800Z 18006KT 9999 SCT017 34/23 Q1007 NOSIG=
25/04/2021 08:30:00Z	 SAID34 WIJJ 250830	METAR WIJJ 250830Z 20005KT 150V240 9999 SCT017 33/23 Q1006 NOSIG=
25/04/2021 09:00:00Z	 SAID34 WIJJ 250900	METAR WIJJ 250900Z 14005KT 110V270 9999 FEW017 34/24 Q1006 NOSIG=
25/04/2021 09:30:00Z	 SAID34 WIJJ 250930	METAR WIJJ 250930Z 16006KT 130V200 9999 FEW017 33/23 Q1006 NOSIG=
25/04/2021 10:00:00Z	 SAID34 WIJJ 251000	METAR WIJJ 251000Z 15006KT 9999 SCT017 32/24 Q1007 NOSIG=
25/04/2021 10:30:00Z	 SAID34 WIJJ 251030	METAR WIJJ 251030Z 14006KT 9999 SCT017 31/25 Q1007 NOSIG=
25/04/2021 11:00:00Z	 SAID34 WIJJ 251100	METAR WIJJ 251100Z 14006KT 9999 FEW017 31/25 Q1007 NOSIG=
25/04/2021 11:30:00Z	 SAID34 WIJJ 251130	METAR WIJJ 251130Z 10004KT 9999 FEW017 31/25 Q1008 NOSIG=
25/04/2021 12:00:00Z	 SAID34 WIJJ 251200	METAR WIJJ 251200Z 13004KT 9999 FEW017 29/25 Q1008 NOSIG=
25/04/2021 12:30:00Z	 SAID34 WIJJ 251230	METAR WIJJ 251230Z 13002KT 9999 FEW015CB 29/24 Q1009 NOSIG RMK CB TO NW=
25/04/2021 13:00:00Z	 SAID34 WIJJ 251300	METAR WIJJ 251300Z 11002KT 7000 FEW016CB 29/25 Q1009 NOSIG RMK CB TO NW=
25/04/2021 13:30:00Z	 SAID34 WIJJ 251330	METAR WIJJ 251330Z 09001KT 6000 FEW016CB 29/25 Q1010 NOSIG RMK CB TO NW=
25/04/2021 14:00:00Z	 SAID34 WIJJ 251400	METAR WIJJ 251400Z 03002KT 7000 FEW015CB 29/25 Q1010 NOSIG RMK CB TO N=
25/04/2021 14:30:00Z	 SAID34 WIJJ 251430	METAR WIJJ 251430Z 01005KT 9000 FEW016 29/25 Q1010 NOSIG=
25/04/2021 15:00:00Z	 SAID34 WIJJ 251500	METAR WIJJ 251500Z 36004KT 9999 SCT015 28/24 Q1010 NOSIG=
25/04/2021 15:30:00Z	 SAID34 WIJJ 251530	METAR WIJJ 251530Z 35003KT 320V020 9999 SCT015 27/24 Q1010 NOSIG=
25/04/2021 16:00:00Z	 SAID34 WIJJ 251600	METAR WIJJ 251600Z 25001KT 9999 SCT015 27/24 Q1010 NOSIG=
25/04/2021 16:30:00Z	 SAID34 WIJJ 251630	METAR WIJJ 251630Z 32002KT 9999 SCT015 27/24 Q1010 NOSIG=
25/04/2021 17:00:00Z	 SAID34 WIJJ 251700	METAR WIJJ 251700Z 00000KT 9999 FEW014CB 27/24 Q1010 NOSIG=
25/04/2021 17:30:00Z	 SAID34 WIJJ 251730	METAR WIJJ 251730Z 25001KT 9999 SCT014 27/24 Q1010 NOSIG=
25/04/2021 18:00:00Z	 SAID34 WIJJ 251800	METAR WIJJ 251800Z 33002KT 9999 SCT014 27/24 Q1010 NOSIG=
25/04/2021 18:30:00Z	 SAID34 WIJJ 251830	METAR WIJJ 251830Z 29001KT 9000 SCT014 27/24 Q1009 NOSIG=
25/04/2021 19:00:00Z	 SAID34 WIJJ 251900	METAR WIJJ 251900Z 16004KT 9000 SCT014 26/24 Q1009 NOSIG=
25/04/2021 19:30:00Z	 SAID34 WIJJ 251930	METAR WIJJ 251930Z 11003KT 7000 SCT014 26/24 Q1009 NOSIG=
25/04/2021 20:00:00Z	 SAID34 WIJJ 252000	METAR WIJJ 252000Z 14001KT 6000 SCT013 26/24 Q1009 NOSIG=
25/04/2021 20:30:00Z	 SAID34 WIJJ 252030	METAR WIJJ 252030Z 00000KT 6000 SCT013 26/24 Q1008 NOSIG=
25/04/2021 21:00:00Z	 SAID34 WIJJ 252100	METAR WIJJ 252100Z 19001KT 5000 HZ SCT013 26/24 Q1008 NOSIG=
25/04/2021 21:30:00Z	 SAID34 WIJJ 252130	METAR WIJJ 252130Z 26001KT 4500 HZ SCT013 25/24 Q1008 NOSIG=
25/04/2021 22:00:00Z	 SAID34 WIJJ 252200	METAR WIJJ 252200Z 14003KT 100V160 4300 HZ SCT013 26/24 Q1009 NOSIG=
25/04/2021 22:30:00Z	 SAID34 WIJJ 252230	METAR WIJJ 252230Z 17002KT 4100 HZ SCT013 25/24 Q1009 NOSIG=
25/04/2021 23:00:00Z	 SAID34 WIJJ 252300	METAR WIJJ 252300Z 17003KT 130V200 3200 HZ FEW013 25/24 Q1009 NOSIG=
25/04/2021 23:30:00Z	 SAID34 WIJJ 252330	METAR WIJJ 252330Z 16002KT 2500 BR FEW013 25/24 Q1009 NOSIG=
26/04/2021 00:00:00Z	 SAID34 WIJJ 260000	METAR WIJJ 260000Z 25002KT 4000 HZ FEW013 25/24 Q1010 NOSIG=
26/04/2021 00:30:00Z	 SAID34 WIJJ 260030	METAR WIJJ 260030Z 21005KT 4800 HZ NSC 26/24 Q1010 NOSIG=
26/04/2021 01:00:00Z	 SAID34 WIJJ 260100	METAR WIJJ 260100Z 19003KT 140V240 6000 NSC 27/24 Q1011 NOSIG=
26/04/2021 01:30:00Z	 SAID34 WIJJ 260130	METAR WIJJ 260130Z 16004KT 130V200 8000 FEW015 28/25 Q1011 NOSIG=
26/04/2021 02:00:00Z	 SAID34 WIJJ 260200	METAR WIJJ 260200Z 15005KT 130V200 9999 FEW015CB FEW015 29/25 Q1011 NOSIG RMK CB TO N=
26/04/2021 02:30:00Z	 SAID34 WIJJ 260230	METAR WIJJ 260230Z 14006KT 9999 BKN015 29/26 Q1011 NOSIG=
26/04/2021 03:00:00Z	 SAID34 WIJJ 260300	METAR WIJJ 260300Z 13005KT 080V180 9999 BKN016 31/25 Q1011 NOSIG=
26/04/2021 03:30:00Z	 SAID34 WIJJ 260330	METAR WIJJ 260330Z 13006KT 100V180 9999 BKN016 31/25 Q1011 NOSIG=
26/04/2021 04:00:00Z	 SAID34 WIJJ 260400	METAR WIJJ 260400Z 14005KT 100V160 9999 FEW016 31/25 Q1011 NOSIG=
26/04/2021 04:30:00Z	 SAID34 WIJJ 260430	METAR WIJJ 260430Z 12007KT 090V160 9999 SCT016 32/24 Q1010 NOSIG=
26/04/2021 05:00:00Z	 SAID34 WIJJ 260500	METAR WIJJ 260500Z 14006KT 120V200 9999 SCT017 32/24 Q1009 NOSIG=
26/04/2021 05:30:00Z	 SAID34 WIJJ 260530	METAR WIJJ 260530Z 14007KT 060V180 9999 FEW016CB SCT017 32/24 Q1009 NOSIG RMK CB TO N=
26/04/2021 06:00:00Z	 SAID34 WIJJ 260600	METAR WIJJ 260600Z 15007KT 110V180 9999 VCTS FEW016CB FEW017 33/24 Q1008 NOSIG RMK CB TO N=
26/04/2021 06:30:00Z	 SAID34 WIJJ 260630	METAR WIJJ 260630Z 15006KT 110V190 9999 VCTS FEW015CB BKN016 32/25 Q1008 NOSIG RMK CB TO N AND NE=
26/04/2021 07:00:00Z	 SAID34 WIJJ 260700	METAR WIJJ 260700Z 08009KT 8000 -RA FEW015CB SCT016 28/25 Q1007 NOSIG RMK CB TO NW-NE=
26/04/2021 07:30:00Z	 SAID34 WIJJ 260730	METAR WIJJ 260730Z 02012KT 9999 VCTS FEW012CB SCT013 27/25 Q1008 NOSIG RMK CB TO SW-NW=
26/04/2021 08:00:00Z	 SAID34 WIJJ 260800	METAR WIJJ 260800Z 35008KT 320V020 9000 TS FEW015CB SCT016 27/24 Q1008 NOSIG RMK CB TO SW-NW=
26/04/2021 08:30:00Z	 SAID34 WIJJ 260830	METAR WIJJ 260830Z 34008KT 9000 TS FEW015CB 27/24 Q1007 NOSIG RMK CB TO ALQDS=
26/04/2021 09:00:00Z	 SAID34 WIJJ 260900	METAR WIJJ 260900Z 33005KT 310V020 9999 VCTS FEW015CB SCT016 27/24 Q1007 NOSIG RMK CB TO S AND SW=
26/04/2021 09:30:00Z	 SAID34 WIJJ 260930	METAR WIJJ 260930Z 30004KT 240V010 8000 FEW010CB SCT012 27/24 Q1008 NOSIG RMK RETS=
26/04/2021 10:00:00Z	 SAID34 WIJJ 261000	METAR WIJJ 261000Z 25006KT 200V290 9999 FEW012CB SCT013 26/23 Q1008 NOSIG RMK CB TO SW=
26/04/2021 10:30:00Z	 SAID34 WIJJ 261030	METAR WIJJ 261030Z 25007KT 9999 FEW016CB 26/23 Q1008 NOSIG RMK CB TO S=
26/04/2021 11:00:00Z	 SAID34 WIJJ 261100	METAR WIJJ 261100Z 28005KT 9999 FEW016CB 26/23 Q1008 NOSIG RMK CB TO S=
26/04/2021 11:30:00Z	 SAID34 WIJJ 261130	METAR WIJJ 261130Z 24005KT 8000 FEW017 26/23 Q1008 NOSIG=
26/04/2021 12:00:00Z	 SAID34 WIJJ 261200	METAR WIJJ 261200Z 19002KT 9000 FEW017 25/24 Q1008 NOSIG=
26/04/2021 12:30:00Z	 SAID34 WIJJ 261230	METAR WIJJ 261230Z 15003KT 9999 FEW016 25/24 Q1009 NOSIG=
26/04/2021 13:00:00Z	 SAID34 WIJJ 261300	METAR WIJJ 261300Z 14004KT 9999 FEW016 25/24 Q1009 NOSIG=
26/04/2021 13:30:00Z	 SAID34 WIJJ 261330	METAR WIJJ 261330Z 13003KT 9999 FEW016 25/24 Q1010 NOSIG=
26/04/2021 14:00:00Z	 SAID34 WIJJ 261400	METAR WIJJ 261400Z 36001KT 9999 FEW016 25/23 Q1010 NOSIG=
26/04/2021 14:30:00Z	 SAID34 WIJJ 261430	METAR WIJJ 261430Z 34002KT 9999 FEW016 25/23 Q1010 NOSIG=
26/04/2021 15:00:00Z	 SAID34 WIJJ 261500	METAR WIJJ 261500Z 33004KT 9999 FEW016 25/23 Q1011 NOSIG=
26/04/2021 15:30:00Z	 SAID34 WIJJ 261530	METAR WIJJ 261530Z 31002KT 8000 FEW016 25/23 Q1011 NOSIG=
26/04/2021 16:00:00Z	 SAID34 WIJJ 261600	METAR WIJJ 261600Z 28003KT 7000 BKN018 25/24 Q1012 NOSIG=
26/04/2021 16:30:00Z	 SAID34 WIJJ 261630	METAR WIJJ 261630Z 28003KT 7000 SCT018 25/24 Q1011 NOSIG=
26/04/2021 17:00:00Z	 SAID34 WIJJ 261700	METAR WIJJ 261700Z 28004KT 8000 FEW016 25/24 Q1011 NOSIG=
26/04/2021 17:30:00Z	 SAID34 WIJJ 261730	METAR WIJJ 261730Z 27003KT 8000 FEW017 25/24 Q1011 NOSIG=
26/04/2021 18:00:00Z	 SAID34 WIJJ 261800	METAR WIJJ 261800Z 25003KT 7000 FEW018 25/24 Q1010 NOSIG=
26/04/2021 18:30:00Z	 SAID34 WIJJ 261830	METAR WIJJ 261830Z 23004KT 7000 SCT010 24/23 Q1010 NOSIG=
26/04/2021 19:00:00Z	 SAID34 WIJJ 261900	METAR WIJJ 261900Z 20003KT 6000 FEW010 24/23 Q1010 NOSIG=
26/04/2021 19:30:00Z	 SAID34 WIJJ 261930	METAR WIJJ 261930Z 28002KT 6000 FEW010 24/23 Q1009 NOSIG=
26/04/2021 20:00:00Z	 SAID34 WIJJ 262000	METAR WIJJ 262000Z 17002KT 7000 FEW016 24/23 Q1009 NOSIG=
26/04/2021 20:30:00Z	 SAID34 WIJJ 262030	METAR WIJJ 262030Z 14003KT 5000 HZ FEW016 24/23 Q1009 NOSIG=
26/04/2021 21:00:00Z	 SAID34 WIJJ 262100	METAR WIJJ 262100Z 17004KT 4000 BR FEW010 23/23 Q1009 NOSIG=
26/04/2021 21:30:00Z	 SAID34 WIJJ 262130	METAR WIJJ 262130Z 18002KT 6000 FEW010 23/23 Q1009 NOSIG=
26/04/2021 22:00:00Z	 SAID34 WIJJ 262200	METAR WIJJ 262200Z 20002KT 5000 BR FEW016 23/23 Q1010 NOSIG=
26/04/2021 22:30:00Z	 SAID34 WIJJ 262230	METAR WIJJ 262230Z 23001KT 4500 BR FEW016 23/23 Q1010 NOSIG=
26/04/2021 23:00:00Z	 SAID34 WIJJ 262300	METAR WIJJ 262300Z 22003KT 1900 BR SCT010 23/22 Q1010=
26/04/2021 23:19:00Z	 SAID34 WIJJ 262319	METAR WIJJ 262319Z 23002KT 1700 BR SCT010 23/22 Q1010=
26/04/2021 23:30:00Z	 SAID34 WIJJ 262330	METAR WIJJ 262330Z 23002KT 1700 BR SCT010 23/22 Q1010 NOSIG=
27/04/2021 00:00:00Z	 SAID34 WIJJ 270000	METAR WIJJ 270000Z 23004KT 1800 BR SCT010 24/23 Q1011 BECMG FM0030 6000 FEW017=
27/04/2021 00:30:00Z	 SAID34 WIJJ 270030	METAR WIJJ 270030Z AUTO 20004KT 170V260 2000 BR OVC005 24/23 Q1011=
27/04/2021 01:30:00Z	 SAID34 WIJJ 270130	METAR COR WIJJ 270130Z 19004KT 7000 SCT013 25/25 Q1012 NOSIG=
27/04/2021 02:00:00Z	 SAID34 WIJJ 270200	METAR WIJJ 270200Z 18005KT 9999 SCT014 27/24 Q1012 NOSIG=
27/04/2021 02:30:00Z	 SAID34 WIJJ 270230	METAR WIJJ 270230Z 21004KT 9999 FEW013 28/25 Q1012 NOSIG=
27/04/2021 03:00:00Z	 SAID34 WIJJ 270300	METAR WIJJ 270300Z 21003KT 9999 SCT013 29/25 Q1011 NOSIG=
27/04/2021 03:30:00Z	 SAID34 WIJJ 270330	METAR WIJJ 270330Z 15005KT 9999 SCT012 30/26 Q1011 NOSIG=
27/04/2021 04:00:00Z	 SAID34 WIJJ 270400	METAR WIJJ 270400Z 13005KT 9999 BKN013 30/25 Q1011 NOSIG=
27/04/2021 04:30:00Z	 SAID34 WIJJ 270430	METAR WIJJ 270430Z 13005KT 9999 BKN013 31/26 Q1011 NOSIG=
27/04/2021 05:00:00Z	 SAID34 WIJJ 270500	METAR WIJJ 270500Z 12006KT 9999 BKN013 31/24 Q1010 NOSIG=
27/04/2021 06:00:00Z	 SAID34 WIJJ 270600	METAR WIJJ 270600Z 13005KT 9999 BKN014 33/23 Q1009 NOSIG=
27/04/2021 06:30:00Z	 SAID34 WIJJ 270630	METAR WIJJ 270630Z 13004KT 9999 BKN014 33/24 Q1009 NOSIG=
27/04/2021 07:00:00Z	 SAID34 WIJJ 270700	METAR WIJJ 270700Z 14004KT 9999 BKN013 32/24 Q1008 NOSIG=
27/04/2021 07:30:00Z	 SAID34 WIJJ 270730	METAR WIJJ 270730Z 23005KT 9999 BKN013 33/25 Q1008 NOSIG=
27/04/2021 08:00:00Z	 SAID34 WIJJ 270800	METAR WIJJ 270800Z 23006KT 9999 BKN015 32/24 Q1008 NOSIG=
27/04/2021 08:30:00Z	 SAID34 WIJJ 270830	METAR WIJJ 270830Z 16005KT 9999 FEW015CB SCT016 32/26 Q1007 NOSIG RMK CB TO N,S=
27/04/2021 09:00:00Z	 SAID34 WIJJ 270900	METAR WIJJ 270900Z 04005KT 9999 -RA BKN014 29/25 Q1008 NOSIG=
27/04/2021 09:30:00Z	 SAID34 WIJJ 270930	METAR WIJJ 270930Z 01005KT 9999 FEW014CB BKN015 27/26 Q1007 NOSIG RMK CB TO N=
27/04/2021 10:00:00Z	 SAID34 WIJJ 271000	METAR WIJJ 271000Z 36003KT 9999 SCT013 28/25 Q1008 NOSIG=
27/04/2021 10:30:00Z	 SAID34 WIJJ 271030	METAR WIJJ 271030Z 35003KT 9999 SCT013 28/24 Q1008 NOSIG=
27/04/2021 11:00:00Z	 SAID34 WIJJ 271100	METAR WIJJ 271100Z 33002KT 9999 SCT015 28/25 Q1008 NOSIG=
27/04/2021 11:30:00Z	 SAID34 WIJJ 271130	METAR WIJJ 271130Z 01002KT 9999 VCTS FEW015CB SCT016 27/25 Q1008 NOSIG RMK CB TO SE-S=
27/04/2021 12:00:00Z	 SAID34 WIJJ 271200	METAR WIJJ 271200Z 03002KT 9999 SCT016 27/25 Q1009 NOSIG=
27/04/2021 12:30:00Z	 SAID34 WIJJ 271230	METAR WIJJ 271230Z 02003KT 350V060 9999 SCT016 27/24 Q1009 NOSIG=
27/04/2021 13:00:00Z	 SAID34 WIJJ 271300	METAR WIJJ 271300Z 34004KT 9999 SCT016 27/24 Q1010 NOSIG=
27/04/2021 13:30:00Z	 SAID34 WIJJ 271330	METAR WIJJ 271330Z 01002KT 9999 FEW016 27/24 Q1010 NOSIG=
27/04/2021 14:00:00Z	 SAID34 WIJJ 271400	METAR WIJJ 271400Z 00000KT 9999 FEW017 26/24 Q1010 NOSIG=
27/04/2021 14:30:00Z	 SAID34 WIJJ 271430	METAR WIJJ 271430Z 00000KT 9999 SCT016 26/24 Q1011 NOSIG=
27/04/2021 15:00:00Z	 SAID34 WIJJ 271500	METAR WIJJ 271500Z 10003KT 8000 FEW017 26/25 Q1011 NOSIG=
27/04/2021 15:30:00Z	 SAID34 WIJJ 271530	METAR WIJJ 271530Z 00000KT 6000 FEW016 25/24 Q1012 NOSIG=
27/04/2021 16:00:00Z	 SAID34 WIJJ 271600	METAR WIJJ 271600Z 00000KT 6000 FEW016 25/25 Q1012 NOSIG=
27/04/2021 16:30:00Z	 SAID34 WIJJ 271630	METAR WIJJ 271630Z 00000KT 5000 HZ SCT016 25/24 Q1012 NOSIG=
27/04/2021 17:00:00Z	 SAID34 WIJJ 271700	METAR WIJJ 271700Z 30002KT 4000 HZ SCT015 25/24 Q1011 NOSIG=
27/04/2021 17:30:00Z	 SAID34 WIJJ 271730	METAR WIJJ 271730Z 31002KT 4000 HZ SCT015 25/24 Q1011 NOSIG=
27/04/2021 18:00:00Z	 SAID34 WIJJ 271800	METAR WIJJ 271800Z 32003KT 4000 HZ SCT015 25/24 Q1011 NOSIG=
27/04/2021 18:30:00Z	 SAID34 WIJJ 271830	METAR WIJJ 271830Z 00000KT 4000 HZ SCT015 25/24 Q1011 NOSIG=
27/04/2021 19:00:00Z	 SAID34 WIJJ 271900	METAR WIJJ 271900Z 00000KT 5000 HZ SCT015 25/25 Q1011 NOSIG=
27/04/2021 19:30:00Z	 SAID34 WIJJ 271930	METAR WIJJ 271930Z 00000KT 6000 SCT015 25/25 Q1010 NOSIG=
27/04/2021 20:00:00Z	 SAID34 WIJJ 272000	METAR WIJJ 272000Z 00000KT 4000 HZ SCT015 25/25 Q1010 NOSIG=
27/04/2021 20:30:00Z	 SAID34 WIJJ 272030	METAR WIJJ 272030Z 00000KT 4000 HZ SCT015 25/25 Q1010 NOSIG=
27/04/2021 21:00:00Z	 SAID34 WIJJ 272100	METAR WIJJ 272100Z 18002KT 3000 HZ SCT015 25/25 Q1010 NOSIG=
27/04/2021 21:30:00Z	 SAID34 WIJJ 272130	METAR WIJJ 272130Z 32002KT 4000 HZ SCT015 25/25 Q1010 NOSIG=
27/04/2021 22:00:00Z	 SAID34 WIJJ 272200	METAR WIJJ 272200Z 27002KT 4000 HZ SCT015 25/25 Q1011 NOSIG=
27/04/2021 22:30:00Z	 SAID34 WIJJ 272230	METAR WIJJ 272230Z 00000KT 5000 HZ SCT015 25/25 Q1011 NOSIG=
27/04/2021 23:00:00Z	 SAID34 WIJJ 272300	METAR WIJJ 272300Z 00000KT 4000 HZ SCT015 25/24 Q1011 NOSIG=
27/04/2021 23:30:00Z	 SAID34 WIJJ 272330	METAR WIJJ 272330Z 20002KT 4000 HZ SCT015 25/24 Q1011 NOSIG=
28/04/2021 00:00:00Z	 SAID34 WIJJ 280000	METAR WIJJ 280000Z 00000KT 4000 HZ FEW015 25/25 Q1011 NOSIG=
28/04/2021 00:30:00Z	 SAID34 WIJJ 280030	METAR WIJJ 280030Z 24001KT 5000 HZ FEW015 26/24 Q1012 NOSIG=
28/04/2021 01:00:00Z	 SAID34 WIJJ 280100	METAR WIJJ 280100Z 25001KT 6000 FEW015 28/25 Q1013 NOSIG=
28/04/2021 01:30:00Z	 SAID34 WIJJ 280130	METAR WIJJ 280130Z 20003KT 160V230 5000 HZ FEW015 28/25 Q1013 NOSIG=
28/04/2021 02:00:00Z	 SAID34 WIJJ 280200	METAR WIJJ 280200Z 17003KT 6000 BKN014 29/25 Q1013 NOSIG=
28/04/2021 02:30:00Z	 SAID34 WIJJ 280230	METAR WIJJ 280230Z AUTO 24006KT 200V280 8000 BKN015 OVC023 28/25 Q1013=
28/04/2021 03:00:00Z	 SAID34 WIJJ 280300	METAR WIJJ 280300Z 21006KT 7000 BKN015 28/25 Q1013 NOSIG=
28/04/2021 03:30:00Z	 SAID34 WIJJ 280330	METAR WIJJ 280330Z 23004KT 9000 BKN015 30/26 Q1013 NOSIG=
28/04/2021 04:00:00Z	 SAID34 WIJJ 280400	METAR WIJJ 280400Z 32002KT 9999 BKN015 29/25 Q1012 NOSIG=
28/04/2021 04:30:00Z	 SAID34 WIJJ 280430	METAR WIJJ 280430Z 31004KT 260V360 8000 BKN015 30/25 Q1012 NOSIG=
28/04/2021 05:00:00Z	 SAID34 WIJJ 280500	METAR WIJJ 280500Z 19002KT 9999 BKN015 31/25 Q1011 NOSIG=
28/04/2021 05:30:00Z	 SAID34 WIJJ 280530	METAR WIJJ 280530Z 22003KT 160V290 9999 BKN015 31/25 Q1011 NOSIG=
28/04/2021 06:00:00Z	 SAID34 WIJJ 280600	METAR WIJJ 280600Z 20004KT 160V250 9999 BKN015 31/25 Q1010 NOSIG=
28/04/2021 06:30:00Z	 SAID34 WIJJ 280630	METAR WIJJ 280630Z 25006KT 220V300 9999 BKN015 31/25 Q1009 NOSIG=
28/04/2021 07:00:00Z	 SAID34 WIJJ 280700	METAR WIJJ 280700Z 17002KT 9999 BKN015 32/25 Q1009 NOSIG=
28/04/2021 07:30:00Z	 SAID34 WIJJ 280730	METAR WIJJ 280730Z 20006KT 7000 VCTS RA FEW014CB SCT015 28/25 Q1009 NOSIG RMK CB TO N=
28/04/2021 08:00:00Z	 SAID34 WIJJ 280800	METAR WIJJ 280800Z 14003KT 9999 -TS SCT014CB SCT015 31/25 Q1008 NOSIG RMK CB TO NE-SE=
28/04/2021 08:30:00Z	 SAID34 WIJJ 280830	METAR WIJJ 280830Z 09004KT 9999 TS BKN014CB 30/25 Q1008 NOSIG RMK CB TO NE - W=
28/04/2021 09:00:00Z	 SAID34 WIJJ 280900	METAR WIJJ 280900Z 09013KT 9999 -TSRA SCT014CB 28/25 Q1008 NOSIG RMK CB ALL RUNWAY=
28/04/2021 09:30:00Z	 SAID34 WIJJ 280930	METAR WIJJ 280930Z 32004KT 9999 TS SCT014CB 27/24 Q1008 RERA NOSIG RMK CB TO SE - NW=
28/04/2021 10:00:00Z	 SAID34 WIJJ 281000	METAR WIJJ 281000Z 36003KT 9999 TS SCT014CB 28/24 Q1008 NOSIG RMK CB TO S-NW=
28/04/2021 10:30:00Z	 SAID34 WIJJ 281030	METAR WIJJ 281030Z 16001KT 9000 -TS FEW015CB 27/24 Q1008 NOSIG RMK CB TO NW=
28/04/2021 11:00:00Z	 SAID34 WIJJ 281100	METAR WIJJ 281100Z 34002KT 6000 FEW015CB SCT016 27/23 Q1008 NOSIG RMK CB TO NW=
28/04/2021 11:30:00Z	 SAID34 WIJJ 281130	METAR WIJJ 281130Z 24001KT 5000 HZ SCT015 26/23 Q1009 NOSIG=
28/04/2021 12:00:00Z	 SAID34 WIJJ 281200	METAR WIJJ 281200Z 02001KT 8000 SCT015 28/23 Q1009 NOSIG=
28/04/2021 12:30:00Z	 SAID34 WIJJ 281230	METAR WIJJ 281230Z 08003KT 7000 FEW017 26/24 Q1009 NOSIG=
28/04/2021 13:00:00Z	 SAID34 WIJJ 281300	METAR WIJJ 281300Z 06001KT 5000 HZ FEW017 26/24 Q1009 NOSIG=
28/04/2021 13:30:00Z	 SAID34 WIJJ 281330	METAR WIJJ 281330Z 10001KT 4000 HZ FEW017 25/24 Q1010 NOSIG=
28/04/2021 14:00:00Z	 SAID34 WIJJ 281400	METAR WIJJ 281400Z 08002KT 4200 HZ FEW017 26/24 Q1010 NOSIG=
28/04/2021 14:30:00Z	 SAID34 WIJJ 281430	METAR WIJJ 281430Z 17001KT 3200 HZ FEW008 25/24 Q1011 NOSIG=
28/04/2021 15:00:00Z	 SAID34 WIJJ 281500	METAR WIJJ 281500Z 04002KT 4900 HZ NSC 26/24 Q1011 NOSIG=
28/04/2021 15:30:00Z	 SAID34 WIJJ 281530	METAR WIJJ 281530Z 10002KT 4000 HZ NSC 25/24 Q1011 NOSIG=
28/04/2021 16:00:00Z	 SAID34 WIJJ 281600	METAR WIJJ 281600Z 11001KT 3200 HZ NSC 25/24 Q1011 NOSIG=
28/04/2021 16:30:00Z	 SAID34 WIJJ 281630	METAR WIJJ 281630Z 11002KT 4200 HZ NSC 25/24 Q1010 NOSIG=
28/04/2021 17:00:00Z	 SAID34 WIJJ 281700	METAR WIJJ 281700Z 25001KT 4700 HZ NSC 24/24 Q1010 NOSIG=
28/04/2021 17:30:00Z	 SAID34 WIJJ 281730	METAR WIJJ 281730Z 23001KT 4300 HZ NSC 25/24 Q1010 NOSIG=
28/04/2021 18:00:00Z	 SAID34 WIJJ 281800	METAR WIJJ 281800Z 13001KT 6000 NSC 25/24 Q1010 NOSIG=
28/04/2021 18:30:00Z	 SAID34 WIJJ 281830	METAR WIJJ 281830Z 26002KT 5000 HZ NSC 25/24 Q1010 NOSIG=
28/04/2021 19:00:00Z	 SAID34 WIJJ 281900	METAR WIJJ 281900Z 24002KT 5000 HZ NSC 25/24 Q1010 NOSIG=
28/04/2021 19:30:00Z	 SAID34 WIJJ 281930	METAR WIJJ 281930Z 13001KT 4100 HZ NSC 25/24 Q1009 NOSIG=
28/04/2021 20:00:00Z	 SAID34 WIJJ 282000	METAR WIJJ 282000Z 07001KT 4000 HZ NSC 25/24 Q1009 NOSIG=
28/04/2021 20:30:00Z	 SAID34 WIJJ 282030	METAR WIJJ 282030Z 35001KT 4300 HZ NSC 25/24 Q1009 NOSIG=
28/04/2021 21:00:00Z	 SAID34 WIJJ 282100	METAR WIJJ 282100Z 16001KT 3000 HZ NSC 24/24 Q1009 NOSIG=
28/04/2021 21:30:00Z	 SAID34 WIJJ 282130	METAR WIJJ 282130Z 12001KT 3900 HZ NSC 24/24 Q1009 NOSIG=
28/04/2021 22:00:00Z	 SAID34 WIJJ 282200	METAR WIJJ 282200Z 16001KT 3100 HZ SCT015 24/24 Q1009 NOSIG=
28/04/2021 22:30:00Z	 SAID34 WIJJ 282230	METAR WIJJ 282230Z 29003KT 250V310 5000 HZ SCT012 25/24 Q1010 NOSIG=
28/04/2021 23:00:00Z	 SAID34 WIJJ 282300	METAR WIJJ 282300Z 16003KT 4200 HZ SCT013 24/24 Q1010 NOSIG=
28/04/2021 23:30:00Z	 SAID34 WIJJ 282330	METAR WIJJ 282330Z 22001KT 4100 HZ FEW013 24/24 Q1010 NOSIG=
29/04/2021 00:00:00Z	 SAID34 WIJJ 290000	METAR WIJJ 290000Z 17003KT 140V220 4300 HZ FEW013 24/24 Q1010 NOSIG=
29/04/2021 00:30:00Z	 SAID34 WIJJ 290030	METAR WIJJ 290030Z 15003KT 6000 FEW016 26/24 Q1011 NOSIG=
29/04/2021 01:00:00Z	 SAID34 WIJJ 290100	METAR WIJJ 290100Z 17004KT 7000 SCT018 26/25 Q1011 NOSIG=
29/04/2021 01:30:00Z	 SAID34 WIJJ 290130	METAR WIJJ 290130Z 17004KT 9999 FEW017 28/25 Q1012 NOSIG=
29/04/2021 02:00:00Z	 SAID34 WIJJ 290200	METAR WIJJ 290200Z 13005KT 9999 FEW017 29/26 Q1012 NOSIG=
29/04/2021 02:30:00Z	 SAID34 WIJJ 290230	METAR WIJJ 290230Z 13007KT 9999 SCT016 30/26 Q1012 NOSIG=
29/04/2021 03:00:00Z	 SAID34 WIJJ 290300	METAR WIJJ 290300Z 10006KT 9999 SCT016 30/26 Q1012 NOSIG=
29/04/2021 03:30:00Z	 SAID34 WIJJ 290330	METAR WIJJ 290330Z 10006KT 9999 SCT016 31/26 Q1011 NOSIG=
29/04/2021 04:00:00Z	 SAID34 WIJJ 290400	METAR WIJJ 290400Z 12005KT 9999 SCT018 31/25 Q1011 NOSIG=
29/04/2021 04:30:00Z	 SAID34 WIJJ 290430	METAR WIJJ 290430Z 11005KT 9999 SCT018 31/25 Q1010 NOSIG=
29/04/2021 05:00:00Z	 SAID34 WIJJ 290500	METAR WIJJ 290500Z 12007KT 9999 SCT018 31/26 Q1010 NOSIG=
29/04/2021 05:30:00Z	 SAID34 WIJJ 290530	METAR WIJJ 290530Z 10005KT 9999 SCT018TCU 32/26 Q1009 NOSIG=
29/04/2021 06:00:00Z	 SAID34 WIJJ 290600	METAR WIJJ 290600Z 14005KT 9999 SCT016 31/26 Q1009 NOSIG=
29/04/2021 06:30:00Z	 SAID34 WIJJ 290630	METAR WIJJ 290630Z 00000KT 9999 FEW015CB FEW016 32/26 Q1009 RMK CB TO W AND NW=
29/04/2021 07:00:00Z	 SAID34 WIJJ 290700	METAR WIJJ 290700Z 13007KT 9999 SCT018TCU 33/26 Q1008 NOSIG=
29/04/2021 07:30:00Z	 SAID34 WIJJ 290730	METAR WIJJ 290730Z 09005KT 9999 FEW015CB FEW016 32/26 Q1007 RMK CB TO SW AND NW=
29/04/2021 08:00:00Z	 SAID34 WIJJ 290800	METAR WIJJ 290800Z 08005KT 9999 SCT018 33/26 Q1006 NOSIG=
29/04/2021 08:30:00Z	 SAID34 WIJJ 290830	METAR WIJJ 290830Z 14005KT 9999 FEW015CB FEW016 31/26 Q1006 RMK CB TO E AND W=
29/04/2021 09:00:00Z	 SAID34 WIJJ 290900	METAR WIJJ 290900Z 04006KT 030V110 8000 TS FEW015CB SCT016 31/26 Q1007 RMK CB ALL RWY=
29/04/2021 09:30:00Z	 SAID34 WIJJ 290930	METAR WIJJ 290930Z 26005KT 8000 TS FEW015CB SCT016 28/24 Q1007 TEMPO 3000 TSRA SCT010CB BKN010 RMK CB TO SE AND S=
29/04/2021 10:00:00Z	 SAID34 WIJJ 291000	METAR WIJJ 291000Z 15008KT 7000 -RA FEW015CB SCT016 28/25 Q1007 RMK CB ALL RWY=
29/04/2021 10:30:00Z	 SAID34 WIJJ 291030	METAR WIJJ 291030Z 14006KT 8000 -TSRA FEW015CB FEW016 27/24 Q1008 RMK CB TO S=
29/04/2021 11:00:00Z	 SAID34 WIJJ 291100	METAR WIJJ 291100Z 25003KT 8000 TS FEW015CB FEW016 28/26 Q1008 RMK CB TO S=
29/04/2021 11:30:00Z	 SAID34 WIJJ 291130	METAR WIJJ 291130Z 02002KT 8000 FEW015CB FEW016 27/25 Q1008 RMK CB TO S=
29/04/2021 12:00:00Z	 SAID34 WIJJ 291200	METAR WIJJ 291200Z 01002KT 8000 FEW016 27/26 Q1008 NOSIG=
29/04/2021 12:30:00Z	 SAID34 WIJJ 291230	METAR WIJJ 291230Z 11003KT 9000 SCT016 26/26 Q1008 NOSIG=
29/04/2021 13:00:00Z	 SAID34 WIJJ 291300	METAR WIJJ 291300Z 10003KT 8000 SCT016 27/25 Q1008 NOSIG=
29/04/2021 13:30:00Z	 SAID34 WIJJ 291330	METAR WIJJ 291330Z 11002KT 9999 SCT015 26/25 Q1008 NOSIG=
29/04/2021 14:00:00Z	 SAID34 WIJJ 291400	METAR WIJJ 291400Z 00000KT 9999 FEW015 27/25 Q1009 NOSIG=
29/04/2021 14:30:00Z	 SAID34 WIJJ 291430	METAR WIJJ 291430Z 00000KT 9000 SCT015 26/25 Q1010 NOSIG=
29/04/2021 15:00:00Z	 SAID34 WIJJ 291500	METAR WIJJ 291500Z 00000KT 8000 SCT016 27/25 Q1010 NOSIG=
29/04/2021 15:30:00Z	 SAID34 WIJJ 291530	METAR WIJJ 291530Z 00000KT 8000 SCT016 27/26 Q1010 NOSIG=
29/04/2021 16:00:00Z	 SAID34 WIJJ 291600	METAR WIJJ 291600Z 33002KT 7000 SCT016 27/25 Q1010 NOSIG=
29/04/2021 16:30:00Z	 SAID34 WIJJ 291630	METAR WIJJ 291630Z 33002KT 7000 SCT015 26/26 Q1010 NOSIG=
29/04/2021 17:30:00Z	 SAID34 WIJJ 291730	METAR WIJJ 291730Z 12003KT 5000 HZ SCT015CB BKN016 26/26 Q1010 NOSIG RMK CB TO SE-S=
29/04/2021 18:00:00Z	 SAID34 WIJJ 291800	METAR WIJJ 291800Z 01003KT 8000 FEW015CB BKN016 26/25 Q1009 NOSIG RMK CB TO S-SW=
29/04/2021 18:30:00Z	 SAID34 WIJJ 291830	METAR WIJJ 291830Z 00000KT 7000 -RA SCT015CB BKN016 26/26 Q1009 NOSIG=
29/04/2021 19:00:00Z	 SAID34 WIJJ 291900	METAR WIJJ 291900Z 12007KT 4000 TSRA FEW015CB BKN016 26/25 Q1009 NOSIG RMK CB TO SE-S=
29/04/2021 19:30:00Z	 SAID34 WIJJ 291930	METAR WIJJ 291930Z 11005KT 3000 TSRA FEW015CB BKN016 26/25 Q1009 NOSIG RMK CB TO SE-S=
29/04/2021 20:00:00Z	 SAID34 WIJJ 292000	METAR WIJJ 292000Z 15004KT 1100 +TSRA BKN015CB 26/25 Q1009 NOSIG RMK CB ALQDS=
29/04/2021 20:30:00Z	 SAID34 WIJJ 292030	METAR WIJJ 292030Z 14007KT 1500 +TSRA BKN015CB 26/25 Q1009 NOSIG RMK CB ALQDS=
29/04/2021 21:00:00Z	 SAID34 WIJJ 292100	METAR WIJJ 292100Z 09005KT 9000 -TSRA SCT015CB BKN016 25/24 Q1009 NOSIG RMK CB TO E-W=
29/04/2021 21:30:00Z	 SAID34 WIJJ 292130	METAR WIJJ 292130Z 13006KT 3600 TSRA BKN016CB 24/24 Q1009 NOSIG RMK CB ALQDS=
29/04/2021 22:00:00Z	 SAID34 WIJJ 292200	METAR WIJJ 292200Z 13002KT 2000 -TSRA BKN016CB 24/24 Q1010 NOSIG RMK CB ALQDS=
29/04/2021 22:30:00Z	 SAID34 WIJJ 292230	METAR WIJJ 292230Z 09002KT 2900 -TSRA BKN016CB 24/24 Q1009 NOSIG RMK CB ALQDS=
29/04/2021 23:00:00Z	 SAID34 WIJJ 292300	METAR WIJJ 292300Z 18005KT 5000 -TSRA SCT017CB BKN018 24/23 Q1010 NOSIG RMK CB TO E,W=
29/04/2021 23:30:00Z	 SAID34 WIJJ 292330	METAR WIJJ 292330Z 18003KT 6000 -TSRA FEW016CB BKN017 23/23 Q1011 NOSIG RMK CB TO E,W=
30/04/2021 00:00:00Z	 SAID34 WIJJ 300000	METAR WIJJ 300000Z 20004KT 9999 FEW013CB BKN014 24/23 Q1011 NOSIG RMK CB TO W,N=
30/04/2021 00:30:00Z	 SAID34 WIJJ 300030	METAR WIJJ 300030Z 21005KT 9999 FEW013CB BKN014 24/24 Q1011 NOSIG RMK CB TO W-NW,SE=
30/04/2021 01:00:00Z	 SAID34 WIJJ 300100	METAR WIJJ 300100Z 24006KT 5000 -RA BKN012 23/23 Q1012 NOSIG=
30/04/2021 01:30:00Z	 SAID34 WIJJ 300130	METAR WIJJ 300130Z 24005KT 5000 -RA BKN012 23/23 Q1013 NOSIG=
30/04/2021 02:00:00Z	 SAID34 WIJJ 300200	METAR WIJJ 300200Z 24005KT 6000 -RA BKN012 23/23 Q1013 NOSIG=
30/04/2021 02:30:00Z	 SAID34 WIJJ 300230	METAR WIJJ 300230Z 26004KT 220V300 9999 -RA BKN012 24/23 Q1013 NOSIG=
30/04/2021 03:00:00Z	 SAID34 WIJJ 300300	METAR WIJJ 300300Z 25007KT 220V280 9999 -RA BKN012 24/23 Q1013 NOSIG=
30/04/2021 03:30:00Z	 SAID34 WIJJ 300330	METAR WIJJ 300330Z 26006KT 230V300 9999 BKN013 24/24 Q1013 NOSIG RMK RERA=
30/04/2021 04:00:00Z	 SAID34 WIJJ 300400	METAR WIJJ 300400Z 24006KT 200V280 9999 SCT015 25/24 Q1011 NOSIG=
30/04/2021 04:30:00Z	 SAID34 WIJJ 300430	METAR WIJJ 300430Z 20003KT 9999 SCT016 28/25 Q1011 NOSIG=
30/04/2021 05:00:00Z	 SAID34 WIJJ 300500	METAR WIJJ 300500Z 18003KT 9999 SCT016 29/24 Q1010 NOSIG=
30/04/2021 05:30:00Z	 SAID34 WIJJ 300530	METAR WIJJ 300530Z 23003KT 9999 SCT016 29/24 Q1010 NOSIG=
30/04/2021 06:00:00Z	 SAID34 WIJJ 300600	METAR WIJJ 300600Z 24002KT 9999 SCT016 30/24 Q1009 NOSIG=
30/04/2021 06:30:00Z	 SAID34 WIJJ 300630	METAR WIJJ 300630Z 24005KT 9999 SCT016 31/24 Q1008 NOSIG=
30/04/2021 07:00:00Z	 SAID34 WIJJ 300700	METAR WIJJ 300700Z 14004KT 9999 SCT016 31/24 Q1008 NOSIG=
30/04/2021 07:30:00Z	 SAID34 WIJJ 300730	METAR WIJJ 300730Z 14004KT 080V180 9999 SCT016 31/24 Q1008 NOSIG=
30/04/2021 08:00:00Z	 SAID34 WIJJ 300800	METAR WIJJ 300800Z 09005KT 060V140 9999 SCT016 31/24 Q1008 NOSIG=
30/04/2021 08:30:00Z	 SAID34 WIJJ 300830	METAR WIJJ 300830Z 10006KT 060V120 9999 SCT016 31/24 Q1008 NOSIG=
30/04/2021 09:00:00Z	 SAID34 WIJJ 300900	METAR WIJJ 300900Z 09005KT 050V130 9999 SCT016 31/24 Q1008 NOSIG=
30/04/2021 09:30:00Z	 SAID34 WIJJ 300930	METAR WIJJ 300930Z 08005KT 9999 SCT015 30/24 Q1008 NOSIG=
30/04/2021 10:00:00Z	 SAID34 WIJJ 301000	METAR WIJJ 301000Z 10006KT 9999 SCT015 30/25 Q1009 NOSIG=
30/04/2021 10:30:00Z	 SAID34 WIJJ 301030	METAR WIJJ 301030Z 08005KT 9999 VCTS FEW014CB FEW015 29/25 Q1009 NOSIG RMK CB TO S=
30/04/2021 11:00:00Z	 SAID34 WIJJ 301100	METAR WIJJ 301100Z 08003KT 9999 SCT015 29/25 Q1009 NOSIG=
30/04/2021 11:30:00Z	 SAID34 WIJJ 301130	METAR WIJJ 301130Z 05002KT 9999 SCT015 29/25 Q1010 NOSIG=
30/04/2021 12:00:00Z	 SAID34 WIJJ 301200	METAR WIJJ 301200Z 11004KT 9999 BKN014 28/24 Q1010 NOSIG=
30/04/2021 12:30:00Z	 SAID34 WIJJ 301230	METAR WIJJ 301230Z 08003KT 9999 SCT015 27/24 Q1010 NOSIG=
30/04/2021 13:00:00Z	 SAID34 WIJJ 301300	METAR WIJJ 301300Z 08003KT 9999 SCT015 27/24 Q1011 NOSIG=
30/04/2021 13:30:00Z	 SAID34 WIJJ 301330	METAR WIJJ 301330Z 11003KT 9999 SCT015 26/24 Q1011 NOSIG=
30/04/2021 14:00:00Z	 SAID34 WIJJ 301400	METAR WIJJ 301400Z 12003KT 9999 SCT015 26/24 Q1011 NOSIG=
30/04/2021 14:30:00Z	 SAID34 WIJJ 301430	METAR WIJJ 301430Z 12003KT 9999 SCT015 26/24 Q1011 NOSIG=
30/04/2021 15:00:00Z	 SAID34 WIJJ 301500	METAR WIJJ 301500Z 17003KT 9999 SCT015 26/24 Q1011 NOSIG=
30/04/2021 15:30:00Z	 SAID34 WIJJ 301530	METAR WIJJ 301530Z 16002KT 9999 FEW015 25/24 Q1011 NOSIG=
30/04/2021 16:00:00Z	 SAID34 WIJJ 301600	METAR WIJJ 301600Z 14002KT 9999 FEW015 25/24 Q1011 NOSIG=
30/04/2021 16:30:00Z	 SAID34 WIJJ 301630	METAR WIJJ 301630Z 13001KT 9999 FEW015 25/24 Q1011 NOSIG=
30/04/2021 17:00:00Z	 SAID34 WIJJ 301700	METAR WIJJ 301700Z 11002KT 9999 FEW014 25/24 Q1011 NOSIG=
30/04/2021 17:30:00Z	 SAID34 WIJJ 301730	METAR WIJJ 301730Z 17002KT 9999 FEW014 25/24 Q1011 NOSIG=
30/04/2021 18:00:00Z	 SAID34 WIJJ 301800	METAR WIJJ 301800Z 21002KT 9999 FEW014 25/24 Q1010 NOSIG=
30/04/2021 18:30:00Z	 SAID34 WIJJ 301830	METAR WIJJ 301830Z 22002KT 9999 FEW014 24/23 Q1010 NOSIG=
30/04/2021 19:00:00Z	 SAID34 WIJJ 301900	METAR WIJJ 301900Z 21002KT 9999 FEW014 24/23 Q1009 NOSIG=
30/04/2021 19:30:00Z	 SAID34 WIJJ 301930	METAR WIJJ 301930Z 21004KT 9999 FEW013 24/23 Q1009 NOSIG=
30/04/2021 20:00:00Z	 SAID34 WIJJ 302000	METAR WIJJ 302000Z 25002KT 9999 FEW013 24/23 Q1009 NOSIG=
30/04/2021 20:30:00Z	 SAID34 WIJJ 302030	METAR WIJJ 302030Z 23001KT 9999 FEW013 24/23 Q1009 NOSIG=
30/04/2021 21:00:00Z	 SAID34 WIJJ 302100	METAR WIJJ 302100Z 18002KT 9999 FEW013 24/23 Q1008 NOSIG=
30/04/2021 21:30:00Z	 SAID34 WIJJ 302130	METAR WIJJ 302130Z 15003KT 9999 FEW013 24/23 Q1008 NOSIG=
30/04/2021 22:00:00Z	 SAID34 WIJJ 302200	METAR WIJJ 302200Z 15002KT 9999 FEW013 24/23 Q1009 NOSIG=
30/04/2021 22:30:00Z	 SAID34 WIJJ 302230	METAR WIJJ 302230Z 14002KT 9999 FEW013 24/23 Q1009 NOSIG=
30/04/2021 23:00:00Z	 SAID34 WIJJ 302300	METAR WIJJ 302300Z 14002KT 9000 FEW013 24/23 Q1009 NOSIG=
30/04/2021 23:30:00Z	 SAID34 WIJJ 302330	METAR WIJJ 302330Z 13002KT 3300 HZ FEW013 24/23 Q1009 NOSIG=
