01/12/2020 00:00:00Z	 SAID32 WIPP 010000	METAR WIPP 010000Z 25005KT 6000 SCT010 26/23 Q1010 NOSIG=
01/12/2020 00:30:00Z	 SAID32 WIPP 010030	METAR WIPP 010030Z 25007KT 8000 SCT010 27/23 Q1010 NOSIG=
01/12/2020 01:00:00Z	 SAID32 WIPP 010100	METAR WIPP 010100Z 24004KT 9999 SCT010 28/23 Q1011 NOSIG=
01/12/2020 01:30:00Z	 SAID32 WIPP 010130	METAR WIPP 010130Z 28003KT 9999 FEW010 29/24 Q1011 NOSIG=
01/12/2020 02:00:00Z	 SAID32 WIPP 010200	METAR WIPP 010200Z 33003KT 9999 FEW010 29/24 Q1011 NOSIG=
01/12/2020 02:30:00Z	 SAID32 WIPP 010230	METAR WIPP 010230Z 33005KT 9999 SCT010 30/24 Q1011 NOSIG=
01/12/2020 03:00:00Z	 SAID32 WIPP 010300	METAR WIPP 010300Z 06002KT 9999 SCT010 31/23 Q1011 NOSIG=
01/12/2020 03:30:00Z	 SAID32 WIPP 010330	METAR WIPP 010330Z 31005KT 9999 SCT010 31/24 Q1010 NOSIG=
01/12/2020 04:00:00Z	 SAID32 WIPP 010400	METAR WIPP 010400Z 32005KT 9999 SCT010 31/24 Q1010 NOSIG=
01/12/2020 04:30:00Z	 SAID32 WIPP 010430	METAR WIPP 010430Z 27004KT 9999 SCT010 32/24 Q1009 NOSIG=
01/12/2020 05:00:00Z	 SAID32 WIPP 010500	METAR WIPP 010500Z 20004KT 9999 SCT010 32/24 Q1009 NOSIG=
01/12/2020 05:30:00Z	 SAID32 WIPP 010530	METAR WIPP 010530Z 26006KT 9999 BKN010 33/23 Q1008 NOSIG=
01/12/2020 06:00:00Z	 SAID32 WIPP 010600	METAR WIPP 010600Z 22003KT 9999 BKN010 32/22 Q1008 NOSIG=
01/12/2020 06:30:00Z	 SAID32 WIPP 010630	METAR WIPP 010630Z 31005KT 9999 SCT010 33/23 Q1007 NOSIG=
01/12/2020 07:00:00Z	 SAID32 WIPP 010700	METAR WIPP 010700Z 31004KT 9999 SCT010 33/22 Q1007 NOSIG=
01/12/2020 07:30:00Z	 SAID32 WIPP 010730	METAR WIPP 010730Z 26004KT 9999 SCT010 34/23 Q1006 NOSIG=
01/12/2020 08:00:00Z	 SAID32 WIPP 010800	METAR WIPP 010800Z 26005KT 9999 SCT010 34/23 Q1006 NOSIG=
01/12/2020 08:30:00Z	 SAID32 WIPP 010830	METAR WIPP 010830Z 32008KT 9999 SCT010 34/23 Q1005 NOSIG=
01/12/2020 09:00:00Z	 SAID32 WIPP 010900	METAR WIPP 010900Z 30007KT 9999 SCT010 33/23 Q1005 NOSIG=
01/12/2020 09:30:00Z	 SAID32 WIPP 010930	METAR WIPP 010930Z 32004KT 9999 FEW010 33/22 Q1005 NOSIG=
01/12/2020 10:00:00Z	 SAID32 WIPP 011000	METAR WIPP 011000Z 32007KT 9999 FEW010 33/22 Q1005 NOSIG=
01/12/2020 10:30:00Z	 SAID32 WIPP 011030	METAR WIPP 011030Z 28006KT 9999 FEW010 32/23 Q1006 NOSIG=
01/12/2020 11:00:00Z	 SAID32 WIPP 011100	METAR WIPP 011100Z 29003KT 9999 FEW010 32/23 Q1006 NOSIG=
01/12/2020 11:30:00Z	 SAID32 WIPP 011130	METAR WIPP 011130Z 30003KT 9999 FEW010 31/23 Q1006 NOSIG=
01/12/2020 12:00:00Z	 SAID32 WIPP 011200	METAR WIPP 011200Z 33003KT 9999 FEW010 30/24 Q1007 NOSIG=
01/12/2020 12:30:00Z	 SAID32 WIPP 011230	METAR WIPP 011230Z 32004KT 9999 FEW010 30/23 Q1007 NOSIG=
01/12/2020 13:00:00Z	 SAID32 WIPP 011300	METAR WIPP 011300Z 31003KT 9999 FEW010 30/23 Q1007 NOSIG=
01/12/2020 13:30:00Z	 SAID32 WIPP 011330	METAR WIPP 011330Z 34005KT 9999 FEW010 30/24 Q1008 NOSIG=
01/12/2020 14:00:00Z	 SAID32 WIPP 011400	METAR WIPP 011400Z 32004KT 9999 SCT010 29/25 Q1009 NOSIG=
01/12/2020 14:30:00Z	 SAID32 WIPP 011430	METAR WIPP 011430Z 02003KT 9999 SCT010 28/25 Q1009 NOSIG=
01/12/2020 15:00:00Z	 SAID32 WIPP 011500	METAR WIPP 011500Z 03004KT 9999 SCT010 28/25 Q1009 NOSIG=
01/12/2020 15:30:00Z	 SAID32 WIPP 011530	METAR WIPP 011530Z 00000KT 9999 TS FEW010CB SCT010 28/25 Q1009 RMK CB TO W=
01/12/2020 16:00:00Z	 SAID32 WIPP 011600	METAR WIPP 011600Z 32004KT 9000 -RA FEW010CB SCT010 28/25 Q1009 RMK CB TO W=
01/12/2020 16:30:00Z	 SAID32 WIPP 011630	METAR WIPP 011630Z 00000KT 9999 FEW010CB SCT010 28/25 Q1009 RMK CB TO W=
01/12/2020 17:00:00Z	 SAID32 WIPP 011700	METAR WIPP 011700Z 00000KT 8000 FEW010 28/25 Q1009=
01/12/2020 17:30:00Z	 SAID32 WIPP 011730	METAR WIPP 011730Z 00000KT 8000 FEW010 28/25 Q1009=
01/12/2020 18:00:00Z	 SAID32 WIPP 011800	METAR WIPP 011800Z 23003KT 7000 FEW010 27/25 Q1008 NOSIG=
01/12/2020 18:30:00Z	 SAID32 WIPP 011830	METAR WIPP 011830Z 00000KT 7000 FEW010 27/25 Q1008 NOSIG=
01/12/2020 19:00:00Z	 SAID32 WIPP 011900	METAR WIPP 011900Z 00000KT 7000 FEW010 27/25 Q1007 NOSIG=
01/12/2020 19:30:00Z	 SAID32 WIPP 011930	METAR WIPP 011930Z 00000KT 4000 HZ FEW010 27/25 Q1007=
01/12/2020 20:00:00Z	 SAID32 WIPP 012000	METAR WIPP 012000Z AUTO VRB02KT 2500NDV BR BKN050 BKN075 26/26 Q1007=
01/12/2020 20:30:00Z	 SAID32 WIPP 012030	METAR WIPP 012030Z AUTO 00000KT 6000NDV BKN080 26/26 Q1007=
01/12/2020 21:00:00Z	 SAID32 WIPP 012100	METAR WIPP 012100Z AUTO 00000KT 2300NDV BR BKN060 BKN080 25/25 Q1007=
01/12/2020 21:30:00Z	 SAID32 WIPP 012130	METAR WIPP 012130Z AUTO 20002KT 6000NDV FEW060 25/25 Q1007=
01/12/2020 22:00:00Z	 SAID32 WIPP 012200	METAR WIPP 012200Z 00000KT 6000 FEW010 26/24 Q1007=
01/12/2020 22:30:00Z	 SAID32 WIPP 012230	METAR WIPP 012230Z 00000KT 5000 HZ FEW010 26/24 Q1008=
01/12/2020 23:00:00Z	 SAID32 WIPP 012300	METAR WIPP 012300Z 00000KT 4000 HZ FEW010 26/24 Q1008=
01/12/2020 23:30:00Z	 SAID32 WIPP 012330	METAR WIPP 012330Z 00000KT 5000 HZ SCT010 26/24 Q1009=
02/12/2020 00:00:00Z	 SAID32 WIPP 020000	METAR WIPP 020000Z 00000KT 6000 SCT010 27/25 Q1009 NOSIG=
02/12/2020 00:30:00Z	 SAID32 WIPP 020030	METAR WIPP 020030Z 00000KT 8000 FEW010 27/25 Q1009 NOSIG=
02/12/2020 01:00:00Z	 SAID32 WIPP 020100	METAR WIPP 020100Z 00000KT 9999 FEW010 29/26 Q1009 NOSIG=
02/12/2020 01:30:00Z	 SAID32 WIPP 020130	METAR WIPP 020130Z 27002KT 9999 SCT010 30/26 Q1009 NOSIG=
02/12/2020 02:00:00Z	 SAID32 WIPP 020200	METAR WIPP 020200Z 04002KT 9999 BKN010 30/26 Q1010 NOSIG=
02/12/2020 02:30:00Z	 SAID32 WIPP 020230	METAR WIPP 020230Z 20002KT 9999 BKN010 30/25 Q1010 NOSIG=
02/12/2020 03:00:00Z	 SAID32 WIPP 020300	METAR WIPP 020300Z 22002KT 9999 -RA BKN010 30/25 Q1010 NOSIG=
02/12/2020 03:30:00Z	 SAID32 WIPP 020330	METAR WIPP 020330Z 29002KT 5000 -RA BKN010 30/26 Q1009 NOSIG=
02/12/2020 04:00:00Z	 SAID32 WIPP 020400	METAR WIPP 020400Z 08004KT 9999 BKN010 30/27 Q1009 NOSIG=
02/12/2020 04:30:00Z	 SAID32 WIPP 020430	METAR WIPP 020430Z 12002KT 9999 SCT010 30/25 Q1009 NOSIG=
02/12/2020 05:00:00Z	 SAID32 WIPP 020500	METAR WIPP 020500Z 25002KT 5000 -RA BKN010 29/26 Q1008 NOSIG=
02/12/2020 05:30:00Z	 SAID32 WIPP 020530	METAR WIPP 020530Z 30002KT 9999 BKN010 FEW012CB 30/26 Q1008 RMK CB TO NE=
02/12/2020 06:00:00Z	 SAID32 WIPP 020600	METAR WIPP 020600Z 29004KT 9999 TS SCT010 FEW012CB 31/24 Q1007 RMK CB TO NE=
02/12/2020 06:30:00Z	 SAID32 WIPP 020630	METAR WIPP 020630Z 04005KT 9999 TS BKN010 FEW012CB 28/24 Q1007 RMK CB TO NE=
02/12/2020 07:00:00Z	 SAID32 WIPP 020700	METAR WIPP 020700Z 04002KT 9999 BKN010 FEW012CB 28/24 Q1007 RMK CB TO E=
02/12/2020 07:30:00Z	 SAID32 WIPP 020730	METAR WIPP 020730Z 00000KT 9999 BKN010 FEW012CB 29/24 Q1006 RMK CB TO E=
02/12/2020 08:00:00Z	 SAID32 WIPP 020800	METAR WIPP 020800Z 25002KT 5000 HZ SCT010 29/25 Q1006 NOSIG=
02/12/2020 08:30:00Z	 SAID32 WIPP 020830	METAR WIPP 020830Z 00000KT 8000 SCT010 29/25 Q1006 NOSIG=
02/12/2020 09:00:00Z	 SAID32 WIPP 020900	METAR WIPP 020900Z 00000KT 8000 SCT010 29/25 Q1005 NOSIG=
02/12/2020 09:30:00Z	 SAID32 WIPP 020930	METAR WIPP 020930Z 15002KT 8000 FEW010 29/25 Q1005 NOSIG=
02/12/2020 10:00:00Z	 SAID32 WIPP 021000	METAR WIPP 021000Z 07003KT 8000 FEW010 29/25 Q1005 NOSIG=
02/12/2020 10:30:00Z	 SAID32 WIPP 021030	METAR WIPP 021030Z 06003KT 9999 FEW010 29/26 Q1006 NOSIG=
02/12/2020 11:00:00Z	 SAID32 WIPP 021100	METAR WIPP 021100Z 07002KT 9999 FEW010 29/26 Q1006 NOSIG=
02/12/2020 11:30:00Z	 SAID32 WIPP 021130	METAR WIPP 021130Z 04002KT 9999 FEW010 28/26 Q1006 NOSIG=
02/12/2020 12:00:00Z	 SAID32 WIPP 021200	METAR WIPP 021200Z 07002KT 8000 FEW010 28/26 Q1007 NOSIG=
02/12/2020 12:30:00Z	 SAID32 WIPP 021230	METAR WIPP 021230Z 07003KT 8000 FEW010 28/26 Q1007 NOSIG=
02/12/2020 13:00:00Z	 SAID32 WIPP 021300	METAR WIPP 021300Z 04004KT 8000 FEW010 28/26 Q1007 NOSIG=
02/12/2020 14:00:00Z	 SAID32 WIPP 021400	METAR WIPP 021400Z 04003KT 8000 FEW010 27/26 Q1008 NOSIG=
02/12/2020 15:00:00Z	 SAID32 WIPP 021500	METAR WIPP 021500Z 03002KT 8000 FEW010 27/26 Q1009 NOSIG=
02/12/2020 16:00:00Z	 SAID32 WIPP 021600	METAR WIPP 021600Z 06002KT 8000 FEW010 27/25 Q1009 NOSIG=
02/12/2020 17:00:00Z	 SAID32 WIPP 021700	METAR WIPP 021700Z 02002KT 8000 FEW010 27/26 Q1008 NOSIG=
02/12/2020 18:00:00Z	 SAID32 WIPP 021800	METAR WIPP 021800Z 02003KT 6000 FEW010 FEW011CB 27/26 Q1007 NOSIG=
02/12/2020 18:00:00Z	 SAID32 WIPP 021800 CCA	METAR WIPP 021800Z 02003KT 6000 FEW010 FEW011CB 27/26 Q1007 NOSIGRMK CB TO S=
02/12/2020 19:00:00Z	 SAID32 WIPP 021900	METAR WIPP 021900Z 00000KT 6000 FEW010 FEW011CB 26/25 Q1007 RMK CB TO S=
02/12/2020 20:00:00Z	 SAID32 WIPP 022000	METAR WIPP 022000Z 00000KT 5000 HZ FEW010 FEW011CB 26/25 Q1007 RMK CB TO SW=
02/12/2020 21:00:00Z	 SAID32 WIPP 022100	METAR WIPP 022100Z 17002KT 3000 HZBR FEW010 FEW011CB 26/25 Q1007 RMK CB TO SW=
02/12/2020 21:00:00Z	 SAID32 WIPP 022100 CCB	METAR WIPP 022100Z 17002KT 3000 BR FEW010 FEW011CB 26/25 Q1007 RMK CB TO SW=
02/12/2020 22:00:00Z	 SAID32 WIPP 022200	METAR WIPP 022200Z 00000KT 3000 BR FEW010 FEW011CB 26/25 Q1007 RMK CB TO SW=
02/12/2020 22:30:00Z	 SAID32 WIPP 022230	METAR WIPP 022230Z 00000KT 3000 BR FEW010 FEW011CB 26/25 Q1007 RMK CB TO SW=
02/12/2020 23:00:00Z	 SAID32 WIPP 022300	METAR WIPP 022300Z 00000KT 1000 BR FEW010 26/25 Q1008=
02/12/2020 23:30:00Z	 SAID32 WIPP 022330	METAR WIPP 022330Z 00000KT 1200 BR FEW010CB SCT010 26/25 Q1008 RMK CB TO E=
03/12/2020 00:00:00Z	 SAID32 WIPP 030000	METAR WIPP 030000Z 00000KT 3000 BR FEW010CB SCT010 27/26 Q1009 RMK CB TO E=
03/12/2020 00:30:00Z	 SAID32 WIPP 030030	METAR WIPP 030030Z 00000KT 5000 HZ SCT010 27/26 Q1009=
03/12/2020 01:00:00Z	 SAID32 WIPP 030100	METAR WIPP 030100Z 30002KT 5000 HZ SCT010 27/26 Q1009=
03/12/2020 01:30:00Z	 SAID32 WIPP 030130	METAR WIPP 030130Z 33004KT 8000 HZ SCT010 28/26 Q1010=
03/12/2020 02:00:00Z	 SAID32 WIPP 030200	METAR WIPP 030200Z 35005KT 9999 SCT010 28/26 Q1010 NOSIG=
03/12/2020 02:30:00Z	 SAID32 WIPP 030230	METAR WIPP 030230Z 31006KT 9999 SCT010 29/26 Q1010 NOSIG=
03/12/2020 03:00:00Z	 SAID32 WIPP 030300	METAR WIPP 030300Z 31008KT 9999 BKN010 30/25 Q1010 NOSIG=
03/12/2020 03:30:00Z	 SAID32 WIPP 030330	METAR WIPP 030330Z 29008KT 9999 BKN010 30/26 Q1010 NOSIG=
03/12/2020 04:00:00Z	 SAID32 WIPP 030400	METAR WIPP 030400Z 34008KT 9999 BKN010 31/25 Q1009 NOSIG=
03/12/2020 04:30:00Z	 SAID32 WIPP 030430	METAR WIPP 030430Z 27006KT 9999 BKN010 31/24 Q1009 NOSIG=
03/12/2020 05:00:00Z	 SAID32 WIPP 030500	METAR WIPP 030500Z 30010KT 8000 -RA FEW010CB BKN010 31/25 Q1009 RMK CB TO E=
03/12/2020 05:30:00Z	 SAID32 WIPP 030530	METAR WIPP 030530Z 29012KT 9999 FEW010CB BKN010 31/25 Q1008 RMK CB TO NE=
03/12/2020 06:00:00Z	 SAID32 WIPP 030600	METAR WIPP 030600Z 28007KT 9999 FEW010CB BKN010 30/25 Q1008 RMK CB TO N=
03/12/2020 06:30:00Z	 SAID32 WIPP 030630	METAR WIPP 030630Z 25007KT 9999 FEW010CB BKN010 30/25 Q1007 RMK CB TO SE=
03/12/2020 07:00:00Z	 SAID32 WIPP 030700	METAR WIPP 030700Z 27005KT 9999 FEW010CB BKN010 30/25 Q1007 RMK CB TO SE=
03/12/2020 07:30:00Z	 SAID32 WIPP 030730	METAR WIPP 030730Z 29007KT 9999 SCT010 30/25 Q1006 NOSIG=
03/12/2020 08:00:00Z	 SAID32 WIPP 030800	METAR WIPP 030800Z 27006KT 9999 SCT010 30/24 Q1006 NOSIG=
03/12/2020 08:30:00Z	 SAID32 WIPP 030830	METAR WIPP 030830Z 28008KT 9999 SCT010 30/24 Q1006 NOSIG=
03/12/2020 09:00:00Z	 SAID32 WIPP 030900	METAR WIPP 030900Z 27004KT 9999 SCT010 30/24 Q1006 NOSIG=
03/12/2020 09:30:00Z	 SAID32 WIPP 030930	METAR WIPP 030930Z 26003KT 9999 FEW010 30/24 Q1006 NOSIG=
03/12/2020 10:00:00Z	 SAID32 WIPP 031000	METAR WIPP 031000Z 27003KT 9999 FEW010 30/24 Q1006 NOSIG=
03/12/2020 10:30:00Z	 SAID32 WIPP 031030	METAR WIPP 031030Z 28004KT 5000 HZ FEW010 29/24 Q1006=
03/12/2020 11:00:00Z	 SAID32 WIPP 031100	METAR WIPP 031100Z 27003KT 5000 HZ FEW010 29/25 Q1006=
03/12/2020 11:30:00Z	 SAID32 WIPP 031130	METAR WIPP 031130Z 25003KT 5000 HZ FEW010 28/25 Q1007=
03/12/2020 12:00:00Z	 SAID32 WIPP 031200	METAR WIPP 031200Z 27002KT 5000 HZ FEW010 28/25 Q1007=
03/12/2020 12:30:00Z	 SAID32 WIPP 031230	METAR WIPP 031230Z 31003KT 5000 HZ FEW010 28/25 Q1008=
03/12/2020 13:00:00Z	 SAID32 WIPP 031300	METAR WIPP 031300Z 16002KT 5000 HZ FEW010 28/25 Q1009=
03/12/2020 14:00:00Z	 SAID32 WIPP 031400	METAR WIPP 031400Z 00000KT 4000 HZ FEW010 27/25 Q1009=
03/12/2020 15:00:00Z	 SAID32 WIPP 031500	METAR WIPP 031500Z 00000KT 3000 HZ FEW010 27/25 Q1010=
03/12/2020 16:00:00Z	 SAID32 WIPP 031600	METAR WIPP 031600Z 00000KT 3000 HZ FEW010 26/25 Q1010=
03/12/2020 17:00:00Z	 SAID32 WIPP 031700	METAR WIPP 031700Z 00000KT 3000 HZ FEW010 26/25 Q1009=
03/12/2020 18:00:00Z	 SAID32 WIPP 031800	METAR WIPP 031800Z 00000KT 3000 HZ FEW010 26/24 Q1009=
03/12/2020 19:00:00Z	 SAID32 WIPP 031900	METAR WIPP 031900Z 00000KT 4000 HZ FEW010 26/24 Q1008=
03/12/2020 20:00:00Z	 SAID32 WIPP 032000	METAR WIPP 032000Z 00000KT 4000 HZ FEW010 26/24 Q1008=
03/12/2020 21:00:00Z	 SAID32 WIPP 032100	METAR WIPP 032100Z 21003KT 1500 BR SCT010 25/24 Q1007=
03/12/2020 22:00:00Z	 SAID32 WIPP 032200	METAR WIPP 032200Z 00000KT 1000 BR SCT010 25/24 Q1008=
03/12/2020 22:30:00Z	 SAID32 WIPP 032230	METAR WIPP 032230Z 00000KT 0800 FG FEW010 25/24 Q1008=
03/12/2020 23:00:00Z	 SAID32 WIPP 032300	METAR WIPP 032300Z 00000KT 0500 FG FEW100 25/24 Q1008=
03/12/2020 23:30:00Z	 SAID32 WIPP 032330	METAR WIPP 032330Z 00000KT 0500 FG FEW100 25/24 Q1008=
04/12/2020 00:00:00Z	 SAID32 WIPP 040000	METAR WIPP 040000Z 00000KT 0800 FG NSC 25/24 Q1008=
04/12/2020 00:30:00Z	 SAID32 WIPP 040030	METAR WIPP 040030Z 00000KT 1500 BR NSC 25/25 Q1009=
04/12/2020 01:00:00Z	 SAID32 WIPP 040100	METAR WIPP 040100Z 28005KT 1500 BR FEW012 26/25 Q1009=
04/12/2020 01:30:00Z	 SAID32 WIPP 040130	METAR WIPP 040130Z 28005KT 4000 BR FEW012 27/25 Q1009=
04/12/2020 02:00:00Z	 SAID32 WIPP 040200	METAR WIPP 040200Z 30003KT 5000 HZ FEW012 28/25 Q1010=
04/12/2020 02:30:00Z	 SAID32 WIPP 040230	METAR WIPP 040230Z 27005KT 6000 FEW010 29/25 Q1009 NOSIG=
04/12/2020 03:00:00Z	 SAID32 WIPP 040300	METAR WIPP 040300Z 30005KT 9999 FEW010 29/24 Q1009 NOSIG=
04/12/2020 04:00:00Z	 SAID32 WIPP 040400	METAR WIPP 040400Z 31010KT 9999 SCT010 31/24 Q1009 NOSIG=
04/12/2020 04:30:00Z	 SAID32 WIPP 040430	METAR WIPP 040430Z 28005KT 9999 SCT010 31/23 Q1008 NOSIG=
04/12/2020 05:00:00Z	 SAID32 WIPP 040500	METAR WIPP 040500Z 03005KT 9999 BKN010 32/23 Q1008 NOSIG=
04/12/2020 05:30:00Z	 SAID32 WIPP 040530	METAR WIPP 040530Z AUTO 29007KT 250V320 9999NDV NCD 33/25 Q1007=
04/12/2020 06:00:00Z	 SAID32 WIPP 040600	METAR WIPP 040600Z 32010KT 9999 BKN010 32/23 Q1007 NOSIG=
04/12/2020 06:30:00Z	 SAID32 WIPP 040630	METAR WIPP 040630Z 30008KT 9999 BKN010 32/23 Q1006 NOSIG=
04/12/2020 07:00:00Z	 SAID32 WIPP 040700	METAR WIPP 040700Z 30008KT 9999 SCT010 33/23 Q1006 NOSIG=
04/12/2020 07:30:00Z	 SAID32 WIPP 040730	METAR WIPP 040730Z 30008KT 9999 SCT010 33/23 Q1006 NOSIG=
04/12/2020 08:00:00Z	 SAID32 WIPP 040800	METAR WIPP 040800Z 30008KT 9999 SCT010 33/23 Q1005 NOSIG=
04/12/2020 08:30:00Z	 SAID32 WIPP 040830	METAR WIPP 040830Z 31008KT 9999 SCT010 33/22 Q1005 NOSIG=
04/12/2020 09:00:00Z	 SAID32 WIPP 040900	METAR WIPP 040900Z 35005KT 9999 SCT010 33/22 Q1005 NOSIG=
04/12/2020 09:30:00Z	 SAID32 WIPP 040930	METAR WIPP 040930Z 32005KT 9999 SCT010 33/22 Q1006 NOSIG=
04/12/2020 10:00:00Z	 SAID32 WIPP 041000	METAR WIPP 041000Z 30005KT 9999 SCT010 33/22 Q1006 NOSIG=
04/12/2020 10:30:00Z	 SAID32 WIPP 041030	METAR WIPP 041030Z 32003KT 8000 FEW010 32/23 Q1006 NOSIG=
04/12/2020 11:00:00Z	 SAID32 WIPP 041100	METAR WIPP 041100Z 01005KT 9999 FEW010 31/24 Q1007 NOSIG=
04/12/2020 11:30:00Z	 SAID32 WIPP 041130	METAR WIPP 041130Z 04005KT 9999 FEW010 30/25 Q1007 NOSIG=
04/12/2020 12:00:00Z	 SAID32 WIPP 041200	METAR WIPP 041200Z 02003KT 9999 FEW010 29/25 Q1008 NOSIG=
04/12/2020 12:30:00Z	 SAID32 WIPP 041230	METAR WIPP 041230Z 03003KT 9999 FEW010 28/25 Q1008 NOSIG=
04/12/2020 13:00:00Z	 SAID32 WIPP 041300	METAR WIPP 041300Z 02004KT 9999 FEW010 28/25 Q1009 NOSIG=
04/12/2020 14:00:00Z	 SAID32 WIPP 041400	METAR WIPP 041400Z 03002KT 9999 FEW010 28/25 Q1010 NOSIG=
04/12/2020 15:00:00Z	 SAID32 WIPP 041500	METAR WIPP 041500Z 01004KT 9999 FEW010 27/25 Q1010 NOSIG=
04/12/2020 16:00:00Z	 SAID32 WIPP 041600	METAR WIPP 041600Z 01002KT 9999 FEW010 27/25 Q1009 NOSIG=
04/12/2020 17:00:00Z	 SAID32 WIPP 041700	METAR WIPP 041700Z 25004KT 6000 SCT010 27/25 Q1010 NOSIG=
04/12/2020 18:00:00Z	 SAID32 WIPP 041800	METAR WIPP 041800Z 33005KT 9999 SCT010 27/24 Q1009 NOSIG=
04/12/2020 19:00:00Z	 SAID32 WIPP 041900	METAR WIPP 041900Z 32007KT 9999 SCT010 24/21 Q1009 NOSIG=
04/12/2020 20:00:00Z	 SAID32 WIPP 042000	METAR WIPP 042000Z 29004KT 9999 SCT010 23/22 Q1008 NOSIG=
04/12/2020 21:00:00Z	 SAID32 WIPP 042100	METAR WIPP 042100Z 32004KT 9999 SCT010 23/22 Q1008 NOSIG=
04/12/2020 22:00:00Z	 SAID32 WIPP 042200	METAR WIPP 042200Z 29003KT 9999 SCT010 23/22 Q1008 NOSIG=
04/12/2020 22:30:00Z	 SAID32 WIPP 042230	METAR WIPP 042230Z 33002KT 6000 FEW010 23/22 Q1008 NOSIG=
04/12/2020 23:00:00Z	 SAID32 WIPP 042300	METAR WIPP 042300Z 33002KT 5000 HZ FEW010 23/22 Q1009=
04/12/2020 23:30:00Z	 SAID32 WIPP 042330	METAR WIPP 042330Z 29002KT 6000 FEW010 23/22 Q1009=
05/12/2020 00:00:00Z	 SAID32 WIPP 050000	METAR WIPP 050000Z 28004KT 5000 HZ FEW010 24/23 Q1009=
05/12/2020 00:30:00Z	 SAID32 WIPP 050030	METAR WIPP 050030Z 29006KT 5000 HZ FEW010 24/22 Q1010=
05/12/2020 01:00:00Z	 SAID32 WIPP 050100	METAR WIPP 050100Z 30005KT 7000 FEW010 25/23 Q1010 NOSIG=
05/12/2020 01:30:00Z	 SAID32 WIPP 050130	METAR WIPP 050130Z 30006KT 9999 FEW010 26/23 Q1011 NOSIG=
05/12/2020 02:00:00Z	 SAID32 WIPP 050200	METAR WIPP 050200Z 32008KT 9999 FEW010 27/24 Q1011 NOSIG=
05/12/2020 02:30:00Z	 SAID32 WIPP 050230	METAR WIPP 050230Z 32005KT 9999 FEW010 28/24 Q1011 NOSIG=
05/12/2020 03:00:00Z	 SAID32 WIPP 050300	METAR WIPP 050300Z 31011KT 9999 BKN010 29/25 Q1011 NOSIG=
05/12/2020 03:30:00Z	 SAID32 WIPP 050330	METAR WIPP 050330Z 33010KT 9999 BKN010 29/24 Q1011 NOSIG=
05/12/2020 04:00:00Z	 SAID32 WIPP 050400	METAR WIPP 050400Z 30010KT 9999 BKN010 30/25 Q1011 NOSIG=
05/12/2020 04:30:00Z	 SAID32 WIPP 050430	METAR WIPP 050430Z 32010KT 9999 BKN010 30/25 Q1010 NOSIG=
05/12/2020 05:00:00Z	 SAID32 WIPP 050500	METAR WIPP 050500Z 32013KT 9999 BKN010 30/24 Q1010 NOSIG=
05/12/2020 05:30:00Z	 SAID32 WIPP 050530	METAR WIPP 050530Z 31009KT 9999 BKN010 31/24 Q1009 NOSIG=
05/12/2020 06:00:00Z	 SAID32 WIPP 050600	METAR WIPP 050600Z 31009KT 8000 -RA BKN010 29/25 Q1009=
05/12/2020 06:30:00Z	 SAID32 WIPP 050630	METAR WIPP 050630Z 31005KT 9999 BKN010 29/25 Q1009=
05/12/2020 07:00:00Z	 SAID32 WIPP 050700	METAR WIPP 050700Z 30006KT 9999 SCT010 29/24 Q1008 NOSIG=
05/12/2020 07:30:00Z	 SAID32 WIPP 050730	METAR WIPP 050730Z 31005KT 9999 FEW010 29/25 Q1007 NOSIG=
05/12/2020 08:00:00Z	 SAID32 WIPP 050800	METAR WIPP 050800Z 32005KT 9999 FEW010 29/25 Q1007 NOSIG=
05/12/2020 08:30:00Z	 SAID32 WIPP 050830	METAR WIPP 050830Z 31004KT 9999 FEW010 29/25 Q1007 NOSIG=
05/12/2020 09:00:00Z	 SAID32 WIPP 050900	METAR WIPP 050900Z 31004KT 9999 FEW010 30/25 Q1006 NOSIG=
05/12/2020 09:30:00Z	 SAID32 WIPP 050930	METAR WIPP 050930Z 33003KT 9999 FEW010 30/25 Q1006 NOSIG=
05/12/2020 10:00:00Z	 SAID32 WIPP 051000	METAR WIPP 051000Z 33003KT 9999 FEW010 30/26 Q1006 NOSIG=
05/12/2020 10:30:00Z	 SAID32 WIPP 051030	METAR WIPP 051030Z 31004KT 9999 FEW010 29/26 Q1007 NOSIG=
05/12/2020 11:00:00Z	 SAID32 WIPP 051100	METAR WIPP 051100Z 31003KT 7000 SCT010 29/26 Q1007 NOSIG=
05/12/2020 11:30:00Z	 SAID32 WIPP 051130	METAR WIPP 051130Z 34004KT 8000 SCT010 29/26 Q1008 NOSIG=
05/12/2020 12:00:00Z	 SAID32 WIPP 051200	METAR WIPP 051200Z 34003KT 8000 FEW010 29/26 Q1008 NOSIG=
05/12/2020 12:30:00Z	 SAID32 WIPP 051230	METAR WIPP 051230Z 00000KT 8000 FEW010 28/25 Q1008 NOSIG=
05/12/2020 13:00:00Z	 SAID32 WIPP 051300	METAR WIPP 051300Z 02003KT 9999 SCT010 28/25 Q1009 NOSIG=
05/12/2020 13:30:00Z	 SAID32 WIPP 051330	METAR WIPP 051330Z 05003KT 9999 SCT010 28/25 Q1009 NOSIG=
05/12/2020 14:00:00Z	 SAID32 WIPP 051400	METAR WIPP 051400Z 01003KT 9999 SCT010 27/25 Q1009 NOSIG=
05/12/2020 14:30:00Z	 SAID32 WIPP 051430	METAR WIPP 051430Z 33005KT 9999 SCT010 27/25 Q1009 NOSIG=
05/12/2020 15:00:00Z	 SAID32 WIPP 051500	METAR WIPP 051500Z 34005KT 9999 BKN010 27/25 Q1009 NOSIG=
05/12/2020 15:30:00Z	 SAID32 WIPP 051530	METAR WIPP 051530Z 32005KT 9999 BKN010 27/25 Q1009 NOSIG=
05/12/2020 16:00:00Z	 SAID32 WIPP 051600	METAR WIPP 051600Z 33005KT 9999 SCT010 27/25 Q1009 NOSIG=
05/12/2020 16:30:00Z	 SAID32 WIPP 051630	METAR WIPP 051630Z AUTO 33006KT 9000NDV NCD 27/26 Q1009=
05/12/2020 17:00:00Z	 SAID32 WIPP 051700	METAR WIPP 051700Z AUTO 33004KT 9999NDV FEW090 26/26 Q1009=
05/12/2020 17:30:00Z	 SAID32 WIPP 051730	METAR WIPP 051730Z AUTO 34004KT 9999NDV NCD 26/26 Q1009=
05/12/2020 18:00:00Z	 SAID32 WIPP 051800	METAR WIPP 051800Z 34005KT 8000 SCT010 26/25 Q1009 NOSIG=
05/12/2020 18:30:00Z	 SAID32 WIPP 051830	METAR WIPP 051830Z AUTO 33006KT 6000NDV NCD 26/26 Q1008=
05/12/2020 19:00:00Z	 SAID32 WIPP 051900	METAR WIPP 051900Z AUTO 32007KT 9999NDV NCD 26/26 Q1008=
05/12/2020 19:30:00Z	 SAID32 WIPP 051930	METAR WIPP 051930Z AUTO 31005KT 9999NDV NCD 26/26 Q1008=
05/12/2020 20:00:00Z	 SAID32 WIPP 052000	METAR WIPP 052000Z AUTO 31005KT 5000NDV NCD 25/25 Q1008=
05/12/2020 20:30:00Z	 SAID32 WIPP 052030	METAR WIPP 052030Z AUTO 30005KT 6000NDV NCD 25/25 Q1008=
05/12/2020 21:00:00Z	 SAID32 WIPP 052100	METAR WIPP 052100Z AUTO 31006KT 7000NDV NCD 25/25 Q1008=
05/12/2020 21:30:00Z	 SAID32 WIPP 052130	METAR WIPP 052130Z AUTO 32006KT 5000NDV NCD 25/25 Q1008=
05/12/2020 22:00:00Z	 SAID32 WIPP 052200	METAR WIPP 052200Z AUTO 31008KT 5000NDV NCD 25/25 Q1008=
05/12/2020 22:30:00Z	 SAID32 WIPP 052230	METAR WIPP 052230Z 30005KT 6000 FEW010 25/24 Q1008 NOSIG=
05/12/2020 23:00:00Z	 SAID32 WIPP 052300	METAR WIPP 052300Z 32008KT 2500 BR FEW010 25/24 Q1008=
05/12/2020 23:30:00Z	 SAID32 WIPP 052330	METAR WIPP 052330Z 32008KT 4000 BR FEW010 26/25 Q1009=
06/12/2020 00:00:00Z	 SAID32 WIPP 060000	METAR WIPP 060000Z 30010KT 6000 SCT008 26/25 Q1009 NOSIG=
06/12/2020 00:30:00Z	 SAID32 WIPP 060030	METAR WIPP 060030Z 30010KT 8000 SCT008 27/25 Q1010 NOSIG=
06/12/2020 01:00:00Z	 SAID32 WIPP 060100	METAR WIPP 060100Z 31011KT 9999 SCT010 27/25 Q1010 NOSIG=
06/12/2020 01:30:00Z	 SAID32 WIPP 060130	METAR WIPP 060130Z 31011KT 9999 SCT010 28/25 Q1011 NOSIG=
06/12/2020 02:00:00Z	 SAID32 WIPP 060200	METAR WIPP 060200Z 31011KT 9999 SCT010 28/25 Q1011 NOSIG=
06/12/2020 02:30:00Z	 SAID32 WIPP 060230	METAR WIPP 060230Z 32010KT 9999 SCT010 29/24 Q1011 NOSIG=
06/12/2020 03:00:00Z	 SAID32 WIPP 060300	METAR WIPP 060300Z 33014KT 9999 BKN010 29/24 Q1011 NOSIG=
06/12/2020 03:30:00Z	 SAID32 WIPP 060330	METAR WIPP 060330Z 34011KT 9999 BKN010 30/24 Q1010 NOSIG=
06/12/2020 04:00:00Z	 SAID32 WIPP 060400	METAR WIPP 060400Z 31014KT 9999 BKN010 30/24 Q1010 NOSIG=
06/12/2020 04:30:00Z	 SAID32 WIPP 060430	METAR WIPP 060430Z 32015KT 9999 BKN010 31/24 Q1009 NOSIG=
06/12/2020 05:00:00Z	 SAID32 WIPP 060500	METAR WIPP 060500Z 31013KT 9999 BKN010 31/24 Q1009 NOSIG=
06/12/2020 05:30:00Z	 SAID32 WIPP 060530	METAR WIPP 060530Z 31012KT 8000 -RA BKN010 31/24 Q1008 NOSIG=
06/12/2020 06:00:00Z	 SAID32 WIPP 060600	METAR WIPP 060600Z 31012KT 6000 RA BKN010 FEW011CB 30/24 Q1008 RMK CB TO NE=
06/12/2020 06:30:00Z	 SAID32 WIPP 060630	METAR WIPP 060630Z 31013KT 9999 BKN010 32/23 Q1008 RERA=
06/12/2020 07:00:00Z	 SAID32 WIPP 060700	METAR WIPP 060700Z 31013KT 9999 BKN010 32/23 Q1007 NOSIG=
06/12/2020 07:30:00Z	 SAID32 WIPP 060730	METAR WIPP 060730Z 35013KT 9999 BKN010 FEW011CB 32/24 Q1007 RMK CB TO NE=
06/12/2020 08:00:00Z	 SAID32 WIPP 060800	METAR WIPP 060800Z 33011KT 9999 BKN010 FEW011CB 31/24 Q1007 RMK CB TO NE=
06/12/2020 08:30:00Z	 SAID32 WIPP 060830	METAR WIPP 060830Z 01011KT 9999 BKN010 FEW011CB 30/25 Q1007 RMK CB TO E=
06/12/2020 09:00:00Z	 SAID32 WIPP 060900	METAR WIPP 060900Z 01008KT 9999 SCT010 FEW011CB 30/24 Q1007 RMK CB TO SW=
06/12/2020 09:30:00Z	 SAID32 WIPP 060930	METAR WIPP 060930Z 36007KT 9999 SCT010 29/24 Q1007 NOSIG=
06/12/2020 10:00:00Z	 SAID32 WIPP 061000	METAR WIPP 061000Z 01005KT 9999 FEW010CB SCT010 29/25 Q1008 RMK CB TO S=
06/12/2020 10:30:00Z	 SAID32 WIPP 061030	METAR WIPP 061030Z 01003KT 9999 FEW010CB FEW010 28/25 Q1008 RMK CB TO S=
06/12/2020 11:00:00Z	 SAID32 WIPP 061100	METAR WIPP 061100Z 02004KT 9999 FEW010CB SCT010 28/25 Q1008 TEMPO FM1130 TL1215 01005G25KT 3000 TSRA RMK CB TO SE AND S=
06/12/2020 11:30:00Z	 SAID32 WIPP 061130	METAR WIPP 061130Z 12007KT 6000 -RA FEW010CB SCT010 27/25 Q10089 RMK CB TO SE AND S=
06/12/2020 11:30:00Z	 SAID32 WIPP 061130 CCA	METAR COR WIPP 061130Z 12007KT 6000 -RA FEW010CB SCT010 27/25 Q1008 RMK CB TO SE AND S=
06/12/2020 12:00:00Z	 SAID32 WIPP 061200	METAR WIPP 061200Z 00000KT 6000 FEW010CB SCT010 27/26 Q1009 RMK CB TO SE AND S=
06/12/2020 12:30:00Z	 SAID32 WIPP 061230	METAR WIPP 061230Z 01002KT 6000 SCT010 27/26 Q1010 NOSIG=
06/12/2020 13:00:00Z	 SAID32 WIPP 061300	METAR WIPP 061300Z 01005KT 7000 SCT010 28/25 Q1010 NOSIG=
06/12/2020 13:30:00Z	 SAID32 WIPP 061330	METAR WIPP 061330Z 32005KT 9999 SCT010 27/25 Q1010 NOSIG=
06/12/2020 14:00:00Z	 SAID32 WIPP 061400	METAR WIPP 061400Z 32003KT 9999 SCT010 27/25 Q1010 NOSIG=
06/12/2020 14:30:00Z	 SAID32 WIPP 061430	METAR WIPP 061430Z 00000KT 8000 SCT010 27/25 Q1011 NOSIG=
06/12/2020 15:00:00Z	 SAID32 WIPP 061500	METAR WIPP 061500Z 00000KT 7000 SCT010 27/25 Q1011 NOSIG=
06/12/2020 15:30:00Z	 SAID32 WIPP 061530	METAR WIPP 061530Z 00000KT 7000 SCT010 27/25 Q1011 NOSIG=
06/12/2020 16:00:00Z	 SAID32 WIPP 061600	METAR WIPP 061600Z 00000KT 7000 SCT010 27/25 Q1010 NOSIG=
06/12/2020 17:00:00Z	 SAID32 WIPP 061700	METAR WIPP 061700Z 28004KT 4000 HZ SCT010 26/25 Q1010 NOSIG=
06/12/2020 17:30:00Z	 SAID32 WIPP 061730	METAR WIPP 061730Z 32004KT 4000 HZ SCT010 26/25 Q1010 NOSIG=
06/12/2020 18:00:00Z	 SAID32 WIPP 061800	METAR WIPP 061800Z 32004KT 5000 HZ FEW010 26/25 Q1009=
06/12/2020 18:30:00Z	 SAID32 WIPP 061830	METAR WIPP 061830Z 32004KT 5000 HZ SCT010 26/25 Q1009=
06/12/2020 19:00:00Z	 SAID32 WIPP 061900	METAR WIPP 061900Z AUTO 31004KT 4100NDV BR SCT020 SCT024 BKN029 26/26 Q1009=
06/12/2020 19:30:00Z	 SAID32 WIPP 061930	METAR WIPP 061930Z AUTO 31004KT 4200NDV BR FEW020 FEW025 26/26 Q1009=
06/12/2020 20:00:00Z	 SAID32 WIPP 062000	METAR WIPP 062000Z AUTO 30005KT 4500NDV BR NCD 26/26 Q1008=
06/12/2020 20:30:00Z	 SAID32 WIPP 062030	METAR WIPP 062030Z 32004KT 5000 HZ FEW010 26/25 Q1008=
06/12/2020 21:00:00Z	 SAID32 WIPP 062100	METAR WIPP 062100Z 32005KT 5000 HZ FEW010 26/25 Q1008=
06/12/2020 21:30:00Z	 SAID32 WIPP 062130	METAR WIPP 062130Z 32005KT 5000 HZ FEW010 26/25 Q1008=
06/12/2020 22:00:00Z	 SAID32 WIPP 062200	METAR WIPP 062200Z 32004KT 4000 HZ FEW010 26/25 Q1009=
06/12/2020 22:30:00Z	 SAID32 WIPP 062230	METAR WIPP 062230Z 31004KT 4000 HZ FEW010 26/25 Q1009=
06/12/2020 23:00:00Z	 SAID32 WIPP 062300	METAR WIPP 062300Z 32005KT 3000 HZ FEW010 25/24 Q1009=
06/12/2020 23:30:00Z	 SAID32 WIPP 062330	METAR WIPP 062330Z 31006KT 4000 HZ FEW010 26/25 Q1010=
07/12/2020 00:00:00Z	 SAID32 WIPP 070000	METAR WIPP 070000Z 31007KT 7000 FEW010 26/25 Q1010 NOSIG=
07/12/2020 00:30:00Z	 SAID32 WIPP 070030	METAR WIPP 070030Z 31006KT 7000 FEW010 26/25 Q1011 NOSIG=
07/12/2020 01:00:00Z	 SAID32 WIPP 070100	METAR WIPP 070100Z 29005KT 9999 FEW010 27/25 Q1011 NOSIG=
07/12/2020 01:30:00Z	 SAID32 WIPP 070130	METAR WIPP 070130Z 26004KT 9999 SCT010 28/25 Q1011 NOSIG=
07/12/2020 02:00:00Z	 SAID32 WIPP 070200	METAR WIPP 070200Z 35004KT 9999 BKN010 28/26 Q1011 NOSIG=
07/12/2020 02:30:00Z	 SAID32 WIPP 070230	METAR WIPP 070230Z 29004KT 9999 BKN010 28/25 Q1011 NOSIG=
07/12/2020 03:00:00Z	 SAID32 WIPP 070300	METAR WIPP 070300Z 31007KT 9999 BKN010 29/25 Q1011 NOSIG=
07/12/2020 03:30:00Z	 SAID32 WIPP 070330	METAR WIPP 070330Z 31008KT 9999 BKN010 29/25 Q1011 NOSIG=
07/12/2020 04:00:00Z	 SAID32 WIPP 070400	METAR WIPP 070400Z 32009KT 9999 SCT010 30/24 Q1010 NOSIG=
07/12/2020 04:30:00Z	 SAID32 WIPP 070430	METAR WIPP 070430Z 31008KT 9999 SCT010 30/24 Q1010 NOSIG=
07/12/2020 05:00:00Z	 SAID32 WIPP 070500	METAR WIPP 070500Z 30007KT 9999 SCT010 31/24 Q1009 NOSIG=
07/12/2020 05:30:00Z	 SAID32 WIPP 070530	METAR WIPP 070530Z 32008KT 9999 SCT010 31/24 Q1009 NOSIG=
07/12/2020 06:00:00Z	 SAID32 WIPP 070600	METAR WIPP 070600Z 31007KT 9999 SCT010 31/24 Q1009 NOSIG=
07/12/2020 06:30:00Z	 SAID32 WIPP 070630	METAR WIPP 070630Z 28005KT 9999 SCT010 30/24 Q1008 NOSIG=
07/12/2020 07:00:00Z	 SAID32 WIPP 070700	METAR WIPP 070700Z 21006KT 9999 BKN010 31/25 Q1007 NOSIG=
07/12/2020 07:30:00Z	 SAID32 WIPP 070730	METAR WIPP 070730Z 18006KT 9999 SCT010 31/25 Q1007 NOSIG=
07/12/2020 08:00:00Z	 SAID32 WIPP 070800	METAR WIPP 070800Z 31009KT 9999 SCT010 31/24 Q1007 NOSIG=
07/12/2020 08:30:00Z	 SAID32 WIPP 070830	METAR WIPP 070830Z 31006KT 9999 SCT010 31/24 Q1008 NOSIG=
07/12/2020 09:00:00Z	 SAID32 WIPP 070900	METAR WIPP 070900Z 30005KT 9999 FEW010 30/24 Q1008 NOSIG=
07/12/2020 09:30:00Z	 SAID32 WIPP 070930	METAR WIPP 070930Z 29005KT 9999 FEW010 30/24 Q1008 NOSIG=
07/12/2020 10:00:00Z	 SAID32 WIPP 071000	METAR WIPP 071000Z 31002KT 9999 FEW010 30/24 Q1008 NOSIG=
07/12/2020 10:30:00Z	 SAID32 WIPP 071030	METAR WIPP 071030Z 31004KT 7000 FEW010 30/24 Q1008 NOSIG=
07/12/2020 11:00:00Z	 SAID32 WIPP 071100	METAR WIPP 071100Z 31003KT 5000 HZ NSC 29/24 Q1009 NOSIG=
07/12/2020 11:30:00Z	 SAID32 WIPP 071130	METAR WIPP 071130Z 31003KT 6000 NSC 29/25 Q1010 NOSIG=
07/12/2020 12:00:00Z	 SAID32 WIPP 071200	METAR WIPP 071200Z 30002KT 6000 NSC 29/25 Q1010 NOSIG=
07/12/2020 12:30:00Z	 SAID32 WIPP 071230	METAR WIPP 071230Z 30002KT 4000 -RA FEW010 28/24 Q1010 NOSIG=
07/12/2020 13:00:00Z	 SAID32 WIPP 071300	METAR WIPP 071300Z 28002KT 5000 HZ FEW010 28/25 Q1011 RERA=
07/12/2020 14:00:00Z	 SAID32 WIPP 071400	METAR WIPP 071400Z 00000KT 4000 HZ FEW010 28/25 Q1012=
07/12/2020 15:00:00Z	 SAID32 WIPP 071500	METAR WIPP 071500Z 32003KT 4000 HZ FEW010 27/25 Q1011=
07/12/2020 16:00:00Z	 SAID32 WIPP 071600	METAR WIPP 071600Z 31004KT 4000 HZ FEW010 27/25 Q1011=
07/12/2020 17:00:00Z	 SAID32 WIPP 071700	METAR WIPP 071700Z 29004KT 4000 HZ FEW010 26/25 Q1010=
07/12/2020 18:00:00Z	 SAID32 WIPP 071800	METAR WIPP 071800Z 29004KT 5000 HZ FEW010 26/25 Q1010=
07/12/2020 19:00:00Z	 SAID32 WIPP 071900	METAR WIPP 071900Z 29003KT 4000 HZ FEW010 26/25 Q1009=
07/12/2020 20:00:00Z	 SAID32 WIPP 072000	METAR WIPP 072000Z 26002KT 4000 HZ FEW010 26/25 Q1009=
07/12/2020 21:00:00Z	 SAID32 WIPP 072100	METAR WIPP 072100Z 26003KT 3000 BR FEW010 26/24 Q1009=
07/12/2020 22:00:00Z	 SAID32 WIPP 072200	METAR WIPP 072200Z 32003KT 4000 HZ FEW010 26/25 Q1009=
07/12/2020 22:30:00Z	 SAID32 WIPP 072230	METAR WIPP 072230Z 29004KT 4000 HZ FEW010 26/25 Q1009=
07/12/2020 23:00:00Z	 SAID32 WIPP 072300	METAR WIPP 072300Z 28003KT 4000 HZ FEW010 26/25 Q1010=
07/12/2020 23:30:00Z	 SAID32 WIPP 072330	METAR WIPP 072330Z 29004KT 1000 BR FEW010 26/25 Q1010=
08/12/2020 00:00:00Z	 SAID32 WIPP 080000	METAR WIPP 080000Z 30006KT 6000 FEW010 26/25 Q1011 NOSIG=
08/12/2020 00:30:00Z	 SAID32 WIPP 080030	METAR WIPP 080030Z 31009KT 9999 FEW010 27/25 Q1011 NOSIG=
08/12/2020 01:00:00Z	 SAID32 WIPP 080100	METAR WIPP 080100Z 32010KT 9999 FEW010 28/25 Q1011 NOSIG=
08/12/2020 01:30:00Z	 SAID32 WIPP 080130	METAR WIPP 080130Z 33009KT 9999 FEW010 29/26 Q1011 NOSIG=
08/12/2020 02:00:00Z	 SAID32 WIPP 080200	METAR WIPP 080200Z 32012KT 9999 SCT010 30/25 Q1011 NOSIG=
08/12/2020 02:30:00Z	 SAID32 WIPP 080230	METAR WIPP 080230Z 30011KT 9999 BKN010 30/25 Q1011 NOSIG=
08/12/2020 03:00:00Z	 SAID32 WIPP 080300	METAR WIPP 080300Z 30009KT 9999 BKN010 31/25 Q1010 NOSIG=
08/12/2020 03:30:00Z	 SAID32 WIPP 080330	METAR WIPP 080330Z 30011KT 9999 BKN010 31/23 Q1010 NOSIG=
08/12/2020 04:00:00Z	 SAID32 WIPP 080400	METAR WIPP 080400Z 30011KT 9999 BKN010 31/24 Q1010 NOSIG=
08/12/2020 04:30:00Z	 SAID32 WIPP 080430	METAR WIPP 080430Z 31014KT 9999 BKN010 32/23 Q1009 NOSIG=
08/12/2020 05:00:00Z	 SAID32 WIPP 080500	METAR WIPP 080500Z 31008KT 9999 BKN010 32/24 Q1009 NOSIG=
08/12/2020 05:30:00Z	 SAID32 WIPP 080530	METAR WIPP 080530Z 28013KT 9999 BKN010 33/24 Q1008 NOSIG=
08/12/2020 06:00:00Z	 SAID32 WIPP 080600	METAR WIPP 080600Z 31013KT 9999 BKN010 33/24 Q1007 NOSIG=
08/12/2020 06:30:00Z	 SAID32 WIPP 080630	METAR WIPP 080630Z 33012KT 9999 BKN010 33/24 Q1007 NOSIG=
08/12/2020 07:00:00Z	 SAID32 WIPP 080700	METAR WIPP 080700Z 30014KT 9999 SCT010 34/22 Q1006 NOSIG=
08/12/2020 07:30:00Z	 SAID32 WIPP 080730	METAR WIPP 080730Z 31009KT 9999 SCT010 33/23 Q1006 NOSIG=
08/12/2020 08:00:00Z	 SAID32 WIPP 080800	METAR WIPP 080800Z 32011KT 9999 SCT010 34/24 Q1006 NOSIG=
08/12/2020 08:30:00Z	 SAID32 WIPP 080830	METAR WIPP 080830Z 31011KT 9999 SCT010 34/23 Q1006 NOSIG=
08/12/2020 09:00:00Z	 SAID32 WIPP 080900	METAR WIPP 080900Z 33007KT 9999 SCT010 33/24 Q1006 NOSIG=
08/12/2020 09:30:00Z	 SAID32 WIPP 080930	METAR WIPP 080930Z 35008KT 9999 SCT010 33/24 Q1006 NOSIG=
08/12/2020 10:00:00Z	 SAID32 WIPP 081000	METAR WIPP 081000Z 02010KT 9999 FEW010CB SCT010 31/26 Q1006 RMK CB TO S=
08/12/2020 10:30:00Z	 SAID32 WIPP 081030	METAR WIPP 081030Z 03006KT 9999 FEW010CB SCT010 31/26 Q1007 RMK CB TO S=
08/12/2020 11:00:00Z	 SAID32 WIPP 081100	METAR WIPP 081100Z 02007KT 9999 FEW010CB SCT010 30/26 Q1007 RMK CB TO SW=
08/12/2020 11:30:00Z	 SAID32 WIPP 081130	METAR WIPP 081130Z 01007KT 9999 FEW010CB SCT010 29/25 Q1007 RMK CB TO SW=
08/12/2020 12:00:00Z	 SAID32 WIPP 081200	METAR WIPP 081200Z 35010KT 9999 TS FEW010CB SCT010 29/25 Q1008 RMK CB OVER THE FIELD=
08/12/2020 12:30:00Z	 SAID32 WIPP 081230	METAR WIPP 081230Z 29008KT 3000 TSRA FEW010CB BKN010 25/24 Q1009 RMK CB OVER THE FIELD=
08/12/2020 13:00:00Z	 SAID32 WIPP 081300	METAR WIPP 081300Z 35005KT 8000 -RA FEW010CB BKN010 24/23 Q1109 RMK CB TO SE=
08/12/2020 14:00:00Z	 SAID32 WIPP 081400	METAR WIPP 081400Z 29005KT 6000 -RA FEW010CB SCT010 23/22 Q1010 RMK CB TO SE=
08/12/2020 15:00:00Z	 SAID32 WIPP 081500	METAR WIPP 081500Z 00000KT 6000 -RA FEW010CB SCT010 24/23 Q1010 RMK CB TO NE=
08/12/2020 16:00:00Z	 SAID32 WIPP 081600	METAR WIPP 081600Z 23002KT 8000 -RA SCT010 24/23 Q1010=
08/12/2020 17:00:00Z	 SAID32 WIPP 081700	METAR WIPP 081700Z 25003KT 8000 -RA FEW010CB SCT010 24/23 Q1010 RMK CB TO NW=
08/12/2020 18:00:00Z	 SAID32 WIPP 081800	METAR WIPP 081800Z 00000KT 8000 -RA FEW010CB SCT010 24/23 Q1009 RMK CB TO NW=
08/12/2020 19:00:00Z	 SAID32 WIPP 081900	METAR WIPP 081900Z 32007KT 3000 RA FEW010CB SCT010 24/23 Q1009 RMK CB TO NW=
08/12/2020 20:00:00Z	 SAID32 WIPP 082000	METAR WIPP 082000Z 32007KT 8000 -RA FEW010CB SCT010 24/23 Q1009 RMK CB TO N=
08/12/2020 21:00:00Z	 SAID32 WIPP 082100	METAR WIPP 082100Z 31004KT 9999 SCT010 24/23 Q1009=
08/12/2020 22:00:00Z	 SAID32 WIPP 082200	METAR WIPP 082200Z 31005KT 8000 -RA SCT010 24/23 Q1010=
08/12/2020 22:30:00Z	 SAID32 WIPP 082230	METAR WIPP 082230Z 33005KT 8000 -RA SCT010 24/23 Q1010=
08/12/2020 23:00:00Z	 SAID32 WIPP 082300	METAR WIPP 082300Z 32004KT 6000 FEW010 24/23 Q1010=
08/12/2020 23:30:00Z	 SAID32 WIPP 082330	METAR WIPP 082330Z 31003KT 8000 FEW010 24/23 Q1011=
09/12/2020 00:00:00Z	 SAID32 WIPP 090000	METAR WIPP 090000Z 32003KT 5000 HZ FEW010 24/23 Q1011=
09/12/2020 00:30:00Z	 SAID32 WIPP 090030	METAR WIPP 090030Z 31005KT 4000 -RA FEW010 24/23 Q1011=
09/12/2020 01:00:00Z	 SAID32 WIPP 090100	METAR WIPP 090100Z 30008KT 2000 -RA SCT010 25/24 Q1011=
09/12/2020 01:30:00Z	 SAID32 WIPP 090130	METAR WIPP 090130Z 30005KT 4000 -RA SCT010 25/24 Q1011=
09/12/2020 02:00:00Z	 SAID32 WIPP 090200	METAR WIPP 090200Z 32008KT 6000 SCT010 26/25 Q1011 RERA=
09/12/2020 02:30:00Z	 SAID32 WIPP 090230	METAR WIPP 090230Z 30005KT 9999 SCT010 26/24 Q1010 NOSIG=
09/12/2020 03:00:00Z	 SAID32 WIPP 090300	METAR WIPP 090300Z 30007KT 9999 SCT010 27/25 Q1010 NOSIG=
09/12/2020 03:30:00Z	 SAID32 WIPP 090330	METAR WIPP 090330Z 32008KT 9999 SCT010 27/25 Q1010 NOSIG=
09/12/2020 04:00:00Z	 SAID32 WIPP 090400	METAR WIPP 090400Z 30008KT 9999 BKN010 28/25 Q1010 NOSIG=
09/12/2020 04:30:00Z	 SAID32 WIPP 090430	METAR WIPP 090430Z 32010KT 9999 BKN010 28/25 Q1010 NOSIG=
09/12/2020 05:00:00Z	 SAID32 WIPP 090500	METAR WIPP 090500Z 32010KT 9999 SCT008 29/25 Q1009 NOSIG=
09/12/2020 05:30:00Z	 SAID32 WIPP 090530	METAR WIPP 090530Z 32010KT 9999 SCT008 29/25 Q1009 NOSIG=
09/12/2020 06:00:00Z	 SAID32 WIPP 090600	METAR WIPP 090600Z 32012KT 9999 SCT008 29/25 Q1009 NOSIG=
09/12/2020 06:30:00Z	 SAID32 WIPP 090630	METAR WIPP 090630Z 32010KT 9999 SCT010 30/25 Q1008 NOSIG=
09/12/2020 07:00:00Z	 SAID32 WIPP 090700	METAR WIPP 090700Z 32008KT 9999 BKN010 30/25 Q1007 NOSIG=
09/12/2020 07:30:00Z	 SAID32 WIPP 090730	METAR WIPP 090730Z 32010KT 9999 BKN010 31/25 Q1006 NOSIG=
09/12/2020 08:00:00Z	 SAID32 WIPP 090800	METAR WIPP 090800Z 31010KT 9999 SCT010 31/25 Q1006 NOSIG=
09/12/2020 08:30:00Z	 SAID32 WIPP 090830	METAR WIPP 090830Z 30012KT 9999 SCT010 31/24 Q1006 NOSIG=
09/12/2020 09:00:00Z	 SAID32 WIPP 090900	METAR WIPP 090900Z 30005KT 9999 BKN010 FEW012CB 31/25 Q1006 RMK CB TO W=
09/12/2020 09:30:00Z	 SAID32 WIPP 090930	METAR WIPP 090930Z 32008KT 9999 BKN010 FEW012CB 30/25 Q1006 RMK CB TO SE AND SW=
09/12/2020 10:00:00Z	 SAID32 WIPP 091000	METAR WIPP 091000Z 27010KT 8000 -RA BKN010 FEW012CB 29/25 Q1006 TL1100 28009G25KT 3000 TSRA RMK CB TO SE AND SW=
09/12/2020 10:30:00Z	 SAID32 WIPP 091030	METAR WIPP 091030Z 27010KT 8000 BKN010 FEW012CB 28/25 Q1007 RERA RMK CB TO SE=
09/12/2020 11:00:00Z	 SAID32 WIPP 091100	METAR WIPP 091100Z 29005KT 8000 SCT010 FEW012CB 27/25 Q1007 RMK CB TO E=
09/12/2020 11:30:00Z	 SAID32 WIPP 091130	METAR WIPP 091130Z 30003KT 6000 SCT010 FEW012CB 27/25 Q1007 RMK CB TO E=
09/12/2020 12:00:00Z	 SAID32 WIPP 091200	METAR WIPP 091200Z 29005KT 6000 SCT010 FEW012CB 27/25 Q1007 RMK CB TO NW=
09/12/2020 12:30:00Z	 SAID32 WIPP 091230	METAR WIPP 091230Z 00000KT 5000 HZ SCT010 FEW012CB 27/25 Q1008 RMK CB TO NW=
09/12/2020 13:00:00Z	 SAID32 WIPP 091300	METAR WIPP 091300Z 30003KT 5000 HZ SCT010 27/24 Q1008=
09/12/2020 14:00:00Z	 SAID32 WIPP 091400	METAR WIPP 091400Z 34003KT 5000 HZ SCT010 27/25 Q1009=
09/12/2020 15:00:00Z	 SAID32 WIPP 091500	METAR WIPP 091500Z 30002KT 7000 SCT010 26/25 Q1009=
09/12/2020 16:00:00Z	 SAID32 WIPP 091600	METAR WIPP 091600Z 24002KT 5000 HZ SCT010 26/25 Q1009=
09/12/2020 17:00:00Z	 SAID32 WIPP 091700	METAR WIPP 091700Z 30002KT 5000 HZ SCT010 26/25 Q1009=
09/12/2020 18:00:00Z	 SAID32 WIPP 091800	METAR WIPP 091800Z 33004KT 5000 HZ SCT010 26/25 Q1008=
09/12/2020 19:00:00Z	 SAID32 WIPP 091900	METAR WIPP 091900Z 30005KT 5000 HZ SCT010 26/25 Q1007=
09/12/2020 20:00:00Z	 SAID32 WIPP 092000	METAR WIPP 092000Z 33004KT 6000 FEW010 25/24 Q1006=
09/12/2020 21:00:00Z	 SAID32 WIPP 092100	METAR WIPP 092100Z 28003KT 4000 BR FEW010 25/24 Q1007=
09/12/2020 23:00:00Z	 SAID32 WIPP 092300	METAR WIPP 092300Z 28003KT 1500 BR SCT010 25/24 Q1008=
09/12/2020 23:30:00Z	 SAID32 WIPP 092330	METAR WIPP 092330Z 31004KT 2000 BR SCT010 25/25 Q1009=
10/12/2020 00:00:00Z	 SAID32 WIPP 100000	METAR WIPP 100000Z 28003KT 2000 BR BKN010 25/24 Q1009=
10/12/2020 00:30:00Z	 SAID32 WIPP 100030	METAR WIPP 100030Z 24005KT 5000 HZ SCT010 26/25 Q1009=
10/12/2020 01:00:00Z	 SAID32 WIPP 100100	METAR WIPP 100100Z 28005KT 8000 SCT010 26/25 Q1009 NOSIG=
10/12/2020 01:30:00Z	 SAID32 WIPP 100130	METAR WIPP 100130Z 30005KT 8000 SCT010 27/25 Q1010 NOSIG=
10/12/2020 02:00:00Z	 SAID32 WIPP 100200	METAR WIPP 100200Z 30005KT 9999 BKN010 28/25 Q1010 NOSIG=
10/12/2020 02:30:00Z	 SAID32 WIPP 100230	METAR WIPP 100230Z 31006KT 9999 BKN010 28/24 Q1010 NOSIG=
10/12/2020 03:00:00Z	 SAID32 WIPP 100300	METAR WIPP 100300Z 31007KT 9999 BKN010 28/24 Q1010 NOSIG=
10/12/2020 03:30:00Z	 SAID32 WIPP 100330	METAR WIPP 100330Z 32008KT 9999 BKN010 28/24 Q1010 NOSIG=
10/12/2020 04:00:00Z	 SAID32 WIPP 100400	METAR WIPP 100400Z 31006KT 9999 BKN010 28/25 Q1010 NOSIG=
10/12/2020 04:30:00Z	 SAID32 WIPP 100430	METAR WIPP 100430Z 31008KT 9999 BKN010 28/24 Q1009 NOSIG=
10/12/2020 05:00:00Z	 SAID32 WIPP 100500	METAR WIPP 100500Z 32008KT 9999 BKN010 29/24 Q1009 NOSIG=
10/12/2020 05:30:00Z	 SAID32 WIPP 100530	METAR WIPP 100530Z 32009KT 9999 SCT010 30/24 Q1008 NOSIG=
10/12/2020 06:00:00Z	 SAID32 WIPP 100600	METAR WIPP 100600Z 33009KT 9999 SCT010 30/24 Q1008 NOSIG=
10/12/2020 06:30:00Z	 SAID32 WIPP 100630	METAR WIPP 100630Z 33007KT 9999 SCT010 29/24 Q1008 NOSIG=
10/12/2020 07:00:00Z	 SAID32 WIPP 100700	METAR WIPP 100700Z 34006KT 9999 FEW010 29/24 Q1007 NOSIG=
10/12/2020 07:30:00Z	 SAID32 WIPP 100730	METAR WIPP 100730Z 32007KT 9999 FEW010 29/24 Q1006 NOSIG=
10/12/2020 08:00:00Z	 SAID32 WIPP 100800	METAR WIPP 100800Z 31007KT 9999 FEW010 30/24 Q1006 NOSIG=
10/12/2020 08:30:00Z	 SAID32 WIPP 100830	METAR WIPP 100830Z 31009KT 9999 FEW010 30/24 Q1006 NOSIG=
10/12/2020 09:00:00Z	 SAID32 WIPP 100900	METAR WIPP 100900Z 31008KT 9999 FEW010 30/24 Q1006 NOSIG=
10/12/2020 09:30:00Z	 SAID32 WIPP 100930	METAR WIPP 100930Z 31007KT 9999 FEW010 30/24 Q1006 NOSIG=
10/12/2020 10:00:00Z	 SAID32 WIPP 101000	METAR WIPP 101000Z 30006KT 9999 FEW010CB FEW010 30/25 Q1007 RMK CB TO SW=
10/12/2020 10:30:00Z	 SAID32 WIPP 101030	METAR WIPP 101030Z 26006KT 9999 FEW010 29/25 Q1007 NOSIG=
10/12/2020 11:00:00Z	 SAID32 WIPP 101100	METAR WIPP 101100Z 26007KT 9999 FEW010 29/25 Q1008 NOSIG=
10/12/2020 11:30:00Z	 SAID32 WIPP 101130	METAR WIPP 101130Z 25012KT 8000 -TSRA FEW010CB SCT010 25/22 Q1008 RMK CB TO NW=
10/12/2020 12:00:00Z	 SAID32 WIPP 101200	METAR WIPP 101200Z 29007KT 9999 TS FEW010CB SCT010 25/22 Q1009 RMK CB TO NE=
10/12/2020 12:30:00Z	 SAID32 WIPP 101230	METAR WIPP 101230Z 28005KT 8000 -TSRA FEW010CB SCT010 25/22 Q1009 TEMPO TL1300 3000 TSRA RMK CB OVER THE FIELD=
10/12/2020 13:00:00Z	 SAID32 WIPP 101300	METAR WIPP 101300Z 00000KT 8000 -RA FEW010CB BKN010 25/23 Q1009 RMK CB TO N=
10/12/2020 14:00:00Z	 SAID32 WIPP 101400	METAR WIPP 101400Z 34005KT 5000 BR BKN010 25/23 Q1010=
10/12/2020 15:00:00Z	 SAID32 WIPP 101500	METAR WIPP 101500Z 00000KT 9999 SCT010 24/23 Q1010 NOSIG=
10/12/2020 16:00:00Z	 SAID32 WIPP 101600	METAR WIPP 101600Z 00000KT 8000 -RA SCT010 24/23 Q1010=
10/12/2020 17:00:00Z	 SAID32 WIPP 101700	METAR WIPP 101700Z 00000KT 8000 SCT010 24/23 Q1010 RERA=
10/12/2020 17:30:00Z	 SAID32 WIPP 101730	METAR WIPP 101730Z AUTO 02002KT 6000NDV NCD 24/24 Q1010=
10/12/2020 18:00:00Z	 SAID32 WIPP 101800	METAR WIPP 101800Z 35003KT 6000 SCT010 24/23 Q1009 NOSIG=
10/12/2020 18:30:00Z	 SAID32 WIPP 101830	METAR WIPP 101830Z AUTO 36003KT 9999NDV NCD 24/24 Q1009=
10/12/2020 19:00:00Z	 SAID32 WIPP 101900	METAR WIPP 101900Z AUTO VRB02KT 5000NDV NCD 24/24 Q1008=
10/12/2020 19:30:00Z	 SAID32 WIPP 101930	METAR WIPP 101930Z AUTO 05002KT 5000NDV NCD 24/24 Q1008=
10/12/2020 20:00:00Z	 SAID32 WIPP 102000	METAR WIPP 102000Z AUTO 35002KT 9999NDV NCD 24/24 Q1008=
10/12/2020 20:30:00Z	 SAID32 WIPP 102030	METAR WIPP 102030Z AUTO 29003KT 4300NDV BR NCD 23/23 Q1008=
10/12/2020 21:00:00Z	 SAID32 WIPP 102100	METAR WIPP 102100Z AUTO 25003KT 3600NDV BR NCD 23/23 Q1008=
10/12/2020 21:30:00Z	 SAID32 WIPP 102130	METAR WIPP 102130Z AUTO 00000KT 2800NDV BR SCT022 23/23 Q1008=
10/12/2020 22:00:00Z	 SAID32 WIPP 102200	METAR WIPP 102200Z AUTO 31004KT 5000NDV NCD 23/24 Q1008=
10/12/2020 22:30:00Z	 SAID32 WIPP 102230	METAR WIPP 102230Z AUTO 28002KT 2600NDV BR SCT044 23/23 Q1009=
10/12/2020 23:00:00Z	 SAID32 WIPP 102300	METAR WIPP 102300Z 00000KT 1500 BR SCT012 24/23 Q1009=
10/12/2020 23:30:00Z	 SAID32 WIPP 102330	METAR WIPP 102330Z 00000KT 2000 BR SCT012 24/23 Q1009=
11/12/2020 00:00:00Z	 SAID32 WIPP 110000	METAR WIPP 110000Z 32003KT 4000 BR SCT010 24/23 Q1009=
11/12/2020 00:30:00Z	 SAID32 WIPP 110030	METAR WIPP 110030Z 29005KT 6000 SCT010 24/23 Q1010 NOSIG=
11/12/2020 01:00:00Z	 SAID32 WIPP 110100	METAR WIPP 110100Z 29004KT 9999 FEW010 25/23 Q1010 NOSIG=
11/12/2020 01:30:00Z	 SAID32 WIPP 110130	METAR WIPP 110130Z 28005KT 9999 FEW010 26/23 Q1010 NOSIG=
11/12/2020 02:00:00Z	 SAID32 WIPP 110200	METAR WIPP 110200Z 30006KT 9999 FEW010 27/24 Q1011 NOSIG=
11/12/2020 02:30:00Z	 SAID32 WIPP 110230	METAR WIPP 110230Z 31007KT 9999 FEW010 27/24 Q1011 NOSIG=
11/12/2020 03:00:00Z	 SAID32 WIPP 110300	METAR WIPP 110300Z 32010KT 9999 FEW010 28/24 Q1010 NOSIG=
11/12/2020 03:30:00Z	 SAID32 WIPP 110330	METAR WIPP 110330Z 29009KT 9999 FEW010 28/24 Q1010 NOSIG=
11/12/2020 04:00:00Z	 SAID32 WIPP 110400	METAR WIPP 110400Z 28007KT 9999 SCT010 28/25 Q1010 NOSIG=
11/12/2020 04:30:00Z	 SAID32 WIPP 110430	METAR WIPP 110430Z 31007KT 9999 SCT010 29/25 Q1009 NOSIG=
11/12/2020 05:00:00Z	 SAID32 WIPP 110500	METAR WIPP 110500Z 32010KT 9999 BKN010 30/24 Q1009 NOSIG=
11/12/2020 05:30:00Z	 SAID32 WIPP 110530	METAR WIPP 110530Z 33010KT 9999 BKN010 30/24 Q1008 NOSIG=
11/12/2020 06:00:00Z	 SAID32 WIPP 110600	METAR WIPP 110600Z 30010KT 9999 BKN010 30/24 Q1008 NOSIG=
11/12/2020 06:30:00Z	 SAID32 WIPP 110630	METAR WIPP 110630Z 26004KT 9999 BKN010 29/25 Q1007 NOSIG=
11/12/2020 07:00:00Z	 SAID32 WIPP 110700	METAR WIPP 110700Z 25003KT 9999 BKN010 30/25 Q1007 NOSIG=
11/12/2020 07:30:00Z	 SAID32 WIPP 110730	METAR WIPP 110730Z 26004KT 9999 BKN010 31/24 Q1006 NOSIG=
11/12/2020 08:00:00Z	 SAID32 WIPP 110800	METAR WIPP 110800Z 27007KT 9999 SCT010 31/24 Q1006 NOSIG=
11/12/2020 08:30:00Z	 SAID32 WIPP 110830	METAR WIPP 110830Z 27010KT 9999 SCT010 32/23 Q1006 NOSIG=
11/12/2020 09:00:00Z	 SAID32 WIPP 110900	METAR WIPP 110900Z 27007KT 9999 SCT010 32/24 Q1006 NOSIG=
11/12/2020 09:30:00Z	 SAID32 WIPP 110930	METAR WIPP 110930Z 35006KT 9999 SCT010 31/25 Q1006 NOSIG=
11/12/2020 10:00:00Z	 SAID32 WIPP 111000	METAR WIPP 111000Z 35005KT 9999 FEW010 31/25 Q1006 NOSIG=
11/12/2020 10:30:00Z	 SAID32 WIPP 111030	METAR WIPP 111030Z 31005KT 9999 FEW010 31/24 Q1006 NOSIG=
11/12/2020 11:00:00Z	 SAID32 WIPP 111100	METAR WIPP 111100Z 34004KT 9999 FEW010 30/25 Q1007 NOSIG=
11/12/2020 11:30:00Z	 SAID32 WIPP 111130	METAR WIPP 111130Z 32005KT 9999 FEW010 29/25 Q1007 NOSIG=
11/12/2020 12:00:00Z	 SAID32 WIPP 111200	METAR WIPP 111200Z 05004KT 9999 FEW010 29/25 Q1007 NOSIG=
11/12/2020 12:30:00Z	 SAID32 WIPP 111230	METAR WIPP 111230Z 08002KT 9999 FEW010 28/25 Q1008 NOSIG=
11/12/2020 13:00:00Z	 SAID32 WIPP 111300	METAR WIPP 111300Z 10003KT 9999 FEW010 28/25 Q1009 NOSIG=
11/12/2020 13:30:00Z	 SAID32 WIPP 111330	METAR WIPP 111330Z 00000KT 9999 FEW010 28/25 Q1009 NOSIG=
11/12/2020 14:00:00Z	 SAID32 WIPP 111400	METAR WIPP 111400Z 00000KT 9999 FEW010 28/25 Q1010 NOSIG=
11/12/2020 14:30:00Z	 SAID32 WIPP 111430	METAR WIPP 111430Z 00000KT 8000 FEW010 27/25 Q1010 NOSIG=
11/12/2020 15:00:00Z	 SAID32 WIPP 111500	METAR WIPP 111500Z 00000KT 8000 FEW010 27/25 Q1010 NOSIG=
11/12/2020 15:30:00Z	 SAID32 WIPP 111530	METAR WIPP 111530Z 21005KT 8000 FEW010 27/25 Q1010 NOSIG=
11/12/2020 16:00:00Z	 SAID32 WIPP 111600	METAR WIPP 111600Z 21004KT 8000 FEW010 27/24 Q1010 NOSIG=
11/12/2020 16:30:00Z	 SAID32 WIPP 111630	METAR WIPP 111630Z 22003KT 9999 FEW010 27/24 Q1010 NOSIG=
11/12/2020 17:00:00Z	 SAID32 WIPP 111700	METAR WIPP 111700Z 00000KT 7000 FEW010 26/24 Q1009 NOSIG=
11/12/2020 18:00:00Z	 SAID32 WIPP 111800	METAR WIPP 111800Z 00000KT 6000 FEW010 26/24 Q1009 NOSIG=
11/12/2020 18:30:00Z	 SAID32 WIPP 111830	METAR WIPP 111830Z 22003KT 6000 FEW010 26/24 Q1008 NOSIG=
11/12/2020 19:00:00Z	 SAID32 WIPP 111900	METAR WIPP 111900Z 00000KT 6000 FEW010 26/24 Q1008 NOSIG=
11/12/2020 19:30:00Z	 SAID32 WIPP 111930	METAR WIPP 111930Z 00000KT 6000 FEW010 26/24 Q1008 NOSIG=
11/12/2020 20:00:00Z	 SAID32 WIPP 112000	METAR WIPP 112000Z 26007KT 8000 -RA SCT010 26/24 Q1008 NOSIG=
11/12/2020 20:30:00Z	 SAID32 WIPP 112030	METAR WIPP 112030Z 30004KT 8000 -RA FEW010CB SCT010 25/23 Q1008 RMK CB TO NW=
11/12/2020 21:00:00Z	 SAID32 WIPP 112100	METAR WIPP 112100Z 29004KT 7000 -TSRA FEW010CB SCT010 25/23 Q1008 RMK CB TO NE=
11/12/2020 21:30:00Z	 SAID32 WIPP 112130	METAR WIPP 112130Z 00000KT 7000 -RA FEW010CB SCT010 25/23 Q1008 RMK CB TO NE=
11/12/2020 22:00:00Z	 SAID32 WIPP 112200	METAR WIPP 112200Z 00000KT 3000 HZ SCT010 25/24 Q1008=
11/12/2020 22:30:00Z	 SAID32 WIPP 112230	METAR WIPP 112230Z 28003KT 2000 BR FEW010CB SCT010 25/24 Q1008 RMK CB TO E=
11/12/2020 23:00:00Z	 SAID32 WIPP 112300	METAR WIPP 112300Z 22003KT 0700 FG BKN010 25/24 Q1008=
11/12/2020 23:30:00Z	 SAID32 WIPP 112330	METAR WIPP 112330Z 00000KT 1100 -RA BKN010 25/24 Q1009=
12/12/2020 00:00:00Z	 SAID32 WIPP 120000	METAR WIPP 120000Z 00000KT 2000 BR SCT010 25/24 Q1009=
12/12/2020 00:30:00Z	 SAID32 WIPP 120030	METAR WIPP 120030Z 00000KT 3500 BR FEW010 25/24 Q1009=
12/12/2020 01:00:00Z	 SAID32 WIPP 120100	METAR WIPP 120100Z 00000KT 5000 HZ FEW010 26/24 Q1010=
12/12/2020 01:30:00Z	 SAID32 WIPP 120130	METAR WIPP 120130Z 00000KT 6000 FEW010 26/25 Q1010=
12/12/2020 02:00:00Z	 SAID32 WIPP 120200	METAR WIPP 120200Z 00000KT 8000 FEW010 27/24 Q1010=
12/12/2020 02:30:00Z	 SAID32 WIPP 120230	METAR WIPP 120230Z 00000KT 8000 FEW010 27/24 Q1010=
12/12/2020 03:00:00Z	 SAID32 WIPP 120300	METAR WIPP 120300Z 29004KT 8000 FEW010 28/25 Q1010=
12/12/2020 03:30:00Z	 SAID32 WIPP 120330	METAR WIPP 120330Z 31005KT 9999 FEW010 28/25 Q1010=
12/12/2020 04:00:00Z	 SAID32 WIPP 120400	METAR WIPP 120400Z 31004KT 9999 BKN010 28/25 Q1009=
12/12/2020 04:30:00Z	 SAID32 WIPP 120430	METAR WIPP 120430Z 28004KT 9999 BKN010 29/24 Q1009=
12/12/2020 05:00:00Z	 SAID32 WIPP 120500	METAR WIPP 120500Z 31004KT 9999 SCT010 29/24 Q1008=
12/12/2020 05:30:00Z	 SAID32 WIPP 120530	METAR WIPP 120530Z 31005KT 9999 SCT010 30/25 Q1008=
12/12/2020 06:00:00Z	 SAID32 WIPP 120600	METAR WIPP 120600Z 30007KT 9999 SCT010 30/25 Q1007=
12/12/2020 06:30:00Z	 SAID32 WIPP 120630	METAR WIPP 120630Z 12004KT 9999 SCT010 30/24 Q1006=
12/12/2020 07:00:00Z	 SAID32 WIPP 120700	METAR WIPP 120700Z 20004KT 9999 SCT010 30/24 Q1006=
12/12/2020 07:30:00Z	 SAID32 WIPP 120730	METAR WIPP 120730Z 33005KT 9999 SCT010 31/24 Q1005=
12/12/2020 08:00:00Z	 SAID32 WIPP 120800	METAR WIPP 120800Z 32005KT 9999 FEW010 31/24 Q1005=
12/12/2020 08:30:00Z	 SAID32 WIPP 120830	METAR WIPP 120830Z 31003KT 9999 FEW010 30/24 Q1005=
12/12/2020 09:00:00Z	 SAID32 WIPP 120900	METAR WIPP 120900Z 28004KT 9999 FEW010 30/24 Q1005=
12/12/2020 09:30:00Z	 SAID32 WIPP 120930	METAR WIPP 120930Z 3500T 8000 FEW010 30/25 Q1005=
12/12/2020 10:00:00Z	 SAID32 WIPP 121000	METAR WIPP 121000Z 13002KT 9999 FEW010 29/25 Q1006=
12/12/2020 10:30:00Z	 SAID32 WIPP 121030	METAR WIPP 121030Z 24002KT 9999 FEW010 29/25 Q1006=
12/12/2020 11:00:00Z	 SAID32 WIPP 121100	METAR WIPP 121100Z 36002KT 9999 FEW010 29/25 Q1006=
12/12/2020 11:30:00Z	 SAID32 WIPP 121130	METAR WIPP 121130Z 09002KT 9999 FEW010 28/25 Q1007=
12/12/2020 12:00:00Z	 SAID32 WIPP 121200	METAR WIPP 121200Z 00000KT 8000 FEW010 28/25 Q1007=
12/12/2020 12:30:00Z	 SAID32 WIPP 121230	METAR WIPP 121230Z 01002KT 9999 FEW010 28/25 Q1007=
12/12/2020 13:00:00Z	 SAID32 WIPP 121300	METAR WIPP 121300Z 00000KT 9999 FEW010 27/25 Q1008 NOSIG=
12/12/2020 14:00:00Z	 SAID32 WIPP 121400	METAR WIPP 121400Z 22002KT 6000 FEW010 27/25 Q1008 NOSIG=
12/12/2020 15:00:00Z	 SAID32 WIPP 121500	METAR WIPP 121500Z 00000KT 5000 HZ FEW010 27/25 Q1009=
12/12/2020 16:00:00Z	 SAID32 WIPP 121600	METAR WIPP 121600Z 00000KT 4000 HZ FEW010 27/25 Q1008=
12/12/2020 17:00:00Z	 SAID32 WIPP 121700	METAR WIPP 121700Z 00000KT 2000 BR FEW010 26/25 Q1008=
12/12/2020 18:00:00Z	 SAID32 WIPP 121800	METAR WIPP 121800Z 23003KT 1000 BR FEW010 26/24 Q1008=
12/12/2020 19:00:00Z	 SAID32 WIPP 121900	METAR WIPP 121900Z 24002KT 1000 BR FEW010 25/24 Q1008=
12/12/2020 20:00:00Z	 SAID32 WIPP 122000	METAR WIPP 122000Z 30003KT 2000 BR FEW010 25/24 Q1008=
12/12/2020 21:00:00Z	 SAID32 WIPP 122100	METAR WIPP 122100Z 26003KT 3000 BR FEW010 25/24 Q1008=
12/12/2020 22:00:00Z	 SAID32 WIPP 122200	METAR WIPP 122200Z 29003KT 3000 BR FEW010 25/24 Q1008=
12/12/2020 22:30:00Z	 SAID32 WIPP 122230	METAR WIPP 122230Z 31004KT 3000 BR FEW010 25/24 Q1008=
12/12/2020 23:00:00Z	 SAID32 WIPP 122300	METAR WIPP 122300Z 31003KT 3000 BR FEW010 25/23 Q1008=
12/12/2020 23:30:00Z	 SAID32 WIPP 122330	METAR WIPP 122330Z 30005KT 3000 BR FEW010 25/23 Q1009=
13/12/2020 00:00:00Z	 SAID32 WIPP 130000	METAR WIPP 130000Z 31005KT 4000 HZ FEW010 25/23 Q1009=
13/12/2020 00:30:00Z	 SAID32 WIPP 130030	METAR WIPP 130030Z 30006KT 6000 FEW010 25/24 Q1010 NOSIG=
13/12/2020 01:00:00Z	 SAID32 WIPP 130100	METAR WIPP 130100Z 30006KT 8000 FEW010 26/24 Q1010 NOSIG=
13/12/2020 01:30:00Z	 SAID32 WIPP 130130	METAR WIPP 130130Z 30008KT 9999 FEW010 26/24 Q1010 NOSIG=
13/12/2020 02:00:00Z	 SAID32 WIPP 130200	METAR WIPP 130200Z 30007KT 9999 FEW010 26/24 Q1010 NOSIG=
13/12/2020 02:30:00Z	 SAID32 WIPP 130230	METAR WIPP 130230Z 29008KT 9999 FEW010 27/23 Q1010 NOSIG=
13/12/2020 03:00:00Z	 SAID32 WIPP 130300	METAR WIPP 130300Z 27004KT 8000 FEW010 27/23 Q1009 NOSIG=
13/12/2020 03:30:00Z	 SAID32 WIPP 130330	METAR WIPP 130330Z 27005KT 9999 FEW010 27/23 Q1009 NOSIG=
13/12/2020 04:00:00Z	 SAID32 WIPP 130400	METAR WIPP 130400Z 25004KT 9999 FEW010 28/23 Q1009 NOSIG=
13/12/2020 04:30:00Z	 SAID32 WIPP 130430	METAR WIPP 130430Z 25004KT 9999 FEW010 28/23 Q1008 NOSIG=
13/12/2020 05:00:00Z	 SAID32 WIPP 130500	METAR WIPP 130500Z 25004KT 9999 FEW010 29/23 Q1008 NOSIG=
13/12/2020 05:30:00Z	 SAID32 WIPP 130530	METAR WIPP 130530Z 23004KT 9999 FEW010 29/24 Q1008 NOSIG=
13/12/2020 06:00:00Z	 SAID32 WIPP 130600	METAR WIPP 130600Z 23003KT 9999 FEW010 29/23 Q1008 NOSIG=
13/12/2020 06:30:00Z	 SAID32 WIPP 130630	METAR WIPP 130630Z 26003KT 9999 FEW010 30/24 Q1007 NOSIG=
13/12/2020 07:00:00Z	 SAID32 WIPP 130700	METAR WIPP 130700Z 10002KT 9999 FEW010 30/23 Q1007 NOSIG=
13/12/2020 07:30:00Z	 SAID32 WIPP 130730	METAR WIPP 130730Z 31005KT 9999 FEW010 31/23 Q1006 NOSIG=
13/12/2020 08:00:00Z	 SAID32 WIPP 130800	METAR WIPP 130800Z 35002KT 9999 SCT010 31/23 Q1006 NOSIG=
13/12/2020 08:30:00Z	 SAID32 WIPP 130830	METAR WIPP 130830Z 10004KT 9999 SCT010 31/24 Q1006 NOSIG=
13/12/2020 09:00:00Z	 SAID32 WIPP 130900	METAR WIPP 130900Z 04005KT 9999 SCT010 31/23 Q1006 NOSIG=
13/12/2020 09:30:00Z	 SAID32 WIPP 130930	METAR WIPP 130930Z 36006KT 9999 FEW010 30/23 Q1006 NOSIG=
13/12/2020 10:00:00Z	 SAID32 WIPP 131000	METAR WIPP 131000Z 36003KT 9999 FEW010 30/24 Q1006 NOSIG=
13/12/2020 10:30:00Z	 SAID32 WIPP 131030	METAR WIPP 131030Z 34003KT 9999 FEW010 30/24 Q1006 NOSIG=
13/12/2020 11:00:00Z	 SAID32 WIPP 131100	METAR WIPP 131100Z 36003KT 9999 FEW010 29/24 Q1007 NOSIG=
13/12/2020 11:30:00Z	 SAID32 WIPP 131130	METAR WIPP 131130Z 00000KT 9999 FEW010 29/24 Q1007 NOSIG=
13/12/2020 12:00:00Z	 SAID32 WIPP 131200	METAR WIPP 131200Z 00000KT 7000 FEW010 29/24 Q1007 NOSIG=
13/12/2020 12:30:00Z	 SAID32 WIPP 131230	METAR WIPP 131230Z 05005KT 9999 FEW010 28/24 Q1007 NOSIG=
13/12/2020 13:00:00Z	 SAID32 WIPP 131300	METAR WIPP 131300Z 06002KT 9999 FEW010 28/25 Q1008 NOSIG=
13/12/2020 14:00:00Z	 SAID32 WIPP 131400	METAR WIPP 131400Z 06002KT 9999 FEW010 28/25 Q1008 NOSIG=
13/12/2020 15:00:00Z	 SAID32 WIPP 131500	METAR WIPP 131500Z 07002KT 9999 FEW010 27/25 Q1008 NOSIG=
13/12/2020 16:00:00Z	 SAID32 WIPP 131600	METAR WIPP 131600Z 00000KT 9999 FEW010 27/25 Q1009 NOSIG=
13/12/2020 17:00:00Z	 SAID32 WIPP 131700	METAR WIPP 131700Z 00000KT 6000 FEW010 27/25 Q1008 NOSIG=
13/12/2020 18:00:00Z	 SAID32 WIPP 131800	METAR WIPP 131800Z 00000KT 8000 FEW010 26/25 Q1007 NOSIG=
13/12/2020 19:00:00Z	 SAID32 WIPP 131900	METAR WIPP 131900Z 00000KT 2000 BR FEW010 26/25 Q1007 NOSIG=
13/12/2020 20:00:00Z	 SAID32 WIPP 132000	METAR WIPP 132000Z 00000KT 3000 HZ SCT010 26/25 Q1006 NOSIG=
13/12/2020 21:00:00Z	 SAID32 WIPP 132100	METAR WIPP 132100Z 00000KT 4000 HZ SCT010 26/25 Q1006 NOSIG=
13/12/2020 22:00:00Z	 SAID32 WIPP 132200	METAR WIPP 132200Z 00000KT 1500 BR SCT010 25/24 Q1007 NOSIG=
13/12/2020 22:30:00Z	 SAID32 WIPP 132230	METAR WIPP 132230Z 00000KT 1000 BR SCT010 25/24 Q1007 NOSIG=
13/12/2020 23:00:00Z	 SAID32 WIPP 132300	METAR WIPP 132300Z 00000KT 1000 BR SCT010 25/24 Q1008 NOSIG=
13/12/2020 23:30:00Z	 SAID32 WIPP 132330	METAR WIPP 132330Z 00000KT 1500 BR SCT010 25/24 Q1008 NOSIG=
14/12/2020 00:00:00Z	 SAID32 WIPP 140000	METAR WIPP 140000Z 00000KT 1500 BR FEW010 25/25 Q1008 NOSIG=
14/12/2020 00:30:00Z	 SAID32 WIPP 140030	METAR WIPP 140030Z 21003KT 1500 BR BKN010 26/25 Q1009 NOSIG=
14/12/2020 01:00:00Z	 SAID32 WIPP 140100	METAR WIPP 140100Z 00000KT 2000 -RA BKN010 26/25 Q1010=
14/12/2020 01:30:00Z	 SAID32 WIPP 140130	METAR WIPP 140130Z 00000KT 1500 -RA BKN010 FEW012CB 27/26 Q1010 RMK CB TO NE=
14/12/2020 02:00:00Z	 SAID32 WIPP 140200	METAR WIPP 140200Z 00000KT 1700 -RA BKN010 FEW012CB 26/25 Q1010 RMK CB TO SE=
14/12/2020 02:30:00Z	 SAID32 WIPP 140230	METAR WIPP 140230Z 32003KT 4000 -RA BKN010 FEW012CB 26/25 Q1010 RMK CB TO SE=
14/12/2020 03:00:00Z	 SAID32 WIPP 140300	METAR WIPP 140300Z 30003KT 3000 -RA BKN010 FEW012CB 26/25 Q1010 RMK CB TO NE=
14/12/2020 03:30:00Z	 SAID32 WIPP 140330	METAR WIPP 140330Z 23003KT 4000 HZ BKN010 FEW012CB 27/25 Q1010 RERA RMK CB TO NE=
14/12/2020 04:00:00Z	 SAID32 WIPP 140400	METAR WIPP 140400Z 20005KT 5000 HZ BKN010 FEW012CB 27/25 Q1010 RMK CB TO N=
14/12/2020 04:30:00Z	 SAID32 WIPP 140430	METAR WIPP 140430Z 27005KT 6000 SCT010 27/25 Q1010 NOSIG=
14/12/2020 05:00:00Z	 SAID32 WIPP 140500	METAR WIPP 140500Z 25005KT 8000 SCT010 27/25 Q1009 NOSIG=
14/12/2020 05:30:00Z	 SAID32 WIPP 140530	METAR WIPP 140530Z 25005KT 8000 SCT010 28/25 Q1009 NOSIG=
14/12/2020 06:00:00Z	 SAID32 WIPP 140600	METAR WIPP 140600Z 28005KT 9999 SCT010 29/25 Q1009 NOSIG=
14/12/2020 06:30:00Z	 SAID32 WIPP 140630	METAR WIPP 140630Z 29005KT 9999 SCT010 29/24 Q1008 NOSIG=
14/12/2020 07:00:00Z	 SAID32 WIPP 140700	METAR WIPP 140700Z 34005KT 9999 SCT010 30/25 Q1007 NOSIG=
14/12/2020 07:30:00Z	 SAID32 WIPP 140730	METAR WIPP 140730Z 30008KT 9999 SCT010 30/25 Q1007 NOSIG=
14/12/2020 08:00:00Z	 SAID32 WIPP 140800	METAR WIPP 140800Z 32005KT 9999 SCT010 30/25 Q1007 NOSIG=
14/12/2020 08:30:00Z	 SAID32 WIPP 140830	METAR WIPP 140830Z 07005KT 9999 SCT010 30/25 Q1007 NOSIG=
14/12/2020 09:00:00Z	 SAID32 WIPP 140900	METAR WIPP 140900Z 06005KT 9999 SCT010 30/25 Q1007 NOSIG=
14/12/2020 09:30:00Z	 SAID32 WIPP 140930	METAR WIPP 140930Z 03005KT 9999 SCT010 30/25 Q1007 NOSIG=
14/12/2020 10:00:00Z	 SAID32 WIPP 141000	METAR WIPP 141000Z 00000KT 8000 SCT010 29/25 Q1006 NOSIG=
14/12/2020 10:30:00Z	 SAID32 WIPP 141030	METAR WIPP 141030Z 02003KT 9999 SCT010 29/25 Q1007 NOSIG=
14/12/2020 11:00:00Z	 SAID32 WIPP 141100	METAR WIPP 141100Z 02003KT 8000 SCT010 29/26 Q1007 NOSIG=
14/12/2020 11:30:00Z	 SAID32 WIPP 141130	METAR WIPP 141130Z 02003KT 8000 SCT010 28/26 Q1008 NOSIG=
14/12/2020 12:00:00Z	 SAID32 WIPP 141200	METAR WIPP 141200Z 04005KT 9999 SCT010 28/26 Q1008 NOSIG=
14/12/2020 12:30:00Z	 SAID32 WIPP 141230	METAR WIPP 141230Z 06005KT 9999 SCT010 27/25 Q1009 NOSIG=
14/12/2020 13:00:00Z	 SAID32 WIPP 141300	METAR WIPP 141300Z 04005KT 9999 SCT010 27/25 Q1009 NOSIG=
14/12/2020 14:00:00Z	 SAID32 WIPP 141400	METAR WIPP 141400Z 06003KT 9999 SCT010 27/25 Q1010 NOSIG=
14/12/2020 15:00:00Z	 SAID32 WIPP 141500	METAR WIPP 141500Z 11003KT 9999 FEW010 26/25 Q1011 NOSIG=
14/12/2020 16:00:00Z	 SAID32 WIPP 141600	METAR WIPP 141600Z 13003KT 8000 FEW010 26/25 Q1011 NOSIG=
14/12/2020 17:00:00Z	 SAID32 WIPP 141700	METAR WIPP 141700Z 11003KT 6000 FEW010 26/25 Q1010 NOSIG=
14/12/2020 18:00:00Z	 SAID32 WIPP 141800	METAR WIPP 141800Z 15002KT 5000 HZ FEW010 26/25 Q1009=
14/12/2020 19:00:00Z	 SAID32 WIPP 141900	METAR WIPP 141900Z 13002KT 7000 FEW010 25/24 Q1009=
14/12/2020 20:00:00Z	 SAID32 WIPP 142000	METAR WIPP 142000Z 00000KT 7000 FEW010 25/24 Q1008=
14/12/2020 21:00:00Z	 SAID32 WIPP 142100	METAR WIPP 142100Z 00000KT 4000 BR FEW010 25/24 Q1008=
14/12/2020 22:00:00Z	 SAID32 WIPP 142200	METAR WIPP 142200Z 01002KT 2000 BR SCT010 25/24 Q1008=
14/12/2020 22:30:00Z	 SAID32 WIPP 142230	METAR WIPP 142230Z 22002KT 2000 BR SCT010 25/24 Q1009=
14/12/2020 23:00:00Z	 SAID32 WIPP 142300	METAR WIPP 142300Z 20002KT 1500 BR SCT010 25/24 Q1009=
14/12/2020 23:30:00Z	 SAID32 WIPP 142330	METAR WIPP 142330Z 20002KT 1500 BR SCT010 25/24 Q1009=
15/12/2020 00:00:00Z	 SAID32 WIPP 150000	METAR WIPP 150000Z 24003KT 1500 BR SCT010 25/24 Q1010=
15/12/2020 00:30:00Z	 SAID32 WIPP 150030	METAR WIPP 150030Z 23003KT 2000 BR BKN010 25/24 Q1010=
15/12/2020 01:00:00Z	 SAID32 WIPP 150100	METAR WIPP 150100Z 25003KT 3000 HZ SCT010 25/24 Q1010=
15/12/2020 01:30:00Z	 SAID32 WIPP 150130	METAR WIPP 150130Z 23003KT 4000 HZ SCT010 26/24 Q1011=
15/12/2020 02:00:00Z	 SAID32 WIPP 150200	METAR WIPP 150200Z 00000KT 7000 SCT010 27/24 Q1011=
15/12/2020 02:30:00Z	 SAID32 WIPP 150230	METAR WIPP 150230Z 00000KT 9999 SCT010 28/25 Q1010 NOSIG=
15/12/2020 03:00:00Z	 SAID32 WIPP 150300	METAR WIPP 150300Z 00000KT 9999 SCT010 29/25 Q1010 NOSIG=
15/12/2020 03:30:00Z	 SAID32 WIPP 150330	METAR WIPP 150330Z 28004KT 9999 BKN010 29/25 Q1010 NOSIG=
15/12/2020 04:00:00Z	 SAID32 WIPP 150400	METAR WIPP 150400Z 32005KT 7000 BKN010 29/25 Q1010 NOSIG=
15/12/2020 04:30:00Z	 SAID32 WIPP 150430	METAR WIPP 150430Z 34004KT 9999 BKN010 29/25 Q1009 NOSIG=
15/12/2020 05:00:00Z	 SAID32 WIPP 150500	METAR WIPP 150500Z 31004KT 9999 BKN010 30/25 Q1009 NOSIG=
15/12/2020 05:30:00Z	 SAID32 WIPP 150530	METAR WIPP 150530Z 30006KT 9999 BKN010 31/24 Q1009 NOSIG=
15/12/2020 06:00:00Z	 SAID32 WIPP 150600	METAR WIPP 150600Z 31007KT 9999 SCT010 31/25 Q1008 NOSIG=
15/12/2020 06:30:00Z	 SAID32 WIPP 150630	METAR WIPP 150630Z 31007KT 9999 BKN010 31/24 Q1008 NOSIG=
15/12/2020 07:00:00Z	 SAID32 WIPP 150700	METAR WIPP 150700Z 20004KT 9999 SCT010 30/25 Q1007 NOSIG=
15/12/2020 07:30:00Z	 SAID32 WIPP 150730	METAR WIPP 150730Z 23004KT 9999 SCT012 30/25 Q1007 NOSIG=
15/12/2020 08:00:00Z	 SAID32 WIPP 150800	METAR WIPP 150800Z 03004KT 9999 FEW010CB SCT012 30/25 Q1006 TEMPO FM0810 TL0930 18004G20KT 3000 TSRA FEW010CB BKN010 RMK CB TO E=
15/12/2020 08:30:00Z	 SAID32 WIPP 150830	METAR WIPP 150830Z 04006KT 9999 FEW010CB SCT010 30/25 Q1006 RMK CB TO E=
15/12/2020 09:00:00Z	 SAID32 WIPP 150900	METAR WIPP 150900Z 05006KT 9999 FEW010CB SCT010 29/25 Q1006 RMK CB TO E=
15/12/2020 09:30:00Z	 SAID32 WIPP 150930	METAR WIPP 150930Z 07006KT 9999 SCT010 28/24 Q1006 NOSIG=
15/12/2020 10:00:00Z	 SAID32 WIPP 151000	METAR WIPP 151000Z 06005KT 9999 FEW010 27/24 Q1007 NOSIG=
15/12/2020 10:30:00Z	 SAID32 WIPP 151030	METAR WIPP 151030Z 05006KT 8000 -RA FEW010 27/24 Q1007=
15/12/2020 11:00:00Z	 SAID32 WIPP 151100	METAR WIPP 151100Z 06005KT 9999 FEW010 27/24 Q1007 RE RA=
15/12/2020 11:30:00Z	 SAID32 WIPP 151130	METAR WIPP 151130Z 05005KT 9999 FEW010 27/24 Q1008 NOSIG=
15/12/2020 12:00:00Z	 SAID32 WIPP 151200	METAR WIPP 151200Z 05004KT 9999 FEW010CB FEW010 27/24 Q1008 RMK CB TO S=
15/12/2020 12:30:00Z	 SAID32 WIPP 151230	METAR WIPP 151230Z 10004KT 9999 FEW010CB FEW010 26/24 Q1008 RMK CB TO SW=
15/12/2020 13:00:00Z	 SAID32 WIPP 151300	METAR WIPP 151300Z 00000KT 9999 FEW010CB SCT010 26/24 Q1009 RMK CB TO SW=
15/12/2020 14:00:00Z	 SAID32 WIPP 151400	METAR WIPP 151400Z 07005KT 9999 FEW010CB SCT010 26/24 Q1010 RMK CB TO SE AND SW=
15/12/2020 15:00:00Z	 SAID32 WIPP 151500	METAR WIPP 151500Z 13005KT 9999 FEW010CB BKN010 26/24 Q1011 RMK CB TO SE AND SW=
15/12/2020 16:00:00Z	 SAID32 WIPP 151600	METAR WIPP 151600Z 20008KT 9999 FEW010CB BKN010 26/24 Q1012 RMK CB TO SE AND SW=
15/12/2020 16:30:00Z	 SAID32 WIPP 151630	METAR WIPP 151630Z 21010KT 8000 -RA FEW010CB BKN010 25/24 Q1012 RMK CB TO SE AND SW=
15/12/2020 17:00:00Z	 SAID32 WIPP 151700	METAR WIPP 151700Z 23015KT 3000 TSRA FEW010CB BKN010 24/23 Q1012 RMK CB TO SE AND W=
15/12/2020 17:30:00Z	 SAID32 WIPP 151730	METAR WIPP 151730Z AUTO 19003KT 130V240 2200NDV -RA SCT003 23/23 Q1012=
15/12/2020 18:00:00Z	 SAID32 WIPP 151800	METAR WIPP 151800Z 20008KT 3000 TSRA BKN008 FEW010CB 23/22 Q1011 RMK CB TO W=
15/12/2020 18:30:00Z	 SAID32 WIPP 151830	METAR WIPP 151830Z AUTO 20004KT 140V240 3200NDV -RA NCD 23/23 Q1010=
15/12/2020 19:00:00Z	 SAID32 WIPP 151900	METAR WIPP 151900Z AUTO VRB02KT 9999NDV FEW008 23/23 Q1010=
15/12/2020 19:30:00Z	 SAID32 WIPP 151930	METAR WIPP 151930Z AUTO VRB02KT 9999NDV VCTS NCD 23/23 Q1009=
15/12/2020 20:00:00Z	 SAID32 WIPP 152000	METAR WIPP 152000Z AUTO 29004KT 2900NDV BR SCT010 23/23 Q1010=
15/12/2020 20:30:00Z	 SAID32 WIPP 152030	METAR WIPP 152030Z AUTO 31009KT 4500NDV VCTS BR FEW029 SCT050 BKN065 23/23 Q1011=
15/12/2020 21:00:00Z	 SAID32 WIPP 152100	METAR WIPP 152100Z AUTO 31008KT 7000NDV -RA FEW025 FEW032 SCT048 23/23 Q1011=
15/12/2020 21:30:00Z	 SAID32 WIPP 152130	METAR WIPP 152130Z AUTO 31009KT 4900NDV RA FEW031 23/23 Q1011=
15/12/2020 22:00:00Z	 SAID32 WIPP 152200	METAR WIPP 152200Z AUTO 29008KT 5000NDV -RA FEW035 23/23 Q1011=
15/12/2020 22:30:00Z	 SAID32 WIPP 152230	METAR WIPP 152230Z AUTO 28006KT 3800NDV -RA SCT060 22/23 Q1011=
15/12/2020 23:00:00Z	 SAID32 WIPP 152300	METAR WIPP 152300Z 32005KT 6000 -RA FEW010CB BKN010 23/22 Q1011 RMK CB TO NW=
15/12/2020 23:30:00Z	 SAID32 WIPP 152330	METAR WIPP 152330Z 30005KT 6000 -RA BKN010 23/22 Q1011=
16/12/2020 00:00:00Z	 SAID32 WIPP 160000	METAR WIPP 160000Z 30005KT 2000 -RA BKN010 23/22 Q1011=
16/12/2020 00:30:00Z	 SAID32 WIPP 160030	METAR WIPP 160030Z 30003KT 3000 -RA BKN010 23/22 Q1012=
16/12/2020 01:00:00Z	 SAID32 WIPP 160100	METAR WIPP 160100Z 28004KT 4000 HZ SCT010 23/22 Q1012=
16/12/2020 01:30:00Z	 SAID32 WIPP 160130	METAR WIPP 160130Z 26004KT 8000 SCT010 24/23 Q1012 NOSIG=
16/12/2020 02:00:00Z	 SAID32 WIPP 160200	METAR WIPP 160200Z 26007KT 8000 -RA SCT010 24/23 Q1012=
16/12/2020 02:30:00Z	 SAID32 WIPP 160230	METAR WIPP 160230Z 26008KT 9999 FEW010 25/23 Q1011=
16/12/2020 02:30:00Z	 SAID32 WIPP 160230 CCA	METAR COR WIPP 160230Z 26008KT 9999 FEW010 25/23 Q1011 RERA=
16/12/2020 03:00:00Z	 SAID32 WIPP 160300	METAR WIPP 160300Z 27009KT 9999 FEW010 27/23 Q1011 NOSIG=
16/12/2020 03:30:00Z	 SAID32 WIPP 160330	METAR WIPP 160330Z 29009KT 9999 SCT010 28/23 Q1011 NOSIG=
16/12/2020 04:00:00Z	 SAID32 WIPP 160400	METAR WIPP 160400Z 27007KT 9999 SCT010 28/23 Q1011 NOSIG=
16/12/2020 04:30:00Z	 SAID32 WIPP 160430	METAR WIPP 160430Z 29010KT 9999 FEW010 28/23 Q1011 NOSIG=
16/12/2020 05:00:00Z	 SAID32 WIPP 160500	METAR WIPP 160500Z 29009KT 9999 FEW010 28/23 Q1010 NOSIG=
16/12/2020 05:30:00Z	 SAID32 WIPP 160530	METAR WIPP 160530Z 30008KT 9999 FEW010 28/23 Q1009 NOSIG=
16/12/2020 06:00:00Z	 SAID32 WIPP 160600	METAR WIPP 160600Z 31010KT 9999 SCT010 28/24 Q1009 NOSIG=
16/12/2020 06:30:00Z	 SAID32 WIPP 160630	METAR WIPP 160630Z 28008KT 9999 SCT010 28/24 Q1008 NOSIG=
16/12/2020 07:00:00Z	 SAID32 WIPP 160700	METAR WIPP 160700Z 30011KT 9999 SCT010 29/24 Q1008 NOSIG=
16/12/2020 07:30:00Z	 SAID32 WIPP 160730	METAR WIPP 160730Z 30009KT 9999 SCT010 29/23 Q1007 NOSIG=
16/12/2020 08:00:00Z	 SAID32 WIPP 160800	METAR WIPP 160800Z 29010KT 9999 SCT010 29/24 Q1007 NOSIG=
16/12/2020 08:30:00Z	 SAID32 WIPP 160830	METAR WIPP 160830Z 32007KT 9999 SCT010 29/24 Q1007 NOSIG=
16/12/2020 09:00:00Z	 SAID32 WIPP 160900	METAR WIPP 160900Z 34005KT 9999 BKN010 29/24 Q1007 NOSIG=
16/12/2020 09:30:00Z	 SAID32 WIPP 160930	METAR WIPP 160930Z 34008KT 9999 BKN010 28/24 Q1007 NOSIG=
16/12/2020 10:00:00Z	 SAID32 WIPP 161000	METAR WIPP 161000Z 35007KT 9999 BKN010 28/24 Q1007 NOSIG=
16/12/2020 10:30:00Z	 SAID32 WIPP 161030	METAR WIPP 161030Z 36007KT 9999 BKN010 28/24 Q1007 NOSIG=
16/12/2020 11:00:00Z	 SAID32 WIPP 161100	METAR WIPP 161100Z 35008KT 9999 SCT010 27/24 Q1008 NOSIG=
16/12/2020 11:30:00Z	 SAID32 WIPP 161130	METAR WIPP 161130Z 35006KT 9999 FEW010 27/24 Q1008 NOSIG=
16/12/2020 12:00:00Z	 SAID32 WIPP 161200	METAR WIPP 161200Z 35007KT 9999 FEW010 26/24 Q1008 NOSIG=
16/12/2020 12:30:00Z	 SAID32 WIPP 161230	METAR WIPP 161230Z 33007KT 9999 FEW010 26/24 Q1008 NOSIG=
16/12/2020 13:00:00Z	 SAID32 WIPP 161300	METAR WIPP 161300Z 33006KT 9999 FEW010 26/23 Q1009 NOSIG=
16/12/2020 13:30:00Z	 SAID32 WIPP 161330	METAR WIPP 161330Z 33006KT 9999 FEW010 26/23 Q1010 NOSIG=
16/12/2020 14:00:00Z	 SAID32 WIPP 161400	METAR WIPP 161400Z 33005KT 9999 FEW010 26/23 Q1005 NOSIG=
16/12/2020 14:00:00Z	 SAID32 WIPP 161400 CCA	METAR WIPP 161400Z 33005KT 9999 FEW010 26/23 Q1009 NOSIG=
16/12/2020 14:30:00Z	 SAID32 WIPP 161430	METAR WIPP 161430Z 32006KT 9999 FEW010 26/23 Q1010 NOSIG=
16/12/2020 15:00:00Z	 SAID32 WIPP 161500	METAR WIPP 161500Z 32004KT 9999 FEW010 26/23 Q1010 NOSIG=
16/12/2020 15:30:00Z	 SAID32 WIPP 161530	METAR WIPP 161530Z 31005KT 9999 FEW010 25/23 Q1010 NOSIG=
16/12/2020 16:00:00Z	 SAID32 WIPP 161600	METAR WIPP 161600Z 32004KT 9999 FEW010 25/23 Q1010 NOSIG=
16/12/2020 16:30:00Z	 SAID32 WIPP 161630	METAR WIPP 161630Z 32005KT 8000 FEW010 25/23 Q1009 NOSIG=
16/12/2020 17:00:00Z	 SAID32 WIPP 161700	METAR WIPP 161700Z 32004KT 8000 FEW010 25/23 Q1009 NOSIG=
16/12/2020 17:30:00Z	 SAID32 WIPP 161730	METAR WIPP 161730Z 32003KT 8000 FEW010 25/23 Q1009 NOSIG=
16/12/2020 18:00:00Z	 SAID32 WIPP 161800	METAR WIPP 161800Z 32003KT 8000 FEW010 25/23 Q1009 NOSIG=
16/12/2020 18:30:00Z	 SAID32 WIPP 161830	METAR WIPP 161830Z 33004KT 8000 FEW010 25/24 Q1008 NOSIG=
16/12/2020 19:00:00Z	 SAID32 WIPP 161900	METAR WIPP 161900Z 00000KT 7000 SCT010 25/24 Q1008 NOSIG=
16/12/2020 19:30:00Z	 SAID32 WIPP 161930	METAR WIPP 161930Z 00000KT 6000 SCT010 25/24 Q1008 NOSIG=
16/12/2020 20:00:00Z	 SAID32 WIPP 162000	METAR WIPP 162000Z AUTO 00000KT 4200NDV BR NCD 24/24 Q1008=
16/12/2020 20:30:00Z	 SAID32 WIPP 162030	METAR WIPP 162030Z AUTO 31003KT 3600NDV BR NCD 24/24 Q1008=
16/12/2020 21:00:00Z	 SAID32 WIPP 162100	METAR WIPP 162100Z AUTO VRB02KT 3500NDV BR NCD 24/24 Q1008=
16/12/2020 21:30:00Z	 SAID32 WIPP 162130	METAR WIPP 162130Z AUTO 26003KT 1400NDV R11/P2000N R29/P2000N BR OVC031 24/24 Q1008=
16/12/2020 22:00:00Z	 SAID32 WIPP 162200	METAR WIPP 162200Z AUTO 28004KT 1600NDV R11/P2000N R29/P2000N BR OVC029 24/24 Q1008=
16/12/2020 22:30:00Z	 SAID32 WIPP 162230	METAR WIPP 162230Z 30004KT 1500 BR FEW010 24/23 Q1008=
16/12/2020 23:00:00Z	 SAID32 WIPP 162300	METAR WIPP 162300Z 32003KT 0700 FG SCT010 24/23 Q1008=
16/12/2020 23:30:00Z	 SAID32 WIPP 162330	METAR WIPP 162330Z 30003KT 2000 BR SCT010 24/23 Q1009=
17/12/2020 00:00:00Z	 SAID32 WIPP 170000	METAR WIPP 170000Z 30003KT 2500 BR SCT010 25/24 Q1009=
17/12/2020 00:30:00Z	 SAID32 WIPP 170030	METAR WIPP 170030Z 31004KT 2500 BR SCT010 25/24 Q1010=
17/12/2020 01:00:00Z	 SAID32 WIPP 170100	METAR WIPP 170100Z 30008KT 6000 FEW010 26/24 Q1010=
17/12/2020 01:30:00Z	 SAID32 WIPP 170130	METAR WIPP 170130Z 31008KT 9999 FEW010 27/25 Q1010=
17/12/2020 02:00:00Z	 SAID32 WIPP 170200	METAR WIPP 170200Z 31009KT 9999 SCT010 27/25 Q1010=
17/12/2020 02:30:00Z	 SAID32 WIPP 170230	METAR WIPP 170230Z 31008KT 9999 SCT010 28/24 Q1010=
17/12/2020 03:00:00Z	 SAID32 WIPP 170300	METAR WIPP 170300Z 30011KT 9999 BKN010 28/24 Q1010=
17/12/2020 03:30:00Z	 SAID32 WIPP 170330	METAR WIPP 170330Z 32014KT 9999 BKN010 29/24 Q1010=
17/12/2020 04:00:00Z	 SAID32 WIPP 170400	METAR WIPP 170400Z 32013KT 9999 BKN010 29/24 Q1010=
17/12/2020 04:30:00Z	 SAID32 WIPP 170430	METAR WIPP 170430Z 33006KT 9999 BKN010 29/24 Q1009=
17/12/2020 05:00:00Z	 SAID32 WIPP 170500	METAR WIPP 170500Z 33010KT 9999 BKN010 29/24 Q1009=
17/12/2020 05:30:00Z	 SAID32 WIPP 170530	METAR WIPP 170530Z 32011KT 9999 BKN010 30/24 Q1009=
17/12/2020 06:00:00Z	 SAID32 WIPP 170600	METAR WIPP 170600Z 31009KT 9999 BKN010 30/24 Q1008 NOSIG=
17/12/2020 06:30:00Z	 SAID32 WIPP 170630	METAR WIPP 170630Z 31009KT 9999 BKN010 30/24 Q1007 NOSIG=
17/12/2020 07:00:00Z	 SAID32 WIPP 170700	METAR WIPP 170700Z 31009KT 9999 BKN010 30/24 Q1007 NOSIG=
17/12/2020 07:30:00Z	 SAID32 WIPP 170730	METAR WIPP 170730Z 32012KT 9999 SCT010 30/24 Q1007 NOSIG=
17/12/2020 08:00:00Z	 SAID32 WIPP 170800	METAR WIPP 170800Z 31010KT 9999 SCT010 30/24 Q1006 NOSIG=
17/12/2020 08:30:00Z	 SAID32 WIPP 170830	METAR WIPP 170830Z 33007KT 9999 SCT010 31/24 Q1006 NOSIG=
17/12/2020 09:00:00Z	 SAID32 WIPP 170900	METAR WIPP 170900Z 32011KT 9999 FEW010 31/24 Q1006 NOSIG=
17/12/2020 09:30:00Z	 SAID32 WIPP 170930	METAR WIPP 170930Z 32007KT 9999 FEW010 30/24 Q1006 NOSIG=
17/12/2020 10:00:00Z	 SAID32 WIPP 171000	METAR WIPP 171000Z 31008KT 9999 FEW010 30/24 Q1006 NOSIG=
17/12/2020 10:30:00Z	 SAID32 WIPP 171030	METAR WIPP 171030Z 30007KT 9999 FEW010 30/24 Q1006 NOSIG=
17/12/2020 11:00:00Z	 SAID32 WIPP 171100	METAR WIPP 171100Z 28004KT 9999 FEW010 29/24 Q1007 NOSIG=
17/12/2020 11:30:00Z	 SAID32 WIPP 171130	METAR WIPP 171130Z 27003KT 9999 FEW010 29/24 Q1007 NOSIG=
17/12/2020 12:00:00Z	 SAID32 WIPP 171200	METAR WIPP 171200Z 27003KT 9999 FEW010 28/24 Q1007 NOSIG=
17/12/2020 12:30:00Z	 SAID32 WIPP 171230	METAR WIPP 171230Z 31004KT 5000 HZ FEW010 28/24 Q1008=
17/12/2020 13:00:00Z	 SAID32 WIPP 171300	METAR WIPP 171300Z 32004KT 4000 HZ FEW010 28/24 Q1008=
17/12/2020 14:00:00Z	 SAID32 WIPP 171400	METAR WIPP 171400Z 01004KT 9999 FEW010 2/2 Q1009 NOSIG=
17/12/2020 14:00:00Z	 SAID32 WIPP 171400 CCA	METAR COR WIPP 171400Z 01004KT 9999 FEW010 27/25 Q1009 NOSIG=
17/12/2020 15:00:00Z	 SAID32 WIPP 171500	METAR WIPP 171500Z 02002KT 9999 FEW010 27/25 Q1009 NOSIG=
17/12/2020 16:00:00Z	 SAID32 WIPP 171600	METAR WIPP 171600Z 35002KT 8000 FEW010 26/25 Q1009 NOSIG=
17/12/2020 17:00:00Z	 SAID32 WIPP 171700	METAR WIPP 171700Z 34004KT 8000 FEW010 26/25 Q1009 NOSIG=
17/12/2020 18:00:00Z	 SAID32 WIPP 171800	METAR WIPP 171800Z 31005KT 6000 FEW010 26/25 Q1008 NOSIG=
17/12/2020 19:00:00Z	 SAID32 WIPP 171900	METAR WIPP 171900Z 31006KT 5000 HZ FEW010 26/24 Q1008=
17/12/2020 20:00:00Z	 SAID32 WIPP 172000	METAR WIPP 172000Z 30006KT 8000 FEW010 25/24 Q1008 NOSIG=
17/12/2020 21:00:00Z	 SAID32 WIPP 172100	METAR WIPP 172100Z 31006KT 6000 FEW010 25/24 Q1008 NOSIG=
17/12/2020 22:00:00Z	 SAID32 WIPP 172200	METAR WIPP 172200Z 31008KT 9999 FEW010CB SCT010 25/23 Q1007 RMK CB TO NE=
17/12/2020 22:30:00Z	 SAID32 WIPP 172230	METAR WIPP 172230Z 31006KT 8000 SCT010 25/23 Q1008 NOSIG=
17/12/2020 23:00:00Z	 SAID32 WIPP 172300	METAR WIPP 172300Z 31005KT 6000 FEW010 24/23 Q1008 NOSIG=
17/12/2020 23:30:00Z	 SAID32 WIPP 172330	METAR WIPP 172330Z 31006KT 6000 FEW010 24/23 Q1008 NOSIG=
18/12/2020 00:00:00Z	 SAID32 WIPP 180000	METAR WIPP 180000Z 31005KT 8000 FEW010 24/23 Q1008 NOSIG=
18/12/2020 00:30:00Z	 SAID32 WIPP 180030	METAR WIPP 180030Z 29004KT 9999 FEW010 25/23 Q1009 NOSIG=
18/12/2020 01:00:00Z	 SAID32 WIPP 180100	METAR WIPP 180100Z 32004KT 9999 FEW010 25/23 Q1010 NOSIG=
18/12/2020 01:30:00Z	 SAID32 WIPP 180130	METAR WIPP 180130Z 31006KT 9999 FEW010 26/24 Q1010 NOSIG=
18/12/2020 02:00:00Z	 SAID32 WIPP 180200	METAR WIPP 180200Z 29009KT 9999 FEW010 26/24 Q1010 NOSIG=
18/12/2020 02:30:00Z	 SAID32 WIPP 180230	METAR WIPP 180230Z 30008KT 9999 FEW010 27/24 Q1010 NOSIG=
18/12/2020 03:00:00Z	 SAID32 WIPP 180300	METAR WIPP 180300Z 29007KT 9999 FEW010 27/24 Q1010 NOSIG=
18/12/2020 03:30:00Z	 SAID32 WIPP 180330	METAR WIPP 180330Z 28010KT 9999 FEW010 28/24 Q1010 NOSIG=
18/12/2020 04:00:00Z	 SAID32 WIPP 180400	METAR WIPP 180400Z 31008KT 9999 FEW010 29/24 Q1010 NOSIG=
18/12/2020 04:30:00Z	 SAID32 WIPP 180430	METAR WIPP 180430Z 32013KT 9999 FEW010 29/24 Q1009 NOSIG=
18/12/2020 05:00:00Z	 SAID32 WIPP 180500	METAR WIPP 180500Z 30006KT 9999 SCT010 30/24 Q1009 NOSIG=
18/12/2020 05:30:00Z	 SAID32 WIPP 180530	METAR WIPP 180530Z 31010KT 9999 SCT010 30/23 Q1008 NOSIG=
18/12/2020 06:00:00Z	 SAID32 WIPP 180600	METAR WIPP 180600Z 29008KT 9999 SCT010 30/24 Q1008 NOSIG=
18/12/2020 06:30:00Z	 SAID32 WIPP 180630	METAR WIPP 180630Z 32009KT 9999 SCT010 30/23 Q1007 NOSIG=
18/12/2020 07:00:00Z	 SAID32 WIPP 180700	METAR WIPP 180700Z 30009KT 9999 SCT010 30/24 Q1007 NOSIG=
18/12/2020 07:30:00Z	 SAID32 WIPP 180730	METAR WIPP 180730Z 28005KT 9999 SCT010 30/24 Q1006 NOSIG=
18/12/2020 08:00:00Z	 SAID32 WIPP 180800	METAR WIPP 180800Z 31009KT 9999 SCT010 30/24 Q1006 NOSIG=
18/12/2020 08:30:00Z	 SAID32 WIPP 180830	METAR WIPP 180830Z 30008KT 9999 SCT010 30/24 Q1006 NOSIG=
18/12/2020 09:00:00Z	 SAID32 WIPP 180900	METAR WIPP 180900Z 26003KT 9999 SCT010 30/23 Q1006 NOSIG=
18/12/2020 09:30:00Z	 SAID32 WIPP 180930	METAR WIPP 180930Z 26007KT 9999 FEW010 30/24 Q1006 NOSIG=
18/12/2020 10:00:00Z	 SAID32 WIPP 181000	METAR WIPP 181000Z 27005KT 9999 FEW010 30/24 Q1006 NOSIG=
18/12/2020 10:30:00Z	 SAID32 WIPP 181030	METAR WIPP 181030Z 26003KT 9999 FEW010 30/24 Q1006 NOSIG=
18/12/2020 11:00:00Z	 SAID32 WIPP 181100	METAR WIPP 181100Z 30003KT 9999 FEW010 29/24 Q1007 NOSIG=
18/12/2020 11:30:00Z	 SAID32 WIPP 181130	METAR WIPP 181130Z 29003KT 9999 FEW010 29/24 Q1007 NOSIG=
18/12/2020 12:00:00Z	 SAID32 WIPP 181200	METAR WIPP 181200Z 22002KT 6000 FEW010 29/24 Q1008 NOSIG=
18/12/2020 12:30:00Z	 SAID32 WIPP 181230	METAR WIPP 181230Z 26002KT 5000 HZ FEW010 28/24 Q1008=
18/12/2020 13:00:00Z	 SAID32 WIPP 181300	METAR WIPP 181300Z 190002KT 4000 HZ FEW010 28/25 Q1008=
18/12/2020 13:30:00Z	 SAID32 WIPP 181330	METAR WIPP 181330Z 22004KT 5000 HZ FEW010 27/24 Q1009=
18/12/2020 14:00:00Z	 SAID32 WIPP 181400	METAR WIPP 181400Z 22003KT 6000 FEW010 27/24 Q1009=
18/12/2020 14:30:00Z	 SAID32 WIPP 181430	METAR WIPP 181430Z 22003KT 7000 FEW010 27/25 Q1009=
18/12/2020 15:00:00Z	 SAID32 WIPP 181500	METAR WIPP 181500Z 35003KT 6000 FEW010 27/25 Q1009=
18/12/2020 15:30:00Z	 SAID32 WIPP 181530	METAR WIPP 181530Z 00000KT 4000 HZ FEW010 26/25 Q1009=
18/12/2020 16:00:00Z	 SAID32 WIPP 181600	METAR WIPP 181600Z 00000KT 4000 HZ FEW010 26/25 Q1009=
18/12/2020 16:30:00Z	 SAID32 WIPP 181630	METAR WIPP 181630Z 00000KT 3000 HZ FEW010 26/25 Q1009=
18/12/2020 17:00:00Z	 SAID32 WIPP 181700	METAR WIPP 181700Z 00000KT 3000 HZ FEW010 26/24 Q1009=
18/12/2020 17:30:00Z	 SAID32 WIPP 181730	METAR WIPP 181730Z 00000KT 3000 HZ FEW010 26/24 Q1009=
18/12/2020 18:00:00Z	 SAID32 WIPP 181800	METAR WIPP 181800Z 00000KT 3000 HZ FEW010 26/24 Q1008=
18/12/2020 18:30:00Z	 SAID32 WIPP 181830	METAR WIPP 181830Z AUTO 20003KT 0600NDV R11/1500N R29/P2000N FG VV002 25/25 Q1008=
18/12/2020 19:00:00Z	 SAID32 WIPP 181900	METAR WIPP 181900Z AUTO 23002KT 1400NDV R11/P2000N R29/P2000N BR BKN027 OVC034 25/25 Q1008=
18/12/2020 19:30:00Z	 SAID32 WIPP 181930	METAR WIPP 181930Z AUTO 31003KT 1100NDV R11/P2000N R29/P2000N BR OVC025 25/25 Q1008=
18/12/2020 20:00:00Z	 SAID32 WIPP 182000	METAR WIPP 182000Z AUTO 31003KT 2000NDV BR NCD 25/25 Q1008=
18/12/2020 20:30:00Z	 SAID32 WIPP 182030	METAR WIPP 182030Z AUTO 30004KT 2600NDV BR NCD 25/25 Q1008=
18/12/2020 21:00:00Z	 SAID32 WIPP 182100	METAR WIPP 182100Z AUTO 29004KT 4900NDV BR SCT021 25/25 Q1008=
18/12/2020 21:30:00Z	 SAID32 WIPP 182130	METAR WIPP 182130Z 31005KT 5000 HZ FEW010 25/24 Q1008=
18/12/2020 22:00:00Z	 SAID32 WIPP 182200	METAR WIPP 182200Z 30005KT 5000 HZ FEW010 25/23 Q1008=
18/12/2020 22:30:00Z	 SAID32 WIPP 182230	METAR WIPP 182230Z 31005KT 5000 HZ SCT010 25/23 Q1009=
18/12/2020 23:00:00Z	 SAID32 WIPP 182300	METAR WIPP 182300Z 31005KT 3500 HZ SCT010 25/23 Q1009=
18/12/2020 23:30:00Z	 SAID32 WIPP 182330	METAR WIPP 182330Z 31005KT 5000 HZ SCT010 25/24 Q1009=
19/12/2020 00:00:00Z	 SAID32 WIPP 190000	METAR WIPP 190000Z 30005KT 6000 SCT010 25/24 Q1010=
19/12/2020 00:30:00Z	 SAID32 WIPP 190030	METAR WIPP 190030Z 31006KT 8000 SCT010 25/24 Q1010 NOSIG=
19/12/2020 01:00:00Z	 SAID32 WIPP 190100	METAR WIPP 190100Z 30008KT 8000 SCT010 26/24 Q1010 NOSIG=
19/12/2020 01:30:00Z	 SAID32 WIPP 190130	METAR WIPP 190130Z 31010KT 8000 BKN010 26/24 Q1011 NOSIG=
19/12/2020 02:00:00Z	 SAID32 WIPP 190200	METAR WIPP 190200Z 31010KT 9999 BKN010 27/24 Q1011 NOSIG=
19/12/2020 02:30:00Z	 SAID32 WIPP 190230	METAR WIPP 190230Z 32012KT 9999 BKN010 27/24 Q1011 NOSIG=
19/12/2020 03:00:00Z	 SAID32 WIPP 190300	METAR WIPP 190300Z 32012KT 9999 BKN010 28/24 Q1011 NOSIG=
19/12/2020 03:30:00Z	 SAID32 WIPP 190330	METAR WIPP 190330Z 32010KT 9999 BKN010 28/24 Q1011 NOSIG=
19/12/2020 04:00:00Z	 SAID32 WIPP 190400	METAR WIPP 190400Z 31008KT 8000 -RA BKN010 27/24 Q1010=
19/12/2020 04:30:00Z	 SAID32 WIPP 190430	METAR WIPP 190430Z 31008KT 9999 BKN010 28/24 Q1010 RERA=
19/12/2020 05:00:00Z	 SAID32 WIPP 190500	METAR WIPP 190500Z 32010KT 9999 BKN010 29/24 Q1010 NOSIG=
19/12/2020 05:30:00Z	 SAID32 WIPP 190530	METAR WIPP 190530Z 32012KT 9999 BKN010 29/24 Q1009 NOSIG=
19/12/2020 06:00:00Z	 SAID32 WIPP 190600	METAR WIPP 190600Z 32013KT 9999 BKN010 29/24 Q1009 NOSIG=
19/12/2020 06:30:00Z	 SAID32 WIPP 190630	METAR WIPP 190630Z 31008KT 9999 BKN010 29/24 Q1008 NOSIG=
19/12/2020 07:00:00Z	 SAID32 WIPP 190700	METAR WIPP 190700Z 30010KT 9999 BKN010 29/24 Q1008 NOSIG=
19/12/2020 07:30:00Z	 SAID32 WIPP 190730	METAR WIPP 190730Z 31008KT 9999 BKN010 29/24 Q1008 NOSIG=
19/12/2020 08:00:00Z	 SAID32 WIPP 190800	METAR WIPP 190800Z 30010KT 9999 BKN010 29/24 Q1007 NOSIG=
19/12/2020 08:30:00Z	 SAID32 WIPP 190830	METAR WIPP 190830Z 28010KT 9999 BKN010 29/24 Q1007 NOSIG=
19/12/2020 09:00:00Z	 SAID32 WIPP 190900	METAR WIPP 190900Z 30014KT 4000 RA BKN010 FEW012CB 27/25 Q1008 RMK CB TO E=
19/12/2020 09:30:00Z	 SAID32 WIPP 190930	METAR WIPP 190930Z 32003KT 5000 -RA BKN010 FEW012CB 26/24 Q1008 RMK CB TO E=
19/12/2020 10:00:00Z	 SAID32 WIPP 191000	METAR WIPP 191000Z 00000KT 3000 BR SCT010 26/25 Q1008 RERA=
19/12/2020 10:30:00Z	 SAID32 WIPP 191030	METAR WIPP 191030Z 00000KT 2500 BR SCT010 26/25 Q1008=
19/12/2020 11:00:00Z	 SAID32 WIPP 191100	METAR WIPP 191100Z 00000KT 1500 BR SCT010 26/25 Q1008=
19/12/2020 11:30:00Z	 SAID32 WIPP 191130	METAR WIPP 191130Z 00000KT 1700 BR SCT010 26/25 Q1009=
19/12/2020 12:00:00Z	 SAID32 WIPP 191200	METAR WIPP 191200Z 00000KT 2000 BR SCT010 26/25 Q1009=
19/12/2020 12:30:00Z	 SAID32 WIPP 191230	METAR WIPP 191230Z 00000KT 3000 BR SCT010 26/25 Q1009=
19/12/2020 13:00:00Z	 SAID32 WIPP 191300	METAR WIPP 191300Z 00000KT 3000 BR SCT010 26/25 Q1009=
19/12/2020 14:00:00Z	 SAID32 WIPP 191400	METAR WIPP 191400Z 26002KT 3000 BR FEW010 26/25 Q1010=
19/12/2020 15:00:00Z	 SAID32 WIPP 191500	METAR WIPP 191500Z 20002KT 3000 BR FEW010 25/25 Q1010=
19/12/2020 16:00:00Z	 SAID32 WIPP 191600	METAR WIPP 191600Z 00000KT 3000 BR FEW010 25/24 Q1010=
19/12/2020 17:00:00Z	 SAID32 WIPP 191700	METAR WIPP 191700Z 27002KT 2000 BR FEW010 25/24 Q1010=
19/12/2020 18:00:00Z	 SAID32 WIPP 191800	METAR WIPP 191800Z 31003KT 1200 BR FEW010 25/24 Q1010=
19/12/2020 19:00:00Z	 SAID32 WIPP 191900	METAR WIPP 191900Z 30003KT 3000 BR FEW010 25/24 Q1009=
19/12/2020 20:00:00Z	 SAID32 WIPP 192000	METAR WIPP 192000Z 32008KT 6000 FEW010 25/23 Q1009 NOSIG=
19/12/2020 21:00:00Z	 SAID32 WIPP 192100	METAR WIPP 192100Z 31007KT 9999 FEW010 25/23 Q1008 NOSIG=
19/12/2020 22:00:00Z	 SAID32 WIPP 192200	METAR WIPP 192200Z 32007KT 9999 FEW010 24/23 Q1009 NOSIG=
19/12/2020 22:30:00Z	 SAID32 WIPP 192230	METAR WIPP 192230Z 31004KT 80000 FEW010 24/23 Q1009 NOSIG=
19/12/2020 22:30:00Z	 SAID32 WIPP 192230 CCA	METAR COR WIPP 192230Z 31004KT 8000 FEW010 24/23 Q1009 NOSIG=
19/12/2020 23:00:00Z	 SAID32 WIPP 192300	METAR WIPP 192300Z 00000KT 5000 HZ FEW010 24/23 Q1009=
19/12/2020 23:30:00Z	 SAID32 WIPP 192330	METAR WIPP 192330Z 00000KT 3000 BR FEW010 24/23 Q1009=
20/12/2020 00:00:00Z	 SAID32 WIPP 200000	METAR WIPP 200000Z 33003KT 3000 BR FEW010 24/23 Q1009=
20/12/2020 00:30:00Z	 SAID32 WIPP 200030	METAR WIPP 200030Z 31005KT 6000 FEW010 25/23 Q1010 NOSIG=
20/12/2020 01:00:00Z	 SAID32 WIPP 200100	METAR WIPP 200100Z 30005KT 8000 FEW010 25/24 Q1010 NOSIG=
20/12/2020 01:30:00Z	 SAID32 WIPP 200130	METAR WIPP 200130Z 30005KT 9999 SCT010 26/24 Q1011 NOSIG=
20/12/2020 02:00:00Z	 SAID32 WIPP 200200	METAR WIPP 200200Z 29007KT 9999 FEW010 27/24 Q1011 NOSIG=
20/12/2020 02:30:00Z	 SAID32 WIPP 200230	METAR WIPP 200230Z 30007KT 9999 FEW010 28/24 Q1010 NOSIG=
20/12/2020 03:00:00Z	 SAID32 WIPP 200300	METAR WIPP 200300Z 31007KT 9999 FEW010 28/24 Q1010 NOSIG=
20/12/2020 03:30:00Z	 SAID32 WIPP 200330	METAR WIPP 200330Z 30009KT 9999 SCT010 29/24 Q1010 NOSIG=
20/12/2020 04:00:00Z	 SAID32 WIPP 200400	METAR WIPP 200400Z 31008KT 9999 BKN010 30/24 Q1010 NOSIG=
20/12/2020 04:30:00Z	 SAID32 WIPP 200430	METAR WIPP 200430Z 31008KT 9999 BKN010 30/23 Q1009 NOSIG=
20/12/2020 05:00:00Z	 SAID32 WIPP 200500	METAR WIPP 200500Z 30007KT 9999 BKN010 31/23 Q1009 NOSIG=
20/12/2020 05:30:00Z	 SAID32 WIPP 200530	METAR WIPP 200530Z 32008KT 9999 BKN010 31/23 Q1008 NOSIG=
20/12/2020 06:00:00Z	 SAID32 WIPP 200600	METAR WIPP 200600Z 32008KT 9999 BKN012 31/23 Q1008 NOSIG=
20/12/2020 06:30:00Z	 SAID32 WIPP 200630	METAR WIPP 200630Z 31009KT 9999 BKN012 31/23 Q1007 NOSIG=
20/12/2020 07:00:00Z	 SAID32 WIPP 200700	METAR WIPP 200700Z 31009KT 9999 BKN012 32/23 Q1007 NOSIG=
20/12/2020 07:30:00Z	 SAID32 WIPP 200730	METAR WIPP 200730Z 32006KT 9999 BKN012 32/23 Q1007 NOSIG=
20/12/2020 08:00:00Z	 SAID32 WIPP 200800	METAR WIPP 200800Z 30006KT 9999 BKN012 32/23 Q1006 NOSIG=
20/12/2020 08:30:00Z	 SAID32 WIPP 200830	METAR WIPP 200830Z 31007KT 9999 SCT012 32/23 Q1006 NOSIG=
20/12/2020 09:00:00Z	 SAID32 WIPP 200900	METAR WIPP 200900Z 30007KT 9999 SCT012 32/23 Q1006 NOSIG=
20/12/2020 09:30:00Z	 SAID32 WIPP 200930	METAR WIPP 200930Z 32007KT 9999 FEW012 32/22 Q1006 NOSIG=
20/12/2020 10:00:00Z	 SAID32 WIPP 201000	METAR WIPP 201000Z 32006KT 9999 FEW012 31/22 Q1006 NOSIG=
20/12/2020 10:30:00Z	 SAID32 WIPP 201030	METAR WIPP 201030Z 31005KT 9999 FEW012 31/22 Q1007 NOSIG=
20/12/2020 11:00:00Z	 SAID32 WIPP 201100	METAR WIPP 201100Z 33004KT 9999 FEW012 30/23 Q1007 NOSIG=
20/12/2020 11:30:00Z	 SAID32 WIPP 201130	METAR WIPP 201130Z 35004KT 9999 FEW012 30/24 Q1008 NOSIG=
20/12/2020 12:00:00Z	 SAID32 WIPP 201200	METAR WIPP 201200Z 35003KT 9999 FEW012 29/24 Q1008 NOSIG=
20/12/2020 12:30:00Z	 SAID32 WIPP 201230	METAR WIPP 201230Z 03004KT 9999 FEW010 28/25 Q1008 NOSIG=
20/12/2020 13:00:00Z	 SAID32 WIPP 201300	METAR WIPP 201300Z 03003KT 8000 FEW010 28/25 Q1009 NOSIG=
20/12/2020 13:30:00Z	 SAID32 WIPP 201330	METAR WIPP 201330Z 03005KT 9999 FEW010 28/25 Q1009 NOSIG=
20/12/2020 14:00:00Z	 SAID32 WIPP 201400	METAR WIPP 201400Z 05003KT 9999 FEW010 27/25 Q1010 NOSIG=
20/12/2020 14:30:00Z	 SAID32 WIPP 201430	METAR WIPP 201430Z 00000KT 9999 FEW010 27/25 Q1010 NOSIG=
20/12/2020 15:00:00Z	 SAID32 WIPP 201500	METAR WIPP 201500Z 02005KT 9999 FEW010 FEW012CB 27/25 Q1009 RMK CB TO SE AND S=
20/12/2020 15:30:00Z	 SAID32 WIPP 201530	METAR WIPP 201530Z AUTO 36004KT 9999NDV ////// 26/26 Q1009=
20/12/2020 16:00:00Z	 SAID32 WIPP 201600	METAR WIPP 201600Z AUTO 33003KT 300V360 9999NDV ////// 26/26 Q1010=
20/12/2020 16:30:00Z	 SAID32 WIPP 201630	METAR WIPP 201630Z AUTO 33004KT 9999NDV ////// 26/26 Q1010=
20/12/2020 17:00:00Z	 SAID32 WIPP 201700	METAR WIPP 201700Z AUTO 29004KT 9999NDV ////// 26/26 Q1010=
20/12/2020 17:30:00Z	 SAID32 WIPP 201730	METAR WIPP 201730Z AUTO 23004KT 5000NDV VCTS ////// 26/26 Q1010=
20/12/2020 18:00:00Z	 SAID32 WIPP 201800	METAR WIPP 201800Z 25008KT 6000 TSRA BKN010 FEW012CB 26/25 Q1010 RMK CB TO SW AND NW=
20/12/2020 18:30:00Z	 SAID32 WIPP 201830	METAR WIPP 201830Z AUTO 28007KT 6000NDV -RA ////// 23/23 Q1009=
20/12/2020 19:00:00Z	 SAID32 WIPP 201900	METAR WIPP 201900Z AUTO 28003KT 230V320 5000NDV -RA ////// 23/23 Q1009=
20/12/2020 19:30:00Z	 SAID32 WIPP 201930	METAR WIPP 201930Z AUTO 29003KT 250V320 5000NDV -RA ////// 23/23 Q1009=
20/12/2020 20:00:00Z	 SAID32 WIPP 202000	METAR WIPP 202000Z AUTO 27004KT 4000NDV -RA ////// 24/24 Q1009=
20/12/2020 20:30:00Z	 SAID32 WIPP 202030	METAR WIPP 202030Z AUTO 26004KT 2800NDV -RA ////// 24/24 Q1009=
20/12/2020 21:00:00Z	 SAID32 WIPP 202100	METAR WIPP 202100Z AUTO 27003KT 230V300 3800NDV -RA ////// 24/24 Q1008=
20/12/2020 21:30:00Z	 SAID32 WIPP 202130	METAR WIPP 202130Z AUTO 27004KT 3300NDV -RA ////// 24/24 Q1008=
20/12/2020 22:00:00Z	 SAID32 WIPP 202200	METAR WIPP 202200Z AUTO 28004KT 3000NDV -RA ////// 24/24 Q1009=
20/12/2020 22:30:00Z	 SAID32 WIPP 202230	METAR WIPP 202230Z 29005KT 4000 BR SCT010 24/23 Q1009 RERA=
20/12/2020 23:00:00Z	 SAID32 WIPP 202300	METAR WIPP 202300Z 29005KT 2000 BR SCT010 24/24 Q1009=
20/12/2020 23:30:00Z	 SAID32 WIPP 202330	METAR WIPP 202330Z 30005KT 2500 BR SCT010 24/24 Q1010=
21/12/2020 00:00:00Z	 SAID32 WIPP 210000	METAR WIPP 210000Z AUTO 28005KT 2800NDV BR ////// 25/25 Q1010=
21/12/2020 00:30:00Z	 SAID32 WIPP 210030	METAR WIPP 210030Z AUTO 28006KT 4300NDV BR ////// 25/25 Q1010=
21/12/2020 01:00:00Z	 SAID32 WIPP 210100	METAR WIPP 210100Z 28008KT 6000 SCT010 26/24 Q1010 NOSIG=
21/12/2020 01:30:00Z	 SAID32 WIPP 210130	METAR WIPP 210130Z 28007KT 8000 SCT010 26/24 Q1010 NOSIG=
21/12/2020 02:00:00Z	 SAID32 WIPP 210200	METAR WIPP 210200Z 30009KT 9999 SCT010 27/25 Q1010 NOSIG=
21/12/2020 02:30:00Z	 SAID32 WIPP 210230	METAR WIPP 210230Z 29010KT 9999 SCT010 28/24 Q1010 NOSIG=
21/12/2020 03:00:00Z	 SAID32 WIPP 210300	METAR WIPP 210300Z 29010KT 9999 BKN010 28/24 Q1010 NOSIG=
21/12/2020 03:30:00Z	 SAID32 WIPP 210330	METAR WIPP 210330Z 32011KT 9999 BKN010 28/25 Q1010 NOSIG=
21/12/2020 04:00:00Z	 SAID32 WIPP 210400	METAR WIPP 210400Z 30013KT 9999 BKN010 29/24 Q1010 NOSIG=
21/12/2020 04:30:00Z	 SAID32 WIPP 210430	METAR WIPP 210430Z 31008KT 9999 BKN010 29/24 Q1010 NOSIG=
21/12/2020 05:00:00Z	 SAID32 WIPP 210500	METAR WIPP 210500Z 33011KT 9999 BKN010 30/24 Q1009 NOSIG=
21/12/2020 05:30:00Z	 SAID32 WIPP 210530	METAR WIPP 210530Z 31009KT 9999 BKN010 30/24 Q1009 NOSIG=
21/12/2020 06:00:00Z	 SAID32 WIPP 210600	METAR WIPP 210600Z 32008KT 9999 BKN010 31/24 Q1008 NOSIG=
21/12/2020 06:30:00Z	 SAID32 WIPP 210630	METAR WIPP 210630Z 30008KT 9999 BKN010 31/24 Q1007 NOSIG=
21/12/2020 07:00:00Z	 SAID32 WIPP 210700	METAR WIPP 210700Z 32010KT 9999 BKN010 31/24 Q1007 NOSIG=
21/12/2020 07:30:00Z	 SAID32 WIPP 210730	METAR WIPP 210730Z 34011KT 9999 BKN010 31/24 Q1006 NOSIG=
21/12/2020 08:00:00Z	 SAID32 WIPP 210800	METAR WIPP 210800Z 32008KT 9999 BKN010 31/24 Q1006 NOSIG=
21/12/2020 08:30:00Z	 SAID32 WIPP 210830	METAR WIPP 210830Z 32010KT 9999 BKN010 31/24 Q1006 NOSIG=
21/12/2020 09:00:00Z	 SAID32 WIPP 210900	METAR WIPP 210900Z 34009KT 9999 BKN010 31/24 Q1006 NOSIG=
21/12/2020 09:30:00Z	 SAID32 WIPP 210930	METAR WIPP 210930Z 32008KT 9999 BKN010 30/23 Q1006 NOSIG=
21/12/2020 10:00:00Z	 SAID32 WIPP 211000	METAR WIPP 211000Z 30005KT 9999 SCT010 30/24 Q1006 NOSIG=
21/12/2020 10:30:00Z	 SAID32 WIPP 211030	METAR WIPP 211030Z 31006KT 9999 FEW010 29/24 Q1007 NOSIG=
21/12/2020 11:00:00Z	 SAID32 WIPP 211100	METAR WIPP 211100Z 32005KT 9999 FEW010 29/24 Q1007 NOSIG=
21/12/2020 11:30:00Z	 SAID32 WIPP 211130	METAR WIPP 211130Z 01006KT 9999 FEW010 28/25 Q1008 NOSIG=
21/12/2020 12:00:00Z	 SAID32 WIPP 211200	METAR WIPP 211200Z 36007KT 9999 FEW010 28/23 Q1008 NOSIG=
21/12/2020 12:30:00Z	 SAID32 WIPP 211230	METAR WIPP 211230Z 01003KT 9999 FEW010 27/24 Q1008 NOSIG=
21/12/2020 13:00:00Z	 SAID32 WIPP 211300	METAR WIPP 211300Z 36004KT 9999 FEW010 27/24 Q1009 NOSIG=
21/12/2020 13:30:00Z	 SAID32 WIPP 211330	METAR WIPP 211330Z 36005KT 9999 FEW010 27/25 Q1009 NOSIG=
21/12/2020 14:00:00Z	 SAID32 WIPP 211400	METAR WIPP 211400Z 36003KT 9999 FEW010 27/25 Q1009 NOSIG=
21/12/2020 14:30:00Z	 SAID32 WIPP 211430	METAR WIPP 211430Z 36003KT 9999 FEW010 27/25 Q1009 NOSIG=
21/12/2020 15:00:00Z	 SAID32 WIPP 211500	METAR WIPP 211500Z 00000KT 9999 FEW010 26/24 Q1009 NOSIG=
21/12/2020 15:30:00Z	 SAID32 WIPP 211530	METAR WIPP 211530Z 00000KT 9999 FEW010 26/24 Q1009 NOSIG=
21/12/2020 16:00:00Z	 SAID32 WIPP 211600	METAR WIPP 211600Z 32005KT 9999 FEW010 26/24 Q1009 NOSIG=
21/12/2020 16:30:00Z	 SAID32 WIPP 211630	METAR WIPP 211630Z 00000KT 9999 FEW010 26/24 Q1009 NOSIG=
21/12/2020 17:00:00Z	 SAID32 WIPP 211700	METAR WIPP 211700Z 32004KT 9999 FEW010 26/24 Q1009 NOSIG=
21/12/2020 17:30:00Z	 SAID32 WIPP 211730	METAR WIPP 211730Z 31004KT 9999 FEW010 26/24 Q1009 NOSIG=
21/12/2020 18:00:00Z	 SAID32 WIPP 211800	METAR WIPP 211800Z 32003KT 8000 FEW010 26/25 Q1008 NOSIG=
21/12/2020 18:30:00Z	 SAID32 WIPP 211830	METAR WIPP 211830Z 00000KT 8000 FEW010 26/25 Q1008 NOSIG=
21/12/2020 19:00:00Z	 SAID32 WIPP 211900	METAR WIPP 211900Z AUTO 29004KT 9000NDV ////// 25/25 Q1008=
21/12/2020 19:30:00Z	 SAID32 WIPP 211930	METAR WIPP 211930Z AUTO 30005KT 8000NDV ////// 25/25 Q1008=
21/12/2020 20:00:00Z	 SAID32 WIPP 212000	METAR WIPP 212000Z AUTO 30005KT 6000NDV ////// 25/25 Q1008=
21/12/2020 20:30:00Z	 SAID32 WIPP 212030	METAR WIPP 212030Z AUTO 29003KT 5000NDV ////// 25/25 Q1008=
21/12/2020 21:00:00Z	 SAID32 WIPP 212100	METAR WIPP 212100Z AUTO 30003KT 260V320 5000NDV ////// 25/25 Q1008=
21/12/2020 21:30:00Z	 SAID32 WIPP 212130	METAR WIPP 212130Z 30003KT 5000 HZ FEW010 25/24 Q1008=
21/12/2020 22:00:00Z	 SAID32 WIPP 212200	METAR WIPP 212200Z 30003KT 4000 HZ FEW010 25/24 Q1008=
21/12/2020 22:30:00Z	 SAID32 WIPP 212230	METAR WIPP 212230Z 30003KT 4000 HZ FEW010 25/24 Q1008=
21/12/2020 23:00:00Z	 SAID32 WIPP 212300	METAR WIPP 212300Z 28003KT 2500 HZ FEW010 25/24 Q1009=
21/12/2020 23:30:00Z	 SAID32 WIPP 212330	METAR WIPP 212330Z 00000KT 1500 BR FEW010 25/24 Q1009=
22/12/2020 00:00:00Z	 SAID32 WIPP 220000	METAR WIPP 220000Z 00000KT 2000 BR FEW010 25/24 Q1009=
22/12/2020 00:30:00Z	 SAID32 WIPP 220030	METAR WIPP 220030Z 28003KT 2700 BR FEW010 26/25 Q1010=
22/12/2020 01:00:00Z	 SAID32 WIPP 220100	METAR WIPP 220100Z 29004KT 3000 HZ FEW010 26/25 Q1010=
22/12/2020 01:30:00Z	 SAID32 WIPP 220130	METAR WIPP 220130Z 29003KT 7000 FEW010 27/25 Q1010=
22/12/2020 02:00:00Z	 SAID32 WIPP 220200	METAR WIPP 220200Z 32004KT 9999 SCT010 28/25 Q1010 NOSIG=
22/12/2020 02:30:00Z	 SAID32 WIPP 220230	METAR WIPP 220230Z 33007KT 9999 SCT010 28/25 Q1010 NOSIG=
22/12/2020 03:00:00Z	 SAID32 WIPP 220300	METAR WIPP 220300Z 31004KT 9999 BKN010 29/25 Q1010 NOSIG=
22/12/2020 09:30:00Z	 SAID32 WIPP 220930	METAR WIPP 220300Z 23005KT 9999 FEW010 32/23 Q1005 NOSIG=
22/12/2020 03:30:00Z	 SAID32 WIPP 220330	METAR WIPP 220330Z 28006KT 9999 BKN010 29/25 Q1009 NOSIG=
22/12/2020 04:00:00Z	 SAID32 WIPP 220400	METAR WIPP 220400Z 33004KT 9999 BKN010 30/24 Q1009 NOSIG=
22/12/2020 04:30:00Z	 SAID32 WIPP 220430	METAR WIPP 220430Z 29007KT 9999 BKN010 30/24 Q1009 NOSIG=
22/12/2020 05:00:00Z	 SAID32 WIPP 220500	METAR WIPP 220500Z 32004KT 9999 BKN010 31/24 Q1009 NOSIG=
22/12/2020 05:30:00Z	 SAID32 WIPP 220530	METAR WIPP 220530Z 31007KT 9999 BKN010 31/24 Q1008 NOSIG=
22/12/2020 06:00:00Z	 SAID32 WIPP 220600	METAR WIPP 220600Z 32003KT 9999 FEW010 32/23 Q1007 NOSIG=
22/12/2020 06:30:00Z	 SAID32 WIPP 220630	METAR WIPP 220630Z 34009KT 9999 FEW010 32/24 Q1007 NOSIG=
22/12/2020 07:00:00Z	 SAID32 WIPP 220700	METAR WIPP 220700Z 09005KT 9999 SCT010 32/23 Q1006 NOSIG=
22/12/2020 07:30:00Z	 SAID32 WIPP 220730	METAR WIPP 220730Z 28007KT 9999 SCT010 32/23 Q1006 NOSIG=
22/12/2020 08:00:00Z	 SAID32 WIPP 220800	METAR WIPP 220800Z 12004KT 9999 SCT010 32/24 Q1006 NOSIG=
22/12/2020 08:30:00Z	 SAID32 WIPP 220830	METAR WIPP 220830Z 25006KT 9999 SCT010 33/24 Q1005 NOSIG=
22/12/2020 09:00:00Z	 SAID32 WIPP 220900	METAR WIPP 220900Z 26007KT 9999 FEW010 33/24 Q1005 NOSIG=
22/12/2020 10:00:00Z	 SAID32 WIPP 221000	METAR WIPP 221000Z 20006KT 9999 FEW010 32/24 Q1005 NOSIG=
22/12/2020 10:30:00Z	 SAID32 WIPP 221030	METAR WIPP 221030Z 08005KT 9999 FEW010 30/25 Q1005 NOSIG=
22/12/2020 11:00:00Z	 SAID32 WIPP 221100	METAR WIPP 221100Z 10004KT 9999 FEW010 30/24 Q1006 NOSIG=
22/12/2020 11:30:00Z	 SAID32 WIPP 221130	METAR WIPP 221130Z 03004KT 9999 NSC 29/24 Q1006 NOSIG=
22/12/2020 12:00:00Z	 SAID32 WIPP 221200	METAR WIPP 221200Z 04002KT 9999 NSC 28/24 Q1007 NOSIG=
22/12/2020 12:30:00Z	 SAID32 WIPP 221230	METAR WIPP 221230Z 07002KT 9999 NSC 28/24 Q1007 NOSIG=
22/12/2020 13:00:00Z	 SAID32 WIPP 221300	METAR WIPP 221300Z 03003KT 9999 FEW010 28/24 Q1008 NOSIG=
22/12/2020 14:00:00Z	 SAID32 WIPP 221400	METAR WIPP 221400Z 05002KT 9999 FEW010 27/24 Q1009 NOSIG=
22/12/2020 15:00:00Z	 SAID32 WIPP 221500	METAR WIPP 221500Z 02002KT 9999 FEW010 27/24 Q1009 NOSIG=
22/12/2020 16:00:00Z	 SAID32 WIPP 221600	METAR WIPP 221600Z 34004KT 9999 FEW010 27/25 Q1008 NOSIG=
22/12/2020 17:00:00Z	 SAID32 WIPP 221700	METAR WIPP 221700Z 34003KT 9999 FEW010 26/24 Q1008 NOSIG=
22/12/2020 18:00:00Z	 SAID32 WIPP 221800	METAR WIPP 221800Z 00000KT 8000 FEW010 26/24 Q1008 NOSIG=
22/12/2020 19:00:00Z	 SAID32 WIPP 221900	METAR WIPP 221900Z 00000KT 6000 FEW010 26/24 Q1008 NOSIG=
22/12/2020 20:00:00Z	 SAID32 WIPP 222000	METAR WIPP 222000Z 00000KT 4000 HZ SCT010 25/24 Q1008=
22/12/2020 21:00:00Z	 SAID32 WIPP 222100	METAR WIPP 222100Z 00000KT 4000 HZ SCT010 25/24 Q1008=
22/12/2020 22:00:00Z	 SAID32 WIPP 222200	METAR WIPP 222200Z 00000KT 6000 SCT010 26/25 Q1008 NOSIG=
22/12/2020 22:30:00Z	 SAID32 WIPP 222230	METAR WIPP 222230Z 14003KT 3000 SCT010 26/25 Q1008=
22/12/2020 23:00:00Z	 SAID32 WIPP 222300	METAR WIPP 222300Z 00000KT 2000 FEW010 26/25 Q1008=
22/12/2020 23:00:00Z	 SAID32 WIPP 222300 CCA	METAR COR WIPP 222300Z 00000KT 2000 BR FEW010 26/25 Q1008=
22/12/2020 23:30:00Z	 SAID32 WIPP 222330	METAR WIPP 222330Z 18003KT 2000 BR FEW010 25/24 Q1008=
23/12/2020 00:00:00Z	 SAID32 WIPP 230000	METAR WIPP 230000Z 17002KT 4000 BR SCT010 26/25 Q1008=
23/12/2020 00:30:00Z	 SAID32 WIPP 230030	METAR WIPP 230030Z 22004KT 5000 HZ SCT010 27/25 Q1009=
23/12/2020 01:00:00Z	 SAID32 WIPP 230100	METAR WIPP 230100Z 27002KT 5000 HZ SCT010 27/25 Q1009=
23/12/2020 01:30:00Z	 SAID32 WIPP 230130	METAR WIPP 230130Z 28003KT 5000 HZ SCT010 27/25 Q1009=
23/12/2020 02:00:00Z	 SAID32 WIPP 230200	METAR WIPP 230200Z 31005KT 8000 SCT010 28/25 Q1009 NOSIG=
23/12/2020 02:30:00Z	 SAID32 WIPP 230230	METAR WIPP 230230Z 30005KT 8000 SCT010 28/25 Q1009 NOSIG=
23/12/2020 03:00:00Z	 SAID32 WIPP 230300	METAR WIPP 230300Z 28005KT 9999 SCT010 29/25 Q1008 NOSIG=
23/12/2020 03:30:00Z	 SAID32 WIPP 230330	METAR WIPP 230330Z 29005KT 9999 SCT010 30/25 Q1008 NOSIG=
23/12/2020 04:00:00Z	 SAID32 WIPP 230400	METAR WIPP 230400Z 29007KT 9999 SCT010 30/25 Q1008 NOSIG=
23/12/2020 04:30:00Z	 SAID32 WIPP 230430	METAR WIPP 230430Z 32011KT 9999 SCT010 31/24 Q1007 NOSIG=
23/12/2020 05:00:00Z	 SAID32 WIPP 230500	METAR WIPP 230500Z 33008KT 9999 SCT010 31/24 Q1006 NOSIG=
23/12/2020 05:30:00Z	 SAID32 WIPP 230530	METAR WIPP 230530Z 34006KT 9999 SCT010 32/23 Q1006 NOSIG=
23/12/2020 06:00:00Z	 SAID32 WIPP 230600	METAR WIPP 230600Z 26007KT 9999 SCT010 32/24 Q1006 NOSIG=
23/12/2020 06:30:00Z	 SAID32 WIPP 230630	METAR WIPP 230630Z 28006KT 9999 SCT010 33/24 Q1005 NOSIG=
23/12/2020 07:00:00Z	 SAID32 WIPP 230700	METAR WIPP 230700Z 27008KT 9999 SCT010 33/24 Q1004 NOSIG=
23/12/2020 07:30:00Z	 SAID32 WIPP 230730	METAR WIPP 230730Z 29008KT 9999 SCT010 33/23 Q1004 NOSIG=
23/12/2020 08:00:00Z	 SAID32 WIPP 230800	METAR WIPP 230800Z 30007KT 9999 SCT010 33/24 Q1004 NOSIG=
23/12/2020 08:30:00Z	 SAID32 WIPP 230830	METAR WIPP 230830Z 31009KT 9999 FEW010CB SCT010 33/24 Q1003 RMK CB TO E=
23/12/2020 09:00:00Z	 SAID32 WIPP 230900	METAR WIPP 230900Z 27005KT 9999 FEW010CB SCT010 33/24 Q1004 RMK CB TO E=
23/12/2020 09:30:00Z	 SAID32 WIPP 230930	METAR WIPP 230930Z 31005KT 9999 FEW010CB SCT010 32/23 Q1004 RMK CB TO E=
23/12/2020 10:00:00Z	 SAID32 WIPP 231000	METAR WIPP 231000Z 06011KT 9999 FEW010CB FEW010 31/26 Q1004 RMK CB TO E=
23/12/2020 10:30:00Z	 SAID32 WIPP 231030	METAR WIPP 231030Z 07008KT 9999 FEW010 30/26 Q1005=
23/12/2020 11:00:00Z	 SAID32 WIPP 231100	METAR WIPP 231100Z 07007KT 9999 FEW010 29/25 Q1005=
23/12/2020 11:30:00Z	 SAID32 WIPP 231130	METAR WIPP 231130Z 07005KT 9999 FEW010 28/25 Q1005=
23/12/2020 12:00:00Z	 SAID32 WIPP 231200	METAR WIPP 231200Z 06004KT 9999 FEW010 28/25 Q1006=
23/12/2020 12:30:00Z	 SAID32 WIPP 231230	METAR WIPP 231230Z 05004KT 9999 FEW010 28/25 Q1006=
23/12/2020 13:00:00Z	 SAID32 WIPP 231300	METAR WIPP 231300Z 05002KT 9999 FEW010 28/25 Q1006=
23/12/2020 13:30:00Z	 SAID32 WIPP 231330	METAR WIPP 231330Z 08003KT 9999 FEW010 28/25 Q1007=
23/12/2020 14:00:00Z	 SAID32 WIPP 231400	METAR WIPP 231400Z 06003KT 9999 FEW010CB SCT010 28/25 Q1008 RMK CB OVER THE FIELD=
23/12/2020 14:30:00Z	 SAID32 WIPP 231430	METAR WIPP 231430Z 22006KT 5000 -RA FEW010CB BKN010 27/25 Q1008 RMK SW=
23/12/2020 15:00:00Z	 SAID32 WIPP 231500	METAR WIPP 231500Z 25004KT 0800 +TSRA FEW010CB BKN010 22/21 Q1010 RMK CB TO NW=
23/12/2020 16:00:00Z	 SAID32 WIPP 231600	METAR WIPP 231600Z 07003KT 6000 -RA FEW010CB BKN010 22/22 Q1010 RMK CB TO NW=
23/12/2020 17:00:00Z	 SAID32 WIPP 231700	METAR WIPP 231700Z 15003KT 5000 -RA FEW010CB BKN010 23/22 Q1009 RMK CB TO NW=
23/12/2020 18:00:00Z	 SAID32 WIPP 231800	METAR WIPP 231800Z 18004KT 4000 RA FEW010CB BKN010 23/23 Q1008 RMK CB TO NW=
23/12/2020 19:00:00Z	 SAID32 WIPP 231900	METAR WIPP 231900Z 16006KT 6000 -RA FEW010CB BKN010 23/23 Q1007 RMK CB TO N=
23/12/2020 20:00:00Z	 SAID32 WIPP 232000	METAR WIPP 232000Z 14005KT 8000 -RA SCT010 24/23 Q1006=
23/12/2020 21:00:00Z	 SAID32 WIPP 232100	METAR WIPP 232100Z 00000KT 9999 SCT010 24/23 Q1006=
23/12/2020 22:00:00Z	 SAID32 WIPP 232200	METAR WIPP 232200Z 00000KT 6000 SCT010 24/23 Q1007=
23/12/2020 22:30:00Z	 SAID32 WIPP 232230	METAR WIPP 232230Z 00000KT 8000 SCT010 24/23 Q1007=
23/12/2020 23:00:00Z	 SAID32 WIPP 232300	METAR WIPP 232300Z 00000KT 9999 FEW010 24/23 Q1008=
23/12/2020 23:30:00Z	 SAID32 WIPP 232330	METAR WIPP 232330Z 00000KT 6000 FEW010 24/23 Q1008=
24/12/2020 00:00:00Z	 SAID32 WIPP 240000	METAR WIPP 240000Z 28002KT 5000 HZ FEW010 24/23 Q1008=
24/12/2020 00:30:00Z	 SAID32 WIPP 240030	METAR WIPP 240030Z 29003KT 3000 HZ FEW010 24/23 Q1009=
24/12/2020 01:00:00Z	 SAID32 WIPP 240100	METAR WIPP 240100Z 30005KT 2000 BR SCT010 25/24 Q1009=
24/12/2020 01:30:00Z	 SAID32 WIPP 240130	METAR WIPP 240130Z 28008KT 3000 BR SCT010 25/24 Q1010=
24/12/2020 02:00:00Z	 SAID32 WIPP 240200	METAR WIPP 240200Z 28005KT 4000 HZ BKN010 26/24 Q1010=
24/12/2020 02:30:00Z	 SAID32 WIPP 240230	METAR WIPP 240230Z 32005KT 5000 HZ BKN010 26/24 Q1010=
24/12/2020 03:00:00Z	 SAID32 WIPP 240300	METAR WIPP 240300Z 32005KT 5000 HZ BKN010 26/24 Q1010=
24/12/2020 03:30:00Z	 SAID32 WIPP 240330	METAR WIPP 240330Z 30008KT 8000 BKN010 26/24 Q1010 NOSIG=
24/12/2020 04:00:00Z	 SAID32 WIPP 240400	METAR WIPP 240400Z 32005KT 9999 BKN010 27/24 Q1010 NOSIG=
24/12/2020 04:30:00Z	 SAID32 WIPP 240430	METAR WIPP 240430Z 33005KT 9999 BKN010 27/24 Q1010 NOSIG=
24/12/2020 05:00:00Z	 SAID32 WIPP 240500	METAR WIPP 240500Z 32008KT 9999 BKN010 28/24 Q1009 NOSIG=
24/12/2020 05:30:00Z	 SAID32 WIPP 240530	METAR WIPP 240530Z 32005KT 9999 BKN010 29/24 Q1009 NOSIG=
24/12/2020 06:00:00Z	 SAID32 WIPP 240600	METAR WIPP 240600Z 30005KT 9999 BKN010 29/24 Q1008 NOSIG=
24/12/2020 06:30:00Z	 SAID32 WIPP 240630	METAR WIPP 240630Z 28005KT 9999 BKN010 30/25 Q1007 NOSIG=
24/12/2020 07:00:00Z	 SAID32 WIPP 240700	METAR WIPP 240700Z 28005KT 9999 BKN010 30/25 Q1006 NOSIG=
24/12/2020 07:30:00Z	 SAID32 WIPP 240730	METAR WIPP 240730Z 30005KT 9999 BKN010 30/24 Q1006 NOSIG=
24/12/2020 08:00:00Z	 SAID32 WIPP 240800	METAR WIPP 240800Z 30003KT 9999 BKN010 30/24 Q1006 NOSIG=
24/12/2020 08:30:00Z	 SAID32 WIPP 240830	METAR WIPP 240830Z 32005KT 9999 BKN010 30/24 Q1005 NOSIG=
24/12/2020 09:00:00Z	 SAID32 WIPP 240900	METAR WIPP 240900Z 32005KT 9999 BKN010 30/24 Q1005 NOSIG=
24/12/2020 09:30:00Z	 SAID32 WIPP 240930	METAR WIPP 240930Z 28005KT 9999 BKN010 30/25 Q1005 NOSIG=
24/12/2020 10:00:00Z	 SAID32 WIPP 241000	METAR WIPP 241000Z 28005KT 9999 SCT010 FEW012CB 29/25 Q1006 RMK CB TO SE=
24/12/2020 10:30:00Z	 SAID32 WIPP 241030	METAR WIPP 241030Z 30003KT 9999 SCT010 FEW012CB 29/24 Q1006 RMK CB TO E=
24/12/2020 11:00:00Z	 SAID32 WIPP 241100	METAR WIPP 241100Z 00000KT 9999 SCT010 FEW012CB 28/24 Q1007 RMK CB TO E=
24/12/2020 11:30:00Z	 SAID32 WIPP 241130	METAR WIPP 241130Z 00000KT 8000 SCT010 FEW012CB 28/24 Q1007 RMK CB TO NE=
24/12/2020 12:00:00Z	 SAID32 WIPP 241200	METAR WIPP 241200Z 09005KT 8000 SCT010 28/24 Q1007 NOSIG=
24/12/2020 12:30:00Z	 SAID32 WIPP 241230	METAR WIPP 241230Z 07005KT 9999 SCT010 FEW012CB 27/24 Q1008 RMK CB TO SW=
24/12/2020 13:00:00Z	 SAID32 WIPP 241300	METAR WIPP 241300Z 13007KT 9999 SCT010 FEW010CB 27/24 Q1008 RMK CB TO SW=
24/12/2020 14:00:00Z	 SAID32 WIPP 241400	METAR WIPP 241400Z 08004KT 8000 -RA SCT010 FEW010CB 26/24 Q1008 RMK CB TO S=
24/12/2020 15:00:00Z	 SAID32 WIPP 241500	METAR WIPP 241500Z 14003KT 7000 -RA SCT010 FEW012CB 26/25 Q1009 RMK CB TO SW=
24/12/2020 16:00:00Z	 SAID32 WIPP 241600	METAR WIPP 241600Z 14005KT 9999 SCT010 26/25 Q1009=
24/12/2020 17:00:00Z	 SAID32 WIPP 241700	METAR WIPP 241700Z 14003KT 9999 SCT010 26/24 Q1009=
24/12/2020 18:00:00Z	 SAID32 WIPP 241800	METAR WIPP 241800Z 00000KT 9999 SCT010 25/24 Q1008=
24/12/2020 19:00:00Z	 SAID32 WIPP 241900	METAR WIPP 241900Z AUTO 00000KT 9000NDV ////// 24/24 Q1008=
24/12/2020 19:30:00Z	 SAID32 WIPP 241930	METAR WIPP 241930Z AUTO 07002KT 7000NDV ////// 24/24 Q1007=
24/12/2020 20:00:00Z	 SAID32 WIPP 242000	METAR WIPP 242000Z AUTO 07003KT 6000NDV ////// 24/24 Q1007=
24/12/2020 20:30:00Z	 SAID32 WIPP 242030	METAR WIPP 242030Z AUTO VRB02KT 3100NDV BR ////// 24/24 Q1007=
24/12/2020 21:00:00Z	 SAID32 WIPP 242100	METAR WIPP 242100Z AUTO VRB02KT 6000NDV ////// 24/24 Q1007=
24/12/2020 21:30:00Z	 SAID32 WIPP 242130	METAR WIPP 242130Z AUTO 00000KT 4900NDV BR ////// 24/24 Q1007=
24/12/2020 22:00:00Z	 SAID32 WIPP 242200	METAR WIPP 242200Z AUTO 31003KT 4300NDV BR ////// 24/24 Q1007=
24/12/2020 22:30:00Z	 SAID32 WIPP 242230	METAR WIPP 242230Z AUTO 32002KT 6000NDV ////// 24/24 Q1008=
24/12/2020 23:00:00Z	 SAID32 WIPP 242300	METAR WIPP 242300Z AUTO 08002KT 1300NDV R11/1700D R29/P2000N BR ////// 24/24 Q1008=
24/12/2020 23:30:00Z	 SAID32 WIPP 242330	METAR WIPP 242330Z AUTO VRB02KT 1000NDV R11/1000N R29/P2000D BR ////// 25/25 Q1008=
25/12/2020 00:00:00Z	 SAID32 WIPP 250000	METAR WIPP 250000Z 36003KT 1000 R29/4000 BR FEW010 25/24 Q1008=
25/12/2020 00:30:00Z	 SAID32 WIPP 250030	METAR WIPP 250030Z 02003KT 5000 HZ FEW010 25/24 Q1009=
25/12/2020 01:00:00Z	 SAID32 WIPP 250100	METAR WIPP 250100Z 05002KT 9999 FEW010 26/25 Q1009=
25/12/2020 01:30:00Z	 SAID32 WIPP 250130	METAR WIPP 250130Z 30002KT 9999 FEW010 27/24 Q1009 NOSIG=
25/12/2020 02:00:00Z	 SAID32 WIPP 250200	METAR WIPP 250200Z 00000KT 9999 FEW010 28/24 Q1009 NOSIG=
25/12/2020 02:30:00Z	 SAID32 WIPP 250230	METAR WIPP 250230Z 08003KT 9999 SCT010 29/24 Q1010 NOSIG=
25/12/2020 03:00:00Z	 SAID32 WIPP 250300	METAR WIPP 250300Z 07003KT 9999 BKN010 30/24 Q1009 NOSIG=
25/12/2020 03:30:00Z	 SAID32 WIPP 250330	METAR WIPP 250330Z 20002KT 9999 SCT010 30/23 Q1009 NOSIG=
25/12/2020 04:00:00Z	 SAID32 WIPP 250400	METAR WIPP 250400Z 02002KT 9999 SCT010 31/25 Q1009 NOSIG=
25/12/2020 04:30:00Z	 SAID32 WIPP 250430	METAR WIPP 250430Z 28002KT 9999 SCT010 31/23 Q1009 NOSIG=
25/12/2020 05:00:00Z	 SAID32 WIPP 250500	METAR WIPP 250500Z 22005KT 9999 SCT010 31/23 Q1008 NOSIG=
25/12/2020 05:30:00Z	 SAID32 WIPP 250530	METAR WIPP 250530Z 25004KT 9999 SCT010 32/23 Q1008 NOSIG=
25/12/2020 06:00:00Z	 SAID32 WIPP 250600	METAR WIPP 250600Z 07004KT 9999 SCT010 33/23 Q1007 NOSIG=
25/12/2020 06:30:00Z	 SAID32 WIPP 250630	METAR WIPP 250630Z 07004KT 9999 SCT010 33/24 Q1007 NOSIG=
25/12/2020 07:00:00Z	 SAID32 WIPP 250700	METAR WIPP 250700Z 07002KT 9999 BKN010 33/23 Q1006 NOSIG=
25/12/2020 07:30:00Z	 SAID32 WIPP 250730	METAR WIPP 250730Z 31004KT 9999 SCT010 33/23 Q1006 NOSIG=
25/12/2020 08:00:00Z	 SAID32 WIPP 250800	METAR WIPP 250800Z 06003KT 9999 FEW010CB BKN010 33/24 Q1005 RMK CB TO NE=
25/12/2020 08:30:00Z	 SAID32 WIPP 250830	METAR WIPP 250830Z 17003KT 9999 FEW010CB BKN010 30/25 Q1006 RMK CB TO NE=
25/12/2020 09:00:00Z	 SAID32 WIPP 250900	METAR WIPP 250900Z 32002KT 9999 SCT010 30/25 Q1006 NOSIG=
25/12/2020 09:30:00Z	 SAID32 WIPP 250930	METAR WIPP 250930Z 06003KT 9999 SCT010 29/25 Q1006 NOSIG=
25/12/2020 10:00:00Z	 SAID32 WIPP 251000	METAR WIPP 251000Z 05002KT 9999 FEW010 29/24 Q1006 NOSIG=
25/12/2020 10:30:00Z	 SAID32 WIPP 251030	METAR WIPP 251030Z 13003KT 9999 FEW010 29/25 Q1006 NOSIG=
25/12/2020 11:00:00Z	 SAID32 WIPP 251100	METAR WIPP 251100Z 03003KT 9999 FEW010 29/25 Q1006 NOSIG=
25/12/2020 11:30:00Z	 SAID32 WIPP 251130	METAR WIPP 251130Z 03003KT 9999 FEW010 28/24 Q1007 NOSIG=
25/12/2020 12:00:00Z	 SAID32 WIPP 251200	METAR WIPP 251200Z 06002KT 9999 FEW010 28/25 Q1007 NOSIG=
25/12/2020 12:30:00Z	 SAID32 WIPP 251230	METAR WIPP 251230Z 06003KT 9999 FEW010 28/25 Q1008 NOSIG=
25/12/2020 13:00:00Z	 SAID32 WIPP 251300	METAR WIPP 251300Z 05003KT 9999 FEW010 28/25 Q1008 NOSIG=
25/12/2020 14:00:00Z	 SAID32 WIPP 251400	METAR WIPP 251400Z 17003KT 9999 FEW011CB FEW010 27/25 Q1010 RMK CB TO W=
25/12/2020 15:00:00Z	 SAID32 WIPP 251500	METAR WIPP 251500Z 11002KT 9999 FEW010CB SCT010 26/23 Q1010 RMK CB TO NW=
25/12/2020 16:00:00Z	 SAID32 WIPP 251600	METAR WIPP 251600Z 22009KT 9999 FEW010CB SCT010 25/21 Q1011 RMK CB TO E=
25/12/2020 17:00:00Z	 SAID32 WIPP 251700	METAR WIPP 251700Z 09005KT 8000 -RA FEW010CB SCT010 23/22 Q1010 RMK CB TO E=
25/12/2020 18:00:00Z	 SAID32 WIPP 251800	METAR WIPP 251800Z 00000KT 9999 SCT010 23/22 Q1010 RERA=
25/12/2020 19:00:00Z	 SAID32 WIPP 251900	METAR WIPP 251900Z 18002KT 9999 FEW010 23/22 Q1008 NISUG=
25/12/2020 20:00:00Z	 SAID32 WIPP 252000	METAR WIPP 252000Z 00000KT 9999 FEW010 23/22 Q1008 NISUG=
25/12/2020 20:00:00Z	 SAID32 WIPP 252000 CCA	METAR COR WIPP 252000Z 00000KT 9999 FEW010 23/22 Q1008 NOSIG=
25/12/2020 21:00:00Z	 SAID32 WIPP 252100	METAR WIPP 252100Z 00000KT 9999 FEW010 23/22 Q1008 NOSIG=
25/12/2020 22:00:00Z	 SAID32 WIPP 252200	METAR WIPP 252200Z 07002KT 8000 FEW010 23/22 Q1008 NOSIG=
25/12/2020 22:30:00Z	 SAID32 WIPP 252230	METAR WIPP 252230Z 07002KT 6000 FEW010 23/22 Q1009 NOSIG=
25/12/2020 23:00:00Z	 SAID32 WIPP 252300	METAR WIPP 252300Z 00000KT 6000 FEW010 23/22 Q1009 NOSIG=
25/12/2020 23:30:00Z	 SAID32 WIPP 252330	METAR WIPP 252330Z 00000KT 6000 FEW010 23/22 Q1009 NOSIG=
26/12/2020 00:00:00Z	 SAID32 WIPP 260000	METAR WIPP 260000Z 00000KT 9999 FEW010 24/23 Q1010 NOSIG=
26/12/2020 00:30:00Z	 SAID32 WIPP 260030	METAR WIPP 260030Z 00000KT 9999 FEW010 24/23 Q1010 NOSIG=
26/12/2020 01:00:00Z	 SAID32 WIPP 260100	METAR WIPP 260100Z 15003KT 9999 FEW010 25/24 Q1010 NOSIG=
26/12/2020 01:30:00Z	 SAID32 WIPP 260130	METAR WIPP 260130Z 23005KT 9999 SCT010 26/24 Q1011 NOSIG=
26/12/2020 02:00:00Z	 SAID32 WIPP 260200	METAR WIPP 260200Z 20003KT 9999 FEW010 27/24 Q1011 NOSIG=
