01/12/2020 00:00:00Z	 SAID34 WIJJ 010000	METAR WIJJ 010000Z 00000KT 4100 HZ FEW015 25/25 Q1009 NOSIG=
01/12/2020 00:30:00Z	 SAID34 WIJJ 010030	METAR WIJJ 010030Z 00000KT 5000 HZ FEW015 26/25 Q1010 NOSIG=
01/12/2020 01:00:00Z	 SAID34 WIJJ 010100	METAR WIJJ 010100Z 30002KT 6000 SCT015 28/26 Q1010 NOSIG=
01/12/2020 01:30:00Z	 SAID34 WIJJ 010130	METAR WIJJ 010130Z 32002KT 9999 SCT015 29/25 Q1011 NOSIG=
01/12/2020 02:00:00Z	 SAID34 WIJJ 010200	METAR WIJJ 010200Z 30003KT 260V360 9999 SCT016 29/24 Q1011 NOSIG=
01/12/2020 02:30:00Z	 SAID34 WIJJ 010230	METAR WIJJ 010230Z 02003KT 320V080 9999 SCT016 30/25 Q1010 NOSIG=
01/12/2020 03:00:00Z	 SAID34 WIJJ 010300	METAR WIJJ 010300Z 03003KT 340V100 9999 BKN016 30/25 Q1010 NOSIG=
01/12/2020 03:30:00Z	 SAID34 WIJJ 010330	METAR WIJJ 010330Z 25003KT 9999 BKN016 30/25 Q1010 NOSIG=
01/12/2020 04:00:00Z	 SAID34 WIJJ 010400	METAR WIJJ 010400Z 33002KT 9999 BKN016 32/24 Q1009 NOSIG=
01/12/2020 04:30:00Z	 SAID34 WIJJ 010430	METAR WIJJ 010430Z 34004KT 310V010 9999 BKN016 32/24 Q1009 NOSIG=
01/12/2020 05:00:00Z	 SAID34 WIJJ 010500	METAR WIJJ 010500Z 34003KT 260V060 9999 BKN016 31/24 Q1009 NOSIG=
01/12/2020 05:30:00Z	 SAID34 WIJJ 010530	METAR WIJJ 010530Z 28003KT 170V320 9999 BKN016 33/23 Q1008 NOSIG=
01/12/2020 06:00:00Z	 SAID34 WIJJ 010600	METAR WIJJ 010600Z 07004KT 320V120 9999 BKN016 33/23 Q1008 NOSIG=
01/12/2020 06:30:00Z	 SAID34 WIJJ 010630	METAR WIJJ 010630Z 11004KT 070V160 9999 BKN016 33/24 Q1007 NOSIG=
01/12/2020 07:00:00Z	 SAID34 WIJJ 010700	METAR WIJJ 010700Z VRB02KT 9999 SCT016 33/22 Q1007 NOSIG=
01/12/2020 07:30:00Z	 SAID34 WIJJ 010730	METAR WIJJ 010730Z 02002KT 9999 SCT016 33/22 Q1006 NOSIG=
01/12/2020 08:00:00Z	 SAID34 WIJJ 010800	METAR WIJJ 010800Z 34003KT 9999 FEW016 34/24 Q1006 NOSIG=
01/12/2020 08:30:00Z	 SAID34 WIJJ 010830	METAR WIJJ 010830Z 24006KT 9999 FEW016 34/24 Q1005 NOSIG=
01/12/2020 09:00:00Z	 SAID34 WIJJ 010900	METAR WIJJ 010900Z 27004KT 190V320 9999 FEW016 34/22 Q1005 NOSIG=
01/12/2020 09:30:00Z	 SAID34 WIJJ 010930	METAR WIJJ 010930Z 27003KT 200V280 9999 FEW016 34/22 Q1005 NOSIG=
01/12/2020 10:00:00Z	 SAID34 WIJJ 011000	METAR WIJJ 011000Z 27002KT 9999 FEW016 34/22 Q1005 NOSIG=
01/12/2020 10:30:00Z	 SAID34 WIJJ 011030	METAR WIJJ 011030Z 16002KT 9999 FEW018 34/22 Q1006 NOSIG=
01/12/2020 11:00:00Z	 SAID34 WIJJ 011100	METAR WIJJ 011100Z 35002KT 9999 FEW016 33/22 Q1006 NOSIG=
01/12/2020 11:30:00Z	 SAID34 WIJJ 011130	METAR WIJJ 011130Z 35002KT 9000 FEW018 32/22 Q1006 NOSIG=
01/12/2020 12:00:00Z	 SAID34 WIJJ 011200	METAR WIJJ 011200Z 03003KT 5000 HZ FEW018 32/23 Q1006=
01/12/2020 12:30:00Z	 SAID34 WIJJ 011230	METAR WIJJ 011230Z 04002KT 5000 HZ FEW017 31/24 Q1007 NOSIG=
01/12/2020 13:00:00Z	 SAID34 WIJJ 011300	METAR WIJJ 011300Z 03002KT 5000 HZ NSC 31/24 Q1007 NOSIG=
01/12/2020 13:30:00Z	 SAID34 WIJJ 011330	METAR WIJJ 011330Z 08003KT 9999 NSC 30/24 Q1008 NOSIG=
01/12/2020 14:00:00Z	 SAID34 WIJJ 011400	METAR WIJJ 011400Z 11002KT 9999 NSC 29/26 Q1008 NOSIG=
01/12/2020 14:30:00Z	 SAID34 WIJJ 011430	METAR WIJJ 011430Z 09002KT 9000 NSC 27/25 Q1009 NOSIG=
01/12/2020 15:00:00Z	 SAID34 WIJJ 011500	METAR WIJJ 011500Z 09001KT 7000 NSC 28/25 Q1009 NOSIG=
01/12/2020 15:30:00Z	 SAID34 WIJJ 011530	METAR WIJJ 011530Z 08001KT 6000 NSC 26/25 Q1009 NOSIG=
01/12/2020 16:00:00Z	 SAID34 WIJJ 011600	METAR WIJJ 011600Z 04002KT 9999 SKC 28/25 Q1009 NOSIG=
01/12/2020 16:30:00Z	 SAID34 WIJJ 011630	METAR WIJJ 011630Z 04001KT 9999 SKC 26/25 Q1009 NOSIG=
01/12/2020 17:00:00Z	 SAID34 WIJJ 011700	METAR WIJJ 011700Z 00000KT 8000 NSC 26/25 Q1008 NOSIG=
01/12/2020 17:30:00Z	 SAID34 WIJJ 011730	METAR WIJJ 011730Z 14001KT 8000 SKC 26/25 Q1008 NOSIG=
01/12/2020 18:00:00Z	 SAID34 WIJJ 011800	METAR WIJJ 011800Z 32001KT 7000 NSC 25/25 Q1008 NOSIG=
01/12/2020 18:30:00Z	 SAID34 WIJJ 011830	METAR WIJJ 011830Z 33001KT 6000 NSC 25/25 Q1008 NOSIG=
01/12/2020 19:00:00Z	 SAID34 WIJJ 011900	METAR WIJJ 011900Z 00000KT 9999 NSC 27/25 Q1007 NOSIG=
01/12/2020 19:30:00Z	 SAID34 WIJJ 011930	METAR WIJJ 011930Z 31001KT 6000 NSC 26/25 Q1007 NOSIG=
01/12/2020 20:00:00Z	 SAID34 WIJJ 012000	METAR WIJJ 012000Z 35002KT 9999 NSC 25/25 Q1007 NOSIG=
01/12/2020 20:30:00Z	 SAID34 WIJJ 012030	METAR WIJJ 012030Z 28001KT 7000 NSC 26/25 Q1007 NOSIG=
01/12/2020 21:00:00Z	 SAID34 WIJJ 012100	METAR WIJJ 012100Z 30002KT 9000 SCT014 26/25 Q1007 NOSIG=
01/12/2020 21:30:00Z	 SAID34 WIJJ 012130	METAR WIJJ 012130Z 30002KT 7000 FEW014 26/25 Q1007 NOSIG=
01/12/2020 22:00:00Z	 SAID34 WIJJ 012200	METAR WIJJ 012200Z 28003KT 6000 FEW014 25/25 Q1008 NOSIG=
01/12/2020 22:30:00Z	 SAID34 WIJJ 012230	METAR WIJJ 012230Z 25003KT 6000 SCT014 26/25 Q1008 NOSIG=
01/12/2020 23:00:00Z	 SAID34 WIJJ 012300	METAR WIJJ 012300Z 26002KT 5000 HZ SCT014 25/25 Q1008 NOSIG=
01/12/2020 23:30:00Z	 SAID34 WIJJ 012330	METAR WIJJ 012330Z 25001KT 4300 HZ BKN014 25/25 Q1009 NOSIG=
02/12/2020 00:00:00Z	 SAID34 WIJJ 020000	METAR WIJJ 020000Z 22002KT 4400 HZ FEW014CB FEW015 26/25 Q1009 NOSIG RMK CB TO N=
02/12/2020 00:30:00Z	 SAID34 WIJJ 020030	METAR WIJJ 020030Z 27003KT 250V310 4900 BR FEW015 27/25 Q1008 NOSIG=
02/12/2020 01:00:00Z	 SAID34 WIJJ 020100	METAR WIJJ 020100Z 30002KT 7000 NSC 28/26 Q1008 NOSIG=
02/12/2020 01:30:00Z	 SAID34 WIJJ 020130	METAR WIJJ 020130Z 35005KT 320V020 9999 BKN014 28/26 Q1008 NOSIG=
02/12/2020 02:00:00Z	 SAID34 WIJJ 020200	METAR WIJJ 020200Z 33007KT 300V010 9999 BKN015 29/26 Q1009 NOSIG=
02/12/2020 02:30:00Z	 SAID34 WIJJ 020230	METAR WIJJ 020230Z 35008KT 320V030 9999 BKN015 29/25 Q1009 NOSIG=
02/12/2020 03:00:00Z	 SAID34 WIJJ 020300	METAR WIJJ 020300Z 35005KT 300V040 9999 BKN015 30/25 Q1009 NOSIG=
02/12/2020 03:30:00Z	 SAID34 WIJJ 020330	METAR WIJJ 020330Z 34006KT 270V010 9999 BKN016 30/25 Q1009 NOSIG=
02/12/2020 04:00:00Z	 SAID34 WIJJ 020400	METAR WIJJ 020400Z 35006KT 310V010 9999 BKN016 311/25 Q1008 NOSIG=
02/12/2020 04:30:00Z	 SAID34 WIJJ 020430	METAR WIJJ 020430Z 35007KT 9999 BKN016 31/24 Q1008 NOSIG=
02/12/2020 05:00:00Z	 SAID34 WIJJ 020500	METAR WIJJ 020500Z 32006KT 280V020 9999 BKN016 32/25 Q1007 NOSIG=
02/12/2020 05:30:00Z	 SAID34 WIJJ 020530	METAR WIJJ 020530Z 34007KT 280V020 9999 SCT016 33/25 Q1007 NOSIG=
02/12/2020 06:00:00Z	 SAID34 WIJJ 020600	METAR WIJJ 020600Z 30007KT 270V330 9999 SCT017 33/23 Q1006 NOSIG=
02/12/2020 06:30:00Z	 SAID34 WIJJ 020630	METAR WIJJ 020630Z 31004KT 9999 SCT017 33/24 Q1006 NOSIG=
02/12/2020 07:00:00Z	 SAID34 WIJJ 020700	METAR WIJJ 020700Z 27004KT 230V330 9999 SCT016 33/23 Q1006 NOSIG=
02/12/2020 07:30:00Z	 SAID34 WIJJ 020730	METAR WIJJ 020730Z 28004KT 210V360 9999 SCT016 32/23 Q1005 NOSIG=
02/12/2020 08:00:00Z	 SAID34 WIJJ 020800	METAR WIJJ 020800Z 31004KT 270V350 9999 SCT017 32/23 Q1005 NOSIG=
02/12/2020 08:30:00Z	 SAID34 WIJJ 020830	METAR WIJJ 020830Z 29004KT 250V020 9999 SCT017 32/23 Q1005 NOSIG=
02/12/2020 09:00:00Z	 SAID34 WIJJ 020900	METAR WIJJ 020900Z 29004KT 260V320 9999 SCT016 31/23 Q1005 NOSIG=
02/12/2020 09:30:00Z	 SAID34 WIJJ 020930	METAR WIJJ 020930Z 28004KT 250V320 9999 SCT017 31/23 Q1005 NOSIG=
02/12/2020 10:00:00Z	 SAID34 WIJJ 021000	METAR WIJJ 021000Z 30005KT 9999 FEW017 31/23 Q1005 NOSIG=
02/12/2020 10:30:00Z	 SAID34 WIJJ 021030	METAR WIJJ 021030Z 29004KT 9999 FEW017 31/23 Q1005 NOSIG=
02/12/2020 11:00:00Z	 SAID34 WIJJ 021100	METAR WIJJ 021100Z 31005KT 9999 FEW017 30/22 Q1006 NOSIG=
02/12/2020 11:30:00Z	 SAID34 WIJJ 021130	METAR WIJJ 021130Z 36003KT 8000 FEW017 30/23 Q1006 NOSIG=
02/12/2020 12:00:00Z	 SAID34 WIJJ 021200	METAR WIJJ 021200Z 03003KT 6000 FEW017 30/24 Q1006 NOSIG=
02/12/2020 12:30:00Z	 SAID34 WIJJ 021230	METAR WIJJ 021230Z 03004KT 9999 FEW016 30/25 Q1007 NOSIG=
02/12/2020 13:00:00Z	 SAID34 WIJJ 021300	METAR WIJJ 021300Z 02003KT 9999 FEW016 29/25 Q1007 NOSIG=
02/12/2020 13:30:00Z	 SAID34 WIJJ 021330	METAR WIJJ 021330Z 02004KT 9999 FEW016 28/25 Q1008 NOSIG=
02/12/2020 14:00:00Z	 SAID34 WIJJ 021400	METAR WIJJ 021400Z 01002KT 9999 FEW016 29/25 Q1008 NOSIG=
02/12/2020 14:30:00Z	 SAID34 WIJJ 021430	METAR WIJJ 021430Z 00000KT 8000 FEW016 28/25 Q1008 NOSIG=
02/12/2020 15:00:00Z	 SAID34 WIJJ 021500	METAR WIJJ 021500Z 00000KT 6000 FEW016 28/25 Q1008=
02/12/2020 16:00:00Z	 SAID34 WIJJ 021600	METAR WIJJ 021600Z 02002KT 9000 FEW016 28/25 Q1008=
02/12/2020 17:00:00Z	 SAID34 WIJJ 021700	METAR WIJJ 021700Z 03002KT 7000 FEW016 28/25 Q1008=
02/12/2020 18:00:00Z	 SAID34 WIJJ 021800	METAR WIJJ 021800Z 36002KT 9999 FEW016 27/26 Q1007 NOSIG=
02/12/2020 21:00:00Z	 SAID34 WIJJ 022100	METAR WIJJ 022100Z 32005KT 9999 FEW016 27/25 Q1007 NOSIG=
02/12/2020 21:30:00Z	 SAID34 WIJJ 022130	METAR WIJJ 022130Z 32004KT 9999 FEW016 26/25 Q1007 NOSIG=
02/12/2020 22:30:00Z	 SAID34 WIJJ 022230	METAR WIJJ 022230Z 31006KT 8000 FEW016 26/25 Q1007=
02/12/2020 23:00:00Z	 SAID34 WIJJ 022300	METAR WIJJ 022300Z 30006KT 8000 FEW016 26/25 Q1007=
02/12/2020 23:30:00Z	 SAID34 WIJJ 022330	METAR WIJJ 022330Z 31006KT 5000 HZ BKN012 26/25 Q1008=
03/12/2020 00:00:00Z	 SAID34 WIJJ 030000	METAR WIJJ 030000Z 31006KT 6000 BKN010 26/24 Q1009=
03/12/2020 00:30:00Z	 SAID34 WIJJ 030030	METAR WIJJ 030030Z 33007KT 9999 BKN013 26/25 Q1008 NOSIG=
03/12/2020 01:00:00Z	 SAID34 WIJJ 030100	METAR WIJJ 030100Z 32006KT 9999 BKN013 27/25 Q1009 NOSIG=
03/12/2020 01:30:00Z	 SAID34 WIJJ 030130	METAR WIJJ 030130Z 32007KT 9999 BKN013 28/25 Q1009 NOSIG=
03/12/2020 02:00:00Z	 SAID34 WIJJ 030200	METAR WIJJ 030200Z 33006KT 9999 BKN015 29/25 Q1009 NOSIG=
03/12/2020 02:30:00Z	 SAID34 WIJJ 030230	METAR WIJJ 030230Z 30006KT 9999 BKN015 29/25 Q1009 NOSIG=
03/12/2020 03:00:00Z	 SAID34 WIJJ 030300	METAR WIJJ 030300Z 32007KT 9999 BKN015 30/24 Q1009 NOSIG=
03/12/2020 03:30:00Z	 SAID34 WIJJ 030330	METAR WIJJ 030330Z 31007KT 9999 SCT015 30/24 Q1009 NOSIG=
03/12/2020 04:00:00Z	 SAID34 WIJJ 030400	METAR WIJJ 030400Z 31010KT 9999 SCT016 31/23 Q1009 NOSIG=
03/12/2020 04:30:00Z	 SAID34 WIJJ 030430	METAR COR WIJJ 030430Z 32010KT 9999 SCT016 31/22 Q1008 NOSIG=
03/12/2020 05:00:00Z	 SAID34 WIJJ 030500	METAR WIJJ 030500Z 32006KT 9999 SCT016 31/23 Q1008 NOSIG=
03/12/2020 05:30:00Z	 SAID34 WIJJ 030530	METAR WIJJ 030530Z 29004KT 9999 SCT016 31/23 Q1008 NOSIG=
03/12/2020 06:00:00Z	 SAID34 WIJJ 030600	METAR WIJJ 030600Z 29004KT 9999 SCT016 31/22 Q1007 NOSIG=
03/12/2020 06:30:00Z	 SAID34 WIJJ 030630	METAR WIJJ 030630Z 31008KT 250V340 9999 SCT017 31/22 Q1007 NOSIG=
03/12/2020 07:00:00Z	 SAID34 WIJJ 030700	METAR WIJJ 030700Z 30007KT 270V340 9999 FEW017 31/22 Q1006 NOSIG=
03/12/2020 07:30:00Z	 SAID34 WIJJ 030730	METAR WIJJ 030730Z 30006KT 270V330 9999 FEW017 31/23 Q1005 NOSIG=
03/12/2020 08:00:00Z	 SAID34 WIJJ 030800	METAR WIJJ 030800Z 30007KT 260V340 9999 FEW017 31/22 Q1005 NOSIG=
03/12/2020 08:30:00Z	 SAID34 WIJJ 030830	METAR WIJJ 030830Z 30008KT 9999 FEW017 30/22 Q1005 NOSIG=
03/12/2020 09:00:00Z	 SAID34 WIJJ 030900	METAR WIJJ 030900Z 31008KT 9999 FEW017 31/22 Q1004 NOSIG=
03/12/2020 09:30:00Z	 SAID34 WIJJ 030930	METAR WIJJ 030930Z 30005KT 270V330 9999 FEW017 31/23 Q1004 NOSIG=
03/12/2020 10:00:00Z	 SAID34 WIJJ 031000	METAR WIJJ 031000Z 31005KT 280V350 9999 NSC 31/23 Q1005 NOSIG=
03/12/2020 10:30:00Z	 SAID34 WIJJ 031030	METAR WIJJ 031030Z 30004KT 9999 NSC 30/23 Q1005 NOSIG=
03/12/2020 11:00:00Z	 SAID34 WIJJ 031100	METAR WIJJ 031100Z 29004KT 9999 NSC 29/23 Q1005 NOSIG=
03/12/2020 11:30:00Z	 SAID34 WIJJ 031130	METAR WIJJ 031130Z 29003KT 9000 FEW016 29/23 Q1006 NOSIG=
03/12/2020 12:00:00Z	 SAID34 WIJJ 031200	METAR WIJJ 031200Z 32003KT 9999 FEW017 28/23 Q1006 NOSIG=
03/12/2020 12:30:00Z	 SAID34 WIJJ 031230	METAR WIJJ 031230Z 29002KT 8000 FEW017 27/24 Q1008 NOSIG=
03/12/2020 13:00:00Z	 SAID34 WIJJ 031300	METAR WIJJ 031300Z 25002KT 7000 FEW017 29/23 Q1009 NOSIG=
03/12/2020 13:30:00Z	 SAID34 WIJJ 031330	METAR WIJJ 031330Z 00000KT 4000 HZ SCT016 28/25 Q1009 NOSIG=
03/12/2020 14:00:00Z	 SAID34 WIJJ 031400	METAR WIJJ 031400Z 00000KT 2800 BR SCT016 26/25 Q1009 NOSIG=
03/12/2020 14:30:00Z	 SAID34 WIJJ 031430	METAR WIJJ 031430Z 00000KT 2500 BR SCT016 26/24 Q1009 NOSIG=
03/12/2020 15:00:00Z	 SAID34 WIJJ 031500	METAR WIJJ 031500Z 00000KT 4000 HZ SCT016 26/24 Q1009 NOSIG=
03/12/2020 21:00:00Z	 SAID34 WIJJ 032100	METAR WIJJ 032100Z 00000KT 2000 BR FEW017 24/24 Q1007 NOSIG=
03/12/2020 21:30:00Z	 SAID34 WIJJ 032130	METAR WIJJ 032130Z 00000KT 2300 BR FEW017 24/24 Q1006 NOSIG=
03/12/2020 22:00:00Z	 SAID34 WIJJ 032200	METAR WIJJ 032200Z 00000KT 2000 BR FEW017 24/24 Q1007 NOSIG=
03/12/2020 22:30:00Z	 SAID34 WIJJ 032230	METAR WIJJ 032230Z 29002KT 2500 BR BKN014 24/24 Q1008 NOSIG=
03/12/2020 23:00:00Z	 SAID34 WIJJ 032300	METAR WIJJ 032300Z 27002KT 2000 BR SCT015 25/24 Q1009 NOSIG=
03/12/2020 23:30:00Z	 SAID34 WIJJ 032330	METAR WIJJ 032330Z 27002KT 2300 BR SCT015 25/25 Q1009 NOSIG=
04/12/2020 00:00:00Z	 SAID34 WIJJ 040000	METAR WIJJ 040000Z 30003KT 3000 HZ FEW015 26/25 Q1009 NOSIG=
04/12/2020 00:30:00Z	 SAID34 WIJJ 040030	METAR WIJJ 040030Z 30005KT 7000 FEW015 27/25 Q1009 NOSIG=
04/12/2020 01:00:00Z	 SAID34 WIJJ 040100	METAR WIJJ 040100Z 34004KT 6000 SCT015 27/25 Q1009 NOSIG=
04/12/2020 01:30:00Z	 SAID34 WIJJ 040130	METAR WIJJ 040130Z 33005KT 7000 SCT015 27/25 Q1009 NOSIG=
04/12/2020 02:00:00Z	 SAID34 WIJJ 040200	METAR WIJJ 040200Z 34007KT 310V010 8000 SCT015 28/25 Q1009 NOSIG=
04/12/2020 02:30:00Z	 SAID34 WIJJ 040230	METAR WIJJ 040230Z 34007KT 9999 SCT015 28/25 Q1009 NOSIG=
04/12/2020 03:00:00Z	 SAID34 WIJJ 040300	METAR WIJJ 040300Z 35006KT 9999 SCT015 29/25 Q1009 NOSIG=
04/12/2020 03:30:00Z	 SAID34 WIJJ 040330	METAR WIJJ 040330Z 34006KT 290V030 9999 BKN015 30/25 Q1009 NOSIG=
04/12/2020 04:00:00Z	 SAID34 WIJJ 040400	METAR WIJJ 040400Z 32007KT 290V350 9999 BKN015 31/24 Q1009 NOSIG=
04/12/2020 04:30:00Z	 SAID34 WIJJ 040430	METAR WIJJ 040430Z 31005KT 260V350 9999 BKN015 31/25 Q1008 NOSIG=
04/12/2020 05:00:00Z	 SAID34 WIJJ 040500	METAR WIJJ 040500Z 32005KT 9999 SCT015 32/25 Q1008 NOSIG=
04/12/2020 05:30:00Z	 SAID34 WIJJ 040530	METAR WIJJ 040530Z 31006KT 9999 SCT015 32/23 Q1007 NOSIG=
04/12/2020 06:00:00Z	 SAID34 WIJJ 040600	METAR WIJJ 040600Z 28005KT 9999 SCT016 32/23 Q1007 NOSIG=
04/12/2020 06:30:00Z	 SAID34 WIJJ 040630	METAR WIJJ 040630Z 30008KT 9999 SCT016 33/22 Q1006 NOSIG=
04/12/2020 07:00:00Z	 SAID34 WIJJ 040700	METAR WIJJ 040700Z 34006KT 9999 SCT016 33/23 Q1005 NOSIG=
04/12/2020 07:30:00Z	 SAID34 WIJJ 040730	METAR WIJJ 040730Z 31008KT 270V330 9999 SCT016 33/23 Q1005 NOSIG=
04/12/2020 08:00:00Z	 SAID34 WIJJ 040800	METAR WIJJ 040800Z 29007KT 9999 SCT016 32/23 Q1004 NOSIG=
04/12/2020 08:30:00Z	 SAID34 WIJJ 040830	METAR WIJJ 040830Z 33008KT 9999 SCT016 32/23 Q1004 NOSIG=
04/12/2020 09:00:00Z	 SAID34 WIJJ 040900	METAR WIJJ 040900Z 32006KT 9999 SCT016 32/23 Q1005 NOSIG=
04/12/2020 09:30:00Z	 SAID34 WIJJ 040930	METAR WIJJ 040930Z 34006KT 9999 FEW016 32/23 Q1005 NOSIG=
04/12/2020 10:00:00Z	 SAID34 WIJJ 041000	METAR WIJJ 041000Z 34005KT 9999 FEW016 31/23 Q1005 NOSIG=
04/12/2020 10:30:00Z	 SAID34 WIJJ 041030	METAR WIJJ 041030Z 33004KT 8000 FEW016 31/23 Q1005 NOSIG=
04/12/2020 11:00:00Z	 SAID34 WIJJ 041100	METAR WIJJ 041100Z 33005KT 9999 FEW015 31/23 Q1005 NOSIG=
04/12/2020 11:30:00Z	 SAID34 WIJJ 041130	METAR WIJJ 041130Z 32004KT 9999 SCT015 29/24 Q1006 NOSIG=
04/12/2020 12:00:00Z	 SAID34 WIJJ 041200	METAR WIJJ 041200Z 01003KT 9999 FEW016 29/24 Q1007 NOSIG=
04/12/2020 12:30:00Z	 SAID34 WIJJ 041230	METAR WIJJ 041230Z 01005KT 340V040 9999 FEW017 29/25 Q1007 NOSIG=
04/12/2020 13:00:00Z	 SAID34 WIJJ 041300	METAR WIJJ 041300Z 01004KT 9999 FEW017 28/25 Q1009 NOSIG=
04/12/2020 13:30:00Z	 SAID34 WIJJ 041330	METAR WIJJ 041330Z 02005KT 350V050 9999 FEW017 28/25 Q1008 NOSIG=
04/12/2020 14:00:00Z	 SAID34 WIJJ 041400	METAR WIJJ 041400Z 03004KT 9999 FEW017 28/25 Q1009 NOSIG=
04/12/2020 14:30:00Z	 SAID34 WIJJ 041430	METAR WIJJ 041430Z 02004KT 330V050 9999 FEW017 27/25 Q1009 NOSIG=
04/12/2020 15:00:00Z	 SAID34 WIJJ 041500	METAR WIJJ 041500Z 01004KT 340V040 9999 FEW017 27/25 Q1009 NOSIG=
04/12/2020 15:30:00Z	 SAID34 WIJJ 041530	METAR WIJJ 041530Z 01004KT 330V050 9999 NSC 27/25 Q1009 NOSIG=
04/12/2020 16:00:00Z	 SAID34 WIJJ 041600	METAR WIJJ 041600Z 36005KT 9999 FEW017 27/25 Q1009 NOSIG=
04/12/2020 16:30:00Z	 SAID34 WIJJ 041630	METAR WIJJ 041630Z 35005KT 9999 FEW016 27/25 Q1009 NOSIG=
04/12/2020 17:00:00Z	 SAID34 WIJJ 041700	METAR WIJJ 041700Z 35005KT 9999 SCT016 27/25 Q1009 NOSIG=
04/12/2020 17:30:00Z	 SAID34 WIJJ 041730	METAR WIJJ 041730Z 33005KT 9999 SCT016 27/25 Q1009 NOSIG=
04/12/2020 18:00:00Z	 SAID34 WIJJ 041800	METAR WIJJ 041800Z 33005KT 9999 SCT015 27/25 Q1008 NOSIG=
04/12/2020 18:30:00Z	 SAID34 WIJJ 041830	METAR WIJJ 041830Z 33005KT 9999 SCT015 27/25 Q1008 NOSIG=
04/12/2020 19:00:00Z	 SAID34 WIJJ 041900	METAR WIJJ 041900Z 31005KT 9999 SCT015 27/25 Q1008 NOSIG=
04/12/2020 20:00:00Z	 SAID34 WIJJ 042000	METAR WIJJ 042000Z 31007KT 260V320 9999 SCT015 26/25 Q1007 NOSIG=
04/12/2020 20:30:00Z	 SAID34 WIJJ 042030	METAR WIJJ 042030Z 32007KT 9999 SCT014 26/24 Q1007 NOSIG=
04/12/2020 21:30:00Z	 SAID34 WIJJ 042130	METAR WIJJ 042130Z 32007KT 9999 SCT012 26/24 Q1007 NOSIG=
04/12/2020 22:00:00Z	 SAID34 WIJJ 042200	METAR WIJJ 042200Z 31007KT 9999 SCT012 26/24 Q1008 NOSIG=
04/12/2020 22:30:00Z	 SAID34 WIJJ 042230	METAR WIJJ 042230Z 30005KT 9999 SCT012 25/24 Q1008 NOSIG=
04/12/2020 23:00:00Z	 SAID34 WIJJ 042300	METAR WIJJ 042300Z 31007KT 9999 FEW005 25/24 Q1007 NOSIG=
04/12/2020 23:30:00Z	 SAID34 WIJJ 042330	METAR WIJJ 042330Z 30007KT 9999 FEW005 25/24 Q1008 NOSIG=
05/12/2020 00:00:00Z	 SAID34 WIJJ 050000	METAR WIJJ 050000Z 30006KT 9999 FEW005 26/24 Q1008 NOSIG=
05/12/2020 00:30:00Z	 SAID34 WIJJ 050030	METAR WIJJ 050030Z 29007KT 9999 FEW012 27/24 Q1010 NOSIG=
05/12/2020 01:00:00Z	 SAID34 WIJJ 050100	METAR WIJJ 050100Z 30010KT 9999 BKN012 27/24 Q1010=
05/12/2020 01:30:00Z	 SAID34 WIJJ 050130	METAR WIJJ 050130Z 31008KT 9999 SCT013 27/24 Q1011 NOSIG=
05/12/2020 02:00:00Z	 SAID34 WIJJ 050200	METAR WIJJ 050200Z 31007KT 9999 BKN013 28/24 Q1011 NOSIG=
05/12/2020 02:30:00Z	 SAID34 WIJJ 050230	METAR WIJJ 050230Z 30007KT 9999 BKN013 28/24 Q1011 NOSIG=
05/12/2020 03:00:00Z	 SAID34 WIJJ 050300	METAR WIJJ 050300Z 31008KT 9999 SCT013 29/23 Q1011 NOSIG=
05/12/2020 03:30:00Z	 SAID34 WIJJ 050330	METAR WIJJ 050330Z 30008KT 9999 SCT013 30/23 Q1011 NOSIG=
05/12/2020 04:00:00Z	 SAID34 WIJJ 050400	METAR WIJJ 050400Z 28007KT 9999 SCT013 30/24 Q1011 NOSIG=
05/12/2020 04:30:00Z	 SAID34 WIJJ 050430	METAR WIJJ 050430Z 30007KT 9999 SCT014 30/24 Q1011 NOSIG=
05/12/2020 05:00:00Z	 SAID34 WIJJ 050500	METAR WIJJ 050500Z 33006KT 9999 SCT013 31/23 Q1010 NOSIG=
05/12/2020 05:30:00Z	 SAID34 WIJJ 050530	METAR WIJJ 050530Z 33007KT 9999 SCT014 31/23 Q1010 NOSIG=
05/12/2020 06:00:00Z	 SAID34 WIJJ 050600	METAR WIJJ 050600Z 30007KT 9999 SCT015 31/24 Q1009 NOSIG=
05/12/2020 06:30:00Z	 SAID34 WIJJ 050630	METAR WIJJ 050630Z 31007KT 9999 SCT015 31/24 Q1009 NOSIG=
05/12/2020 07:00:00Z	 SAID34 WIJJ 050700	METAR WIJJ 050700Z 33006KT 9999 SCT015 32/24 Q1008 NOSIG=
05/12/2020 07:30:00Z	 SAID34 WIJJ 050730	METAR WIJJ 050730Z 29006KT 9999 SCT015 32/24 Q1007 NOSIG=
05/12/2020 08:00:00Z	 SAID34 WIJJ 050800	METAR WIJJ 050800Z 31008KT 9999 SCT015 32/25 Q1007 NOSIG=
05/12/2020 08:30:00Z	 SAID34 WIJJ 050830	METAR WIJJ 050830Z 30007KT 9999 FEW015 32/24 Q1007 NOSIG=
05/12/2020 09:00:00Z	 SAID34 WIJJ 050900	METAR WIJJ 050900Z 30008KT 9999 FEW015 31/25 Q1006 NOSIG=
05/12/2020 09:30:00Z	 SAID34 WIJJ 050930	METAR WIJJ 050930Z 30008KT 9999 SCT015 31/24 Q1007 NOSIG=
05/12/2020 10:00:00Z	 SAID34 WIJJ 051000	METAR WIJJ 051000Z 33007KT 9999 SCT015 32/23 Q1007 NOSIG=
05/12/2020 10:30:00Z	 SAID34 WIJJ 051030	METAR WIJJ 051030Z 35006KT 9999 SCT015 31/24 Q1007 NOSIG=
05/12/2020 11:00:00Z	 SAID34 WIJJ 051100	METAR WIJJ 051100Z 35005KT 9000 SCT015 30/24 Q1007 NOSIG=
05/12/2020 11:30:00Z	 SAID34 WIJJ 051130	METAR WIJJ 051130Z 35004KT 9999 FEW015 30/24 Q1008 NOSIG=
05/12/2020 12:00:00Z	 SAID34 WIJJ 051200	METAR WIJJ 051200Z 01007KT 9999 SCT016 29/26 Q1008 NOSIG=
05/12/2020 12:30:00Z	 SAID34 WIJJ 051230	METAR WIJJ 051230Z 36007KT 9999 FEW015 28/25 Q1007 NOSIG=
05/12/2020 13:00:00Z	 SAID34 WIJJ 051300	METAR WIJJ 051300Z 01006KT 9999 FEW015 28/25 Q1008 NOSIG=
05/12/2020 13:30:00Z	 SAID34 WIJJ 051330	METAR WIJJ 051330Z 01004KT 9999 FEW015 27/24 Q1008 NOSIG=
05/12/2020 14:00:00Z	 SAID34 WIJJ 051400	METAR WIJJ 051400Z 36004KT 9999 FEW015 27/25 Q1008 NOSIG=
05/12/2020 14:30:00Z	 SAID34 WIJJ 051430	METAR WIJJ 051430Z 36005KT 9999 FEW015 27/25 Q1009 NOSIG=
05/12/2020 15:00:00Z	 SAID34 WIJJ 051500	METAR WIJJ 051500Z 35005KT 9999 FEW015 27/25 Q1008 NOSIG=
05/12/2020 15:30:00Z	 SAID34 WIJJ 051530	METAR WIJJ 051530Z 35006KT 9999 FEW015 27/25 Q1008 NOSIG=
05/12/2020 16:00:00Z	 SAID34 WIJJ 051600	METAR WIJJ 051600Z 34006KT 9999 FEW015 27/25 Q1008 NOSIG=
05/12/2020 16:30:00Z	 SAID34 WIJJ 051630	METAR WIJJ 051630Z 33006KT 9999 FEW015 27/25 Q1008 NOSIG=
05/12/2020 17:00:00Z	 SAID34 WIJJ 051700	METAR WIJJ 051700Z 33006KT 290V360 9999 FEW015 27/25 Q1009 NOSIG=
05/12/2020 17:30:00Z	 SAID34 WIJJ 051730	METAR WIJJ 051730Z 32007KT 9999 FEW015 27/25 Q1009 NOSIG=
05/12/2020 18:00:00Z	 SAID34 WIJJ 051800	METAR WIJJ 051800Z 33005KT 9999 FEW015 27/25 Q1008 NOSIG=
05/12/2020 18:30:00Z	 SAID34 WIJJ 051830	METAR WIJJ 051830Z 33007KT 9999 FEW015 26/25 Q1008 NOSIG=
05/12/2020 19:00:00Z	 SAID34 WIJJ 051900	METAR WIJJ 051900Z 32008KT 9999 FEW015 26/24 Q1008 NOSIG=
05/12/2020 19:30:00Z	 SAID34 WIJJ 051930	METAR WIJJ 051930Z 32007KT 9999 FEW015 26/24 Q1008 NOSIG=
05/12/2020 20:00:00Z	 SAID34 WIJJ 052000	METAR WIJJ 052000Z 32007KT 9999 FEW015 26/24 Q1007=
05/12/2020 20:30:00Z	 SAID34 WIJJ 052030	METAR WIJJ 052030Z 32008KT 9999 FEW015 26/24 Q1007=
05/12/2020 21:00:00Z	 SAID34 WIJJ 052100	METAR WIJJ 052100Z 32007KT 9999 FEW015 25/24 Q1007=
05/12/2020 21:30:00Z	 SAID34 WIJJ 052130	METAR WIJJ 052130Z 32008KT 9999 FEW015 25/24 Q1007 NOSIG=
05/12/2020 22:30:00Z	 SAID34 WIJJ 052230	METAR WIJJ 052230Z 32008KT 9999 FEW015 25/24 Q1008 NOSIG=
05/12/2020 23:00:00Z	 SAID34 WIJJ 052300	METAR WIJJ 052300Z 32008KT 9999 FEW014 25/24 Q1008 NOSIG=
05/12/2020 23:30:00Z	 SAID34 WIJJ 052330	METAR WIJJ 052330Z 31006KT CAVOK 25/24 Q1008 NOSIG=
06/12/2020 00:00:00Z	 SAID34 WIJJ 060000	METAR WIJJ 060000Z 31008KT CAVOK 26/24 Q1009 NOSIG=
06/12/2020 00:30:00Z	 SAID34 WIJJ 060030	METAR WIJJ 060030Z 32009KT 9999 FEW016 27/24 Q1010 NOSIG=
06/12/2020 01:00:00Z	 SAID34 WIJJ 060100	METAR WIJJ 060100Z 31009KT 280V340 9999 BKN015 27/24 Q1011 NOSIG=
06/12/2020 01:30:00Z	 SAID34 WIJJ 060130	METAR WIJJ 060130Z 32009KT 9999 SCT015 28/24 Q1010 NOSIG=
06/12/2020 02:00:00Z	 SAID34 WIJJ 060200	METAR WIJJ 060200Z 32010KT 9999 BKN015 28/23 Q1011 NOSIG=
06/12/2020 02:30:00Z	 SAID34 WIJJ 060230	METAR COR WIJJ 060230Z 32011KT 9999 BKN015 28/24 Q1011 NOSIG=
06/12/2020 03:00:00Z	 SAID34 WIJJ 060300	METAR WIJJ 060300Z 34010KT 300V010 9999 SCT015 30/24 Q1011 NOSIG=
06/12/2020 03:30:00Z	 SAID34 WIJJ 060330	METAR WIJJ 060330Z 33010KT 300V010 9999 SCT015 30/24 Q1011 NOSIG=
06/12/2020 04:00:00Z	 SAID34 WIJJ 060400	METAR WIJJ 060400Z 34008KT 280V010 9999 BKN015 31/24 Q1011 NOSIG=
06/12/2020 04:30:00Z	 SAID34 WIJJ 060430	METAR WIJJ 060430Z 32011KT 9999 SCT015 30/24 Q1010 NOSIG=
06/12/2020 05:00:00Z	 SAID34 WIJJ 060500	METAR WIJJ 060500Z 34009KT 9999 SCT015 30/24 Q1010 NOSIG=
06/12/2020 05:30:00Z	 SAID34 WIJJ 060530	METAR WIJJ 060530Z 32010KT 9999 SCT015 30/24 Q1009 NOSIG=
06/12/2020 06:00:00Z	 SAID34 WIJJ 060600	METAR WIJJ 060600Z 32009KT 270V350 9999 BKN016 32/24 Q1009 NOSIG=
06/12/2020 06:30:00Z	 SAID34 WIJJ 060630	METAR WIJJ 060630Z 31010KT 280V340 9999 BKN016 33/24 Q1008 NOSIG=
06/12/2020 07:00:00Z	 SAID34 WIJJ 060700	METAR WIJJ 060700Z 32009KT 280V340 9999 BKN016 32/23 Q1007 NOSIG=
06/12/2020 07:30:00Z	 SAID34 WIJJ 060730	METAR WIJJ 060730Z 36011KT 330V040 9999 BKN015 31/24 Q1007 NOSIG=
06/12/2020 08:00:00Z	 SAID34 WIJJ 060800	METAR WIJJ 060800Z 01011KT 9999 BKN015 29/24 Q1007 NOSIG=
06/12/2020 08:30:00Z	 SAID34 WIJJ 060830	METAR WIJJ 060830Z 35010KT 320V020 9999 SCT015 30/24 Q1007 NOSIG=
06/12/2020 09:00:00Z	 SAID34 WIJJ 060900	METAR WIJJ 060900Z 36009KT 9999 SCT016 30/24 Q1007 NOSIG=
06/12/2020 09:30:00Z	 SAID34 WIJJ 060930	METAR WIJJ 060930Z 35009KT 9999 SCT016 30/25 Q1007 NOSIG=
06/12/2020 10:00:00Z	 SAID34 WIJJ 061000	METAR WIJJ 061000Z 34012KT 9999 FEW017 30/24 Q1008 NOSIG=
06/12/2020 10:30:00Z	 SAID34 WIJJ 061030	METAR WIJJ 061030Z 36007KT 330V030 9999 FEW017 29/24 Q1008 NOSIG=
06/12/2020 11:00:00Z	 SAID34 WIJJ 061100	METAR WIJJ 061100Z 36005KT 340V050 9999 FEW017 28/24 Q1008 NOSIG=
06/12/2020 11:30:00Z	 SAID34 WIJJ 061130	METAR WIJJ 061130Z 36004KT 340V040 9999 FEW017 28/24 Q1009 NOSIG=
06/12/2020 12:00:00Z	 SAID34 WIJJ 061200	METAR WIJJ 061200Z 01004KT 9999 FEW017 28/24 Q1009 NOSIG=
06/12/2020 12:30:00Z	 SAID34 WIJJ 061230	METAR WIJJ 061230Z 01003KT 9999 FEW017 28/25 Q1010 NOSIG=
06/12/2020 13:00:00Z	 SAID34 WIJJ 061300	METAR WIJJ 061300Z 01003KT 9999 FEW016 28/25 Q1010 NOSIG=
06/12/2020 13:30:00Z	 SAID34 WIJJ 061330	METAR WIJJ 061330Z 03002KT 9999 FEW016 27/25 Q1010 NOSIG=
06/12/2020 14:00:00Z	 SAID34 WIJJ 061400	METAR WIJJ 061400Z 35002KT 9000 FEW015 27/25 Q1010 NOSIG=
06/12/2020 14:30:00Z	 SAID34 WIJJ 061430	METAR WIJJ 061430Z 34003KT 320V020 9999 FEW015 27/25 Q1010 NOSIG=
06/12/2020 15:00:00Z	 SAID34 WIJJ 061500	METAR WIJJ 061500Z 34003KT 8000 FEW015 27/25 Q1011 NOSIG=
06/12/2020 15:30:00Z	 SAID34 WIJJ 061530	METAR WIJJ 061530Z 33003KT 310V010 9000 FEW190 27/25 Q1011 NOSIG=
06/12/2020 16:00:00Z	 SAID34 WIJJ 061600	METAR WIJJ 061600Z 33003KT 8000 FEW015 27/25 Q1011 NOSIG=
06/12/2020 16:30:00Z	 SAID34 WIJJ 061630	METAR WIJJ 061630Z 34004KT 9000 FEW015 27/25 Q1010 NOSIG=
06/12/2020 17:00:00Z	 SAID34 WIJJ 061700	METAR WIJJ 061700Z 33004KT 9999 FEW015 27/25 Q1010 NOSIG=
06/12/2020 17:30:00Z	 SAID34 WIJJ 061730	METAR WIJJ 061730Z 33005KT 9999 FEW014 27/25 Q1010 NOSIG=
06/12/2020 18:00:00Z	 SAID34 WIJJ 061800	METAR WIJJ 061800Z 33005KT 9999 BKN014 27/25 Q1009 NOSIG=
06/12/2020 18:30:00Z	 SAID34 WIJJ 061830	METAR WIJJ 061830Z 32005KT 9999 BKN014 27/25 Q1009 NOSIG=
06/12/2020 19:00:00Z	 SAID34 WIJJ 061900	METAR WIJJ 061900Z 33003KT 9999 BKN014 27/25 Q1009 NOSIG=
06/12/2020 19:30:00Z	 SAID34 WIJJ 061930	METAR WIJJ 061930Z 33004KT 9999 SCT015 27/25 Q1008 NOSIG=
06/12/2020 20:00:00Z	 SAID34 WIJJ 062000	METAR WIJJ 062000Z 32004KT 9999 SCT015 27/25 Q1008 NOSIG=
06/12/2020 20:30:00Z	 SAID34 WIJJ 062030	METAR WIJJ 062030Z 32004KT 9999 SCT014 27/25 Q1008 NOSIG=
06/12/2020 21:00:00Z	 SAID34 WIJJ 062100	METAR WIJJ 062100Z 32005KT 9999 SCT013 27/25 Q1008 NOSIG=
06/12/2020 21:30:00Z	 SAID34 WIJJ 062130	METAR WIJJ 062130Z 33004KT 9000 SCT013 26/25 Q1008 NOSIG=
06/12/2020 22:00:00Z	 SAID34 WIJJ 062200	METAR WIJJ 062200Z 31004KT 9000 SCT013 26/25 Q1009 NOSIG=
06/12/2020 22:30:00Z	 SAID34 WIJJ 062230	METAR WIJJ 062230Z 30004KT 7000 BKN013 26/25 Q1009 NOSIG=
06/12/2020 23:00:00Z	 SAID34 WIJJ 062300	METAR WIJJ 062300Z 32005KT 9000 FEW013 26/25 Q1009 NOSIG=
06/12/2020 23:30:00Z	 SAID34 WIJJ 062330	METAR WIJJ 062330Z 31006KT 280V350 9999 FEW013 26/24 Q1010 NOSIG=
07/12/2020 00:00:00Z	 SAID34 WIJJ 070000	METAR WIJJ 070000Z 30005KT 9999 SCT013 27/24 Q1010 NOSIG=
07/12/2020 00:30:00Z	 SAID34 WIJJ 070030	METAR WIJJ 070030Z 30006KT 260V320 9999 NSC 27/25 Q1010 NOSIG=
07/12/2020 01:00:00Z	 SAID34 WIJJ 070100	METAR WIJJ 070100Z 31007KT 280V340 9999 NSC 27/24 Q1010 NOSIG=
07/12/2020 01:30:00Z	 SAID34 WIJJ 070130	METAR WIJJ 070130Z 33007KT 290V360 9999 FEW018 28/24 Q1010 NOSIG=
07/12/2020 02:00:00Z	 SAID34 WIJJ 070200	METAR WIJJ 070200Z 32007KT 9999 FEW018 29/24 Q1011 NOSIG=
07/12/2020 02:30:00Z	 SAID34 WIJJ 070230	METAR WIJJ 070230Z 32010KT 9999 FEW014 29/24 Q1011 NOSIG=
07/12/2020 03:00:00Z	 SAID34 WIJJ 070300	METAR WIJJ 070300Z 32009KT 9999 FEW015 29/24 Q1011 NOSIG=
07/12/2020 03:30:00Z	 SAID34 WIJJ 070330	METAR WIJJ 070330Z 33010KT 9999 FEW015 30/23 Q1011 NOSIG=
07/12/2020 04:00:00Z	 SAID34 WIJJ 070400	METAR WIJJ 070400Z 33010KT 9999 SCT015 30/23 Q1010 NOSIG=
07/12/2020 04:30:00Z	 SAID34 WIJJ 070430	METAR WIJJ 070430Z 33010KT 9999 SCT015 31/23 Q1010 NOSIG=
07/12/2020 05:00:00Z	 SAID34 WIJJ 070500	METAR WIJJ 070500Z 31011KT 9999 BKN014 31/24 Q1009 NOSIG=
07/12/2020 05:30:00Z	 SAID34 WIJJ 070530	METAR WIJJ 070530Z 33011KT 9999 BKN016 32/23 Q1009 NOSIG=
07/12/2020 06:00:00Z	 SAID34 WIJJ 070600	METAR WIJJ 070600Z 33009KT 290V020 9999 BKN015 32/24 Q1008 NOSIG=
07/12/2020 06:30:00Z	 SAID34 WIJJ 070630	METAR WIJJ 070630Z 31007KT 9999 SCT016 32/23 Q1009 NOSIG=
07/12/2020 07:00:00Z	 SAID34 WIJJ 070700	METAR WIJJ 070700Z 32010KT 9999 SCT015 32/23 Q1008 NOSIG=
07/12/2020 07:30:00Z	 SAID34 WIJJ 070730	METAR WIJJ 070730Z 32009KT 9999 SCT015 31/23 Q1008 NOSIG=
07/12/2020 08:00:00Z	 SAID34 WIJJ 070800	METAR WIJJ 070800Z 30008KT 9999 SCT015 32/23 Q1008 NOSIG=
07/12/2020 08:30:00Z	 SAID34 WIJJ 070830	METAR WIJJ 070830Z 30008KT 9999 SCT016 31/22 Q1008 NOSIG=
07/12/2020 09:00:00Z	 SAID34 WIJJ 070900	METAR WIJJ 070900Z 33007KT 9999 FEW016 32/23 Q1008 NOSIG=
07/12/2020 09:30:00Z	 SAID34 WIJJ 070930	METAR WIJJ 070930Z 33008KT 9999 FEW015 31/23 Q1007 NOSIG=
07/12/2020 10:00:00Z	 SAID34 WIJJ 071000	METAR WIJJ 071000Z 33005KT 9999 FEW017 31/24 Q1008 NOSIC=
07/12/2020 10:30:00Z	 SAID34 WIJJ 071030	METAR WIJJ 071030Z 31005KT 9999 FEW015CB FEW016 31/23 Q1008 RMK CB TO SW=
07/12/2020 11:30:00Z	 SAID34 WIJJ 071130	METAR WIJJ 071130Z 03003KT 6000 FEW016 30/24 Q1010=
07/12/2020 12:00:00Z	 SAID34 WIJJ 071200	METAR WIJJ 071200Z 02003KT 9000 FEW016 30/25 Q1010=
07/12/2020 12:30:00Z	 SAID34 WIJJ 071230	METAR WIJJ 071230Z 02005KT 9999 FEW016 29/25 Q1010 NOSIG=
07/12/2020 13:00:00Z	 SAID34 WIJJ 071300	METAR WIJJ 071300Z 36005KT 9999 SCT016 29/25 Q1011 NOSIG=
07/12/2020 13:30:00Z	 SAID34 WIJJ 071330	METAR WIJJ 071330Z 36005KT 9999 FEW016 28/25 Q1011 NOSIG=
07/12/2020 14:00:00Z	 SAID34 WIJJ 071400	METAR WIJJ 071400Z 02002KT 9999 SCT016 28/25 Q1011 NOSIG=
07/12/2020 14:30:00Z	 SAID34 WIJJ 071430	METAR WIJJ 071430Z 00000KT 9999 SCT016 27/25 Q1012 NOSIG=
07/12/2020 15:00:00Z	 SAID34 WIJJ 071500	METAR WIJJ 071500Z 00000KT 9999 SCT016 28/25 Q1011 NOSIG=
07/12/2020 21:00:00Z	 SAID34 WIJJ 072100	METAR WIJJ 072100Z 29003KT 250V320 8000 SCT015 26/25 Q1009 NOSIG=
07/12/2020 21:30:00Z	 SAID34 WIJJ 072130	METAR WIJJ 072130Z 30003KT 7000 BKN015 26/25 Q1008 NOSIG=
07/12/2020 22:00:00Z	 SAID34 WIJJ 072200	METAR WIJJ 072200Z 31002KT 7000 SCT015 26/25 Q1010 NOSIG=
07/12/2020 22:30:00Z	 SAID34 WIJJ 072230	METAR WIJJ 072230Z 30002KT 7000 SCT015 26/25 Q1010 NOSIG=
07/12/2020 23:00:00Z	 SAID34 WIJJ 072300	METAR WIJJ 072300Z 29004KT 7000 SCT015 26/25 Q1010 NOSIG=
07/12/2020 23:30:00Z	 SAID34 WIJJ 072330	METAR WIJJ 072330Z 29002KT 7000 SCT015 26/25 Q1010 NOSIG=
08/12/2020 00:00:00Z	 SAID34 WIJJ 080000	METAR WIJJ 080000Z 29003KT 8000 SCT015 26/25 Q1011 NOSIG=
08/12/2020 00:30:00Z	 SAID34 WIJJ 080030	METAR WIJJ 080030Z 30005KT 7000 SCT015 27/25 Q1010 NOSIG=
08/12/2020 01:00:00Z	 SAID34 WIJJ 080100	METAR WIJJ 080100Z 31008KT 9999 SCT013 28/26 Q1010 NOSIG=
08/12/2020 01:30:00Z	 SAID34 WIJJ 080130	METAR WIJJ 080130Z 34007KT 9999 SCT014 29/25 Q1010 NOSIG=
08/12/2020 02:00:00Z	 SAID34 WIJJ 080200	METAR WIJJ 080200Z 33009KT 9999 SCT016 29/24 Q1010 NOSIG=
08/12/2020 02:30:00Z	 SAID34 WIJJ 080230	METAR WIJJ 080230Z 35009KT 9999 SCT016 30/24 Q1010 NOSIG=
08/12/2020 03:00:00Z	 SAID34 WIJJ 080300	METAR WIJJ 080300Z 33009KT 9999 SCT016 30/24 Q1010 NOSIG=
08/12/2020 03:30:00Z	 SAID34 WIJJ 080330	METAR WIJJ 080330Z 33011KT 9999 SCT016 30/24 Q1010 NOSIG=
08/12/2020 04:00:00Z	 SAID34 WIJJ 080400	METAR WIJJ 080400Z 34008KT 9999 BKN016 31/24 Q1009 NOSIG=
08/12/2020 04:30:00Z	 SAID34 WIJJ 080430	METAR WIJJ 080430Z 34009KT 9999 BKN016 31/24 Q1009 NOSIG=
08/12/2020 05:00:00Z	 SAID34 WIJJ 080500	METAR WIJJ 080500Z 33009KT 9999 BKN016 33/24 Q1008 NOSIG=
08/12/2020 05:30:00Z	 SAID34 WIJJ 080530	METAR WIJJ 080530Z 34007KT 9999 BKN016 33/24 Q1008 NOSIG=
08/12/2020 06:00:00Z	 SAID34 WIJJ 080600	METAR WIJJ 080600Z 31005KT 9999 BKN016 33/23 Q1008 NOSIG=
08/12/2020 06:30:00Z	 SAID34 WIJJ 080630	METAR WIJJ 080630Z 32009KT 290V360 9999 SCT016 32/23 Q1006 NOSIG=
08/12/2020 07:00:00Z	 SAID34 WIJJ 080700	METAR WIJJ 080700Z 33008KT 290V010 9999 SCT016 35/23 Q1006 NOSIG=
08/12/2020 07:30:00Z	 SAID34 WIJJ 080730	METAR WIJJ 080730Z 32007KT 280V350 9999 SCT016 33/23 Q1005 NOSIG=
08/12/2020 08:00:00Z	 SAID34 WIJJ 080800	METAR WIJJ 080800Z 34008KT 280V010 9999 BKN016 33/23 Q1005 NOSIG=
08/12/2020 08:30:00Z	 SAID34 WIJJ 080830	METAR WIJJ 080830Z 32007KT 9999 BKN016 33/23 Q1005 NOSIG=
08/12/2020 09:00:00Z	 SAID34 WIJJ 080900	METAR WIJJ 080900Z 02007KT 9999 FEW015CB SCT016 32/25 Q1005 NOSIG RMK CB TO E=
08/12/2020 09:30:00Z	 SAID34 WIJJ 080930	METAR WIJJ 080930Z 01008KT 340V040 9999 SCT016 32/25 Q1005 NOSIG=
08/12/2020 10:00:00Z	 SAID34 WIJJ 081000	METAR WIJJ 081000Z 01008KT 330V040 9999 SCT016 32/25 Q1005 NOSIG=
08/12/2020 10:30:00Z	 SAID34 WIJJ 081030	METAR WIJJ 081030Z 01007KT 340V040 9999 SCT016 31/24 Q1005 NOSIG=
08/12/2020 11:00:00Z	 SAID34 WIJJ 081100	METAR WIJJ 081100Z 02007KT 9999 FEW015CB SCT016 30/25 Q1006 NOSIG RMK CB TO SW=
08/12/2020 11:30:00Z	 SAID34 WIJJ 081130	METAR WIJJ 081130Z 02008KT 340V040 9999 FEW015CB SCT016 30/25 Q1006 NOSIG RMK CB TO S AND SW=
08/12/2020 12:00:00Z	 SAID34 WIJJ 081200	METAR WIJJ 081200Z 01006KT 340V040 9999 FEW015CB SCT016 29/25 Q1007 NOSIG RMK CB TO S=
08/12/2020 12:30:00Z	 SAID34 WIJJ 081230	METAR WIJJ 081230Z 36006KT 9999 TS FEW015CB FEW016 29/25 Q1007 RMK CB TO SW=
08/12/2020 13:00:00Z	 SAID34 WIJJ 081300	METAR WIJJ 081300Z 36004KT 9999 FEW015CB FEW016 29/26 Q1008 RMK CB TO SW=
08/12/2020 13:30:00Z	 SAID34 WIJJ 081330	METAR WIJJ 081330Z 03003KT 9999 FEW015CB SCT016 28/26 Q1009 RMK CB TO SW=
08/12/2020 14:00:00Z	 SAID34 WIJJ 081400	METAR WIJJ 081400Z 19006KT 6000 -TSRA FEW010CB SCT011 28/25 Q1010 RMK CB ALL RWY=
08/12/2020 14:30:00Z	 SAID34 WIJJ 081430	METAR WIJJ 081430Z 13015KT 0550 TSRA FEW010CB BKN011 25/24 Q1010 RMK CB ALL RWY=
08/12/2020 15:00:00Z	 SAID34 WIJJ 081500	METAR WIJJ 081500Z 07011KT 1000 -TSRA FEW010CB SCT011 24/24 Q1010 RMK CB ALL RWY=
08/12/2020 16:30:00Z	 SAID34 WIJJ 081630	METAR WIJJ 081630Z 34009KT 9000 -TSRA FEW010CB SCT011 25/24 Q1010 RMK CB TO SW AND NE=
08/12/2020 17:00:00Z	 SAID34 WIJJ 081700	METAR WIJJ 081700Z 29009KT 9000 -TSRA FEW010CB SCT011 25/24 Q1010 RMK CB TO W=
08/12/2020 18:00:00Z	 SAID34 WIJJ 081800	METAR WIJJ 081800Z 27010KT 6000 -RA BKN010 24/23 Q1010=
08/12/2020 21:30:00Z	 SAID34 WIJJ 082130	METAR WIJJ 082130Z 17002KT 9999 -RA SCT014 24/23 Q1009=
08/12/2020 22:30:00Z	 SAID34 WIJJ 082230	METAR WIJJ 082230Z 21002KT 9999 -RA SCT014 24/23 Q1010=
08/12/2020 23:00:00Z	 SAID34 WIJJ 082300	METAR WIJJ 082300Z 18002KT 6000 -RA FEW015 24/23 Q1010=
08/12/2020 23:30:00Z	 SAID34 WIJJ 082330	METAR WIJJ 082330Z 19002KT 6000 -RA BKN012 24/24 Q1011=
09/12/2020 00:00:00Z	 SAID34 WIJJ 090000	METAR WIJJ 090000Z 19002KT 5000 -RA FEW015 24/23 Q1011=
09/12/2020 00:30:00Z	 SAID34 WIJJ 090030	METAR WIJJ 090030Z 00000KT 7000 BKN014 24/23 Q1010 NOSIG=
09/12/2020 01:00:00Z	 SAID34 WIJJ 090100	METAR WIJJ 090100Z 26002KT 6000 SCT014 24/24 Q1010 RERA NOSIG=
09/12/2020 01:30:00Z	 SAID34 WIJJ 090130	METAR WIJJ 090130Z 31002KT 7000 FEW015 25/24 Q1010 NOSIG=
09/12/2020 02:00:00Z	 SAID34 WIJJ 090200	METAR WIJJ 090200Z VRB03KT 8000 FEW015 25/24 Q1011 NOSIG=
09/12/2020 02:30:00Z	 SAID34 WIJJ 090230	METAR WIJJ 090230Z 30005KT 8000 FEW015 26/24 Q1011 NOSIG=
09/12/2020 03:00:00Z	 SAID34 WIJJ 090300	METAR WIJJ 090300Z 34006KT 9999 SCT013 27/24 Q1010 NOSIG=
09/12/2020 03:30:00Z	 SAID34 WIJJ 090330	METAR WIJJ 090330Z 32007KT 8000 SCT015 27/24 Q1011 NOSIG=
09/12/2020 04:00:00Z	 SAID34 WIJJ 090400	METAR WIJJ 090400Z 35008KT 9999 BKN016 29/28 Q1010 NOSIG=
09/12/2020 04:30:00Z	 SAID34 WIJJ 090430	METAR WIJJ 090430Z 35008KT 9999 SCT020 30/28 Q1009 NOSIG=
09/12/2020 05:00:00Z	 SAID34 WIJJ 090500	METAR WIJJ 090500Z 33008KT 9999 BKN016 30/28 Q1009 NOSIG=
09/12/2020 05:30:00Z	 SAID34 WIJJ 090530	METAR WIJJ 090530Z 33009KT 9999 BKN016 29/27 Q1008=
09/12/2020 06:00:00Z	 SAID34 WIJJ 090600	METAR WIJJ 090600Z 32008KT 9999 BKN016 29/24 Q1008 NOSIG=
09/12/2020 06:30:00Z	 SAID34 WIJJ 090630	METAR WIJJ 090630Z 34008KT 320V020 9999 BKN016 30/24 Q1007 NOSIG=
09/12/2020 07:00:00Z	 SAID34 WIJJ 090700	METAR WIJJ 090700Z 34008KT 310V010 9999 BKN016 30/24 Q1006 NOSIG=
09/12/2020 07:30:00Z	 SAID34 WIJJ 090730	METAR WIJJ 090730Z 35008KT 9999 SCT016 30/24 Q1006 NOSIG=
09/12/2020 08:00:00Z	 SAID34 WIJJ 090800	METAR WIJJ 090800Z 35007KT 9999 SCT016 30/23 Q1006 NOSIG=
09/12/2020 08:30:00Z	 SAID34 WIJJ 090830	METAR WIJJ 090830Z 35007KT 9999 SCT016 30/24 Q1005 NOSIG=
09/12/2020 09:00:00Z	 SAID34 WIJJ 090900	METAR WIJJ 090900Z 36006KT 9999 SCT016 30/24 Q1005 NOSIG=
09/12/2020 09:30:00Z	 SAID34 WIJJ 090930	METAR WIJJ 090930Z 26007KT 9999 SCT016 30/24 Q1005 NOSIG=
09/12/2020 10:00:00Z	 SAID34 WIJJ 091000	METAR WIJJ 091000Z 34004KT 9999 SCT016 29/24 Q1006 NOSIG=
09/12/2020 10:30:00Z	 SAID34 WIJJ 091030	METAR WIJJ 091030Z 34004KT 9999 SCT016 29/24 Q1006 NOSIG=
09/12/2020 11:00:00Z	 SAID34 WIJJ 091100	METAR WIJJ 091100Z 34004KT 9999 FEW014 SCT015 29/24 Q1006 NOSIG RMK CN TO W AND SW=
09/12/2020 11:30:00Z	 SAID34 WIJJ 091130	METAR WIJJ 091130Z 34003KT 9999 TS FEW014CB SCT015 28/24 Q1006 NOSIG RMK CB TO SW - NW=
09/12/2020 12:00:00Z	 SAID34 WIJJ 091200	METAR WIJJ 091200Z 33004KT 9999 TS FEW015CB SCT016 28/24 Q1006 NOSIG RMK CB TO SW - NW=
09/12/2020 12:30:00Z	 SAID34 WIJJ 091230	METAR WIJJ 091230Z 33003KT 9999 -TS FEW015 28/25 Q1008 NOSIG RMK CB TO W=
09/12/2020 13:00:00Z	 SAID34 WIJJ 091300	METAR WIJJ 091300Z 02003KT 9999 -TSRA FEW015CB SCT016 28/25 Q1008 NOSIG RMK CB TO W=
09/12/2020 13:30:00Z	 SAID34 WIJJ 091330	METAR WIJJ 091330Z 35006KT 9000 -RA SCT015 27/25 Q1009 NOSIG=
09/12/2020 14:00:00Z	 SAID34 WIJJ 091400	METAR WIJJ 091400Z 01006KT 9999 SCT015 27/25 Q1009 NOSIG=
09/12/2020 14:30:00Z	 SAID34 WIJJ 091430	METAR WIJJ 091430Z 36003KT 9999 SCT015 26/25 Q1009 NOSIG=
09/12/2020 15:00:00Z	 SAID34 WIJJ 091500	METAR WIJJ 091500Z 36002KT 9999 FEW015CB SCT016 26/25 Q1009 NOSIG RMK CB TO NW=
09/12/2020 15:30:00Z	 SAID34 WIJJ 091530	METAR WIJJ 091530Z 34002KT 9000 SCT015 25/25 Q1009 NOSIG=
09/12/2020 16:00:00Z	 SAID34 WIJJ 091600	METAR WIJJ 091600Z 33002KT 8000 SCT015 26/25 Q1009 NOSIG=
09/12/2020 16:30:00Z	 SAID34 WIJJ 091630	METAR WIJJ 091630Z 31002KT 4800 HZ SCT013 26/25 Q1009 NOSIG=
09/12/2020 17:00:00Z	 SAID34 WIJJ 091700	METAR WIJJ 091700Z 33002KT 8000 VCTS FEW014 SCT015 27/25 Q1009 NOSIG RMK CB TO NW=
09/12/2020 17:30:00Z	 SAID34 WIJJ 091730	METAR WIJJ 091730Z 28001KT 8000 SCT013 26/25 Q1009 NOSIG=
09/12/2020 18:00:00Z	 SAID34 WIJJ 091800	METAR WIJJ 091800Z 34004KT 9999 SCT014 27/25 Q1009 NOSIG=
09/12/2020 18:30:00Z	 SAID34 WIJJ 091830	METAR WIJJ 091830Z 33011KT 9999 SCT012 26/24 Q1008 NOSIG=
09/12/2020 19:00:00Z	 SAID34 WIJJ 091900	METAR WIJJ 091900Z 33005KT 9999 SCT012 26/25 Q1008 NOSIG=
09/12/2020 19:30:00Z	 SAID34 WIJJ 091930	METAR WIJJ 091930Z 33006KT 9999 SCT011 25/24 Q1007 NOSIG=
09/12/2020 20:00:00Z	 SAID34 WIJJ 092000	METAR WIJJ 092000Z 32007KT 9999 SCT011 25/24 Q1007 NOSIG=
09/12/2020 20:30:00Z	 SAID34 WIJJ 092030	METAR WIJJ 092030Z 32005KT 9999 SCT011 24/23 Q1007 NOSIG=
09/12/2020 21:00:00Z	 SAID34 WIJJ 092100	METAR WIJJ 092100Z 32002KT 9999 SCT011 24/23 Q1007 NOSIG=
09/12/2020 21:30:00Z	 SAID34 WIJJ 092130	METAR WIJJ 092130Z 12002KT 9999 SCT013 24/23 Q1007 NOSIG=
09/12/2020 22:00:00Z	 SAID34 WIJJ 092200	METAR WIJJ 092200Z 32003KT 9999 SCT012 24/23 Q1007 NOSIG=
09/12/2020 22:30:00Z	 SAID34 WIJJ 092230	METAR WIJJ 092230Z 34002KT 9999 SCT013 24/23 Q1007 NOSIG=
09/12/2020 23:00:00Z	 SAID34 WIJJ 092300	METAR WIJJ 092300Z 03001KT 9999 FEW015 24/23 Q1008 NOSIG=
09/12/2020 23:30:00Z	 SAID34 WIJJ 092330	METAR WIJJ 092330Z 30003KT 9999 FEW015 24/23 Q1008 NOSIG=
10/12/2020 00:00:00Z	 SAID34 WIJJ 100000	METAR WIJJ 100000Z 31006KT 9999 FEW013 25/23 Q1009 NOSIG=
10/12/2020 00:30:00Z	 SAID34 WIJJ 100030	METAR WIJJ 100030Z 30005KT 9999 FEW014 25/23 Q1009 NOSIG=
10/12/2020 01:00:00Z	 SAID34 WIJJ 100100	METAR WIJJ 100100Z 31006KT 9999 FEW016 25/22 Q1009 NOSIG=
10/12/2020 01:30:00Z	 SAID34 WIJJ 100130	METAR WIJJ 100130Z 31005KT 9999 FEW016 27/23 Q1010 NOSIG=
10/12/2020 02:00:00Z	 SAID34 WIJJ 100200	METAR WIJJ 100200Z 32006KT 9999 FEW016 27/23 Q1010 NOSIG=
10/12/2020 02:30:00Z	 SAID34 WIJJ 100230	METAR WIJJ 100230Z 31006KT 9999 FEW016 28/23 Q1010 NOSIG=
10/12/2020 03:00:00Z	 SAID34 WIJJ 100300	METAR WIJJ 100300Z 31006KT 9999 FEW016 29/23 Q1010 NOSIG=
10/12/2020 04:00:00Z	 SAID34 WIJJ 100400	METAR WIJJ 100400Z 32009KT 9999 FEW016 30/23 Q1010 NOSIG=
10/12/2020 04:30:00Z	 SAID34 WIJJ 100430	METAR WIJJ 100430Z 30010KT 9999 SCT016 30/23 Q1009 NOSIG=
10/12/2020 05:00:00Z	 SAID34 WIJJ 100500	METAR WIJJ 100500Z 34009KT 9999 SCT016 31/25 Q1009 NOSIG=
10/12/2020 05:30:00Z	 SAID34 WIJJ 100530	METAR WIJJ 100530Z 31007KT 9999 SCT016 31/25 Q1009 NOSIG=
10/12/2020 06:00:00Z	 SAID34 WIJJ 100600	METAR WIJJ 100600Z 31008KT 9999 FEW016 31/23 Q1008 NOSIG=
10/12/2020 06:30:00Z	 SAID34 WIJJ 100630	METAR WIJJ 100630Z 32011KT 9999 FEW016 32/23 Q1007 NOSIG=
10/12/2020 07:00:00Z	 SAID34 WIJJ 100700	METAR WIJJ 100700Z 30010KT 9999 FEW016 32/23 Q1007 NOSIG=
10/12/2020 07:30:00Z	 SAID34 WIJJ 100730	METAR WIJJ 100730Z 29008KT 9999 BKN015 32/23 Q1006 NOSIG=
10/12/2020 08:00:00Z	 SAID34 WIJJ 100800	METAR WIJJ 100800Z 30009KT 9999 BKN015 32/22 Q1006 NOSIG=
10/12/2020 08:30:00Z	 SAID34 WIJJ 100830	METAR WIJJ 100830Z 30008KT 9999 BKN015 31/22 Q1006 NOSIG=
10/12/2020 09:00:00Z	 SAID34 WIJJ 100900	METAR WIJJ 100900Z 31007KT 9999 BKN015 32/23 Q1006 NOSIG=
10/12/2020 09:30:00Z	 SAID34 WIJJ 100930	METAR WIJJ 100930Z 30008KT 9999 FEW014CB SCT015 31/23 Q1005 NOSIG RMK CB OVER THE FIELD=
10/12/2020 10:00:00Z	 SAID34 WIJJ 101000	METAR WIJJ 101000Z 19009KT 150V230 6000 TS FEW014CB SCT015 28/23 Q1007 NOSIG RMK CB TO S=
10/12/2020 10:30:00Z	 SAID34 WIJJ 101030	METAR WIJJ 101030Z 28010KT 2000 TSRA SCT010CB SCT012 24/22 Q1008 NOSIG RMK CB TO E-S=
10/12/2020 11:00:00Z	 SAID34 WIJJ 101100	METAR WIJJ 101100Z 25003KT 2500 TSRA SCT008CB 24/22 Q1008 TEMPO TL1120 4000 -TSRA RMK CB TO SE - W=
10/12/2020 11:30:00Z	 SAID34 WIJJ 101130	METAR WIJJ 101130Z 34008KT 4500 -TSRA FEW013CB SCT014 23/21 Q1008 NOSIG RMK CB TO SW=
10/12/2020 12:00:00Z	 SAID34 WIJJ 101200	METAR WIJJ 101200Z 11005KT 9000 -RA SCT014 23/22 Q1008 NOSIG=
10/12/2020 12:30:00Z	 SAID34 WIJJ 101230	METAR WIJJ 101230Z 20004KT 9999 -RA SCT014 22/21 Q1008 NOSIG=
10/12/2020 13:00:00Z	 SAID34 WIJJ 101300	METAR WIJJ 101300Z 26002KT 9999 FEW015 23/22 Q1008 RERA NOSIG=
10/12/2020 13:30:00Z	 SAID34 WIJJ 101330	METAR WIJJ 101330Z 28002KT 9999 FEW015 23/22 Q1009 NOSIG=
10/12/2020 14:00:00Z	 SAID34 WIJJ 101400	METAR WIJJ 101400Z 00000KT 9999 FEW015 23/22 Q1009 NOSIG=
10/12/2020 14:30:00Z	 SAID34 WIJJ 101430	METAR WIJJ 101430Z 00000KT 9999 FEW015 24/23 Q1009 NOSIG=
10/12/2020 15:00:00Z	 SAID34 WIJJ 101500	METAR WIJJ 101500Z 03005KT 9999 FEW015 24/23 Q1009 NOSIG=
10/12/2020 15:30:00Z	 SAID34 WIJJ 101530	METAR WIJJ 101530Z 00000KT 8000 FEW015 24/23 Q1009 NOSIG=
10/12/2020 16:00:00Z	 SAID34 WIJJ 101600	METAR WIJJ 101600Z 00000KT 8000 FEW015 23/23 Q1009 NOSIG=
10/12/2020 16:30:00Z	 SAID34 WIJJ 101630	METAR WIJJ 101630Z 00000KT 7000 FEW015 23/23 Q1009 NOSIG=
10/12/2020 17:00:00Z	 SAID34 WIJJ 101700	METAR WIJJ 101700Z 13002KT 7000 FEW015 23/23 Q1009 NOSIG=
10/12/2020 17:30:00Z	 SAID34 WIJJ 101730	METAR WIJJ 101730Z 00000KT 7000 FEW015 23/23 Q1008 NOSIG=
10/12/2020 18:00:00Z	 SAID34 WIJJ 101800	METAR WIJJ 101800Z 00000KT 3300 BR FEW015 23/23 Q1008 NOSIG=
10/12/2020 18:30:00Z	 SAID34 WIJJ 101830	METAR WIJJ 101830Z 00000KT 5000 FEW015 23/22 Q1008 NOSIG=
10/12/2020 18:31:00Z	 SAID34 WIJJ 101831	METAR WIJJ 101831Z 00000KT 4600 BR FEW015 23/23 Q1008 NOSIG=
10/12/2020 19:00:00Z	 SAID34 WIJJ 101900 CCA	METAR COR WIJJ 101900Z 00000KT 4600 HZ FEW015 23/23 Q1008 NOSIG=
10/12/2020 19:30:00Z	 SAID34 WIJJ 101930	METAR WIJJ 101930Z 31003KT 9999 FEW015 24/23 Q1007 NOSIG=
10/12/2020 20:00:00Z	 SAID34 WIJJ 102000	METAR WIJJ 102000Z 29002KT 6000 FEW015 24/23 Q1007 NOSIG=
10/12/2020 20:30:00Z	 SAID34 WIJJ 102030	METAR WIJJ 102030Z 25003KT 6000 FEW014 24/23 Q1007 NOSIG=
10/12/2020 21:00:00Z	 SAID34 WIJJ 102100	METAR WIJJ 102100Z 27003KT 7000 FEW015 24/23 Q1007 NOSIG=
10/12/2020 21:30:00Z	 SAID34 WIJJ 102130	METAR WIJJ 102130Z 29002KT 9999 FEW015 24/23 Q1007 NOSIG=
10/12/2020 22:00:00Z	 SAID34 WIJJ 102200	METAR WIJJ 102200Z 29002KT 9999 FEW015 24/23 Q1007 NOSIG=
10/12/2020 22:30:00Z	 SAID34 WIJJ 102230	METAR WIJJ 102230Z 29003KT 9000 SCT014 23/23 Q1008 NOSIG=
10/12/2020 23:00:00Z	 SAID34 WIJJ 102300	METAR WIJJ 102300Z 00000KT 5000 HZ FEW014 23/23 Q1008 NOSIG=
10/12/2020 23:30:00Z	 SAID34 WIJJ 102330	METAR WIJJ 102330Z 00000KT 4300 HZ SCT014 24/24 Q1008 NOSIG=
11/12/2020 00:00:00Z	 SAID34 WIJJ 110000	METAR WIJJ 110000Z 32007KT 4800 HZ BKN013 26/25 Q1008 NOSIG=
11/12/2020 00:30:00Z	 SAID34 WIJJ 110030	METAR WIJJ 110030Z 33008KT 6000 BKN013 27/26 Q1010 NOSIG=
11/12/2020 01:00:00Z	 SAID34 WIJJ 110100	METAR WIJJ 110100Z 32008KT 7000 SCT014 27/27 Q1010 NOSIG=
11/12/2020 01:30:00Z	 SAID34 WIJJ 110130	METAR WIJJ 110130Z 33009KT 9999 SCT014 28/28 Q1010 NOSIG=
11/12/2020 02:00:00Z	 SAID34 WIJJ 110200	METAR WIJJ 110200Z 32010KT 300V360 9999 BKN014 29/25 Q1011 NOSIG=
11/12/2020 02:30:00Z	 SAID34 WIJJ 110230	METAR WIJJ 110230Z 32012KT 9999 BKN015 30/25 Q1011 NOSIG=
11/12/2020 03:00:00Z	 SAID34 WIJJ 110300	METAR WIJJ 110300Z 32012KT 9999 BKN014 30/25 Q1011 NOSIG=
11/12/2020 03:30:00Z	 SAID34 WIJJ 110330	METAR WIJJ 110330Z 33010KT 290V350 9999 BKN015 28/25 Q1010 NOSIG=
11/12/2020 04:00:00Z	 SAID34 WIJJ 110400	METAR WIJJ 110400Z 32010KT 9999 BKN015 29/24 Q1010 NOSIG=
11/12/2020 04:30:00Z	 SAID34 WIJJ 110430	METAR WIJJ 110430Z 31011KT 260V350 9999 BKN015 31/25 Q1009 NOSIG=
11/12/2020 05:00:00Z	 SAID34 WIJJ 110500	METAR WIJJ 110500Z 30009KT 260V320 9999 BKN015 31/24 Q1009 NOSIG=
11/12/2020 05:30:00Z	 SAID34 WIJJ 110530	METAR WIJJ 110530Z 33010KT 9999 BKN015 31/24 Q1008 NOSIG=
11/12/2020 06:00:00Z	 SAID34 WIJJ 110600	METAR WIJJ 110600Z 30009KT 260V350 9999 SCT016 32/24 Q1008 NOSIG=
11/12/2020 06:30:00Z	 SAID34 WIJJ 110630	METAR WIJJ 110630Z 31010KT 270V330 9999 SCT016 32/23 Q1007 NOSIG=
11/12/2020 07:00:00Z	 SAID34 WIJJ 110700	METAR WIJJ 110700Z 32008KT 270V360 9999 SCT015 32/23 Q1006 NOSIG=
11/12/2020 07:30:00Z	 SAID34 WIJJ 110730	METAR WIJJ 110730Z 30007KT 9999 SCT016 32/23 Q1006=
11/12/2020 08:00:00Z	 SAID34 WIJJ 110800	METAR WIJJ 110800Z 28007KT 9999 SCT016 32/25 Q1006 NOSIG=
11/12/2020 08:30:00Z	 SAID34 WIJJ 110830	METAR WIJJ 110830Z 29006KT 9000 SCT016 29/24 Q1006 NOSIG RMK RERA=
11/12/2020 09:00:00Z	 SAID34 WIJJ 110900	METAR WIJJ 110900Z 29004KT 250V350 9999 FEW016 31/24 Q1006 NOSIG=
11/12/2020 09:30:00Z	 SAID34 WIJJ 110930	METAR WIJJ 110930Z 31005KT 9999 FEW016 30/24 Q1006 NOSIG=
11/12/2020 10:00:00Z	 SAID34 WIJJ 111000	METAR WIJJ 111000Z 27004KT 9999 SCT016 31/23 Q1006 NOSIG=
11/12/2020 10:30:00Z	 SAID34 WIJJ 111030	METAR WIJJ 111030Z 32003KT 9999 FEW016 31/23 Q1006 NOSIG=
11/12/2020 11:00:00Z	 SAID34 WIJJ 111100	METAR WIJJ 111100Z 34003KT 310V020 9999 FEW016 30/24 Q1006 NOSIG=
11/12/2020 12:00:00Z	 SAID34 WIJJ 111200	METAR WIJJ 111200Z 31002KT 9999 FEW016 30/24 Q1007 NOSIG=
11/12/2020 12:30:00Z	 SAID34 WIJJ 111230	METAR WIJJ 111230Z 13001KT 7000 FEW016 29/25 Q1008 NOSIG=
11/12/2020 13:00:00Z	 SAID34 WIJJ 111300	METAR WIJJ 111300Z 06002KT 5000 HZ FEW015 29/25 Q1008 NOSIG=
11/12/2020 13:30:00Z	 SAID34 WIJJ 111330	METAR WIJJ 111330Z 02004KT 9999 FEW015 28/25 Q1009 NOSIG=
11/12/2020 14:00:00Z	 SAID34 WIJJ 111400	METAR WIJJ 111400Z 02003KT 9999 FEW015 28/25 Q1009 NOSIG=
11/12/2020 14:30:00Z	 SAID34 WIJJ 111430	METAR WIJJ 111430Z 03002KT 9999 FEW015 28/25 Q1010 NOSIG=
11/12/2020 15:00:00Z	 SAID34 WIJJ 111500	METAR WIJJ 111500Z 02003KT 9999 FEW015 27/25 Q1010 NOSIG=
11/12/2020 15:30:00Z	 SAID34 WIJJ 111530	METAR WIJJ 111530Z 02003KT 9999 FEW015 27/25 Q1010 NOSIG=
11/12/2020 16:00:00Z	 SAID34 WIJJ 111600	METAR WIJJ 111600Z 02001KT 9000 FEW015 27/25 Q1010 NOSIG=
11/12/2020 16:30:00Z	 SAID34 WIJJ 111630	METAR WIJJ 111630Z 36003KT 9999 FEW015 27/25 Q1010 NOSIG=
11/12/2020 17:00:00Z	 SAID34 WIJJ 111700	METAR WIJJ 111700Z 34005KT 9999 FEW015 27/25 Q1010 NOSIG=
11/12/2020 17:30:00Z	 SAID34 WIJJ 111730	METAR WIJJ 111730Z 34006KT 9999 FEW015 27/24 Q1009 NOSIG=
11/12/2020 18:00:00Z	 SAID34 WIJJ 111800	METAR WIJJ 111800Z 33005KT 9999 FEW014 27/24 Q1009 NOSIG=
11/12/2020 18:30:00Z	 SAID34 WIJJ 111830	METAR WIJJ 111830Z 31005KT 8000 FEW015 25/24 Q1008 NOSIG=
11/12/2020 19:00:00Z	 SAID34 WIJJ 111900	METAR WIJJ 111900Z 31005KT 8000 FEW015 26/23 Q1008 NOSIG=
11/12/2020 19:30:00Z	 SAID34 WIJJ 111930	METAR WIJJ 111930Z 29004KT 8000 FEW015 26/24 Q1008 NOSIG=
11/12/2020 20:00:00Z	 SAID34 WIJJ 112000	METAR WIJJ 112000Z 30004KT 8000 FEW015 26/24 Q1008 NOSIG=
11/12/2020 20:30:00Z	 SAID34 WIJJ 112030	METAR WIJJ 112030Z 31004KT 8000 SCT015 26/24 Q1007 NOSIG=
11/12/2020 21:00:00Z	 SAID34 WIJJ 112100	METAR WIJJ 112100Z 33001KT 8000 FEW015 26/24 Q1007 NOSIG=
11/12/2020 21:30:00Z	 SAID34 WIJJ 112130	METAR WIJJ 112130Z 32002KT 8000 SCT160 25/25 Q1007 NOSIG=
11/12/2020 22:00:00Z	 SAID34 WIJJ 112200	METAR WIJJ 112200Z 35003KT 8000 FEW015 25/24 Q1007 NOSIG=
11/12/2020 22:30:00Z	 SAID34 WIJJ 112230	METAR WIJJ 112230Z 34004KT 9999 FEW014 26/24 Q1008 NOSIG=
11/12/2020 23:00:00Z	 SAID34 WIJJ 112300	METAR WIJJ 112300Z 34002KT 8000 FEW014 25/24 Q1008 NOSIG=
11/12/2020 23:30:00Z	 SAID34 WIJJ 112330	METAR WIJJ 112330Z 34003KT 9999 FEW014 25/24 Q1008 NOSIG=
12/12/2020 00:00:00Z	 SAID34 WIJJ 120000	METAR WIJJ 120000Z 33005KT 9999 FEW014 26/24 Q1008 NOSIG=
12/12/2020 00:30:00Z	 SAID34 WIJJ 120030	METAR WIJJ 120030Z 31006KT 9999 FEW005 26/25 Q1008 NOSIG=
12/12/2020 01:00:00Z	 SAID34 WIJJ 120100	METAR WIJJ 120100Z 30006KT 260V320 9999 NSC 26/25 Q1008 NOSIG=
12/12/2020 01:30:00Z	 SAID34 WIJJ 120130	METAR WIJJ 120130Z 30006KT 9999 FEW005 27/25 Q1009 NOSIG=
12/12/2020 02:00:00Z	 SAID34 WIJJ 120200	METAR WIJJ 120200Z 31004KT 220V340 9999 SCT014 28/25 Q1009 NOSIG=
12/12/2020 02:30:00Z	 SAID34 WIJJ 120230	METAR WIJJ 120230Z 31004KT 270V340 9999 SCT015 28/25 Q1009 NOSIG=
12/12/2020 03:00:00Z	 SAID34 WIJJ 120300	METAR WIJJ 120300Z 30006KT 260V330 9999 BKN016 29/25 Q1009 NOSIG=
12/12/2020 03:30:00Z	 SAID34 WIJJ 120330	METAR WIJJ 120330Z 31007KT 270V340 9999 SCT016 30/25 Q1009 NOSIG=
12/12/2020 04:00:00Z	 SAID34 WIJJ 120400	METAR WIJJ 120400Z 29007KT 250V320 9999 SCT016 30/24 Q1008 NOSIG=
12/12/2020 04:30:00Z	 SAID34 WIJJ 120430	METAR WIJJ 120430Z 27006KT 230V310 9999 BKN016 31/24 Q1008 NOSIG=
12/12/2020 05:00:00Z	 SAID34 WIJJ 120500	METAR WIJJ 120500Z 31008KT 260V340 9999 BKN016 31/23 Q1007 NOSIG=
12/12/2020 05:30:00Z	 SAID34 WIJJ 120530	METAR WIJJ 120530Z 31009KT 270V340 9999 SCT016 32/23 Q1007 NOSIG=
12/12/2020 06:00:00Z	 SAID34 WIJJ 120600	METAR WIJJ 120600Z 31008KT 280V340 9999 SCT016 31/23 Q1006 NOSIG=
12/12/2020 06:30:00Z	 SAID34 WIJJ 120630	METAR WIJJ 120630Z 32007KT 280V350 9999 SCT016 31/23 Q1006 NOSIG=
12/12/2020 07:00:00Z	 SAID34 WIJJ 120700	METAR WIJJ 120700Z 29007KT 260V320 9999 SCT016 30/22 Q1006 NOSIG=
12/12/2020 07:30:00Z	 SAID34 WIJJ 120730	METAR WIJJ 120730Z 30008KT 9999 SCT016 30/23 Q1006 NOSIG=
12/12/2020 08:00:00Z	 SAID34 WIJJ 120800	METAR WIJJ 120800Z 29006KT 260V330 9999 SCT016 30/23 Q1005 NOSIG=
12/12/2020 08:30:00Z	 SAID34 WIJJ 120830	METAR WIJJ 120830Z 30007KT 9999 SCT016 30/23 Q1005 NOSIG=
12/12/2020 09:00:00Z	 SAID34 WIJJ 120900	METAR WIJJ 120900Z 29005KT 250V320 9999 SCT016 30/24 Q1005 NOSIG=
12/12/2020 09:30:00Z	 SAID34 WIJJ 120930	METAR WIJJ 120930Z 28006KT 240V320 9999 SCT016 30/23 Q1005 NOSIG=
12/12/2020 10:00:00Z	 SAID34 WIJJ 121000	METAR WIJJ 121000Z 26004KT 220V290 9999 SCT016 30/23 Q1005 NOSIG=
12/12/2020 10:30:00Z	 SAID34 WIJJ 121030	METAR WIJJ 121030Z 23005KT 9999 SCT016 29/25 Q1006 NOSIG=
12/12/2020 11:00:00Z	 SAID34 WIJJ 121100	METAR WIJJ 121100Z 25003KT 9999 SCT016 29/25 Q1006 NOSIG=
12/12/2020 11:30:00Z	 SAID34 WIJJ 121130	METAR WIJJ 121130Z 26002KT 6000 SCT015 28/25 Q1007 NOSIG=
12/12/2020 12:00:00Z	 SAID34 WIJJ 121200	METAR WIJJ 121200Z 00000KT 8000 SCT016 27/25 Q1007 NOSIG=
12/12/2020 12:30:00Z	 SAID34 WIJJ 121230	METAR WIJJ 121230Z 26002KT 8000 FEW016 28/25 Q1007=
12/12/2020 13:00:00Z	 SAID34 WIJJ 121300	METAR WIJJ 121300Z 13001KT 6000 FEW016 29/25 Q1007=
12/12/2020 13:30:00Z	 SAID34 WIJJ 121330	METAR WIJJ 121330Z 00000KT 5000 HZ FEW016 28/25 Q1008=
12/12/2020 14:00:00Z	 SAID34 WIJJ 121400	METAR WIJJ 121400Z 03003KT 4500 HZ FEW016 28/25 Q1008=
12/12/2020 14:30:00Z	 SAID34 WIJJ 121430	METAR WIJJ 121430Z 01002KT 3500 HZ FEW016 27/25 Q1008=
12/12/2020 15:00:00Z	 SAID34 WIJJ 121500	METAR WIJJ 121500Z 02002KT 3900 FEW015CB FEW016 27/25 Q1008 NOSIG=
12/12/2020 17:00:00Z	 SAID34 WIJJ 121700	METAR WIJJ 121700Z 00000KT 4000 HZ FEW015 26/25 Q1009=
12/12/2020 21:00:00Z	 SAID34 WIJJ 122100	METAR WIJJ 122100Z 33003KT 9999 FEW016 25/22 Q1008 NOSIG=
12/12/2020 21:30:00Z	 SAID34 WIJJ 122130	METAR WIJJ 122130Z 33003KT 9999 FEW016 25/22 Q1008 NOSIG=
12/12/2020 22:00:00Z	 SAID34 WIJJ 122200	METAR WIJJ 122200Z 34002KT 9999 FEW016 25/22 Q1008 NOSIG=
12/12/2020 22:30:00Z	 SAID34 WIJJ 122230	METAR WIJJ 122230Z 36002KT 9999 FEW016 24/22 Q1008 NOSIG=
12/12/2020 23:00:00Z	 SAID34 WIJJ 122300	METAR WIJJ 122300Z 32002KT 9999 FEW016 25/23 Q1008 NOSIG=
12/12/2020 23:30:00Z	 SAID34 WIJJ 122330	METAR WIJJ 122330Z 29003KT 9999 FEW016 25/23 Q1008 NOSIG=
13/12/2020 00:00:00Z	 SAID34 WIJJ 130000	METAR WIJJ 130000Z 30005KT 9000 FEW016 25/22 Q1009=
13/12/2020 00:30:00Z	 SAID34 WIJJ 130030	METAR WIJJ 130030Z 25002KT 9999 FEW016 25/22 Q1009 NOSIG=
13/12/2020 01:00:00Z	 SAID34 WIJJ 130100	METAR WIJJ 130100Z 28006KT 9999 FEW016 27/22 Q1009 NOSIG=
13/12/2020 01:30:00Z	 SAID34 WIJJ 130130	METAR WIJJ 130130Z 27006KT 9999 FEW016 27/23 Q1009 NOSIG=
13/12/2020 02:00:00Z	 SAID34 WIJJ 130200	METAR WIJJ 130200Z 25003KT 210V270 9999 FEW016 28/24 Q1008 NOSIG=
13/12/2020 02:30:00Z	 SAID34 WIJJ 130230	METAR WIJJ 130230Z 30008KT 9999 FEW016 28/23 Q1008 NOSIG=
13/12/2020 03:00:00Z	 SAID34 WIJJ 130300	METAR WIJJ 130300Z 28005KT 9999 FEW016 29/24 Q1008 NOSIG=
13/12/2020 03:30:00Z	 SAID34 WIJJ 130330	METAR WIJJ 130330Z 32007KT 280V340 9999 FEW016 30/23 Q1008 NOSIG=
13/12/2020 04:00:00Z	 SAID34 WIJJ 130400	METAR WIJJ 130400Z 29005KT 9999 FEW016 30/23 Q1008 NOSIG=
13/12/2020 04:30:00Z	 SAID34 WIJJ 130430	METAR WIJJ 130430Z 26008KT 9999 FEW016 30/23 Q1007 NOSIG=
13/12/2020 05:00:00Z	 SAID34 WIJJ 130500	METAR WIJJ 130500Z 29007KT 9999 FEW016 31/23 Q1007 NOSIG=
13/12/2020 05:30:00Z	 SAID34 WIJJ 130530	METAR WIJJ 130530Z 32009KT 280V340 9999 FEW016 31/23 Q1007 NOSIG=
13/12/2020 06:00:00Z	 SAID34 WIJJ 130600	METAR WIJJ 130600Z 31009KT 9999 FEW016 32/23 Q1006 NOSIG=
13/12/2020 06:30:00Z	 SAID34 WIJJ 130630	METAR WIJJ 130630Z 32007KT 280V360 9999 FEW017 32/23 Q1006 NOSIG=
13/12/2020 07:00:00Z	 SAID34 WIJJ 130700	METAR WIJJ 130700Z 30008KT 250V360 9999 FEW017 32/23 Q1005 NOSIG=
13/12/2020 07:30:00Z	 SAID34 WIJJ 130730	METAR WIJJ 130730Z 33005KT 300V010 9999 FEW017 32/23 Q1005 NOSIG=
13/12/2020 08:00:00Z	 SAID34 WIJJ 130800	METAR WIJJ 130800Z 33006KT 9999 FEW016 31/23 Q1005 NOSIG=
13/12/2020 08:30:00Z	 SAID34 WIJJ 130830	METAR WIJJ 130830Z 34006KT 310V010 9999 FEW017 31/23 Q1004 NOSIG=
13/12/2020 09:00:00Z	 SAID34 WIJJ 130900	METAR WIJJ 130900Z 35007KT 9999 FEW017 31/23 Q1004 NOSIG=
13/12/2020 09:30:00Z	 SAID34 WIJJ 130930	METAR WIJJ 130930Z 35006KT 9999 FEW017 31/23 Q1004 NOSIG=
13/12/2020 10:00:00Z	 SAID34 WIJJ 131000	METAR WIJJ 131000Z 34006KT 9999 FEW017 31/22 Q1005 NOSIG=
13/12/2020 10:30:00Z	 SAID34 WIJJ 131030	METAR WIJJ 131030Z 30004KT 270V330 9999 FEW017 30/23 Q1005 NOSIG=
13/12/2020 11:00:00Z	 SAID34 WIJJ 131100	METAR WIJJ 131100Z 31004KT 9999 FEW017 29/23 Q1005 NOSIG=
13/12/2020 11:30:00Z	 SAID34 WIJJ 131130	METAR WIJJ 131130Z 33003KT 300V360 9999 FEW017 29/23 Q1005 NOSIG=
13/12/2020 12:00:00Z	 SAID34 WIJJ 131200	METAR WIJJ 131200Z 35002KT 9999 FEW017CB 28/23 Q1006 NOSIG RMK CB TO N AND NE=
13/12/2020 12:30:00Z	 SAID34 WIJJ 131230	METAR WIJJ 131230Z 02004KT 6000 FEW017 28/25 Q1007 NOSIG=
13/12/2020 13:00:00Z	 SAID34 WIJJ 131300	METAR WIJJ 131300Z 01004KT 340V040 9999 FEW016 28/24 Q1007 NOSIG=
13/12/2020 13:30:00Z	 SAID34 WIJJ 131330	METAR WIJJ 131330Z 02003KT 9999 FEW016 27/24 Q1008 NOSIG=
13/12/2020 14:00:00Z	 SAID34 WIJJ 131400	METAR WIJJ 131400Z 00000KT 9999 SCT016 27/24 Q1008 NOSIG=
13/12/2020 14:30:00Z	 SAID34 WIJJ 131430	METAR WIJJ 131430Z 36002KT 9999 SCT016 27/24 Q1007 NOSIG=
13/12/2020 15:00:00Z	 SAID34 WIJJ 131500	METAR WIJJ 131500Z 01003KT 350V050 9999 SCT016 27/24 Q1008 NOSIG=
13/12/2020 21:00:00Z	 SAID34 WIJJ 132100	METAR WIJJ 132100Z 33004KT 9999 SCT016 26/24 Q1007 NOSIG=
13/12/2020 21:30:00Z	 SAID34 WIJJ 132130	METAR WIJJ 132130Z 30003KT 9999 SCT016 25/24 Q1007 NOSIG=
13/12/2020 22:00:00Z	 SAID34 WIJJ 132200	METAR WIJJ 132200Z 00000KT 9999 SCT016 25/24 Q1007 NOSIG=
13/12/2020 22:30:00Z	 SAID34 WIJJ 132230	METAR WIJJ 132230Z 34003KT 300V020 9999 SCT015 26/24 Q1007 NOSIG=
13/12/2020 23:00:00Z	 SAID34 WIJJ 132300	METAR WIJJ 132300Z 32006KT 9999 SCT016 25/24 Q1008 NOSIG=
13/12/2020 23:30:00Z	 SAID34 WIJJ 132330	METAR WIJJ 132330Z 33005KT 9999 FEW016 26/24 Q1008 NOSIG=
14/12/2020 00:00:00Z	 SAID34 WIJJ 140000	METAR WIJJ 140000Z 32007KT 9999 FEW016 26/24 Q1008 NOSIG=
14/12/2020 00:30:00Z	 SAID34 WIJJ 140030	METAR WIJJ 140030Z 31005KT 9999 FEW015 26/25 Q1009 NOSIG=
14/12/2020 01:00:00Z	 SAID34 WIJJ 140100	METAR WIJJ 140100Z 34004KT 300V030 9999 FEW015 27/25 Q1009 NOSIG=
14/12/2020 01:30:00Z	 SAID34 WIJJ 140130	METAR WIJJ 140130Z 33007KT 9999 FEW015 27/24 Q1009 NOSIG=
14/12/2020 02:00:00Z	 SAID34 WIJJ 140200	METAR WIJJ 140200Z 31008KT 9999 FEW015 28/25 Q1010 NOSIG=
14/12/2020 02:30:00Z	 SAID34 WIJJ 140230	METAR WIJJ 140230Z 33006KT 290V010 9999 FEW015 28/25 Q1010 NOSIG=
14/12/2020 03:00:00Z	 SAID34 WIJJ 140300	METAR WIJJ 140300Z 30005KT 250V360 9999 FEW015 29/26 Q1009 NOSIG=
14/12/2020 03:30:00Z	 SAID34 WIJJ 140330	METAR WIJJ 140330Z 31006KT 270V330 9999 FEW015 30/24 Q1009 NOSIG=
14/12/2020 04:00:00Z	 SAID34 WIJJ 140400	METAR WIJJ 140400Z 29005KT 250V330 9999 SCT015 30/25 Q1010 NOSIG=
14/12/2020 04:30:00Z	 SAID34 WIJJ 140430	METAR WIJJ 140430Z 30007KT 260V330 9999 BKN015 30/25 Q1009 NOSIG=
14/12/2020 05:00:00Z	 SAID34 WIJJ 140500	METAR WIJJ 140500Z 31007KT 260V340 9999 BKN015 31/24 Q1009 NOSIG=
14/12/2020 05:30:00Z	 SAID34 WIJJ 140530	METAR WIJJ 140530Z 31008KT 280V340 9999 BKN016 31/24 Q1008 NOSIG=
14/12/2020 06:00:00Z	 SAID34 WIJJ 140600	METAR WIJJ 140600Z 30008KT 270V330 9999 SCT016 32/23 Q1008 NOSIG=
14/12/2020 06:30:00Z	 SAID34 WIJJ 140630	METAR WIJJ 140630Z 29004KT 9999 SCT013 31/22 Q1007 NOSIG=
14/12/2020 07:30:00Z	 SAID34 WIJJ 140730	METAR WIJJ 140730Z 32010KT 9999 SCT014 31/23 Q1007 NOSIG=
14/12/2020 08:00:00Z	 SAID34 WIJJ 140800	METAR WIJJ 140800Z 30006KT 9999 SCT015 31/22 Q1006 NOSIG=
14/12/2020 08:30:00Z	 SAID34 WIJJ 140830	METAR WIJJ 140830Z 29003KT 9999 SCT015 30/23 Q1006 NOSIG=
14/12/2020 09:00:00Z	 SAID34 WIJJ 140900	METAR WIJJ 140900Z 26005KT 9999 SCT015 31/22 Q1006 NOSIG=
14/12/2020 09:30:00Z	 SAID34 WIJJ 140930	METAR WIJJ 140930Z 32007KT 9999 SCT015 30/23 Q1006 NOSIG=
14/12/2020 10:00:00Z	 SAID34 WIJJ 141000	METAR WIJJ 141000Z 31005KT 9999 SCT015 30/23 Q1006 NOSIG=
14/12/2020 10:30:00Z	 SAID34 WIJJ 141030	METAR WIJJ 141030Z 31006KT 9999 SCT015 30/23 Q1007 NOSIG=
14/12/2020 11:00:00Z	 SAID34 WIJJ 141100	METAR WIJJ 141100Z 33002KT 9999 SCT015 30/23 Q1007 NOSIG=
14/12/2020 11:30:00Z	 SAID34 WIJJ 141130	METAR WIJJ 141130Z 03007KT 8000 SCT015 29/24 Q1008 NOSIG=
14/12/2020 12:00:00Z	 SAID34 WIJJ 141200	METAR WIJJ 141200Z 02007KT 8000 SCT015 28/24 Q1008 NOSIG=
14/12/2020 12:30:00Z	 SAID34 WIJJ 141230	METAR WIJJ 141230Z 04004KT 9999 SCT015 27/23 Q1008 NOSIG=
14/12/2020 13:00:00Z	 SAID34 WIJJ 141300	METAR WIJJ 141300Z 02004KT 350V050 9999 SCT015 26/24 Q1008 NOSIG=
14/12/2020 13:30:00Z	 SAID34 WIJJ 141330	METAR WIJJ 141330Z 07002KT 9999 FEW017 26/24 Q1008 NOSIG=
14/12/2020 14:00:00Z	 SAID34 WIJJ 141400	METAR WIJJ 141400Z 05002KT 9999 SCT016 26/24 Q1008 NOSIG=
14/12/2020 14:30:00Z	 SAID34 WIJJ 141430	METAR WIJJ 141430Z 09002KT 9999 FEW016 26/24 Q1009 NOSIG=
14/12/2020 15:00:00Z	 SAID34 WIJJ 141500	METAR WIJJ 141500Z 10001KT 9999 SCT016 26/24 Q1009 NOSIG=
14/12/2020 15:30:00Z	 SAID34 WIJJ 141530	METAR WIJJ 141530Z 14002KT 9999 SCT016 25/24 Q1009 NOSIG=
14/12/2020 16:00:00Z	 SAID34 WIJJ 141600	METAR WIJJ 141600Z 14002KT 9999 SCT016 25/24 Q1009 NOSIG=
14/12/2020 16:30:00Z	 SAID34 WIJJ 141630	METAR WIJJ 141630Z 00000KT 9000 SCT016 25/24 Q1009 NOSIG=
14/12/2020 17:30:00Z	 SAID34 WIJJ 141730	METAR WIJJ 141730Z 04001KT 9000 FEW016 26/24 Q1009 NOSIG=
14/12/2020 18:00:00Z	 SAID34 WIJJ 141800	METAR WIJJ 141800Z 10001KT 9000 FEW017 25/24 Q1008 NOSIG=
14/12/2020 18:30:00Z	 SAID34 WIJJ 141830	METAR WIJJ 141830Z 14002KT 9000 FEW016 25/24 Q1008 NOSIG=
14/12/2020 19:00:00Z	 SAID34 WIJJ 141900	METAR WIJJ 141900Z 19001KT 8000 FEW016 25/24 Q1008 NOSIG=
14/12/2020 19:30:00Z	 SAID34 WIJJ 141930	METAR WIJJ 141930Z 25001KT 6000 FEW016 25/24 Q1007 NOSIG=
14/12/2020 20:00:00Z	 SAID34 WIJJ 142000	METAR WIJJ 142000Z 27001KT 6000 FEW016 25/24 Q1007 NOSIG=
14/12/2020 21:00:00Z	 SAID34 WIJJ 142100	METAR WIJJ 142100Z 30001KT 6000 FEW015 25/24 Q1007 NOSIG=
14/12/2020 21:30:00Z	 SAID34 WIJJ 142130	METAR WIJJ 142130Z 14001KT 5000 HZ FEW015 25/24 Q1007 NOSIG=
14/12/2020 22:00:00Z	 SAID34 WIJJ 142200	METAR WIJJ 142200Z 11001KT 5000 HZ FEW015 25/24 Q1007 NOSIG=
14/12/2020 22:30:00Z	 SAID34 WIJJ 142230	METAR WIJJ 142230Z 25002KT 3000 BR NSC 24/24 Q1007 NOSIG=
14/12/2020 23:00:00Z	 SAID34 WIJJ 142300	METAR WIJJ 142300Z 27001KT 4100 BR SCT015 25/24 Q1008 NOSIG=
14/12/2020 23:30:00Z	 SAID34 WIJJ 142330	METAR WIJJ 142330Z 24003KT 220V280 6000 BKN015 25/24 Q1008 NOSIG=
15/12/2020 00:00:00Z	 SAID34 WIJJ 150000	METAR WIJJ 150000Z 26006KT 220V300 9000 BKN015 25/23 Q1009 NOSIG RMK RERA=
15/12/2020 00:30:00Z	 SAID34 WIJJ 150030	METAR WIJJ 150030Z 24007KT 7000 -RA SCT015 25/23 Q1010=
15/12/2020 01:00:00Z	 SAID34 WIJJ 150100	METAR WIJJ 150100Z 26005KT 9999 FEW015 25/24 Q1010=
15/12/2020 01:30:00Z	 SAID34 WIJJ 150130	METAR WIJJ 150130Z 29005KT 9999 FEW016 26/24 Q1010 NOSIG=
15/12/2020 02:00:00Z	 SAID34 WIJJ 150200	METAR WIJJ 150200Z 30007KT 9999 FEW015 27/23 Q1011 NOSIG=
15/12/2020 02:30:00Z	 SAID34 WIJJ 150230	METAR WIJJ 150230Z 30005KT 9999 FEW016 28/23 Q1011 NOSIG=
15/12/2020 03:00:00Z	 SAID34 WIJJ 150300	METAR WIJJ 150300Z 30006KT 270V340 9999 FEW016 29/24 Q1010 NOSIG=
15/12/2020 03:30:00Z	 SAID34 WIJJ 150330	METAR WIJJ 150330Z 30005KT 270V340 9999 SCT016 29/24 Q1010 NOSIG=
15/12/2020 04:00:00Z	 SAID34 WIJJ 150400	METAR WIJJ 150400Z 33006KT 9999 SCT016 30/24 Q1010 NOSIG=
15/12/2020 04:30:00Z	 SAID34 WIJJ 150430	METAR WIJJ 150430Z 32005KT 250V360 9999 BKN018 30/24 Q1010 NOSIG=
15/12/2020 05:00:00Z	 SAID34 WIJJ 150500	METAR WIJJ 150500Z 34008KT 9999 BKN015 30/23 Q1009 NOSIG=
15/12/2020 05:30:00Z	 SAID34 WIJJ 150530	METAR WIJJ 150530Z 29006KT 270V350 9999 BKN016 30/24 Q1009 NOSIG=
15/12/2020 06:00:00Z	 SAID34 WIJJ 150600	METAR WIJJ 150600Z 32007KT 9999 FEW015CB FEW016 30/24 Q1008 NOSIG RMK CB TO SE=
15/12/2020 06:30:00Z	 SAID34 WIJJ 150630	METAR WIJJ 150630Z 32008KT 9999 SCT016 31/24 Q1008 NOSIG=
15/12/2020 07:00:00Z	 SAID34 WIJJ 150700	METAR WIJJ 150700Z 32005KT 270V030 9999 SCT015 31/24 Q1007 NOSIG=
15/12/2020 07:30:00Z	 SAID34 WIJJ 150730	METAR WIJJ 150730Z 33006KT 280V010 9999 SCT015 30/24 Q1007 NOSIG=
15/12/2020 08:00:00Z	 SAID34 WIJJ 150800	METAR WIJJ 150800Z 35005KT 9999 SCT015 30/24 Q1006 NOSIG=
15/12/2020 08:30:00Z	 SAID34 WIJJ 150830	METAR WIJJ 150830Z 35005KT 9999 SCT015 29/24 Q1006 NOSIG=
15/12/2020 09:00:00Z	 SAID34 WIJJ 150900	METAR WIJJ 150900Z 01006KT 9999 SCT015 29/25 Q1006 NOSIG=
15/12/2020 09:30:00Z	 SAID34 WIJJ 150930	METAR WIJJ 150930Z 02005KT 9999 FEW015 29/25 Q1006 NOSIG=
15/12/2020 10:00:00Z	 SAID34 WIJJ 151000	METAR WIJJ 151000Z 36004KT 9999 FEW015 29/25 Q1006 NOSIG=
15/12/2020 10:30:00Z	 SAID34 WIJJ 151030	METAR WIJJ 151030Z 36004KT 9999 FEW015 29/24 Q1007 NOSIG=
15/12/2020 11:00:00Z	 SAID34 WIJJ 151100	METAR WIJJ 151100Z 01003KT 340V060 9999 FEW015 29/25 Q1007 NOSIG=
15/12/2020 11:30:00Z	 SAID34 WIJJ 151130	METAR WIJJ 151130Z 01003KT 340V060 8000 FEW015 28/25 Q1008 NOSIG=
15/12/2020 12:00:00Z	 SAID34 WIJJ 151200	METAR WIJJ 151200Z 04003KT 8000 FEW015 28/25 Q1008 NOSIG=
15/12/2020 12:30:00Z	 SAID34 WIJJ 151230	METAR WIJJ 151230Z 04004KT 7000 FEW015 27/25 Q1007 NOSIG=
15/12/2020 13:00:00Z	 SAID34 WIJJ 151300	METAR WIJJ 151300Z 06004KT 9000 FEW015 27/26 Q1007 NOSIG=
15/12/2020 13:30:00Z	 SAID34 WIJJ 151330	METAR WIJJ 151330Z 03005KT 8000 FEW014 27/25 Q1008 NOSIG=
15/12/2020 14:00:00Z	 SAID34 WIJJ 151400	METAR WIJJ 151400Z 36004KT 9999 FEW015 27/25 Q1009 NOSIG=
15/12/2020 14:30:00Z	 SAID34 WIJJ 151430	METAR WIJJ 151430Z 03004KT 9999 FEW015 27/25 Q1009 NOSIG=
15/12/2020 15:00:00Z	 SAID34 WIJJ 151500	METAR WIJJ 151500Z 36003KT 9999 FEW015 27/25 Q1010 NOSIG=
15/12/2020 15:30:00Z	 SAID34 WIJJ 151530	METAR WIJJ 151530Z 01003KT 9999 SCT015 26/25 Q1010 NOSIG=
15/12/2020 16:00:00Z	 SAID34 WIJJ 151600	METAR WIJJ 151600Z 33006KT 9999 SCT014 26/24 Q1010 NOSIG=
15/12/2020 16:30:00Z	 SAID34 WIJJ 151630	METAR WIJJ 151630Z 31008KT 9999 SCT014 26/23 Q1010 NOSIG=
15/12/2020 17:00:00Z	 SAID34 WIJJ 151700	METAR WIJJ 151700Z 30010KT 9999 SCT014 26/23 Q1010 NOSIG=
15/12/2020 17:30:00Z	 SAID34 WIJJ 151730	METAR WIJJ 151730Z 28008KT 2300 -RA FEW013CB BKN014 24/23 Q1010 RMK CB TO NE=
15/12/2020 18:00:00Z	 SAID34 WIJJ 151800	METAR WIJJ 151800Z 29005KT 4100 -RA FEW013CB BKN014 23/22 Q1010 NOSIG RMK CB TO NE AND SW=
15/12/2020 18:30:00Z	 SAID34 WIJJ 151830	METAR WIJJ 151830Z 22002KT 7000 -RA FEW013CB BKN014 23/22 Q1009 NOSIG RMK CB TO SE=
15/12/2020 19:00:00Z	 SAID34 WIJJ 151900	METAR WIJJ 151900Z 25003KT 5000 RA BKN013 23/23 Q1009 NOSIG=
15/12/2020 19:30:00Z	 SAID34 WIJJ 151930	METAR WIJJ 151930Z 23004KT 5000 -RA BKN014 23/22 Q1009 NOSIG=
15/12/2020 20:00:00Z	 SAID34 WIJJ 152000	METAR WIJJ 152000Z 23002KT 9999 BKN014 23/23 Q1008 RERA NOSIG=
15/12/2020 20:30:00Z	 SAID34 WIJJ 152030	METAR WIJJ 152030Z 23003KT 9999 SCT014 23/23 Q1008 NOSIG=
15/12/2020 21:00:00Z	 SAID34 WIJJ 152100	METAR WIJJ 152100Z 24003KT 9999 SCT014 23/23 Q1009 NOSIG=
15/12/2020 21:30:00Z	 SAID34 WIJJ 152130	METAR WIJJ 152130Z 23003KT 9999 FEW013 23/23 Q1009 NOSIG=
15/12/2020 22:00:00Z	 SAID34 WIJJ 152200	METAR WIJJ 152200Z 19002KT 5000 -RA FEW013 23/23 Q1009 NOSIG=
15/12/2020 22:30:00Z	 SAID34 WIJJ 152230	METAR WIJJ 152230Z 18003KT 4800 -RA FEW013 23/23 Q1009 NOSIG=
15/12/2020 23:00:00Z	 SAID34 WIJJ 152300	METAR WIJJ 152300Z 19003KT 3000 -RA BKN012 23/22 Q1009 NOSIG=
15/12/2020 23:30:00Z	 SAID34 WIJJ 152330	METAR WIJJ 152330Z 21003KT 3600 -RA SCT014 23/22 Q1009 NOSIG=
16/12/2020 00:00:00Z	 SAID34 WIJJ 160000	METAR WIJJ 160000Z 20002KT 4100 -RA SCT013 23/22 Q1010 NOSIG=
16/12/2020 00:30:00Z	 SAID34 WIJJ 160030	METAR WIJJ 160030Z 20002KT 6000 -RA BKN013 23/22 Q1011 NOSIG=
16/12/2020 01:00:00Z	 SAID34 WIJJ 160100	METAR WIJJ 160100Z 21003KT 160V240 7000 SCT014 23/23 Q1011 NOSIG=
16/12/2020 01:30:00Z	 SAID34 WIJJ 160130	METAR WIJJ 160130Z 21004KT 170V230 5000 HZ SCT014 23/23 Q1012 NOSIG=
16/12/2020 02:00:00Z	 SAID34 WIJJ 160200	METAR WIJJ 160200Z 21003KT 180V270 9999 SCT014 24/23 Q1012 NOSIG=
16/12/2020 02:30:00Z	 SAID34 WIJJ 160230	METAR WIJJ 160230Z 24003KT 9999 BKN015 24/23 Q1012 NOSIG=
16/12/2020 03:00:00Z	 SAID34 WIJJ 160300	METAR WIJJ 160300Z 25003KT 200V310 9999 BKN015 25/23 Q1012 NOSIG=
16/12/2020 03:30:00Z	 SAID34 WIJJ 160330	METAR WIJJ 160330Z 24004KT 9999 SCT015 26/24 Q1011 NOSIG=
16/12/2020 04:30:00Z	 SAID34 WIJJ 160430	METAR WIJJ 160430Z 29004KT 9999 SCT016 27/24 Q1011 NOSIG=
16/12/2020 05:00:00Z	 SAID34 WIJJ 160500	METAR WIJJ 160500Z 28005KT 9999 SCT015 27/23 Q1011 NOSIG=
16/12/2020 05:30:00Z	 SAID34 WIJJ 160530	METAR WIJJ 160530Z 31006KT 9999 SCT015 27/24 Q1010 NOSIG=
16/12/2020 06:00:00Z	 SAID34 WIJJ 160600	METAR WIJJ 160600Z 33003KT 9999 -RA BKN015 27/24 Q1010 NOSIG=
16/12/2020 06:30:00Z	 SAID34 WIJJ 160630	METAR WIJJ 160630Z 32006KT 9999 -RA SCT017 27/25 Q1009=
16/12/2020 07:00:00Z	 SAID34 WIJJ 160700	METAR WIJJ 160700Z 32007KT 9999 SCT015 28/24 Q1008=
16/12/2020 07:30:00Z	 SAID34 WIJJ 160730	METAR WIJJ 160730Z 34006KT 9999 SCT017 27/24 Q1008=
16/12/2020 08:00:00Z	 SAID34 WIJJ 160800	METAR WIJJ 160800Z 35005KT 9999 -RA FEW018 27/23 Q1007=
16/12/2020 08:30:00Z	 SAID34 WIJJ 160830	METAR WIJJ 160830Z 35003KT 9999 -RA FEW018 26/23 Q1007=
16/12/2020 09:00:00Z	 SAID34 WIJJ 160900	METAR WIJJ 160900Z 35004KT 8000 -RA FEW018 27/24 Q1007=
16/12/2020 09:30:00Z	 SAID34 WIJJ 160930	METAR WIJJ 160930Z 33005KT 7000 -RA FEW018 26/24 Q1008=
16/12/2020 10:00:00Z	 SAID34 WIJJ 161000	METAR WIJJ 161000Z 34005KT 7000 -RA FEW018 26/24 Q1008=
16/12/2020 10:30:00Z	 SAID34 WIJJ 161030	METAR WIJJ 161030Z 34003KT 6000 -RA FEW018 26/24 Q1008=
16/12/2020 11:00:00Z	 SAID34 WIJJ 161100	METAR WIJJ 161100Z 35002KT 6000 -RA FEW018 26/24 Q1008=
16/12/2020 11:30:00Z	 SAID34 WIJJ 161130	METAR WIJJ 161130Z 34003KT 6000 -RA FEW015CB 26/24 Q1008 RMK CB TO S=
16/12/2020 12:00:00Z	 SAID34 WIJJ 161200	METAR WIJJ 161200Z 33003KT 9999 FEW015 26/24 Q1008=
16/12/2020 12:30:00Z	 SAID34 WIJJ 161230	METAR WIJJ 161230Z 33004KT 9999 FEW015 26/24 Q1009 NOSIG=
16/12/2020 13:00:00Z	 SAID34 WIJJ 161300	METAR WIJJ 161300Z 33004KT 9999 FEW015 26/24 Q1009 NOSIG=
16/12/2020 13:30:00Z	 SAID34 WIJJ 161330	METAR WIJJ 161330Z 33004KT 8000 FEW015 25/24 Q1008 NOSIG=
16/12/2020 14:00:00Z	 SAID34 WIJJ 161400	METAR WIJJ 161400Z 33003KT 9999 FEW015 25/24 Q1009 NOSIG=
16/12/2020 14:30:00Z	 SAID34 WIJJ 161430	METAR WIJJ 161430Z 34005KT 9999 FEW015 25/24 Q1008 NOSIG=
16/12/2020 15:00:00Z	 SAID34 WIJJ 161500	METAR WIJJ 161500Z 33004KT 9999 FEW015 25/24 Q1009 NOSIG=
16/12/2020 15:30:00Z	 SAID34 WIJJ 161530	METAR WIJJ 161530Z 33003KT 9999 FEW015 25/24 Q1010 NOSIG=
16/12/2020 16:00:00Z	 SAID34 WIJJ 161600	METAR WIJJ 161600Z 31004KT 9999 FEW015 25/24 Q1010 NOSIG=
16/12/2020 16:30:00Z	 SAID34 WIJJ 161630	METAR WIJJ 161630Z 29003KT 9999 FEW014 25/24 Q1009 NOSIG=
16/12/2020 17:00:00Z	 SAID34 WIJJ 161700	METAR WIJJ 161700Z 29004KT 9999 FEW014 25/24 Q1009 NOSIG=
16/12/2020 17:30:00Z	 SAID34 WIJJ 161730	METAR WIJJ 161730Z 31002KT 9000 FEW014 25/24 Q1009 NOSIG=
16/12/2020 18:00:00Z	 SAID34 WIJJ 161800	METAR WIJJ 161800Z 30002KT 7000 FEW014 25/24 Q1009 NOSIG=
16/12/2020 18:30:00Z	 SAID34 WIJJ 161830	METAR WIJJ 161830Z 28002KT 6000 FEW015 25/24 Q1008 NOSIG=
16/12/2020 19:00:00Z	 SAID34 WIJJ 161900	METAR WIJJ 161900Z 30003KT 6000 FEW015 25/24 Q1008 NOSIG=
16/12/2020 19:30:00Z	 SAID34 WIJJ 161930	METAR WIJJ 161930Z 30002KT 8000 FEW015 25/24 Q1008 NOSIG=
16/12/2020 20:00:00Z	 SAID34 WIJJ 162000	METAR WIJJ 162000Z 31004KT 9999 FEW013 25/24 Q1008 NOSIG=
16/12/2020 20:30:00Z	 SAID34 WIJJ 162030	METAR WIJJ 162030Z 30004KT 9000 FEW013 25/24 Q1007 NOSIG=
16/12/2020 21:00:00Z	 SAID34 WIJJ 162100	METAR WIJJ 162100Z 31006KT 9999 FEW012 25/24 Q1007 NOSIG=
16/12/2020 21:30:00Z	 SAID34 WIJJ 162130	METAR WIJJ 162130Z 32004KT 9000 FEW013 25/24 Q1007 NOSIG=
16/12/2020 22:00:00Z	 SAID34 WIJJ 162200	METAR WIJJ 162200Z 32004KT 9000 FEW013 25/24 Q1007 NOSIG=
16/12/2020 22:30:00Z	 SAID34 WIJJ 162230	METAR WIJJ 162230Z 32006KT 9999 FEW013 25/23 Q1008 NOSIG=
16/12/2020 23:00:00Z	 SAID34 WIJJ 162300	METAR WIJJ 162300Z 32004KT 9999 FEW013 25/24 Q1008 NOSIG=
16/12/2020 23:30:00Z	 SAID34 WIJJ 162330	METAR WIJJ 162330Z 30004KT 9999 FEW013 25/23 Q1008 NOSIG=
17/12/2020 00:00:00Z	 SAID34 WIJJ 170000	METAR WIJJ 170000Z 32005KT 9999 FEW013 25/23 Q1009 NOSIG=
17/12/2020 00:30:00Z	 SAID34 WIJJ 170030	METAR WIJJ 170030Z 31006KT 9999 SCT015 25/24 Q1009 NOSIG=
17/12/2020 01:00:00Z	 SAID34 WIJJ 170100	METAR WIJJ 170100Z 31006KT 9999 FEW015 25/23 Q1010 NOSIG=
17/12/2020 01:30:00Z	 SAID34 WIJJ 170130	METAR WIJJ 170130Z 30007KT 9000 FEW014 26/24 Q1010 NOSIG=
17/12/2020 01:35:00Z	 SAID34 WIJJ 170135	METAR WIJJ 170135Z 30007KT 9999 BKN015 26/23 Q1010 NOSIG=
17/12/2020 02:00:00Z	 SAID34 WIJJ 170200	METAR WIJJ 170200Z 30006KT 9999 BKN015 26/23 Q1010 NOSIG=
17/12/2020 02:30:00Z	 SAID34 WIJJ 170230	METAR WIJJ 170230Z 30007KT 9999 BKN014 28/25 Q1010 NOSIG=
17/12/2020 03:00:00Z	 SAID34 WIJJ 170300	METAR WIJJ 170300Z 30007KT 9999 BKN015 28/24 Q1009 NOSIG=
17/12/2020 03:30:00Z	 SAID34 WIJJ 170330	METAR WIJJ 170330Z 30006KT 270V330 9999 BKN016 28/24 Q1009 NOSIG=
17/12/2020 04:00:00Z	 SAID34 WIJJ 170400	METAR WIJJ 170400Z 32010KT 9999 BKN016 30/24 Q1009 NOSIG=
17/12/2020 04:30:00Z	 SAID34 WIJJ 170430	METAR WIJJ 170430Z 34007KT 310V010 9999 SCT016 30/24 Q1008 NOSIG=
17/12/2020 05:00:00Z	 SAID34 WIJJ 170500	METAR WIJJ 170500Z 33008KT 300V360 9999 BKN016 31/24 Q1008 NOSIG=
17/12/2020 05:30:00Z	 SAID34 WIJJ 170530	METAR WIJJ 170530Z 32008KT 290V360 9999 BKN016 31/24 Q1007 NOSIG=
17/12/2020 06:00:00Z	 SAID34 WIJJ 170600	METAR WIJJ 170600Z 32008KT 9999 SCT016 31/24 Q1007 NOSIG=
17/12/2020 06:30:00Z	 SAID34 WIJJ 170630	METAR WIJJ 170630Z 30008KT 9999 SCT016 31/24 Q1007 NOSIG=
17/12/2020 07:00:00Z	 SAID34 WIJJ 170700	METAR WIJJ 170700Z 30007KT 9999 BKN016 30/24 Q1007 NOSIG=
17/12/2020 07:30:00Z	 SAID34 WIJJ 170730	METAR WIJJ 170730Z 30007KT 260V330 9999 BKN016 31/25 Q1007 NOSIG=
17/12/2020 08:00:00Z	 SAID34 WIJJ 170800	METAR WIJJ 170800Z 30008KT 260V320 9999 SCT016 32/24 Q1006 NOSIG=
17/12/2020 08:30:00Z	 SAID34 WIJJ 170830	METAR WIJJ 170830Z 30008KT 9999 BKN015 31/23 Q1006 NOSIG=
17/12/2020 09:00:00Z	 SAID34 WIJJ 170900	METAR WIJJ 170900Z 30007KT 9999 SCT015 31/24 Q1006 NOSIG=
17/12/2020 09:30:00Z	 SAID34 WIJJ 170930	METAR WIJJ 170930Z 30007KT 9999 SCT015 31/24 Q1005 NOSIG=
17/12/2020 10:00:00Z	 SAID34 WIJJ 171000	METAR WIJJ 171000Z 29007KT 250V310 9999 SCT016 31/23 Q1006 NOSIG=
17/12/2020 10:30:00Z	 SAID34 WIJJ 171030	METAR WIJJ 171030Z 30007KT 270V330 9999 SCT016 29/23 Q1006 NOSIG=
17/12/2020 11:00:00Z	 SAID34 WIJJ 171100	METAR WIJJ 171100Z 27003KT 230V300 9999 FEW016 29/23 Q1007 NOSIG=
17/12/2020 11:30:00Z	 SAID34 WIJJ 171130	METAR WIJJ 171130Z 31005KT 9999 FEW016 28/23 Q1007 NOSIG=
17/12/2020 12:00:00Z	 SAID34 WIJJ 171200	METAR WIJJ 171200Z 35003KT 9999 FEW016 29/23 Q1008 NOSIG=
17/12/2020 12:30:00Z	 SAID34 WIJJ 171230	METAR WIJJ 171230Z 02005KT 9999 FEW016 28/23 Q1008 NOSIG=
17/12/2020 13:00:00Z	 SAID34 WIJJ 171300	METAR WIJJ 171300Z 36003KT 9999 FEW016 28/26 Q1008 NOSIG=
17/12/2020 13:30:00Z	 SAID34 WIJJ 171330	METAR WIJJ 171330Z 36004KT 9999 FEW016 27/25 Q1009 NOSIG=
17/12/2020 14:00:00Z	 SAID34 WIJJ 171400	METAR WIJJ 171400Z 02004KT 9999 SCT016 28/25 Q1009 NOSIG=
17/12/2020 14:30:00Z	 SAID34 WIJJ 171430	METAR WIJJ 171430Z 02003KT 9999 SCT016 28/25 Q1009 NOSIG=
17/12/2020 15:00:00Z	 SAID34 WIJJ 171500	METAR WIJJ 171500Z 36003KT 9999 FEW016 27/24 Q1009 NOSIG=
17/12/2020 16:00:00Z	 SAID34 WIJJ 171600	METAR WIJJ 171600Z 01003KT 9999 SCT016 26/24 Q1009 NOSIG=
17/12/2020 17:00:00Z	 SAID34 WIJJ 171700	METAR WIJJ 171700Z 32005KT 9999 FEW015CB 26/24 Q1009 RMK CB TO SW=
17/12/2020 18:00:00Z	 SAID34 WIJJ 171800	METAR WIJJ 171800Z 31007KT 9999 FEW015CB FEW016 26/23 Q1009 RMK CB TO W=
17/12/2020 22:00:00Z	 SAID34 WIJJ 172200	METAR WIJJ 172200Z 30008KT 9999 -RA FEW015 25/23 Q1007=
17/12/2020 22:30:00Z	 SAID34 WIJJ 172230	METAR WIJJ 172230Z 30006KT 9999 FEW016 25/23 Q1008 NOSIG=
17/12/2020 23:00:00Z	 SAID34 WIJJ 172300	METAR WIJJ 172300Z 31005KT 9999 FEW015 25/23 Q1008 NOSIG=
17/12/2020 23:30:00Z	 SAID34 WIJJ 172330	METAR WIJJ 172330Z 30008KT 9999 FEW015 25/23 Q1008 NOSIG=
18/12/2020 00:00:00Z	 SAID34 WIJJ 180000	METAR WIJJ 180000Z 30007KT 9999 FEW015 25/23 Q1009 NOSIG=
18/12/2020 00:30:00Z	 SAID34 WIJJ 180030	METAR WIJJ 180030Z 30007KT 9999 FEW015 25/23 Q1008 NOSIG=
18/12/2020 01:00:00Z	 SAID34 WIJJ 180100	METAR WIJJ 180100Z 31008KT 9999 FEW015 26/23 Q1008 NOSIG=
18/12/2020 01:30:00Z	 SAID34 WIJJ 180130	METAR WIJJ 180130Z 30005KT 9999 FEW015 26/23 Q1008 NOSIG=
18/12/2020 02:00:00Z	 SAID34 WIJJ 180200	METAR WIJJ 180200Z 31009KT 9999 FEW015 27/22 Q1009 NOSIG=
18/12/2020 02:30:00Z	 SAID34 WIJJ 180230	METAR WIJJ 180230Z 31011KT 9999 FEW015 28/23 Q1009 NOSIG=
18/12/2020 03:00:00Z	 SAID34 WIJJ 180300	METAR WIJJ 180300Z 30010KT 9999 SCT015 27/23 Q1009 NOSIG=
18/12/2020 03:30:00Z	 SAID34 WIJJ 180330	METAR WIJJ 180330Z 31006KT 9999 SCT015 29/23 Q1009 NOSIG=
18/12/2020 04:00:00Z	 SAID34 WIJJ 180400	METAR WIJJ 180400Z 31005KT 9999 BKN015 29/24 Q1009 NOSIG=
18/12/2020 04:30:00Z	 SAID34 WIJJ 180430	METAR WIJJ 180430Z 31005KT 9999 BKN014 29/23 Q1009 NOSIG=
18/12/2020 05:00:00Z	 SAID34 WIJJ 180500	METAR WIJJ 180500Z 34009KT 9999 BKN013 29/23 Q1008 NOSIG=
18/12/2020 05:30:00Z	 SAID34 WIJJ 180530	METAR WIJJ 180530Z 32007KT 9999 SCT014 29/23 Q1008 NOSIG=
18/12/2020 06:00:00Z	 SAID34 WIJJ 180600	METAR WIJJ 180600Z 30009KT 9999 SCT014 30/23 Q1007 NOSIG=
18/12/2020 06:30:00Z	 SAID34 WIJJ 180630	METAR WIJJ 180630Z 30009KT 9999 SCT014 29/24 Q1008 NOSIG=
18/12/2020 07:00:00Z	 SAID34 WIJJ 180700	METAR WIJJ 180700Z 31007KT 9999 SCT014 30/23 Q1007 NOSIG=
18/12/2020 07:30:00Z	 SAID34 WIJJ 180730	METAR WIJJ 180730Z 27006KT 9999 SCT015 30/23 Q1006 NOSIG=
18/12/2020 08:00:00Z	 SAID34 WIJJ 180800	METAR WIJJ 180800Z 28004KT 9999 SCT015 30/23 Q1006 NOSIG=
18/12/2020 08:30:00Z	 SAID34 WIJJ 180830	METAR WIJJ 180830Z 33004KT 9999 SCT014 30/23 Q1006 NOSIG=
18/12/2020 09:00:00Z	 SAID34 WIJJ 180900	METAR WIJJ 180900Z 28007KT 9999 SCT014 31/23 Q1006 NOSIG=
18/12/2020 10:00:00Z	 SAID34 WIJJ 181000	METAR WIJJ 181000Z 32008KT 9999 SCT015 30/23 Q1006 NOSIG=
18/12/2020 10:30:00Z	 SAID34 WIJJ 181030	METAR WIJJ 181030Z 30006KT 9999 SCT015 30/23 Q1006 NOSIG=
18/12/2020 11:00:00Z	 SAID34 WIJJ 181100	METAR WIJJ 181100Z 30005KT 9999 SCT015 29/23 Q1007 NOSIG=
18/12/2020 11:30:00Z	 SAID34 WIJJ 181130	METAR WIJJ 181130Z 33007KT 9999 SCT015 29/24 Q1007 NOSIG=
18/12/2020 12:30:00Z	 SAID34 WIJJ 181230	METAR WIJJ 181230Z 34003KT 9999 SCT015 28/24 Q1008 NOSIG=
18/12/2020 13:00:00Z	 SAID34 WIJJ 181300	METAR WIJJ 181300Z 35003KT 9999 FEW016 28/24 Q1008 NOSIG=
18/12/2020 13:30:00Z	 SAID34 WIJJ 181330	METAR WIJJ 181330Z 01003KT 9999 FEW015 27/25 Q1009 NOSIG=
18/12/2020 14:00:00Z	 SAID34 WIJJ 181400	METAR WIJJ 181400Z 36002KT 9999 FEW015 28/24 Q1009 NOSIG=
18/12/2020 14:30:00Z	 SAID34 WIJJ 181430	METAR WIJJ 181430Z 35002KT 8000 FEW016 27/25 Q1009 NOSIG=
18/12/2020 15:00:00Z	 SAID34 WIJJ 181500	METAR WIJJ 181500Z 34003KT 8000 FEW015 27/24 Q1009 NOSIG=
18/12/2020 21:00:00Z	 SAID34 WIJJ 182100	METAR WIJJ 182100Z 32004KT 9999 SCT015 25/24 Q1008 NOSIG=
18/12/2020 21:30:00Z	 SAID34 WIJJ 182130	METAR WIJJ 182130Z 33005KT 9999 SCT015 25/24 Q1008 NOSIG=
18/12/2020 22:00:00Z	 SAID34 WIJJ 182200	METAR WIJJ 182200Z 32007KT 9999 FEW015 25/24 Q1008 NOSIG=
18/12/2020 22:30:00Z	 SAID34 WIJJ 182230	METAR WIJJ 182230Z 32007KT 9999 FEW015 25/23 Q1009 NOSIG=
18/12/2020 23:00:00Z	 SAID34 WIJJ 182300	METAR WIJJ 182300Z 31007KT 9999 FEW015 24/23 Q1009 NOSIG=
18/12/2020 23:30:00Z	 SAID34 WIJJ 182330	METAR WIJJ 182330Z 32006KT 9999 FEW015 25/23 Q1009 NOSIG=
19/12/2020 00:00:00Z	 SAID34 WIJJ 190000	METAR WIJJ 190000Z 32005KT 9999 FEW014 25/24 Q1009 NOSIG=
19/12/2020 00:30:00Z	 SAID34 WIJJ 190030	METAR WIJJ 190030Z 32006KT 9999 FEW014 25/24 Q1010 NOSIG=
19/12/2020 01:00:00Z	 SAID34 WIJJ 190100	METAR WIJJ 190100Z 32007KT 9999 FEW014 26/24 Q1010 NOSIG=
19/12/2020 01:30:00Z	 SAID34 WIJJ 190130	METAR WIJJ 190130Z 32009KT 9999 FEW014 26/24 Q1011 NOSIG=
19/12/2020 02:00:00Z	 SAID34 WIJJ 190200	METAR WIJJ 190200Z 32009KT 9999 FEW013 26/24 Q1011 NOSIG=
19/12/2020 02:30:00Z	 SAID34 WIJJ 190230	METAR WIJJ 190230Z 30010KT 9999 SCT014 27/24 Q1011 NOSIG=
19/12/2020 03:00:00Z	 SAID34 WIJJ 190300	METAR WIJJ 190300Z 32011KT 9999 SCT015 27/24 Q1011 NOSIG=
19/12/2020 03:30:00Z	 SAID34 WIJJ 190330	METAR WIJJ 190330Z 33010KT 300V360 9999 BKN015 28/24 Q1011 NOSIG=
19/12/2020 04:00:00Z	 SAID34 WIJJ 190400	METAR WIJJ 190400Z 32013KT 9999 SCT015 29/24 Q1010 NOSIG=
19/12/2020 04:30:00Z	 SAID34 WIJJ 190430	METAR WIJJ 190430Z 33011KT 9999 SCT015 29/24 Q1010 NOSIG=
19/12/2020 05:00:00Z	 SAID34 WIJJ 190500	METAR WIJJ 190500Z 33011KT 300V010 9999 SCT015 29/24 Q1010 NOSIG=
19/12/2020 05:30:00Z	 SAID34 WIJJ 190530	METAR WIJJ 190530Z 32011KT 9999 BKN015 30/24 Q1009 NOSIG=
19/12/2020 06:00:00Z	 SAID34 WIJJ 190600	METAR WIJJ 190600Z 31012KT 9999 BKN015 30/23 Q1009 NOSIG=
19/12/2020 06:30:00Z	 SAID34 WIJJ 190630	METAR WIJJ 190630Z 32007KT 9999 SCT015 30/24 Q1007 NOSIG=
19/12/2020 07:00:00Z	 SAID34 WIJJ 190700	METAR WIJJ 190700Z 28006KT 9999 SCT015 30/24 Q1006 NOSIG=
19/12/2020 07:30:00Z	 SAID34 WIJJ 190730	METAR WIJJ 190730Z 32011KT 9999 BKN015 31/23 Q1006 NOSIG=
19/12/2020 08:00:00Z	 SAID34 WIJJ 190800	METAR WIJJ 190800Z 30006KT 9999 BKN015 30/23 Q1006 NOSIG=
19/12/2020 08:30:00Z	 SAID34 WIJJ 190830	METAR WIJJ 190830Z 28003KT 9999 SCT015 30/24 Q1006 NOSIG=
19/12/2020 09:00:00Z	 SAID34 WIJJ 190900	METAR WIJJ 190900Z 32006KT 9999 SCT015 30/24 Q1006 NOSIG=
19/12/2020 09:30:00Z	 SAID34 WIJJ 190930	METAR WIJJ 190930Z 30004KT 9999 SCT015 30/24 Q1006 NOSIG=
19/12/2020 10:00:00Z	 SAID34 WIJJ 191000	METAR WIJJ 191000Z 04005KT 9999 SCT015 29/24 Q1006 NOSIG=
19/12/2020 10:30:00Z	 SAID34 WIJJ 191030	METAR WIJJ 191030Z 03008KT 9999 FEW015 29/24 Q1006 NOSIG=
19/12/2020 11:00:00Z	 SAID34 WIJJ 191100	METAR WIJJ 191100Z 36004KT 9999 BKN015 28/24 Q1007 NOSIG=
19/12/2020 11:30:00Z	 SAID34 WIJJ 191130	METAR WIJJ 191130Z 01003KT 9999 SCT015 28/24 Q1007 NOSIG=
19/12/2020 12:00:00Z	 SAID34 WIJJ 191200	METAR WIJJ 191200Z 01003KT 9999 BKN015 28/24 Q1008 NOSIG=
19/12/2020 12:30:00Z	 SAID34 WIJJ 191230	METAR WIJJ 191230Z 36002KT 9999 FEW015CB 27/25 Q1009 RMK CB TO NW=
19/12/2020 13:00:00Z	 SAID34 WIJJ 191300	METAR WIJJ 191300Z 36003KT 9999 FEW015CB FEW016 28/26 Q1009 RMK CB TO W=
19/12/2020 13:30:00Z	 SAID34 WIJJ 191330	METAR WIJJ 191330Z 35002KT 9999 FEW015CB FEW016 28/25 Q1010 RMK CB TO SW AND NW=
19/12/2020 14:00:00Z	 SAID34 WIJJ 191400	METAR WIJJ 191400Z 30005KT 9999 -RA FEW015CB FEW016 27/24 Q1010 RMK CB TO S=
19/12/2020 14:30:00Z	 SAID34 WIJJ 191430	METAR WIJJ 191430Z 31001KT 9000 -TSRA FEW015CB SCT016 26/24 Q1010 RMK CB TO S AND W=
19/12/2020 15:00:00Z	 SAID34 WIJJ 191500	METAR WIJJ 191500Z 24003KT 8000 -TSRA FEW015CB FEW016 27/24 Q1011 RMK CB TO S AND W=
19/12/2020 16:00:00Z	 SAID34 WIJJ 191600	METAR WIJJ 191600Z 21005KT 6000 -TSRA FEW015CB FEW016 25/23 Q1011 RMK CB TO W AND NW=
19/12/2020 17:00:00Z	 SAID34 WIJJ 191700	METAR WIJJ 191700Z 36003KT 4500 -RA SCT010 24/23 Q1011=
19/12/2020 18:00:00Z	 SAID34 WIJJ 191800	METAR WIJJ 191800Z 14004KT 5000 -RA SCT010 24/24 Q1010=
19/12/2020 22:00:00Z	 SAID34 WIJJ 192200	METAR WIJJ 192200Z 25002KT 9999 FEW014 24/24 Q1008 NOSIG=
19/12/2020 23:00:00Z	 SAID34 WIJJ 192300	METAR WIJJ 192300Z 00000KT 8000 FEW014 24/24 Q1009 NOSIG=
19/12/2020 23:30:00Z	 SAID34 WIJJ 192330	METAR WIJJ 192330Z 24002KT 4200 BR FEW010 24/24 Q1009=
20/12/2020 00:00:00Z	 SAID34 WIJJ 200000	METAR WIJJ 200000Z 25002KT 8000 FEW015 24/24 Q1010=
20/12/2020 00:30:00Z	 SAID34 WIJJ 200030	METAR WIJJ 200030Z 27003KT 9999 SCT016 25/24 Q1010 NOSIG=
20/12/2020 01:00:00Z	 SAID34 WIJJ 200100	METAR WIJJ 200100Z 31003KT 9999 SCT016 25/24 Q1010 NOSIG=
20/12/2020 01:30:00Z	 SAID34 WIJJ 200130	METAR WIJJ 200130Z 32007KT 9999 SCT016 26/24 Q1010 NOSIG=
20/12/2020 02:00:00Z	 SAID34 WIJJ 200200	METAR WIJJ 200200Z 32008KT 9999 SCT015 27/24 Q1010 NOSIG=
20/12/2020 02:30:00Z	 SAID34 WIJJ 200230	METAR WIJJ 200230Z 31006KT 9999 SCT015 28/24 Q1010 NOSIG=
20/12/2020 03:00:00Z	 SAID34 WIJJ 200300	METAR WIJJ 200300Z 32009KT 9999 SCT015 29/24 Q1010 NOSIG=
20/12/2020 03:30:00Z	 SAID34 WIJJ 200330	METAR WIJJ 200330Z 32009KT 9999 SCT014 28/24 Q1010 NOSIG=
20/12/2020 04:00:00Z	 SAID34 WIJJ 200400	METAR WIJJ 200400Z 30008KT 9999 SCT015 29/24 Q1010 NOSIG=
20/12/2020 04:30:00Z	 SAID34 WIJJ 200430	METAR WIJJ 200430Z 32008KT 9999 SCT015 29/25 Q1009 NOSIG=
20/12/2020 05:00:00Z	 SAID34 WIJJ 200500	METAR WIJJ 200500Z 34008KT 9999 SCT014 29/25 Q1009 NOSIG=
20/12/2020 05:30:00Z	 SAID34 WIJJ 200530	METAR WIJJ 200530Z 30005KT 9999 SCT014 30/24 Q1009 NOSIG=
20/12/2020 06:00:00Z	 SAID34 WIJJ 200600	METAR WIJJ 200600Z 28005KT 9999 SCT014 30/25 Q1008 NOSIG=
20/12/2020 06:30:00Z	 SAID34 WIJJ 200630	METAR WIJJ 200630Z 29006KT 9999 SCT015 30/24 Q1008 NOSIG=
20/12/2020 07:00:00Z	 SAID34 WIJJ 200700	METAR WIJJ 200700Z 29005KT 260V320 9999 SCT015 31/25 Q1007 NOSIG=
20/12/2020 07:30:00Z	 SAID34 WIJJ 200730	METAR WIJJ 200730Z 29006KT 260V330 9999 SCT015 30/24 Q1007 NOSIG=
20/12/2020 08:00:00Z	 SAID34 WIJJ 200800	METAR WIJJ 200800Z 29006KT 260V320 9999 FEW015 31/24 Q1006 NOSIG=
20/12/2020 08:30:00Z	 SAID34 WIJJ 200830	METAR WIJJ 200830Z 30006KT 270V330 9999 FEW015 32/23 Q1006 NOSIG=
20/12/2020 09:00:00Z	 SAID34 WIJJ 200900	METAR WIJJ 200900Z 28006KT 9999 FEW015 32/23 Q1006 NOSIG=
20/12/2020 09:30:00Z	 SAID34 WIJJ 200930	METAR WIJJ 200930Z 29004KT 260V330 9999 FEW015 31/24 Q1006 NOSIG=
20/12/2020 10:00:00Z	 SAID34 WIJJ 201000	METAR WIJJ 201000Z 31005KT 260V350 9999 FEW015 32/23 Q1006 NOSIG=
20/12/2020 10:30:00Z	 SAID34 WIJJ 201030	METAR WIJJ 201030Z 31006KT 9999 FEW015 31/23 Q1005 NOSIG=
20/12/2020 11:00:00Z	 SAID34 WIJJ 201100	METAR WIJJ 201100Z 01008KT 9999 FEW015 31/23 Q1007 NOSIG=
20/12/2020 11:30:00Z	 SAID34 WIJJ 201130	METAR WIJJ 201130Z 01009KT 9999 FEW015 30/23 Q1008 NOSIG=
20/12/2020 12:00:00Z	 SAID34 WIJJ 201200	METAR WIJJ 201200Z 01006KT 330V030 9999 FEW015 29/25 Q1008 NOSIG=
20/12/2020 12:30:00Z	 SAID34 WIJJ 201230	METAR WIJJ 201230Z 01004KT 9999 FEW015 28/24 Q1008 NOSIG=
20/12/2020 13:00:00Z	 SAID34 WIJJ 201300	METAR WIJJ 201300Z 02003KT 9999 FEW015 27/24 Q1008 NOSIG=
20/12/2020 13:30:00Z	 SAID34 WIJJ 201330	METAR WIJJ 201330Z 02003KT 9999 FEW015 27/24 Q1008 NOSIG=
20/12/2020 14:00:00Z	 SAID34 WIJJ 201400	METAR WIJJ 201400Z 02002KT 9999 FEW015 27/24 Q1009 NOSIG=
20/12/2020 14:30:00Z	 SAID34 WIJJ 201430	METAR WIJJ 201430Z 36002KT 9999 FEW015 26/24 Q1009 NOSIG=
20/12/2020 15:00:00Z	 SAID34 WIJJ 201500	METAR WIJJ 201500Z 34005KT 9999 FEW015 27/24 Q1009 NOSIG=
20/12/2020 15:30:00Z	 SAID34 WIJJ 201530	METAR WIJJ 201530Z 33006KT 9999 FEW015 27/24 Q1009 NOSIG=
20/12/2020 16:00:00Z	 SAID34 WIJJ 201600	METAR WIJJ 201600Z 32008KT 9999 FEW015 26/23 Q1009 NOSIG=
20/12/2020 16:30:00Z	 SAID34 WIJJ 201630	METAR WIJJ 201630Z 32010KT 9999 FEW015 26/23 Q1009 NOSIG=
20/12/2020 17:00:00Z	 SAID34 WIJJ 201700	METAR WIJJ 201700Z 31010KT 9999 FEW015 26/23 Q1009 NOSIG=
20/12/2020 17:30:00Z	 SAID34 WIJJ 201730	METAR WIJJ 201730Z 31009KT 9999 FEW015 26/23 Q1009 NOSIG=
20/12/2020 18:00:00Z	 SAID34 WIJJ 201800	METAR WIJJ 201800Z 30007KT 9999 FEW015 25/23 Q1008 NOSIG=
20/12/2020 18:30:00Z	 SAID34 WIJJ 201830	METAR WIJJ 201830Z 31008KT 9999 FEW015 26/24 Q1008=
20/12/2020 19:00:00Z	 SAID34 WIJJ 201900	METAR WIJJ 201900Z 30008KT 9999 FEW015 25/24 Q1008=
20/12/2020 19:30:00Z	 SAID34 WIJJ 201930	METAR WIJJ 201930Z 29006KT 9999 FEW015 25/24 Q1008=
20/12/2020 20:00:00Z	 SAID34 WIJJ 202000	METAR WIJJ 202000Z 29006KT 9999 FEW015 25/24 Q1008=
20/12/2020 20:30:00Z	 SAID34 WIJJ 202030	METAR WIJJ 202030Z 30006KT 9999 FEW015 25/23 Q1008=
20/12/2020 21:00:00Z	 SAID34 WIJJ 202100	METAR WIJJ 202100Z 29005KT 9999 FEW015 25/24 Q1008=
20/12/2020 21:30:00Z	 SAID34 WIJJ 202130	METAR WIJJ 202130Z AUTO 28005KT 9999 ////// 25/24 Q1007=
20/12/2020 22:00:00Z	 SAID34 WIJJ 202200	METAR WIJJ 202200Z AUTO 28005KT 240V320 9999 ////// 24/23 Q1007=
20/12/2020 22:30:00Z	 SAID34 WIJJ 202230	METAR WIJJ 202230Z 28005KT 9999 SCT013 25/23 Q1008 NOSIG=
20/12/2020 23:00:00Z	 SAID34 WIJJ 202300	METAR COR WIJJ 202300Z 28003KT 9999 FEW014 25/23 Q1008 NOSIG=
20/12/2020 23:30:00Z	 SAID34 WIJJ 202330	METAR WIJJ 202330Z 26004KT 9999 FEW014 24/23 Q1008 NOSIG=
21/12/2020 00:00:00Z	 SAID34 WIJJ 210000	METAR WIJJ 210000Z 26004KT 9999 SCT014 25/24 Q1010 NOSIG=
21/12/2020 00:30:00Z	 SAID34 WIJJ 210030	METAR WIJJ 210030Z 27004KT 9999 SCT015 25/24 Q1009 NOSIG=
21/12/2020 01:00:00Z	 SAID34 WIJJ 210100	METAR WIJJ 210100Z 28004KT 250V320 9999 SCT013 26/24 Q1011 NOSIG=
21/12/2020 01:30:00Z	 SAID34 WIJJ 210130	METAR WIJJ 210130Z 29005KT 9999 BKN014 27/24 Q1011 NOSIG=
21/12/2020 02:00:00Z	 SAID34 WIJJ 210200	METAR WIJJ 210200Z 31006KT 240V340 9999 BKN014 27/24 Q1011 NOSIG=
21/12/2020 02:30:00Z	 SAID34 WIJJ 210230	METAR WIJJ 210230Z 30007KT 260V330 9999 BKN014 28/24 Q1011 NOSIG=
21/12/2020 03:00:00Z	 SAID34 WIJJ 210300	METAR WIJJ 210300Z 30006KT 260V350 9999 BKN014 29/24 Q1010 NOSIG=
21/12/2020 03:30:00Z	 SAID34 WIJJ 210330	METAR WIJJ 210330Z 33009KT 300V360 9999 BKN014 29/24 Q1010 NOSIG=
21/12/2020 04:00:00Z	 SAID34 WIJJ 210400	METAR WIJJ 210400Z 33009KT 280V030 9999 BKN015 30/24 Q1010 NOSIG=
21/12/2020 04:30:00Z	 SAID34 WIJJ 210430	METAR WIJJ 210430Z 33007KT 270V020 9999 BKN015 30/24 Q1009 NOSIG=
21/12/2020 05:00:00Z	 SAID34 WIJJ 210500	METAR WIJJ 210500Z 35008KT 320V030 9999 BKN015 30/24 Q1009 NOSIG=
21/12/2020 05:30:00Z	 SAID34 WIJJ 210530	METAR WIJJ 210530Z 36006KT 320V040 9999 BKN015 30/23 Q1009 NOSIG=
21/12/2020 06:00:00Z	 SAID34 WIJJ 210600	METAR WIJJ 210600Z 34009KT 310V010 9999 BKN015 29/23 Q1008 NOSIG=
21/12/2020 06:30:00Z	 SAID34 WIJJ 210630	METAR WIJJ 210630Z 33011KT 9999 FEW014CB SCT015 31/24 Q1008 CB OVER THE FIELD=
21/12/2020 07:00:00Z	 SAID34 WIJJ 210700	METAR WIJJ 210700Z 35010KT 9999 BKN014 30/23 Q1007 NOSIG=
21/12/2020 07:30:00Z	 SAID34 WIJJ 210730	METAR WIJJ 210730Z 34010KT 9999 BKN014 28/24 Q1007 NOSIG=
21/12/2020 08:00:00Z	 SAID34 WIJJ 210800	METAR WIJJ 210800Z 34006KT 300V020 9999 BKN015 30/22 Q1006 NOSIG=
21/12/2020 08:30:00Z	 SAID34 WIJJ 210830	METAR WIJJ 210830Z 33008KT 9999 BKN014 30/23 Q1006 NOSIG=
21/12/2020 09:00:00Z	 SAID34 WIJJ 210900	METAR WIJJ 210900Z 02011KT 9999 BKN015 30/24 Q1006 NOSIG=
21/12/2020 09:30:00Z	 SAID34 WIJJ 210930	METAR WIJJ 210930Z 36008KT 9999 SCT014 30/23 Q1006 NOSIG=
21/12/2020 10:00:00Z	 SAID34 WIJJ 211000	METAR WIJJ 211000Z 01007KT 9999 BKN014 29/23 Q1007 NOSIG=
21/12/2020 10:30:00Z	 SAID34 WIJJ 211030	METAR WIJJ 211030Z 34006KT 310V030 9999 SCT015 28/24 Q1007 NOSIG=
21/12/2020 11:00:00Z	 SAID34 WIJJ 211100	METAR WIJJ 211100Z 34004KT 9999 SCT014 29/23 Q1007 NOSIG=
21/12/2020 11:30:00Z	 SAID34 WIJJ 211130	METAR WIJJ 211130Z 36003KT 9000 SCT015 28/23 Q1007 NOSIG=
21/12/2020 12:00:00Z	 SAID34 WIJJ 211200	METAR WIJJ 211200Z 01002KT 9000 SCT015 28/23 Q1008 NOSIG=
21/12/2020 12:30:00Z	 SAID34 WIJJ 211230	METAR WIJJ 211230Z 03002KT 9999 SCT015 27/24 Q1008 NOSIG=
21/12/2020 13:00:00Z	 SAID34 WIJJ 211300	METAR WIJJ 211300Z 02002KT 9000 FEW015 28/24 Q1008 NOSIG=
21/12/2020 13:30:00Z	 SAID34 WIJJ 211330	METAR WIJJ 211330Z 04002KT 8000 FEW015 27/25 Q1009 NOSIG=
21/12/2020 14:00:00Z	 SAID34 WIJJ 211400	METAR WIJJ 211400Z 13001KT 5000 HZ FEW015 27/24 Q1009 NOSIG=
21/12/2020 14:30:00Z	 SAID34 WIJJ 211430	METAR WIJJ 211430Z 16002KT 5000 FEW015 26/24 Q1009 NOSIG=
21/12/2020 15:00:00Z	 SAID34 WIJJ 211500	METAR WIJJ 211500Z 11001KT 6000 FEW015 27/25 Q1009 NOSIG=
21/12/2020 15:30:00Z	 SAID34 WIJJ 211530	METAR WIJJ 211530Z 13001KT 7000 FEW015 26/24 Q1009 NOSIG=
21/12/2020 16:00:00Z	 SAID34 WIJJ 211600	METAR WIJJ 211600Z 06002KT 6000 FEW014 27/25 Q1009 NOSIG=
21/12/2020 16:30:00Z	 SAID34 WIJJ 211630	METAR WIJJ 211630Z 01002KT 9999 FEW014 26/24 Q1009 NOSIG=
21/12/2020 17:00:00Z	 SAID34 WIJJ 211700	METAR WIJJ 211700Z 34003KT 9999 FEW014 26/24 Q1009 NOSIG=
21/12/2020 17:30:00Z	 SAID34 WIJJ 211730	METAR WIJJ 211730Z 32001KT 8000 FEW014 26/24 Q1009 NOSIG=
21/12/2020 18:00:00Z	 SAID34 WIJJ 211800	METAR WIJJ 211800Z 35001KT 8000 FEW014 26/24 Q1009 NOSIG=
21/12/2020 18:30:00Z	 SAID34 WIJJ 211830	METAR WIJJ 211830Z 34001KT 6000 FEW014 26/24 Q1008 NOSIG=
21/12/2020 19:00:00Z	 SAID34 WIJJ 211900	METAR WIJJ 211900Z 00000KT 6000 FEW013 26/24 Q1008 NOSIG=
21/12/2020 19:30:00Z	 SAID34 WIJJ 211930	METAR WIJJ 211930Z 00000KT 5000 HZ FEW013 26/24 Q1007 NOSIG=
21/12/2020 20:00:00Z	 SAID34 WIJJ 212000	METAR WIJJ 212000Z 31002KT 8000 FEW013 26/25 Q1008 NOSIG=
21/12/2020 20:30:00Z	 SAID34 WIJJ 212030	METAR WIJJ 212030Z 32002KT 9999 FEW013 25/24 Q1007 NOSIG=
21/12/2020 21:00:00Z	 SAID34 WIJJ 212100	METAR WIJJ 212100Z 32002KT 8000 SCT013 26/24 Q1007 NOSIG=
21/12/2020 21:30:00Z	 SAID34 WIJJ 212130	METAR WIJJ 212130Z 32002KT 7000 FEW010 25/24 Q1007 NOSIG=
21/12/2020 22:00:00Z	 SAID34 WIJJ 212200	METAR WIJJ 212200Z 24002KT 5000 HZ FEW010 25/24 Q1008 NOSIG=
21/12/2020 22:30:00Z	 SAID34 WIJJ 212230	METAR WIJJ 212230Z 27002KT 3500 HZ FEW010 25/24 Q1008 NOSIG=
21/12/2020 23:00:00Z	 SAID34 WIJJ 212300	METAR WIJJ 212300Z 26003KT 2500 HZ FEW010 25/24 Q1008 NOSIG=
21/12/2020 23:01:00Z	 SAID34 WIJJ 212301	METAR WIJJ 212301Z 26002KT 2500 HZ FEW010 25/24 Q1009 NOSIG=
21/12/2020 23:30:00Z	 SAID34 WIJJ 212330	METAR WIJJ 212330Z 27002KT 2700 HZ FEW010 25/24 Q1009 NOSIG=
22/12/2020 00:00:00Z	 SAID34 WIJJ 220000	METAR WIJJ 220000Z 29001KT 3300 HZ FEW013 25/24 Q1009 NOSIG=
22/12/2020 00:30:00Z	 SAID34 WIJJ 220030	METAR WIJJ 220030Z 26002KT 5000 HZ FEW013 25/24 Q1009 NOSIG=
22/12/2020 01:00:00Z	 SAID34 WIJJ 220100	METAR WIJJ 220100Z 29004KT 7000 FEW015 26/24 Q1009 NOSIG=
22/12/2020 01:30:00Z	 SAID34 WIJJ 220130	METAR WIJJ 220130Z 29005KT 9999 FEW015 28/24 Q1010 NOSIG=
22/12/2020 02:00:00Z	 SAID34 WIJJ 220200	METAR WIJJ 220200Z 31006KT 9999 SCT015 28/24 Q1010 NOSIG=
22/12/2020 02:30:00Z	 SAID34 WIJJ 220230	METAR WIJJ 220230Z 31005KT 9999 FEW014 28/24 Q1010 NOSIG=
22/12/2020 03:00:00Z	 SAID34 WIJJ 220300	METAR WIJJ 220300Z 34005KT 9999 SCT014 29/24 Q1010 NOSIG=
22/12/2020 03:30:00Z	 SAID34 WIJJ 220330	METAR WIJJ 220330Z 34007KT 9999 BKN015 29/23 Q1009 NOSIG=
22/12/2020 04:00:00Z	 SAID34 WIJJ 220400	METAR WIJJ 220400Z 35007KT 9999 BKN015 29/22 Q1009 NOSIG=
22/12/2020 04:30:00Z	 SAID34 WIJJ 220430	METAR WIJJ 220430Z 34008KT 9999 SCT015 30/22 Q1009 NOSIG=
22/12/2020 05:00:00Z	 SAID34 WIJJ 220500	METAR WIJJ 220500Z 01007KT 9999 SCT015 31/23 Q1008 NOSIG=
22/12/2020 05:30:00Z	 SAID34 WIJJ 220530	METAR WIJJ 220530Z 36007KT 9999 SCT014 31/23 Q1008 NOSIG=
22/12/2020 06:00:00Z	 SAID34 WIJJ 220600	METAR WIJJ 220600Z 35009KT 9999 BKN014 31/23 Q1007 NOSIG=
22/12/2020 06:30:00Z	 SAID34 WIJJ 220630	METAR WIJJ 220630Z 01007KT 320V040 9999 BKN015 32/23 Q1007 NOSIG=
22/12/2020 07:00:00Z	 SAID34 WIJJ 220700	METAR WIJJ 220700Z 01008KT 350V050 9999 BKN015 31/23 Q1006 NOSIG=
22/12/2020 07:30:00Z	 SAID34 WIJJ 220730	METAR WIJJ 220730Z 34007KT 310V030 9999 SCT015 33/23 Q1006 NOSIG=
22/12/2020 08:00:00Z	 SAID34 WIJJ 220800	METAR WIJJ 220800Z 33005KT 9999 SCT017 32/23 Q1006 NOSIG=
22/12/2020 08:30:00Z	 SAID34 WIJJ 220830	METAR WIJJ 220830Z 35006KT 9999 SCT017 32/23 Q1005 NOSIG=
22/12/2020 09:00:00Z	 SAID34 WIJJ 220900	METAR WIJJ 220900Z 33005KT 9999 SCT017 32/24 Q1005 NOSIG=
22/12/2020 09:30:00Z	 SAID34 WIJJ 220930	METAR WIJJ 220930Z 01006KT 340V050 9999 SCT017 31/23 Q1005 NOSIG=
22/12/2020 10:00:00Z	 SAID34 WIJJ 221000	METAR WIJJ 221000Z 01007KT 9999 FEW017 31/23 Q1005 NOSIG=
22/12/2020 10:30:00Z	 SAID34 WIJJ 221030	METAR WIJJ 221030Z 01006KT 340V040 9999 FEW017 30/24 Q1005 NOSIG=
22/12/2020 11:00:00Z	 SAID34 WIJJ 221100	METAR WIJJ 221100Z 02007KT 9999 FEW017 29/23 Q1006 NOSIG=
22/12/2020 11:30:00Z	 SAID34 WIJJ 221130	METAR WIJJ 221130Z 36005KT 330V030 9999 FEW017 29/23 Q1006 NOSIG=
22/12/2020 12:00:00Z	 SAID34 WIJJ 221200	METAR WIJJ 221200Z 01004KT 340V040 9999 FEW016 28/23 Q1006 NOSIG=
22/12/2020 12:30:00Z	 SAID34 WIJJ 221230	METAR WIJJ 221230Z 36004KT 9999 FEW015CB 28/24 Q1007 RMK CB TO W=
22/12/2020 13:00:00Z	 SAID34 WIJJ 221300	METAR WIJJ 221300Z 02003KT 9999 FEW016 28/25 Q1008 NOSIG=
22/12/2020 13:30:00Z	 SAID34 WIJJ 221330	METAR WIJJ 221330Z 03003KT 9999 FEW016 27/25 Q1008 NOSIG=
22/12/2020 14:00:00Z	 SAID34 WIJJ 221400	METAR WIJJ 221400Z 35002KT 9999 FEW016 28/24 Q1009 NOSIG=
22/12/2020 14:30:00Z	 SAID34 WIJJ 221430	METAR WIJJ 221430Z 01003KT 9999 FEW016 27/24 Q1009 NOSIG=
22/12/2020 15:00:00Z	 SAID34 WIJJ 221500	METAR WIJJ 221500Z 35003KT 9999 FEW016 27/23 Q1009 NOSIG=
22/12/2020 16:00:00Z	 SAID34 WIJJ 221600	METAR WIJJ 221600Z 36001KT 7000 FEW016 27/23 Q1008 NOSIG=
22/12/2020 17:00:00Z	 SAID34 WIJJ 221700	METAR WIJJ 221700Z 32002KT 9000 FEW016 27/24 Q1008 NOSIG=
22/12/2020 22:00:00Z	 SAID34 WIJJ 222200	METAR WIJJ 222200Z 00000KT 9999 FEW016 26/24 Q1007 NOSIG=
22/12/2020 22:30:00Z	 SAID34 WIJJ 222230	METAR WIJJ 222230Z 33002KT 9999 FEW016 26/24 Q1008 NOSIG=
22/12/2020 23:00:00Z	 SAID34 WIJJ 222300	METAR WIJJ 222300Z 00000KT 3000 HZ FEW016 25/24 Q1008=
22/12/2020 23:30:00Z	 SAID34 WIJJ 222330	METAR WIJJ 222330Z 00000KT 2000 HZ FEW016 25/24 Q1008=
23/12/2020 00:00:00Z	 SAID34 WIJJ 230000	METAR WIJJ 230000Z 20002KT 3300 HZ SCT018 26/24 Q1008=
23/12/2020 00:30:00Z	 SAID34 WIJJ 230030	METAR WIJJ 230030Z 20003KT 6000 SCT015 25/24 Q1009 NOSIG=
23/12/2020 01:00:00Z	 SAID34 WIJJ 230100	METAR WIJJ 230100Z 30002KT 8000 SCT016 27/24 Q1009 NOSIG=
23/12/2020 01:30:00Z	 SAID34 WIJJ 230130	METAR WIJJ 230130Z 32004KT 9999 FEW016 28/24 Q1009 NOSIG=
23/12/2020 02:00:00Z	 SAID34 WIJJ 230200	METAR WIJJ 230200Z 34005KT 9999 SCT016 28/24 Q1009 NOSIG=
23/12/2020 02:30:00Z	 SAID34 WIJJ 230230	METAR WIJJ 230230Z 32007KT 9999 SCT018 29/25 Q1009 NOSIG=
23/12/2020 03:00:00Z	 SAID34 WIJJ 230300	METAR WIJJ 230300Z 32006KT 9999 BKN017 29/25 Q1008 NOSIG=
23/12/2020 03:30:00Z	 SAID34 WIJJ 230330	METAR WIJJ 230330Z 33004KT 280V010 9999 BKN017 30/25 Q1008 NOSIG=
23/12/2020 04:00:00Z	 SAID34 WIJJ 230400	METAR WIJJ 230400Z 35007KT 310V020 9999 SCT017 31/25 Q1007 NOSIG=
23/12/2020 04:30:00Z	 SAID34 WIJJ 230430	METAR WIJJ 230430Z 25004KT 9999 SCT017 31/24 Q1007 NOSIG=
23/12/2020 05:00:00Z	 SAID34 WIJJ 230500	METAR WIJJ 230500Z 31004KT 9999 SCT017 31/24 Q1006 NOSIG=
23/12/2020 05:30:00Z	 SAID34 WIJJ 230530	METAR WIJJ 230530Z 29004KT 9999 SCT017 32/23 Q1006 NOSIG=
23/12/2020 06:00:00Z	 SAID34 WIJJ 230600	METAR WIJJ 230600Z 34008KT 9999 BKN016 32/24 Q1005 NOSIG=
23/12/2020 06:30:00Z	 SAID34 WIJJ 230630	METAR WIJJ 230630Z 01005KT 9999 SCT016 32/24 Q1005 NOSIG=
23/12/2020 07:00:00Z	 SAID34 WIJJ 230700	METAR WIJJ 230700Z 25007KT 9999 SCT015 33/24 Q1004 NOSIG=
23/12/2020 07:30:00Z	 SAID34 WIJJ 230730	METAR WIJJ 230730Z 28003KT 9999 SCT015 33/23 Q1004 NOSIG=
23/12/2020 08:00:00Z	 SAID34 WIJJ 230800	METAR WIJJ 230800Z 27004KT 9999 BKN015 33/23 Q1003 NOSIG=
23/12/2020 08:30:00Z	 SAID34 WIJJ 230830	METAR WIJJ 230830Z 30006KT 9999 SCT015 32/23 Q1003 NOSIG=
23/12/2020 09:00:00Z	 SAID34 WIJJ 230900	METAR WIJJ 230900Z 27003KT 9999 SCT014 33/23 Q1003 NOSIG=
23/12/2020 09:30:00Z	 SAID34 WIJJ 230930	METAR WIJJ 230930Z 32005KT 9999 SCT015 33/22 Q1003 NOSIG=
23/12/2020 10:00:00Z	 SAID34 WIJJ 231000	METAR WIJJ 231000Z 34004KT 9999 SCT014 33/21 Q1003 NOSIG=
23/12/2020 10:30:00Z	 SAID34 WIJJ 231030	METAR WIJJ 231030Z 35004KT 9999 SCT014 32/22 Q1004 NOSIG=
23/12/2020 11:00:00Z	 SAID34 WIJJ 231100	METAR WIJJ 231100Z 03006KT 9999 SCT014 31/23 Q1004 NOSIG=
23/12/2020 11:30:00Z	 SAID34 WIJJ 231130	METAR WIJJ 231130Z 05005KT 9999 SCT015 30/25 Q1005 NOSIG=
23/12/2020 12:00:00Z	 SAID34 WIJJ 231200	METAR WIJJ 231200Z 09005KT 9999 SCT015 28/24 Q1005 NOSIG=
23/12/2020 12:30:00Z	 SAID34 WIJJ 231230	METAR WIJJ 231230Z 09006KT 9999 SCT015 28/25 Q1006 NOSIG=
23/12/2020 13:00:00Z	 SAID34 WIJJ 231300	METAR WIJJ 231300Z 08006KT 9999 SCT015 27/25 Q1006 NOSIG=
23/12/2020 13:30:00Z	 SAID34 WIJJ 231330	METAR WIJJ 231330Z 08003KT 050V110 9999 SCT015 27/25 Q1006 NOSIG=
23/12/2020 14:00:00Z	 SAID34 WIJJ 231400	METAR WIJJ 231400Z 06002KT 9999 SCT015 27/25 Q1007 NOSIG=
23/12/2020 14:30:00Z	 SAID34 WIJJ 231430	METAR WIJJ 231430Z 05002KT 9999 SCT015 27/25 Q1007 NOSIG=
23/12/2020 15:00:00Z	 SAID34 WIJJ 231500	METAR WIJJ 231500Z 03002KT 9999 FEW016 27/25 Q1008 NOSIG=
23/12/2020 21:00:00Z	 SAID34 WIJJ 232100	METAR WIJJ 232100Z 17003KT 140V220 9999 -RA BKN012 24/23 Q1007 NOSIG=
23/12/2020 21:30:00Z	 SAID34 WIJJ 232130	METAR WIJJ 232130Z 00000KT 9999 -RA BKN013 24/23 Q1007 NOSIG=
23/12/2020 22:00:00Z	 SAID34 WIJJ 232200	METAR WIJJ 232200Z 11003KT 9999 BKN012 24/23 Q1008 NOSIG RMK RERA=
23/12/2020 22:30:00Z	 SAID34 WIJJ 232230	METAR WIJJ 232230Z 11004KT 080V140 9999 FEW012CB BKN013 23/23 Q1008 NOSIG RMK CB TO N-NE=
23/12/2020 23:00:00Z	 SAID34 WIJJ 232300	METAR WIJJ 232300Z 12004KT 9999 SCT013 23/23 Q1009 NOSIG=
23/12/2020 23:30:00Z	 SAID34 WIJJ 232330	METAR WIJJ 232330Z 15002KT 8000 BKN013 23/23 Q1009 NOSIG=
24/12/2020 00:00:00Z	 SAID34 WIJJ 240000	METAR WIJJ 240000Z 00000KT 9999 BKN013 23/23 Q1009 NOSIG=
24/12/2020 00:30:00Z	 SAID34 WIJJ 240030	METAR WIJJ 240030Z 00000KT 9999 -RA BKN013 23/23 Q1010 NOSIG=
24/12/2020 01:00:00Z	 SAID34 WIJJ 240100	METAR WIJJ 240100Z 06003KT 8000 -RA BKN014 24/23 Q1010 NOSIG=
24/12/2020 01:30:00Z	 SAID34 WIJJ 240130	METAR WIJJ 240130Z 19002KT 9000 -RA SCT014 24/23 Q1010 NOSIG=
24/12/2020 02:00:00Z	 SAID34 WIJJ 240200	METAR WIJJ 240200Z 15002KT 8000 -RA SCT010 25/23 Q1010 NOSIG=
24/12/2020 02:30:00Z	 SAID34 WIJJ 240230	METAR WIJJ 240230Z 36003KT 320V040 9999 -RA SCT008 25/24 Q1010 NOSIG=
24/12/2020 03:00:00Z	 SAID34 WIJJ 240300	METAR WIJJ 240300Z 34005KT 9999 BKN012 25/24 Q1011 RERA NOSIG=
24/12/2020 03:30:00Z	 SAID34 WIJJ 240330	METAR WIJJ 240330Z 33004KT 280V010 9999 BKN012 25/24 Q1010 NOSIG=
24/12/2020 04:00:00Z	 SAID34 WIJJ 240400	METAR WIJJ 240400Z 02003KT 9999 BKN013 26/24 Q1010 NOSIG=
24/12/2020 04:30:00Z	 SAID34 WIJJ 240430	METAR WIJJ 240430Z 25002KT 9999 SCT014 27/24 Q1009 NOSIG=
24/12/2020 05:00:00Z	 SAID34 WIJJ 240500	METAR WIJJ 240500Z 33004KT 300V010 9999 BKN014 28/23 Q1009 NOSIG=
24/12/2020 05:30:00Z	 SAID34 WIJJ 240530	METAR WIJJ 240530Z 36005KT 9999 BKN014 28/23 Q1008 NOSIG=
24/12/2020 06:00:00Z	 SAID34 WIJJ 240600	METAR WIJJ 240600Z 35005KT 9999 BKN015 28/24 Q1008 NOSIG=
24/12/2020 06:30:00Z	 SAID34 WIJJ 240630	METAR COR WIJJ 240630Z 35003KT 9999 BKN015 28/24 Q1007 NOSIG=
24/12/2020 07:00:00Z	 SAID34 WIJJ 240700	METAR WIJJ 240700Z 00000KT 9999 BKN016 29/24 Q1006 NOSIG=
24/12/2020 07:30:00Z	 SAID34 WIJJ 240730	METAR WIJJ 240730Z 35002KT 9999 BKN016 29/24 Q1006 NOSIG=
24/12/2020 08:00:00Z	 SAID34 WIJJ 240800	METAR WIJJ 240800Z 04002KT 9999 SCT016 30/24 Q1005 NOSIG=
24/12/2020 08:30:00Z	 SAID34 WIJJ 240830	METAR WIJJ 240830Z 31003KT 300V010 9999 SCT016 30/24 Q1005 NOSIG=
24/12/2020 09:00:00Z	 SAID34 WIJJ 240900	METAR WIJJ 240900Z 22002KT 9999 SCT016 30/24 Q1005 NOSIG=
24/12/2020 09:30:00Z	 SAID34 WIJJ 240930	METAR WIJJ 240930Z 01004KT 9999 SCT016 30/24 Q1005 NOSIG=
24/12/2020 10:00:00Z	 SAID34 WIJJ 241000	METAR WIJJ 241000Z 04003KT 9999 SCT016 30/24 Q1005 NOSIG=
24/12/2020 10:30:00Z	 SAID34 WIJJ 241030	METAR WIJJ 241030Z 06005KT 9999 SCT016 29/24 Q1005 NOSIG=
24/12/2020 11:00:00Z	 SAID34 WIJJ 241100	METAR WIJJ 241100Z 02003KT 9999 SCT016 29/25 Q1006 NOSIG=
24/12/2020 11:30:00Z	 SAID34 WIJJ 241130	METAR WIJJ 241130Z 33003KT 9999 SCT016 29/24 Q1006 NOSIG=
24/12/2020 12:00:00Z	 SAID34 WIJJ 241200	METAR WIJJ 241200Z 36002KT 9999 BKN016 29/25 Q1007 NOSIG=
24/12/2020 12:30:00Z	 SAID34 WIJJ 241230	METAR WIJJ 241230Z 02004KT 9999 FEW015 27/24 Q1007 NOSIG=
24/12/2020 13:00:00Z	 SAID34 WIJJ 241300	METAR WIJJ 241300Z 04002KT 8000 SCT015 27/25 Q1007 NOSIG=
24/12/2020 13:30:00Z	 SAID34 WIJJ 241330	METAR WIJJ 241330Z 06003KT 9999 SCT015 27/25 Q1008 NOSIG=
24/12/2020 14:00:00Z	 SAID34 WIJJ 241400	METAR WIJJ 241400Z 08004KT 9999 FEW015 27/25 Q1008 NOSIG=
24/12/2020 14:30:00Z	 SAID34 WIJJ 241430	METAR WIJJ 241430Z 09003KT 9999 FEW015 27/25 Q1008 NOSIG=
24/12/2020 15:00:00Z	 SAID34 WIJJ 241500	METAR WIJJ 241500Z 05003KT 9999 SCT015 27/25 Q1008 NOSIG=
24/12/2020 15:30:00Z	 SAID34 WIJJ 241530	METAR WIJJ 241530Z 06003KT 030V090 9999 FEW015 26/25 Q1008 NOSIG=
24/12/2020 16:00:00Z	 SAID34 WIJJ 241600	METAR WIJJ 241600Z 07003KT 9999 SCT015 25/25 Q1009 NOSIG=
24/12/2020 18:00:00Z	 SAID34 WIJJ 241800	METAR WIJJ 241800Z 05002KT 9999 FEW015 26/25 Q1008 NOSIG=
24/12/2020 21:00:00Z	 SAID34 WIJJ 242100	METAR WIJJ 242100Z 00000KT 9999 SCT015 25/24 Q1007 NOSIG=
24/12/2020 22:00:00Z	 SAID34 WIJJ 242200	METAR WIJJ 242200Z 00000KT 9999 FEW015 25/24 Q1007 NOSIG=
24/12/2020 22:30:00Z	 SAID34 WIJJ 242230	METAR WIJJ 242230Z 00000KT 9999 FEW015 25/24 Q1007 NOSIG=
24/12/2020 23:30:00Z	 SAID34 WIJJ 242330	METAR WIJJ 242330Z 08002KT 9999 BKN020 24/24 Q1008 NOSIG=
25/12/2020 00:00:00Z	 SAID34 WIJJ 250000	METAR WIJJ 250000Z 10003KT 9999 FEW015 25/24 Q1008 NOSIG=
25/12/2020 00:30:00Z	 SAID34 WIJJ 250030	METAR WIJJ 250030Z 34002KT 9999 FEW016 27/24 Q1009 NOSIG=
25/12/2020 01:00:00Z	 SAID34 WIJJ 250100	METAR WIJJ 250100Z 01003KT 9999 FEW016 28/25 Q1009 NOSIG=
25/12/2020 01:30:00Z	 SAID34 WIJJ 250130	METAR WIJJ 250130Z 04004KT 9999 FEW016 29/25 Q1009 NOSIG=
25/12/2020 02:00:00Z	 SAID34 WIJJ 250200	METAR WIJJ 250200Z 02004KT 9999 SCT018 29/25 Q1009 NOSIG=
25/12/2020 02:30:00Z	 SAID34 WIJJ 250230	METAR WIJJ 250230Z 04004KT 9999 SCT018 29/25 Q1009 NOSIG=
25/12/2020 03:00:00Z	 SAID34 WIJJ 250300	METAR WIJJ 250300Z 36005KT 9999 SCT018 29/24 Q1009 NOSIG=
25/12/2020 04:00:00Z	 SAID34 WIJJ 250400	METAR WIJJ 250400Z 04004KT 9999 SCT018 31/25 Q1009 NOSIG=
25/12/2020 04:30:00Z	 SAID34 WIJJ 250430	METAR WIJJ 250430Z 32005KT 9999 SCT018 32/25 Q1009 NOSIG=
25/12/2020 05:00:00Z	 SAID34 WIJJ 250500	METAR WIJJ 250500Z 30004KT 9999 FEW018 32/24 Q1008 NOSIG=
25/12/2020 05:30:00Z	 SAID34 WIJJ 250530	METAR WIJJ 250530Z 04004KT 9999 FEW018 32/24 Q1007 NOSIG=
25/12/2020 06:00:00Z	 SAID34 WIJJ 250600	METAR WIJJ 250600Z 27005KT 9999 FEW015CB FEW016 33/23 Q1007 RMK CB TO E=
25/12/2020 06:30:00Z	 SAID34 WIJJ 250630	METAR WIJJ 250630Z 24002KT 9999 SCT015 32/23 Q1006 NOSIG=
25/12/2020 07:00:00Z	 SAID34 WIJJ 250700	METAR WIJJ 250700Z 31005KT 220V340 9999 FEW015CB SCT016 32/22 Q1006 NOSIG RMK CB TO SE=
25/12/2020 07:30:00Z	 SAID34 WIJJ 250730	METAR WIJJ 250730Z 32006KT 280V350 9999 FEW015CB SCT016 32/23 Q1005 NOSIG RMK CB TO NE=
25/12/2020 08:00:00Z	 SAID34 WIJJ 250800	METAR WIJJ 250800Z 33004KT 9999 FEW015CB SCT016 32/23 Q1006 NOSIG RMK CB TO NE=
25/12/2020 08:30:00Z	 SAID34 WIJJ 250830	METAR WIJJ 250830Z 05005KT 9999 SCT015 32/23 Q1006 NOSIG=
25/12/2020 09:00:00Z	 SAID34 WIJJ 250900	METAR WIJJ 250900Z 05005KT 9999 SCT015 32/24 Q1005 NOSIG=
25/12/2020 09:30:00Z	 SAID34 WIJJ 250930	METAR WIJJ 250930Z 07009KT 9999 SCT015 30/24 Q1006 NOSIG=
25/12/2020 10:00:00Z	 SAID34 WIJJ 251000	METAR WIJJ 251000Z 07008KT 9999 SCT015 29/24 Q1005 NOSIG=
25/12/2020 10:30:00Z	 SAID34 WIJJ 251030	METAR WIJJ 251030Z 06007KT 9999 FEW015 28/24 Q1006 NOSIG=
25/12/2020 11:00:00Z	 SAID34 WIJJ 251100	METAR WIJJ 251100Z 06005KT 030V090 9999 SCT015 29/24 Q1006 NOSIG=
25/12/2020 11:30:00Z	 SAID34 WIJJ 251130	METAR WIJJ 251130Z 05004KT 9999 SCT015 28/24 Q1007 NOSIG=
25/12/2020 12:00:00Z	 SAID34 WIJJ 251200	METAR WIJJ 251200Z 03004KT 9999 FEW015 28/24 Q1007 NOSIG=
25/12/2020 12:30:00Z	 SAID34 WIJJ 251230	METAR WIJJ 251230Z 04003KT 9999 FEW015 27/24 Q1007 NOSIG=
25/12/2020 13:00:00Z	 SAID34 WIJJ 251300	METAR WIJJ 251300Z 04005KT 9999 FEW015 27/24 Q1008 NOSIG=
25/12/2020 13:30:00Z	 SAID34 WIJJ 251330	METAR WIJJ 251330Z 05004KT 9999 SCT015 27/24 Q1008 NOSIG=
25/12/2020 14:00:00Z	 SAID34 WIJJ 251400	METAR WIJJ 251400Z 05002KT 9999 FEW015 26/24 Q1009 NOSIG=
25/12/2020 14:30:00Z	 SAID34 WIJJ 251430	METAR WIJJ 251430Z 05002KT 9999 FEW015 26/24 Q1009 NOSIG=
25/12/2020 15:00:00Z	 SAID34 WIJJ 251500	METAR WIJJ 251500Z 05003KT 9999 SCT015 27/24 Q1010 NOSIG=
25/12/2020 15:30:00Z	 SAID34 WIJJ 251530	METAR WIJJ 251530Z 00000KT 9999 FEW016 26/25 Q1009 NOSIG=
25/12/2020 16:00:00Z	 SAID34 WIJJ 251600	METAR WIJJ 251600Z 00000KT 9999 SCT015 26/25 Q1009 NOSIG=
25/12/2020 16:30:00Z	 SAID34 WIJJ 251630	METAR WIJJ 251630Z 10002KT 9999 FEW015 26/25 Q1010 NOSIG=
25/12/2020 17:00:00Z	 SAID34 WIJJ 251700	METAR WIJJ 251700Z 13002KT 9999 FEW015 26/25 Q1009 NOSIG=
25/12/2020 17:30:00Z	 SAID34 WIJJ 251730	METAR WIJJ 251730Z 00000KT 9999 FEW015 26/25 Q1009 NOSIG=
25/12/2020 18:00:00Z	 SAID34 WIJJ 251800	METAR WIJJ 251800Z 15002KT 9999 FEW015 25/25 Q1009 NOSIG=
25/12/2020 18:30:00Z	 SAID34 WIJJ 251830	METAR WIJJ 251830Z 17001KT 9999 FEW015 25/24 Q1008 NOSIG=
25/12/2020 19:00:00Z	 SAID34 WIJJ 251900	METAR WIJJ 251900Z 15002KT 9000 FEW015 25/24 Q1008 NOSIG=
25/12/2020 19:30:00Z	 SAID34 WIJJ 251930	METAR WIJJ 251930Z 14001KT 7000 FEW015 25/24 Q1008=
25/12/2020 20:00:00Z	 SAID34 WIJJ 252000	METAR WIJJ 252000Z 13003KT 8000 FEW015 25/24 Q1008=
25/12/2020 20:30:00Z	 SAID34 WIJJ 252030	METAR WIJJ 252030Z 13001KT 9999 FEW015 25/24 Q1007=
25/12/2020 21:00:00Z	 SAID34 WIJJ 252100	METAR WIJJ 252100Z 16003KT 9000 FEW015 25/24 Q1008 NOSIG=
25/12/2020 21:30:00Z	 SAID34 WIJJ 252130	METAR WIJJ 252130Z 18002KT 9999 SCT014 25/24 Q1008 NOSIG=
25/12/2020 22:00:00Z	 SAID34 WIJJ 252200	METAR WIJJ 252200Z 15002KT 9999 FEW014 25/24 Q1008 NOSIG=
25/12/2020 22:30:00Z	 SAID34 WIJJ 252230	METAR WIJJ 252230Z 14002KT 9999 FEW014 25/24 Q1008 NOSIG=
25/12/2020 23:00:00Z	 SAID34 WIJJ 252300	METAR WIJJ 252300Z 11002KT 6000 FEW014CB FEW015 25/24 Q1008 NOSIG RMK CB TO NW - NE=
25/12/2020 23:30:00Z	 SAID34 WIJJ 252330	METAR WIJJ 252330Z 14002KT 7000 SCT013 25/24 Q1008 NOSIG=
26/12/2020 00:00:00Z	 SAID34 WIJJ 260000	METAR WIJJ 260000Z 14021KT 7000 SCT014 25/24 Q1009 NOSIG=
26/12/2020 00:30:00Z	 SAID34 WIJJ 260030	METAR WIJJ 260030Z 13002KT 6000 SCT010 25/24 Q1010=
26/12/2020 01:00:00Z	 SAID34 WIJJ 260100	METAR WIJJ 260100Z 17002KT 9999 FEW015CB FEW016 26/25 Q1010 RMK CB TO N=
26/12/2020 01:30:00Z	 SAID34 WIJJ 260130	METAR WIJJ 260130Z 14003KT 9999 FEW015CB FEW016 27/25 Q1010 RMK CB TO N=
