01/09/2020 00:00:00Z	 SAID32 WIBB 010000	METAR WIBB 010000Z 00000KT 7000 SCT014 25/23 Q1008=
01/09/2020 00:30:00Z	 SAID32 WIBB 010030	METAR WIBB 010030Z 19006KT 7000 SCT014 26/23 Q1008=
01/09/2020 01:00:00Z	 SAID32 WIBB 010100	METAR WIBB 010100Z 18006KT 7000 FEW014 27/23 Q1008=
01/09/2020 01:30:00Z	 SAID32 WIBB 010130	METAR WIBB 010130Z 16009KT 8000 FEW014 28/24 Q1009=
01/09/2020 02:00:00Z	 SAID32 WIBB 010200	METAR WIBB 010200Z 17010KT 9999 FEW014 28/24 Q1009=
01/09/2020 02:30:00Z	 SAID32 WIBB 010230	METAR WIBB 010230Z 13012KT 9999 FEW015 29/24 Q1009=
01/09/2020 03:00:00Z	 SAID32 WIBB 010300	METAR WIBB 010300Z 18010KT 9999 SCT013 29/24 Q1009=
01/09/2020 03:30:00Z	 SAID32 WIBB 010330	METAR WIBB 010330Z 18010KT 9999 SCT013 30/23 Q1009=
01/09/2020 04:00:00Z	 SAID32 WIBB 010400	METAR WIBB 010400Z 18007G17KT 8000 SCT015 30/23 Q1008=
01/09/2020 04:30:00Z	 SAID32 WIBB 010430	METAR WIBB 010430Z 18010KT 9999 SCT015 30/23 Q1008=
01/09/2020 05:00:00Z	 SAID32 WIBB 010500	METAR WIBB 010500Z 20010KT 9999 SCT015 31/22 Q1008=
01/09/2020 05:30:00Z	 SAID32 WIBB 010530	METAR WIBB 010530Z 18010KT 9999 SCT015 31/22 Q1007=
01/09/2020 06:00:00Z	 SAID32 WIBB 010600	METAR WIBB 010600Z 18010KT 9999 SCT013 33/23 Q1007=
01/09/2020 06:30:00Z	 SAID32 WIBB 010630	METAR WIBB 010630Z 20010KT 9999 SCT015 33/22 Q1006=
01/09/2020 07:00:00Z	 SAID32 WIBB 010700	METAR WIBB 010700Z 16010KT 9999 SCT015 33/22 Q1005=
01/09/2020 07:30:00Z	 SAID32 WIBB 010730	METAR WIBB 010730Z 18010KT 9999 SCT015 33/22 Q1005=
01/09/2020 08:00:00Z	 SAID32 WIBB 010800	METAR WIBB 010800Z 16010KT 9999 SCT015 33/22 Q1004=
01/09/2020 08:30:00Z	 SAID32 WIBB 010830	METAR WIBB 010830Z 17008KT 9999 SCT015 33/22 Q1004=
01/09/2020 09:00:00Z	 SAID32 WIBB 010900	METAR WIBB 010900Z 16008KT 9999 SCT015 33/21 Q1004=
01/09/2020 09:30:00Z	 SAID32 WIBB 010930	METAR WIBB 010930Z 18008KT 9999 FEW013 33/21 Q1004=
01/09/2020 10:00:00Z	 SAID32 WIBB 011000	METAR WIBB 011000Z 17006KT CAVOK 32/21 Q1004=
01/09/2020 10:30:00Z	 SAID32 WIBB 011030	METAR WIBB 011030Z 18005KT CAVOK 32/22 Q1004=
01/09/2020 11:00:00Z	 SAID32 WIBB 011100	METAR WIBB 011100Z 00000KT 9000 NSC 31/22 Q1005=
01/09/2020 11:30:00Z	 SAID32 WIBB 011130	METAR WIBB 011130Z 00000KT 9000 NSC 30/23 Q1005=
01/09/2020 12:00:00Z	 SAID32 WIBB 011200	METAR WIBB 011200Z 00000KT 8000 NSC 29/23 Q1006=
01/09/2020 12:30:00Z	 SAID32 WIBB 011230	METAR WIBB 011230Z 00000KT 8000 NSC 29/23 Q1006=
01/09/2020 13:00:00Z	 SAID32 WIBB 011300	METAR WIBB 011300Z 00000KT 8000 SCT013 29/23 Q1006=
01/09/2020 13:30:00Z	 SAID32 WIBB 011330	METAR WIBB 011330Z 31006KT 8000 SCT013 28/24 Q1007=
01/09/2020 14:30:00Z	 SAID32 WIBB 011430	METAR WIBB 011430Z 32007KT 8000 FEW013 27/23 Q1008=
01/09/2020 23:00:00Z	 SAID32 WIBB 012300	METAR WIBB 012300Z 00000KT 7000 SCT010 25/23 Q1008=
01/09/2020 23:30:00Z	 SAID32 WIBB 012330	METAR WIBB 012330Z 00000KT 6000 -RA BKN010 25/23 Q1008=
02/09/2020 00:00:00Z	 SAID32 WIBB 020000	METAR WIBB 020000Z 00000KT 7000 -RA SCT010 25/23 Q1008=
02/09/2020 00:30:00Z	 SAID32 WIBB 020030	METAR WIBB 020030Z 00000KT 7000 SCT013 25/23 Q1008=
02/09/2020 01:00:00Z	 SAID32 WIBB 020100	METAR WIBB 020100Z 00000KT 5000 HZ SCT013 25/24 Q1009=
02/09/2020 01:30:00Z	 SAID32 WIBB 020130	METAR WIBB 020130Z 00000KT 5000 HZ SCT013 25/24 Q1009=
02/09/2020 02:00:00Z	 SAID32 WIBB 020200	METAR WIBB 020200Z 00000KT 5000 -RA SCT013 26/24 Q1009=
02/09/2020 02:30:00Z	 SAID32 WIBB 020230	METAR WIBB 020230Z 00000KT 5000 -RA SCT013 26/24 Q1009=
02/09/2020 03:00:00Z	 SAID32 WIBB 020300	METAR WIBB 020300Z 00000KT 7000 SCT013 27/24 Q1009=
02/09/2020 03:30:00Z	 SAID32 WIBB 020330	METAR WIBB 020330Z 00000KT 8000 SCT013 27/24 Q1009=
02/09/2020 04:00:00Z	 SAID32 WIBB 020400	METAR WIBB 020400Z 00000KT 9999 BKN012 27/24 Q1008=
02/09/2020 04:30:00Z	 SAID32 WIBB 020430	METAR WIBB 020430Z 00000KT 8000 BKN012 28/25 Q1008=
02/09/2020 05:00:00Z	 SAID32 WIBB 020500	METAR WIBB 020500Z 00000KT 8000 BKN012 29/25 Q1008=
02/09/2020 05:30:00Z	 SAID32 WIBB 020530	METAR WIBB 020530Z 20008KT 8000 BKN012 30/24 Q1007=
02/09/2020 06:00:00Z	 SAID32 WIBB 020600	METAR WIBB 020600Z 16007KT 8000 BKN010 30/24 Q1007=
02/09/2020 06:30:00Z	 SAID32 WIBB 020630	METAR WIBB 020630Z 22005KT 8000 BKN012 32/24 Q1006=
02/09/2020 07:00:00Z	 SAID32 WIBB 020700	METAR WIBB 020700Z 24008KT 8000 TS SCT012 FEW015CB 32/23 Q1006=
02/09/2020 07:30:00Z	 SAID32 WIBB 020730	METAR WIBB 020730Z 00000KT 8000 TS SCT012 FEW015CB 31/23 Q1005=
02/09/2020 08:00:00Z	 SAID32 WIBB 020800	METAR WIBB 020800Z 00000KT 8000 TS SCT012 FEW015CB 30/24 Q1005=
02/09/2020 08:30:00Z	 SAID32 WIBB 020830	METAR WIBB 020830Z 05009KT 7000 -TSRA SCT015CB 27/23 Q1005=
02/09/2020 09:00:00Z	 SAID32 WIBB 020900	METAR WIBB 020900Z 15010KT 3000 TSRA SCT014CB 26/24 Q1006=
02/09/2020 09:30:00Z	 SAID32 WIBB 020930	METAR WIBB 020930Z 14010KT 1000 TSRA BKN014CB 23/22 Q1007=
02/09/2020 10:00:00Z	 SAID32 WIBB 021000	METAR WIBB 021000Z 00000KT 4000 -TSRA BKN014CB 23/22 Q1007=
02/09/2020 10:30:00Z	 SAID32 WIBB 021030	METAR WIBB 021030Z 00000KT 5000 TSRA BKN014CB 23/22 Q1007=
02/09/2020 11:00:00Z	 SAID32 WIBB 021100	METAR WIBB 021100Z 00000KT 5000 -TSRA SCT012 FEW015CB 23/22 Q1006=
02/09/2020 11:30:00Z	 SAID32 WIBB 021130	METAR WIBB 021130Z 12005KT 6000 -RA SCT012 FEW015CB 23/23 Q1007=
02/09/2020 12:00:00Z	 SAID32 WIBB 021200	METAR WIBB 021200Z 00000KT 7000 -RA BKN012 24/23 Q1007=
02/09/2020 12:30:00Z	 SAID32 WIBB 021230	METAR WIBB 021230Z 00000KT 7000 -RA SCT012 24/23 Q1007=
02/09/2020 13:00:00Z	 SAID32 WIBB 021300	METAR WIBB 021300Z 13009KT 8000 SCT360 24/23 Q1008=
02/09/2020 13:30:00Z	 SAID32 WIBB 021330	METAR WIBB 021330Z 00000KT 8000 SCT012 24/23 Q1008=
02/09/2020 14:00:00Z	 SAID32 WIBB 021400	METAR WIBB 021400Z 00000KT 8000 SCT012 24/23 Q1009=
02/09/2020 14:30:00Z	 SAID32 WIBB 021430	METAR WIBB 021430Z 14005KT 8000 SCT012 24/23 Q1009=
02/09/2020 15:00:00Z	 SAID32 WIBB 021500	METAR WIBB 021500Z 16004KT 8000 SCT013 24/23 Q1009=
02/09/2020 15:30:00Z	 SAID32 WIBB 021530	METAR WIBB 021530Z 00000KT 8000 SCT013 24/23 Q1010=
02/09/2020 16:00:00Z	 SAID32 WIBB 021600	METAR WIBB 021600Z 00000KT 8000 SCT013 24/23 Q1010=
02/09/2020 16:30:00Z	 SAID32 WIBB 021630	METAR WIBB 021630Z 24041KT 8000 SCT013 24/23 Q1010=
02/09/2020 17:00:00Z	 SAID32 WIBB 021700	METAR WIBB 021700Z 00000KT 7000 SCT013 24/23 Q1010=
02/09/2020 17:30:00Z	 SAID32 WIBB 021730	METAR WIBB 021730Z 00000KT 7000 FEW013 24/23 Q1009=
02/09/2020 18:00:00Z	 SAID32 WIBB 021800	METAR WIBB 021800Z 00000KT 7000 SCT013 24/23 Q1009=
02/09/2020 21:00:00Z	 SAID32 WIBB 022100	METAR WIBB 022100Z 00000KT 7000 SCT013 23/23 Q1007=
02/09/2020 22:30:00Z	 SAID32 WIBB 022230	METAR WIBB 022230Z 00000KT 6000 SCT013 23/23 Q1008=
02/09/2020 23:00:00Z	 SAID32 WIBB 022300	METAR WIBB 022300Z 00000KT 4000 BR SCT013 23/23 Q1008=
02/09/2020 23:30:00Z	 SAID32 WIBB 022330	METAR WIBB 022330Z 00000KT 5000 BR FEW014 23/23 Q1008=
03/09/2020 00:00:00Z	 SAID32 WIBB 030000	METAR WIBB 030000Z 00000KT 5000 HZ FEW015 24/23 Q1009=
03/09/2020 00:30:00Z	 SAID32 WIBB 030030	METAR COR WIBB 030030Z 00000KT 6000 FEW015 24/23 Q1009=
03/09/2020 01:00:00Z	 SAID32 WIBB 030100	METAR WIBB 030100Z 00000KT 7000 FEW012 25/24 Q1009=
03/09/2020 01:30:00Z	 SAID32 WIBB 030130	METAR WIBB 030130Z 00000KT 8000 FEW012 27/23 Q1010=
03/09/2020 02:00:00Z	 SAID32 WIBB 030200	METAR WIBB 030200Z 00000KT 8000 FEW012 28/24 Q1010=
03/09/2020 02:30:00Z	 SAID32 WIBB 030230	METAR WIBB 030230Z 00000KT 8000 FEW015 28/23 Q1010=
03/09/2020 03:00:00Z	 SAID32 WIBB 030300	METAR WIBB 030300Z 00000KT 9000 SCT012 29/23 Q1010=
03/09/2020 03:30:00Z	 SAID32 WIBB 030330	METAR WIBB 030330Z 17006KT 9000 SCT012 29/24 Q1010=
03/09/2020 04:00:00Z	 SAID32 WIBB 030400	METAR WIBB 030400Z 16005KT 9000 SCT012 29/23 Q1010=
03/09/2020 04:30:00Z	 SAID32 WIBB 030430	METAR WIBB 030430Z 18007KT 9000 SCT012 29/24 Q1009=
03/09/2020 05:00:00Z	 SAID32 WIBB 030500	METAR WIBB 030500Z 14005KT 9000 SCT014 30/23 Q1009=
03/09/2020 05:30:00Z	 SAID32 WIBB 030530	METAR WIBB 030530Z 13005KT 9000 SCT013 30/23 Q1008=
03/09/2020 06:00:00Z	 SAID32 WIBB 030600	METAR WIBB 030600Z 00000KT 9000 SCT013 30/23 Q1007=
03/09/2020 06:30:00Z	 SAID32 WIBB 030630	METAR WIBB 030630Z 15005KT 9000 SCT013 31/24 Q1007=
03/09/2020 07:00:00Z	 SAID32 WIBB 030700	METAR WIBB 030700Z 00000KT 9000 SCT015 31/23 Q1006=
03/09/2020 07:30:00Z	 SAID32 WIBB 030730	METAR WIBB 030730Z 00000KT 9000 SCT015 31/23 Q1006=
03/09/2020 08:00:00Z	 SAID32 WIBB 030800	METAR WIBB 030800Z 00000KT 9000 SCT015 31/24 Q1005=
03/09/2020 08:30:00Z	 SAID32 WIBB 030830	METAR WIBB 030830Z 00000KT 9000 SCT015 31/24 Q1005=
03/09/2020 09:00:00Z	 SAID32 WIBB 030900	METAR WIBB 030900Z 00000KT 9000 SCT015 31/23 Q1005=
03/09/2020 09:30:00Z	 SAID32 WIBB 030930	METAR WIBB 030930Z 12005KT 9000 TS SCT017CB 30/23 Q1005=
03/09/2020 10:00:00Z	 SAID32 WIBB 031000	METAR WIBB 031000Z 12005KT 9000 SCT017CB 30/23 Q1005=
03/09/2020 10:30:00Z	 SAID32 WIBB 031030	METAR COR WIBB 031030Z 28004KT 9000 SCT017CB 30/24 Q1006=
03/09/2020 11:00:00Z	 SAID32 WIBB 031100	METAR WIBB 031100Z 00000KT 8000 SCT017CB 28/24 Q1006=
03/09/2020 11:30:00Z	 SAID32 WIBB 031130	METAR WIBB 031130Z 18006KT 8000 TS SCT017CB 28/24 Q1007=
03/09/2020 12:00:00Z	 SAID32 WIBB 031200	METAR WIBB 031200Z 21006KT 8000 SCT015CB 26/22 Q1007=
03/09/2020 12:30:00Z	 SAID32 WIBB 031230	METAR WIBB 031230Z 19005KT 8000 SCT015 26/23 Q1007=
03/09/2020 13:00:00Z	 SAID32 WIBB 031300	METAR WIBB 031300Z 00000KT 8000 FEW015CB 26/23 Q1008=
03/09/2020 13:30:00Z	 SAID32 WIBB 031330	METAR WIBB 031330Z 15006KT 8000 FEW015CB 26/24 Q1008=
03/09/2020 14:00:00Z	 SAID32 WIBB 031400	METAR WIBB 031400Z 15005KT 8000 SCT013 26/24 Q1009=
03/09/2020 14:30:00Z	 SAID32 WIBB 031430	METAR WIBB 031430Z 15005KT 8000 SCT013 26/24 Q1010=
03/09/2020 15:00:00Z	 SAID32 WIBB 031500	METAR WIBB 031500Z 15006KT 120V180 8000 SCT014 25/23 Q1010=
03/09/2020 15:30:00Z	 SAID32 WIBB 031530	METAR WIBB 031530Z 00000KT 9999 SCT014 25/23 Q1010=
03/09/2020 16:00:00Z	 SAID32 WIBB 031600	METAR WIBB 031600Z 16009KT 8000 SCT013 25/23 Q1011=
03/09/2020 16:30:00Z	 SAID32 WIBB 031630	METAR WIBB 031630Z 16008KT 8000 SCT013 25/23 Q1010=
03/09/2020 17:00:00Z	 SAID32 WIBB 031700	METAR WIBB 031700Z 18008KT 8000 SCT012 25/23 Q1010=
03/09/2020 17:30:00Z	 SAID32 WIBB 031730	METAR WIBB 031730Z 16006KT 8000 SCT012 24/23 Q1010=
03/09/2020 18:00:00Z	 SAID32 WIBB 031800	METAR WIBB 031800Z 16007KT 8000 SCT012 24/23 Q1010=
03/09/2020 21:00:00Z	 SAID32 WIBB 032100	METAR WIBB 032100Z 17006KT 8000 FEW013 24/23 Q1008=
03/09/2020 21:30:00Z	 SAID32 WIBB 032130	METAR WIBB 032130Z 16005KT 8000 FEW013 23/23 Q1008=
03/09/2020 22:00:00Z	 SAID32 WIBB 032200	METAR WIBB 032200Z 16005KT 8000 FEW013 23/23 Q1008=
03/09/2020 22:30:00Z	 SAID32 WIBB 032230	METAR WIBB 032230Z 16005KT 8000 FEW013 23/22 Q1008=
03/09/2020 23:00:00Z	 SAID32 WIBB 032300	METAR WIBB 032300Z 16005KT 8000 FEW015 23/22 Q1008=
03/09/2020 23:30:00Z	 SAID32 WIBB 032330	METAR WIBB 032330Z 16006KT 8000 FEW015 23/22 Q1008=
04/09/2020 00:00:00Z	 SAID32 WIBB 040000	METAR WIBB 040000Z 16009KT 8000 NSC 24/23 Q1009=
04/09/2020 00:30:00Z	 SAID32 WIBB 040030	METAR WIBB 040030Z 16006KT 8000 NSC 25/23 Q1009=
04/09/2020 01:00:00Z	 SAID32 WIBB 040100	METAR WIBB 040100Z 17008KT 9999 NSC 25/22 Q1010=
04/09/2020 01:30:00Z	 SAID32 WIBB 040130	METAR WIBB 040130Z 17006KT 8000 FEW013 27/23 Q1010=
04/09/2020 02:00:00Z	 SAID32 WIBB 040200	METAR WIBB 040200Z 16008KT 8000 FEW013 27/23 Q1010=
04/09/2020 02:30:00Z	 SAID32 WIBB 040230	METAR WIBB 040230Z 17009KT 8000 FEW013 29/23 Q1010=
04/09/2020 03:00:00Z	 SAID32 WIBB 040300	METAR WIBB 040300Z 17009KT 8000 FEW013 29/23 Q1010=
04/09/2020 03:30:00Z	 SAID32 WIBB 040330	METAR WIBB 040330Z 16008KT 8000 FEW013 30/23 Q1010=
04/09/2020 04:00:00Z	 SAID32 WIBB 040400	METAR WIBB 040400Z 16007KT 8000 SCT013 30/23 Q1009=
04/09/2020 04:30:00Z	 SAID32 WIBB 040430	METAR WIBB 040430Z 18008KT 8000 SCT013 31/23 Q1009=
04/09/2020 05:00:00Z	 SAID32 WIBB 040500	METAR WIBB 040500Z 19007KT 8000 SCT013 31/23 Q1008=
04/09/2020 05:30:00Z	 SAID32 WIBB 040530	METAR WIBB 040530Z 17008KT 8000 SCT013 31/23 Q1008=
04/09/2020 06:00:00Z	 SAID32 WIBB 040600	METAR WIBB 040600Z 17008KT 8000 BKN013 32/23 Q1007=
04/09/2020 06:30:00Z	 SAID32 WIBB 040630	METAR WIBB 040630Z 17007KT 8000 BKN013 31/22 Q1007=
04/09/2020 07:00:00Z	 SAID32 WIBB 040700	METAR WIBB 040700Z 14005KT 9000 SCT015 32/23 Q1006=
04/09/2020 07:30:00Z	 SAID32 WIBB 040730	METAR WIBB 040730Z 16005KT 9000 SCT015 32/22 Q1005=
04/09/2020 08:00:00Z	 SAID32 WIBB 040800	METAR WIBB 040800Z 19005KT 9000 SCT015 31/22 Q1005=
04/09/2020 08:30:00Z	 SAID32 WIBB 040830	METAR WIBB 040830Z 14005KT 9000 SCT015 32/22 Q1004=
04/09/2020 09:00:00Z	 SAID32 WIBB 040900	METAR WIBB 040900Z 14005KT 9000 SCT015 32/22 Q1004=
04/09/2020 09:30:00Z	 SAID32 WIBB 040930	METAR WIBB 040930Z 14005KT 9000 SCT017 32/22 Q1004=
04/09/2020 10:00:00Z	 SAID32 WIBB 041000	METAR WIBB 041000Z 00000KT 9000 SCT018CB 31/23 Q1004=
04/09/2020 10:30:00Z	 SAID32 WIBB 041030	METAR WIBB 041030Z 00000KT 9000 SCT018CB 30/23 Q1005=
04/09/2020 11:00:00Z	 SAID32 WIBB 041100	METAR WIBB 041100Z 00000KT 9000 SCT017CB 30/23 Q1005=
04/09/2020 11:30:00Z	 SAID32 WIBB 041130	METAR WIBB 041130Z 00000KT 8000 FEW017CB 30/23 Q1005=
04/09/2020 12:00:00Z	 SAID32 WIBB 041200	METAR WIBB 041200Z 34010KT 8000 SCT017CB 28/23 Q1006=
04/09/2020 12:30:00Z	 SAID32 WIBB 041230	METAR WIBB 041230Z 35010KT 8000 SCT017CB 27/23 Q1007=
04/09/2020 13:00:00Z	 SAID32 WIBB 041300	METAR WIBB 041300Z 35010KT 8000 SCT015CB 26/23 Q1007=
04/09/2020 13:30:00Z	 SAID32 WIBB 041330	METAR WIBB 041330Z 36010KT 8000 SCT013CB 26/22 Q1008=
04/09/2020 14:00:00Z	 SAID32 WIBB 041400	METAR WIBB 041400Z 36010KT 8000 SCT015CB 25/22 Q1008=
04/09/2020 14:30:00Z	 SAID32 WIBB 041430	METAR WIBB 041430Z 31005KT 3000 RA SCT015CB 25/23 Q1009=
04/09/2020 15:00:00Z	 SAID32 WIBB 041500	METAR WIBB 041500Z 29007KT 3000 RA SCT010 FEW015CB 24/23 Q1009=
04/09/2020 15:30:00Z	 SAID32 WIBB 041530	METAR WIBB 041530Z 29005KT 2000 RA BKN010 FEW015CB 24/23 Q1009=
04/09/2020 16:00:00Z	 SAID32 WIBB 041600	METAR WIBB 041600Z 33006KT 4000 RA BKN010 FEW015CB 23/23 Q1010=
04/09/2020 16:30:00Z	 SAID32 WIBB 041630	METAR WIBB 041630Z 30005KT 6000 -RA BKN010 23/23 Q1009=
04/09/2020 17:00:00Z	 SAID32 WIBB 041700	METAR WIBB 041700Z 00000KT 7000 BKN010 24/23 Q1009=
04/09/2020 18:00:00Z	 SAID32 WIBB 041800	METAR WIBB 041800Z 24007KT 7000 SCT010 23/23 Q1009=
04/09/2020 21:00:00Z	 SAID32 WIBB 042100	METAR WIBB 042100Z 19009KT 8000 BKN008 24/23 Q1010=
04/09/2020 21:30:00Z	 SAID32 WIBB 042130	METAR WIBB 042130Z 21009KT 8000 BKN008 23/22 Q1008=
04/09/2020 22:00:00Z	 SAID32 WIBB 042200	METAR WIBB 042200Z 00000KT 8000 SCT010 23/22 Q1007=
04/09/2020 22:30:00Z	 SAID32 WIBB 042230	METAR WIBB 042230Z 00000KT 8000 FEW010 23/22 Q1007=
04/09/2020 23:00:00Z	 SAID32 WIBB 042300	METAR WIBB 042300Z 00000KT 8000 FEW015 23/22 Q1008=
04/09/2020 23:30:00Z	 SAID32 WIBB 042330	METAR WIBB 042330Z 00000KT 8000 FEW015 23/22 Q1007=
05/09/2020 00:00:00Z	 SAID32 WIBB 050000	METAR WIBB 050000Z 00000KT 8000 FEW015 24/23 Q1008=
05/09/2020 00:30:00Z	 SAID32 WIBB 050030	METAR WIBB 050030Z 20006KT 8000 FEW015 25/23 Q1008=
05/09/2020 01:00:00Z	 SAID32 WIBB 050100	METAR WIBB 050100Z 18004KT CAVOK 26/22 Q1008=
05/09/2020 01:30:00Z	 SAID32 WIBB 050130	METAR WIBB 050130Z 19004KT CAVOK 27/23 Q1009=
05/09/2020 02:00:00Z	 SAID32 WIBB 050200	METAR WIBB 050200Z 16005KT CAVOK 27/23 Q1009=
05/09/2020 02:30:00Z	 SAID32 WIBB 050230	METAR WIBB 050230Z 19005KT CAVOK 27/23 Q1009=
05/09/2020 03:00:00Z	 SAID32 WIBB 050300	METAR WIBB 050300Z 19005KT CAVOK 28/23 Q1009=
05/09/2020 03:30:00Z	 SAID32 WIBB 050330	METAR WIBB 050330Z 18005KT CAVOK 28/23 Q1008=
05/09/2020 04:00:00Z	 SAID32 WIBB 050400	METAR WIBB 050400Z 00000KT CAVOK 29/24 Q1008=
05/09/2020 04:30:00Z	 SAID32 WIBB 050430	METAR WIBB 050430Z 16005KT CAVOK 29/23 Q1008=
05/09/2020 05:00:00Z	 SAID32 WIBB 050500	METAR WIBB 050500Z 00000KT CAVOK 29/23 Q1008=
05/09/2020 05:30:00Z	 SAID32 WIBB 050530	METAR WIBB 050530Z 18005KT CAVOK 29/23 Q1007=
05/09/2020 06:00:00Z	 SAID32 WIBB 050600	METAR WIBB 050600Z 13006KT 9999 SCT015 29/24 Q1007=
05/09/2020 06:30:00Z	 SAID32 WIBB 050630	METAR WIBB 050630Z 12006KT 9999 SCT015 29/24 Q1007=
05/09/2020 07:00:00Z	 SAID32 WIBB 050700	METAR WIBB 050700Z 08009KT 9999 SCT015 29/24 Q1006=
05/09/2020 07:30:00Z	 SAID32 WIBB 050730	METAR WIBB 050730Z 08007KT 9999 SCT015 29/24 Q1006=
05/09/2020 08:00:00Z	 SAID32 WIBB 050800	METAR WIBB 050800Z 07010KT 9999 FEW012 29/24 Q1005=
05/09/2020 08:30:00Z	 SAID32 WIBB 050830	METAR WIBB 050830Z 10009KT 8000 SCT013 29/24 Q1005=
05/09/2020 09:00:00Z	 SAID32 WIBB 050900	METAR WIBB 050900Z 13005KT 8000 SCT013 29/23 Q1005=
05/09/2020 09:30:00Z	 SAID32 WIBB 050930	METAR WIBB 050930Z 10006KT 8000 SCT013 29/24 Q1005=
05/09/2020 10:00:00Z	 SAID32 WIBB 051000	METAR WIBB 051000Z 11006KT 8000 SCT013 28/24 Q1006=
05/09/2020 10:30:00Z	 SAID32 WIBB 051030	METAR WIBB 051030Z 00000KT 8000 FEW013 28/25 Q1007=
05/09/2020 12:00:00Z	 SAID32 WIBB 051200	METAR WIBB 051200Z 15008KT 8000 FEW013 27/25 Q1007=
05/09/2020 12:30:00Z	 SAID32 WIBB 051230	METAR WIBB 051230Z 19020KT 4000 -RA SCT015CB 24/22 Q1009=
05/09/2020 13:00:00Z	 SAID32 WIBB 051300	METAR WIBB 051300Z 20012KT 5000 -RA SCT010 FEW015CB 23/22 Q1009=
05/09/2020 13:30:00Z	 SAID32 WIBB 051330	METAR WIBB 051330Z 21010KT 5000 -RA SCT010 23/22 Q1009=
05/09/2020 14:00:00Z	 SAID32 WIBB 051400	METAR WIBB 051400Z 21009KT 7000 SCT012 23/22 Q1008=
05/09/2020 14:30:00Z	 SAID32 WIBB 051430	METAR WIBB 051430Z 21007KT 7000 SCT013 23/22 Q1009=
05/09/2020 15:00:00Z	 SAID32 WIBB 051500	METAR WIBB 051500Z 20005KT 7000 SCT015 23/22 Q1008=
05/09/2020 15:30:00Z	 SAID32 WIBB 051530	METAR WIBB 051530Z 20004KT 8000 SCT015 23/22 Q1008=
05/09/2020 16:00:00Z	 SAID32 WIBB 051600	METAR WIBB 051600Z 00000KT 8000 FEW015 23/22 Q1008=
05/09/2020 16:30:00Z	 SAID32 WIBB 051630	METAR WIBB 051630Z 00000KT 8000 FEW015 23/22 Q1008=
05/09/2020 17:00:00Z	 SAID32 WIBB 051700	METAR WIBB 051700Z 00000KT 8000 FEW015 23/22 Q1008=
05/09/2020 18:00:00Z	 SAID32 WIBB 051800	METAR WIBB 051800Z 00000KT 8000 FEW015 23/22 Q1008=
05/09/2020 21:00:00Z	 SAID32 WIBB 052100	METAR WIBB 052100Z 00000KT 8000 SCT013 23/22 Q1006=
05/09/2020 21:30:00Z	 SAID32 WIBB 052130	METAR WIBB 052130Z 34001KT 8000 SCT013 23/22 Q1006=
05/09/2020 22:00:00Z	 SAID32 WIBB 052200	METAR WIBB 052200Z 00000KT 8000 SCT013 23/22 Q1006=
05/09/2020 22:30:00Z	 SAID32 WIBB 052230	METAR WIBB 052230Z 00000KT 8000 FEW013 23/22 Q1007=
05/09/2020 23:00:00Z	 SAID32 WIBB 052300	METAR WIBB 052300Z 00000KT 8000 SCT015 23/22 Q1007=
05/09/2020 23:30:00Z	 SAID32 WIBB 052330	METAR WIBB 052330Z 00000KT 7000 SCT013 23/22 Q1008=
06/09/2020 00:00:00Z	 SAID32 WIBB 060000	METAR WIBB 060000Z 00000KT 8000 SCT010 23/22 Q1008=
06/09/2020 00:30:00Z	 SAID32 WIBB 060030	METAR WIBB 060030Z 00000KT 7000 FEW013 24/23 Q1008=
06/09/2020 01:00:00Z	 SAID32 WIBB 060100	METAR WIBB 060100Z 00000KT 7000 NSC 24/22 Q1008=
06/09/2020 01:30:00Z	 SAID32 WIBB 060130	METAR WIBB 060130Z 00000KT 8000 NSC 24/22 Q1009=
06/09/2020 02:00:00Z	 SAID32 WIBB 060200	METAR WIBB 060200Z 00000KT 9000 NSC 25/22 Q1009=
06/09/2020 02:30:00Z	 SAID32 WIBB 060230	METAR WIBB 060230Z 00000KT 9000 NSC 26/23 Q1009=
06/09/2020 03:00:00Z	 SAID32 WIBB 060300	METAR WIBB 060300Z 00000KT 9000 NSC 27/22 Q1009=
06/09/2020 03:30:00Z	 SAID32 WIBB 060330	METAR WIBB 060330Z 00000KT 9000 NSC 28/23 Q1009=
06/09/2020 04:00:00Z	 SAID32 WIBB 060400	METAR WIBB 060400Z 00000KT 9999 NSC 29/22 Q1009=
06/09/2020 04:30:00Z	 SAID32 WIBB 060430	METAR WIBB 060430Z 17008KT 9000 NSC 30/23 Q1008=
06/09/2020 05:00:00Z	 SAID32 WIBB 060500	METAR WIBB 060500Z 18010KT 9999 FEW015 30/23 Q1008=
06/09/2020 05:30:00Z	 SAID32 WIBB 060530	METAR WIBB 060530Z 18010KT 9999 FEW015 31/22 Q1008=
06/09/2020 06:00:00Z	 SAID32 WIBB 060600	METAR WIBB 060600Z 18010KT 9999 SCT015 31/23 Q1007=
06/09/2020 06:30:00Z	 SAID32 WIBB 060630	METAR WIBB 060630Z 17007KT 9999 SCT015 32/22 Q1007=
06/09/2020 07:00:00Z	 SAID32 WIBB 060700	METAR WIBB 060700Z 17008KT 9999 FEW015 32/22 Q1006=
06/09/2020 07:30:00Z	 SAID32 WIBB 060730	METAR WIBB 060730Z 19008KT 9999 FEW015 32/22 Q1006=
06/09/2020 08:00:00Z	 SAID32 WIBB 060800	METAR WIBB 060800Z 19008KT 9999 FEW015 32/23 Q1005=
06/09/2020 08:30:00Z	 SAID32 WIBB 060830	METAR WIBB 060830Z 21005KT 9999 FEW015 32/22 Q1005=
06/09/2020 09:00:00Z	 SAID32 WIBB 060900	METAR WIBB 060900Z 17005KT 9999 FEW015 32/22 Q1005=
06/09/2020 09:30:00Z	 SAID32 WIBB 060930	METAR WIBB 060930Z 10006KT 9999 FEW015 32/22 Q1005=
06/09/2020 10:00:00Z	 SAID32 WIBB 061000	METAR WIBB 061000Z 19008KT 9999 FEW016 32/22 Q1005=
06/09/2020 10:30:00Z	 SAID32 WIBB 061030	METAR WIBB 061030Z 20005KT 9999 FEW016 31/23 Q1005=
06/09/2020 11:00:00Z	 SAID32 WIBB 061100	METAR WIBB 061100Z 18005KT 9000 FEW017 30/22 Q1006=
06/09/2020 11:30:00Z	 SAID32 WIBB 061130	METAR WIBB 061130Z 00000KT 9000 FEW017 30/21 Q1006=
06/09/2020 12:00:00Z	 SAID32 WIBB 061200	METAR WIBB 061200Z 00000KT 8000 TS FEW017CB 29/22 Q1007=
06/09/2020 12:30:00Z	 SAID32 WIBB 061230	METAR WIBB 061230Z 14008G25KT 8000 TS SCT015CB 26/21 Q1008=
06/09/2020 13:00:00Z	 SAID32 WIBB 061300	METAR WIBB 061300Z 20008KT 8000 SCT013 FEW016CB 24/22 Q1009=
06/09/2020 13:30:00Z	 SAID32 WIBB 061330	METAR WIBB 061330Z 00000KT 8000 SCT013 FEW016CB 24/23 Q1009=
06/09/2020 14:00:00Z	 SAID32 WIBB 061400	METAR WIBB 061400Z 00000KT 8000 SCT013 FEW016CB 25/23 Q1008=
06/09/2020 14:30:00Z	 SAID32 WIBB 061430	METAR WIBB 061430Z 00000KT 8000 SCT013 FEW016 25/23 Q1008=
06/09/2020 15:00:00Z	 SAID32 WIBB 061500	METAR WIBB 061500Z 00000KT 8000 FEW013 25/23 Q1008=
06/09/2020 15:30:00Z	 SAID32 WIBB 061530	METAR WIBB 061530Z 00000KT 8000 FEW013 25/23 Q1008=
06/09/2020 18:30:00Z	 SAID32 WIBB 061830	METAR WIBB 061830Z 00000KT 8000 SCT013 25/23 Q1008=
06/09/2020 19:00:00Z	 SAID32 WIBB 061900	METAR WIBB 061900Z 00000KT 8000 SCT013 25/23 Q1008=
06/09/2020 21:00:00Z	 SAID32 WIBB 062100	METAR WIBB 062100Z 00000KT 7000 FEW013 24/23 Q1008=
06/09/2020 21:30:00Z	 SAID32 WIBB 062130	METAR WIBB 062130Z 00000KT 7000 FEW013 24/23 Q1007=
06/09/2020 22:30:00Z	 SAID32 WIBB 062230	METAR WIBB 062230Z 00000KT 7000 FEW013 24/23 Q1008=
06/09/2020 23:00:00Z	 SAID32 WIBB 062300	METAR WIBB 062300Z 00000KT 7000 FEW013 24/23 Q1008=
06/09/2020 23:30:00Z	 SAID32 WIBB 062330	METAR WIBB 062330Z 00000KT 7000 FEW013 24/23 Q1008=
07/09/2020 00:00:00Z	 SAID32 WIBB 070000	METAR WIBB 070000Z 00000KT 7000 FEW013 24/23 Q1009=
07/09/2020 00:30:00Z	 SAID32 WIBB 070030	METAR WIBB 070030Z 00000KT 8000 FEW013 25/23 Q1009=
07/09/2020 01:00:00Z	 SAID32 WIBB 070100	METAR WIBB 070100Z 00000KT 9999 FEW013 26/23 Q1009=
07/09/2020 01:30:00Z	 SAID32 WIBB 070130	METAR WIBB 070130Z 00000KT 9999 FEW013 27/23 Q1010=
07/09/2020 02:00:00Z	 SAID32 WIBB 070200	METAR WIBB 070200Z 00000KT 9999 SCT010 28/23 Q1010=
07/09/2020 02:30:00Z	 SAID32 WIBB 070230	METAR WIBB 070230Z 00000KT 9999 SCT007 28/23 Q1009=
07/09/2020 03:00:00Z	 SAID32 WIBB 070300	METAR WIBB 070300Z 00000KT 9999 SCT008 29/23 Q1010=
07/09/2020 03:30:00Z	 SAID32 WIBB 070330	METAR WIBB 070330Z 14004KT 9999 SCT008 29/24 Q1009=
07/09/2020 04:00:00Z	 SAID32 WIBB 070400	METAR WIBB 070400Z 17006KT 9999 SCT010 30/23 Q1009=
07/09/2020 04:30:00Z	 SAID32 WIBB 070430	METAR WIBB 070430Z 16006KT 9999 SCT013 30/23 Q1009=
07/09/2020 05:00:00Z	 SAID32 WIBB 070500	METAR WIBB 070500Z 16005KT 9999 SCT013 31/22 Q1008=
07/09/2020 05:30:00Z	 SAID32 WIBB 070530	METAR WIBB 070530Z 14006KT 9999 SCT015 31/23 Q1008=
07/09/2020 06:00:00Z	 SAID32 WIBB 070600	METAR WIBB 070600Z 13006KT 9999 SCT013 32/22 Q1007=
07/09/2020 06:30:00Z	 SAID32 WIBB 070630	METAR WIBB 070630Z 14006KT 9999 SCT013 32/22 Q1007=
07/09/2020 07:00:00Z	 SAID32 WIBB 070700	METAR WIBB 070700Z 17009KT 9999 SCT013 32/22 Q1006=
07/09/2020 07:30:00Z	 SAID32 WIBB 070730	METAR WIBB 070730Z 19009KT 9999 SCT014 33/22 Q1006=
07/09/2020 08:00:00Z	 SAID32 WIBB 070800	METAR WIBB 070800Z 16008KT 9000 SCT014 33/21 Q1005=
07/09/2020 08:30:00Z	 SAID32 WIBB 070830	METAR WIBB 070830Z 17006KT 9000 SCT014 33/21 Q1005=
07/09/2020 09:00:00Z	 SAID32 WIBB 070900	METAR WIBB 070900Z 16009KT 9000 SCT013 FEW015CB 31/22 Q1006=
07/09/2020 09:30:00Z	 SAID32 WIBB 070930	METAR WIBB 070930Z 15008KT 8000 -RA SCT013 FEW015CB 28/22 Q1006=
07/09/2020 10:00:00Z	 SAID32 WIBB 071000	METAR WIBB 071000Z 12007KT 8000 SCT013 FEW015CB 27/21 Q1006=
07/09/2020 10:30:00Z	 SAID32 WIBB 071030	METAR WIBB 071030Z 11006KT 8000 SCT013 FEW015CB 27/22 Q1007=
07/09/2020 11:00:00Z	 SAID32 WIBB 071100	METAR WIBB 071100Z 08005KT 8000 SCT014 FEW016CB 27/22 Q1007=
07/09/2020 11:30:00Z	 SAID32 WIBB 071130	METAR WIBB 071130Z 09006KT 8000 SCT014 FEW016CB 27/22 Q1007=
07/09/2020 12:00:00Z	 SAID32 WIBB 071200	METAR WIBB 071200Z 05005KT 8000 SCT014 26/22 Q1008=
07/09/2020 12:30:00Z	 SAID32 WIBB 071230	METAR WIBB 071230Z 05005KT 8000 SCT014 26/22 Q1008=
07/09/2020 13:00:00Z	 SAID32 WIBB 071300	METAR WIBB 071300Z 00000KT 8000 SCT015 26/22 Q1008=
07/09/2020 13:30:00Z	 SAID32 WIBB 071330	METAR WIBB 071330Z 00000KT 8000 SCT015 26/22 Q1009=
07/09/2020 14:00:00Z	 SAID32 WIBB 071400	METAR WIBB 071400Z 00000KT 8000 SCT015 26/23 Q1009=
07/09/2020 14:30:00Z	 SAID32 WIBB 071430	METAR WIBB 071430Z 00000KT 8000 SCT015 26/22 Q1009=
07/09/2020 15:00:00Z	 SAID32 WIBB 071500	METAR WIBB 071500Z 00000KT 8000 FEW017 26/23 Q1009=
07/09/2020 15:30:00Z	 SAID32 WIBB 071530	METAR WIBB 071530Z 00000KT 8000 FEW017 26/23 Q1009=
07/09/2020 16:00:00Z	 SAID32 WIBB 071600	METAR WIBB 071600Z 00000KT 8000 FEW017 26/22 Q1009=
07/09/2020 16:30:00Z	 SAID32 WIBB 071630	METAR WIBB 071630Z 00000KT 8000 NSC 26/22 Q1009=
07/09/2020 17:00:00Z	 SAID32 WIBB 071700	METAR WIBB 071700Z 00000KT 8000 NSC 26/23 Q1009=
07/09/2020 18:00:00Z	 SAID32 WIBB 071800	METAR WIBB 071800Z 00000KT 8000 NSC 26/22 Q1009=
07/09/2020 21:00:00Z	 SAID32 WIBB 072100	METAR WIBB 072100Z 00000KT 7000 NSC 24/23 Q1008=
07/09/2020 22:00:00Z	 SAID32 WIBB 072200	METAR WIBB 072200Z 00000KT 7000 NSC 23/22 Q1009=
07/09/2020 23:00:00Z	 SAID32 WIBB 072300	METAR WIBB 072300Z 00000KT 5000 HZ NSC 23/23 Q1009=
07/09/2020 23:30:00Z	 SAID32 WIBB 072330	METAR WIBB 072330Z 00000KT 5000 HZ NSC 24/23 Q1009=
08/09/2020 00:00:00Z	 SAID32 WIBB 080000	METAR WIBB 080000Z 00000KT 5000 HZ NSC 24/23 Q1010=
08/09/2020 00:30:00Z	 SAID32 WIBB 080030	METAR WIBB 080030Z 00000KT 5000 HZ NSC 25/23 Q1010=
08/09/2020 01:00:00Z	 SAID32 WIBB 080100	METAR WIBB 080100Z 00000KT 6000 NSC 27/23 Q1010=
08/09/2020 01:30:00Z	 SAID32 WIBB 080130	METAR WIBB 080130Z 16005KT 8000 NSC 27/23 Q1010=
08/09/2020 02:00:00Z	 SAID32 WIBB 080200	METAR WIBB 080200Z 16008KT 9000 FEW013 28/23 Q1010=
08/09/2020 02:30:00Z	 SAID32 WIBB 080230	METAR WIBB 080230Z 16008KT 9000 FEW013 29/23 Q1010=
08/09/2020 03:00:00Z	 SAID32 WIBB 080300	METAR WIBB 080300Z 16007KT 9000 FEW013 29/23 Q1010=
08/09/2020 03:30:00Z	 SAID32 WIBB 080330	METAR WIBB 080330Z 15009KT 9000 FEW013 30/23 Q1010=
08/09/2020 04:00:00Z	 SAID32 WIBB 080400	METAR WIBB 080400Z 16010KT 9999 SCT013 30/23 Q1010=
08/09/2020 04:30:00Z	 SAID32 WIBB 080430	METAR WIBB 080430Z 19009KT 9000 SCT001 31/22 Q1009=
08/09/2020 05:00:00Z	 SAID32 WIBB 080500	METAR WIBB 080500Z 18007KT 9999 SCT013 31/23 Q1009=
08/09/2020 05:30:00Z	 SAID32 WIBB 080530	METAR WIBB 080530Z 17010KT 9999 SCT013 32/23 Q1009=
08/09/2020 06:00:00Z	 SAID32 WIBB 080600	METAR WIBB 080600Z 18011KT 9999 SCT013 31/21 Q1008=
08/09/2020 06:30:00Z	 SAID32 WIBB 080630	METAR WIBB 080630Z 18009KT 9999 SCT013 31/21 Q1008=
08/09/2020 07:00:00Z	 SAID32 WIBB 080700	METAR WIBB 080700Z 18010KT 9999 SCT013 33/21 Q1007=
08/09/2020 07:30:00Z	 SAID32 WIBB 080730	METAR WIBB 080730Z 17009KT 9999 SCT014 32/21 Q1007=
08/09/2020 08:00:00Z	 SAID32 WIBB 080800	METAR WIBB 080800Z 16012KT 9000 SCT014 33/21 Q1006=
08/09/2020 08:30:00Z	 SAID32 WIBB 080830	METAR WIBB 080830Z 17010KT 9000 SCT014 32/21 Q1006=
08/09/2020 09:00:00Z	 SAID32 WIBB 080900	METAR WIBB 080900Z 18010KT 9000 SCT014 32/22 Q1006=
08/09/2020 09:30:00Z	 SAID32 WIBB 080930	METAR WIBB 080930Z 16007KT 9000 SCT014 31/22 Q1006=
08/09/2020 10:00:00Z	 SAID32 WIBB 081000	METAR WIBB 081000Z 20006KT 9000 FEW015 30/22 Q1006=
08/09/2020 10:30:00Z	 SAID32 WIBB 081030	METAR WIBB 081030Z 18004KT 8000 FEW015 30/22 Q1006=
08/09/2020 11:00:00Z	 SAID32 WIBB 081100	METAR WIBB 081100Z 20004KT 8000 NSC 29/23 Q1006=
08/09/2020 11:30:00Z	 SAID32 WIBB 081130	METAR WIBB 081130Z 00000KT 8000 NSC 29/23 Q1007=
08/09/2020 12:00:00Z	 SAID32 WIBB 081200	METAR WIBB 081200Z 08005KT 7000 NSC 29/23 Q1007=
08/09/2020 12:30:00Z	 SAID32 WIBB 081230	METAR WIBB 081230Z 08007KT 7000 FEW015 28/23 Q1008=
08/09/2020 13:00:00Z	 SAID32 WIBB 081300	METAR WIBB 081300Z 07006KT 7000 SCT014 27/23 Q1008=
08/09/2020 13:30:00Z	 SAID32 WIBB 081330	METAR WIBB 081330Z 07006KT 040V110 7000 SCT014 27/23 Q1008=
08/09/2020 14:00:00Z	 SAID32 WIBB 081400	METAR WIBB 081400Z 08008KT 7000 SCT014 27/23 Q1009=
08/09/2020 14:30:00Z	 SAID32 WIBB 081430	METAR WIBB 081430Z 07005KT 7000 SCT014 26/23 Q1009=
08/09/2020 15:00:00Z	 SAID32 WIBB 081500	METAR WIBB 081500Z 09006KT 7000 SCT014 26/23 Q1009=
08/09/2020 15:30:00Z	 SAID32 WIBB 081530	METAR WIBB 081530Z 13005KT 7000 SCT014 26/23 Q1009=
08/09/2020 16:00:00Z	 SAID32 WIBB 081600	METAR WIBB 081600Z 11004KT 7000 SCT014 26/23 Q1009=
08/09/2020 16:30:00Z	 SAID32 WIBB 081630	METAR WIBB 081630Z 11005KT 7000 SCT014 26/23 Q1009=
08/09/2020 17:00:00Z	 SAID32 WIBB 081700	METAR WIBB 081700Z 00000KT 7000 SCT014 26/23 Q1009=
08/09/2020 18:00:00Z	 SAID32 WIBB 081800	METAR WIBB 081800Z 00000KT 7000 SCT014 26/23 Q1009=
08/09/2020 21:00:00Z	 SAID32 WIBB 082100	METAR WIBB 082100Z 17005KT 7000 SCT133 25/24 Q1008=
08/09/2020 22:00:00Z	 SAID32 WIBB 082200	METAR WIBB 082200Z 17005KT 7000 SCT014 25/24 Q1008=
08/09/2020 22:30:00Z	 SAID32 WIBB 082230	METAR WIBB 082230Z 17005KT 7000 SCT014 25/24 Q1008=
08/09/2020 23:00:00Z	 SAID32 WIBB 082300	METAR WIBB 082300Z 18004KT 7000 SCT014 25/24 Q1008=
08/09/2020 23:30:00Z	 SAID32 WIBB 082330	METAR WIBB 082330Z 17007KT 7000 FEW014 25/24 Q1009=
09/09/2020 00:00:00Z	 SAID32 WIBB 090000	METAR WIBB 090000Z 18005KT 7000 SCT014 25/23 Q1009=
09/09/2020 00:30:00Z	 SAID32 WIBB 090030	METAR WIBB 090030Z 18006KT 7000 SCT014 25/23 Q1009=
09/09/2020 01:00:00Z	 SAID32 WIBB 090100	METAR WIBB 090100Z 18005KT 8000 FEW013 27/23 Q1010=
09/09/2020 01:30:00Z	 SAID32 WIBB 090130	METAR WIBB 090130Z 20007KT 8000 FEW013 27/23 Q1010=
09/09/2020 02:00:00Z	 SAID32 WIBB 090200	METAR WIBB 090200Z 19009KT 8000 FEW013 29/24 Q1010=
09/09/2020 02:30:00Z	 SAID32 WIBB 090230	METAR WIBB 090230Z 18009KT 8000 SCT013 29/23 Q1010=
09/09/2020 03:00:00Z	 SAID32 WIBB 090300	METAR WIBB 090300Z 18009KT 8000 SCT013 29/23 Q1010=
09/09/2020 03:30:00Z	 SAID32 WIBB 090330	METAR WIBB 090330Z 17009KT 8000 SCT013 29/23 Q1010=
09/09/2020 04:00:00Z	 SAID32 WIBB 090400	METAR WIBB 090400Z 17007KT 8000 BKN013 30/23 Q1010=
09/09/2020 04:30:00Z	 SAID32 WIBB 090430	METAR WIBB 090430Z 20006KT 8000 BKN013 29/23 Q1009=
09/09/2020 05:00:00Z	 SAID32 WIBB 090500	METAR WIBB 090500Z 20006KT 8000 BKN013 30/23 Q1009=
09/09/2020 05:30:00Z	 SAID32 WIBB 090530	METAR WIBB 090530Z 17007KT 8000 BKN013 31/23 Q1008=
09/09/2020 06:00:00Z	 SAID32 WIBB 090600	METAR WIBB 090600Z 20010KT 8000 BKN013 30/24 Q1007=
09/09/2020 06:30:00Z	 SAID32 WIBB 090630	METAR WIBB 090630Z 20006KT 9000 SCT013 31/23 Q1007=
09/09/2020 07:00:00Z	 SAID32 WIBB 090700	METAR WIBB 090700Z 20006KT 9000 SCT013 32/23 Q1005=
09/09/2020 07:30:00Z	 SAID32 WIBB 090730	METAR WIBB 090730Z 23007KT 9000 SCT013 32/24 Q1005=
09/09/2020 08:00:00Z	 SAID32 WIBB 090800	METAR WIBB 090800Z 19009KT 9000 BKN013 31/23 Q1005=
09/09/2020 08:30:00Z	 SAID32 WIBB 090830	METAR WIBB 090830Z 18008KT 9000 BKN013 31/23 Q1005=
09/09/2020 09:00:00Z	 SAID32 WIBB 090900	METAR WIBB 090900Z 16005KT 8000 SCT013 32/23 Q1004=
09/09/2020 09:30:00Z	 SAID32 WIBB 090930	METAR WIBB 090930Z 18006KT 8000 SCT013 32/23 Q1004=
09/09/2020 10:00:00Z	 SAID32 WIBB 091000	METAR WIBB 091000Z 18007KT 8000 FEW013 31/23 Q1004=
09/09/2020 10:30:00Z	 SAID32 WIBB 091030	METAR WIBB 091030Z 19007KT 8000 FEW013 30/23 Q1004=
09/09/2020 11:00:00Z	 SAID32 WIBB 091100	METAR WIBB 091100Z 00000KT 8000 FEW014 30/23 Q1005=
09/09/2020 11:30:00Z	 SAID32 WIBB 091130	METAR WIBB 091130Z 00000KT 8000 FEW014 30/23 Q1005=
09/09/2020 12:00:00Z	 SAID32 WIBB 091200	METAR WIBB 091200Z 00000KT 8000 TS FEW016CB 29/24 Q1006=
09/09/2020 12:30:00Z	 SAID32 WIBB 091230	METAR WIBB 091230Z 00000KT 7000 TS FEW016CB 29/24 Q1006=
09/09/2020 13:00:00Z	 SAID32 WIBB 091300	METAR WIBB 091300Z 00000KT 7000 TS FEW016CB 28/24 Q1006=
09/09/2020 13:30:00Z	 SAID32 WIBB 091330	METAR WIBB 091330Z 36005KT 7000 TS SCT013 FEW016CB 28/24 Q1007=
09/09/2020 14:00:00Z	 SAID32 WIBB 091400	METAR WIBB 091400Z 35006KT 7000 TS FEW016CB 27/24 Q1007=
09/09/2020 14:30:00Z	 SAID32 WIBB 091430	METAR WIBB 091430Z 34010KT 7000 SCT010 FEW016CB 26/24 Q1008=
09/09/2020 15:00:00Z	 SAID32 WIBB 091500	METAR WIBB 091500Z 02011KT 7000 TS SCT010 FEW015CB 25/24 Q1008=
09/09/2020 18:00:00Z	 SAID32 WIBB 091800	METAR WIBB 091800Z 01005KT 7000 SCT010 25/24 Q1008=
09/09/2020 21:00:00Z	 SAID32 WIBB 092100	METAR WIBB 092100Z 18006KT 7000 SCT010 24/23 Q1007=
09/09/2020 22:00:00Z	 SAID32 WIBB 092200	METAR WIBB 092200Z 00000KT 7000 SCT010 23/23 Q1007=
09/09/2020 22:30:00Z	 SAID32 WIBB 092230	METAR WIBB 092230Z 15007KT 7000 SCT009 23/22 Q1007=
09/09/2020 23:00:00Z	 SAID32 WIBB 092300	METAR WIBB 092300Z 17007KT 7000 SCT009 23/22 Q1007=
09/09/2020 23:30:00Z	 SAID32 WIBB 092330	METAR WIBB 092330Z 18007KT 7000 -RA SCT009 23/22 Q1007=
10/09/2020 00:00:00Z	 SAID32 WIBB 100000	METAR WIBB 100000Z 16006KT 4000 -RA SCT007 23/22 Q1008=
10/09/2020 00:30:00Z	 SAID32 WIBB 100030	METAR WIBB 100030Z 16005KT 5000 -RA SCT006 23/22 Q1008=
10/09/2020 01:00:00Z	 SAID32 WIBB 100100	METAR WIBB 100100Z 00000KT 7000 -RA SCT007 23/23 Q1008=
10/09/2020 01:30:00Z	 SAID32 WIBB 100130	METAR WIBB 100130Z 15004KT 5000 -RA SCT007 23/23 Q1009=
10/09/2020 02:00:00Z	 SAID32 WIBB 100200	METAR WIBB 100200Z 00000KT 8000 -RA SCT007 24/23 Q1009=
10/09/2020 02:30:00Z	 SAID32 WIBB 100230	METAR WIBB 100230Z 00000KT 7000 -RA SCT007 24/23 Q1009=
10/09/2020 03:00:00Z	 SAID32 WIBB 100300	METAR WIBB 100300Z 00000KT 7000 -RA SCT007 24/23 Q1009=
10/09/2020 03:30:00Z	 SAID32 WIBB 100330	METAR WIBB 100330Z 00000KT 8000 -RA SCT007 24/23 Q1009=
10/09/2020 04:00:00Z	 SAID32 WIBB 100400	METAR WIBB 100400Z 00000KT 8000 -RA BKN007 25/23 Q1009=
10/09/2020 04:30:00Z	 SAID32 WIBB 100430	METAR WIBB 100430Z 00000KT 8000 -RA SCT007 25/24 Q1008=
10/09/2020 05:00:00Z	 SAID32 WIBB 100500	METAR WIBB 100500Z 00000KT 8000 -RA SCT007 25/23 Q1008=
10/09/2020 05:30:00Z	 SAID32 WIBB 100530	METAR WIBB 100530Z 00000KT 8000 -RA SCT008 26/24 Q1008=
10/09/2020 06:00:00Z	 SAID32 WIBB 100600	METAR WIBB 100600Z 00000KT 8000 -RA SCT009 26/24 Q1007=
10/09/2020 06:30:00Z	 SAID32 WIBB 100630	METAR WIBB 100630Z 00000KT 8000 -RA SCT009 27/24 Q1006=
10/09/2020 07:00:00Z	 SAID32 WIBB 100700	METAR WIBB 100700Z 00000KT 8000 BKN010 27/24 Q1006=
10/09/2020 07:30:00Z	 SAID32 WIBB 100730	METAR WIBB 100730Z 19006KT 8000 SCT010 28/24 Q1005=
10/09/2020 08:00:00Z	 SAID32 WIBB 100800	METAR WIBB 100800Z 19005KT 8000 SCT010 30/24 Q1004=
10/09/2020 08:30:00Z	 SAID32 WIBB 100830	METAR WIBB 100830Z 20006KT 8000 SCT010 30/23 Q1004=
10/09/2020 09:00:00Z	 SAID32 WIBB 100900	METAR WIBB 100900Z 21006KT 8000 BKN012 30/23 Q1004=
10/09/2020 09:30:00Z	 SAID32 WIBB 100930	METAR WIBB 100930Z 18006KT 8000 SCT012 29/23 Q1004=
10/09/2020 10:30:00Z	 SAID32 WIBB 101030	METAR WIBB 101030Z 00000KT 8000 SCT013 29/23 Q1005=
10/09/2020 11:00:00Z	 SAID32 WIBB 101100	METAR WIBB 101100Z 00000KT 8000 SCT013 28/23 Q1006=
10/09/2020 11:30:00Z	 SAID32 WIBB 101130	METAR WIBB 101130Z 00000KT 8000 SCT013 28/23 Q1006=
10/09/2020 12:00:00Z	 SAID32 WIBB 101200	METAR WIBB 101200Z 00000KT 8000 SCT013 27/23 Q1006=
10/09/2020 12:30:00Z	 SAID32 WIBB 101230	METAR WIBB 101230Z 00000KT 8000 SCT013 27/23 Q1006=
10/09/2020 13:00:00Z	 SAID32 WIBB 101300	METAR WIBB 101300Z 00000KT 7000 FEW014 27/23 Q1007=
10/09/2020 13:30:00Z	 SAID32 WIBB 101330	METAR WIBB 101330Z 00000KT 7000 FEW014 27/24 Q1007=
10/09/2020 14:00:00Z	 SAID32 WIBB 101400	METAR WIBB 101400Z 00000KT 7000 FEW015 26/24 Q1007=
10/09/2020 14:30:00Z	 SAID32 WIBB 101430	METAR WIBB 101430Z 00000KT 7000 FEW015 26/24 Q1008=
10/09/2020 15:00:00Z	 SAID32 WIBB 101500	METAR WIBB 101500Z 00000KT 7000 FEW015 26/24 Q1008=
10/09/2020 15:30:00Z	 SAID32 WIBB 101530	METAR WIBB 101530Z 00000KT 7000 SCT015 26/24 Q1008=
10/09/2020 16:00:00Z	 SAID32 WIBB 101600	METAR WIBB 101600Z 14005KT 7000 SCT015 26/24 Q1008=
10/09/2020 17:00:00Z	 SAID32 WIBB 101700	METAR WIBB 101700Z 15005KT 7000 FEW015 25/24 Q1008=
10/09/2020 18:00:00Z	 SAID32 WIBB 101800	METAR WIBB 101800Z 16005KT 7000 FEW015 25/23 Q1007=
10/09/2020 21:00:00Z	 SAID32 WIBB 102100	METAR WIBB 102100Z 00000KT 7000 FEW015 24/22 Q1006=
10/09/2020 22:00:00Z	 SAID32 WIBB 102200	METAR WIBB 102200Z 00000KT 7000 FEW015 24/22 Q1007=
10/09/2020 22:30:00Z	 SAID32 WIBB 102230	METAR WIBB 102230Z 14004KT 7000 FEW015 23/22 Q1007=
10/09/2020 23:00:00Z	 SAID32 WIBB 102300	METAR WIBB 102300Z 10004KT 6000 FEW015 23/22 Q1007=
10/09/2020 23:30:00Z	 SAID32 WIBB 102330	METAR WIBB 102330Z 00000KT 7000 NSC 23/22 Q1008=
11/09/2020 00:00:00Z	 SAID32 WIBB 110000	METAR WIBB 110000Z 00000KT 7000 NSC 24/22 Q1008=
11/09/2020 00:30:00Z	 SAID32 WIBB 110030	METAR WIBB 110030Z 00000KT 7000 NSC 24/22 Q1009=
11/09/2020 01:00:00Z	 SAID32 WIBB 110100	METAR WIBB 110100Z 22005KT 8000 NSC 25/23 Q1009=
11/09/2020 01:30:00Z	 SAID32 WIBB 110130	METAR WIBB 110130Z 20005KT 8000 NSC 26/23 Q1009=
11/09/2020 02:00:00Z	 SAID32 WIBB 110200	METAR WIBB 110200Z 17006KT 9999 FEW015 27/23 Q1009=
11/09/2020 02:30:00Z	 SAID32 WIBB 110230	METAR WIBB 110230Z 20005KT 9999 FEW015 28/24 Q1009=
11/09/2020 03:00:00Z	 SAID32 WIBB 110300	METAR WIBB 110300Z 20006KT 9999 BKN015 28/24 Q1009=
11/09/2020 03:30:00Z	 SAID32 WIBB 110330	METAR WIBB 110330Z 14005KT 9999 BKN015 29/23 Q1009=
11/09/2020 04:00:00Z	 SAID32 WIBB 110400	METAR WIBB 110400Z 24005KT 9999 BKN015 29/23 Q1008=
11/09/2020 04:30:00Z	 SAID32 WIBB 110430	METAR WIBB 110430Z 00000KT 9999 BKN015 30/23 Q1008=
11/09/2020 05:00:00Z	 SAID32 WIBB 110500	METAR WIBB 110500Z 00000KT 9999 SCT015 30/22 Q1007=
11/09/2020 05:30:00Z	 SAID32 WIBB 110530	METAR WIBB 110530Z 00000KT 9999 SCT015 31/22 Q1007=
11/09/2020 06:00:00Z	 SAID32 WIBB 110600	METAR WIBB 110600Z 00000KT 9999 BKN015 31/21 Q1007=
11/09/2020 06:30:00Z	 SAID32 WIBB 110630	METAR WIBB 110630Z 00000KT 9999 BKN015 32/22 Q1006=
11/09/2020 07:00:00Z	 SAID32 WIBB 110700	METAR WIBB 110700Z 00000KT 9999 BKN015 32/22 Q1006=
11/09/2020 07:30:00Z	 SAID32 WIBB 110730	METAR WIBB 110730Z 00000KT 9999 BKN015 31/22 Q1005=
11/09/2020 08:00:00Z	 SAID32 WIBB 110800	METAR WIBB 110800Z 36006KT 9999 SCT015 31/23 Q1005=
11/09/2020 08:30:00Z	 SAID32 WIBB 110830	METAR WIBB 110830Z 02005KT 9999 SCT015 32/22 Q1004=
11/09/2020 09:00:00Z	 SAID32 WIBB 110900	METAR WIBB 110900Z 00000KT 9999 FEW015 32/22 Q1004=
11/09/2020 09:30:00Z	 SAID32 WIBB 110930	METAR WIBB 110930Z 03005KT 9999 SCT017 32/23 Q1004=
11/09/2020 10:00:00Z	 SAID32 WIBB 111000	METAR WIBB 111000Z 03005KT 9999 SCT017CB 31/23 Q1005=
11/09/2020 10:30:00Z	 SAID32 WIBB 111030	METAR WIBB 111030Z 05008KT 8000 TS BKN012CB 26/23 Q1006=
11/09/2020 11:00:00Z	 SAID32 WIBB 111100	METAR WIBB 111100Z 31010KT 8000 TS BKN015CB 25/22 Q1006=
11/09/2020 11:30:00Z	 SAID32 WIBB 111130	METAR WIBB 111130Z 26008KT 8000 SCT015CB 26/23 Q1007=
11/09/2020 12:00:00Z	 SAID32 WIBB 111200	METAR WIBB 111200Z 34007KT 8000 TS SCT015CB 25/24 Q1008=
11/09/2020 12:30:00Z	 SAID32 WIBB 111230	METAR WIBB 111230Z 32009KT 8000 -TSRA SCT015CB 24/24 Q1008=
11/09/2020 13:00:00Z	 SAID32 WIBB 111300	METAR WIBB 111300Z 30006KT 2000 R18/P2000R R36/P2000 TSRA SCT010 FEW015CB 24/24 Q1010=
11/09/2020 13:30:00Z	 SAID32 WIBB 111330	METAR WIBB 111330Z 32006KT 2500 -TSRA SCT010 FEW015CB 24/24 Q1010=
11/09/2020 15:30:00Z	 SAID32 WIBB 111530	METAR WIBB 111530Z 00000KT 6000 -RA SCT010 FEW015CB 24/24 Q1010=
11/09/2020 22:00:00Z	 SAID32 WIBB 112200	METAR WIBB 112200Z 00000KT 7000 SCT010 24/24 Q1009=
11/09/2020 23:00:00Z	 SAID32 WIBB 112300	METAR WIBB 112300Z 00000KT 7000 SCT007 24/24 Q1009=
11/09/2020 23:30:00Z	 SAID32 WIBB 112330	METAR WIBB 112330Z 00000KT 7000 FEW010 24/23 Q1010=
12/09/2020 00:00:00Z	 SAID32 WIBB 120000	METAR WIBB 120000Z 00000KT 7000 FEW010 24/23 Q1010=
12/09/2020 00:30:00Z	 SAID32 WIBB 120030	METAR WIBB 120030Z 00000KT 8000 FEW010 24/23 Q1010=
12/09/2020 01:00:00Z	 SAID32 WIBB 120100	METAR WIBB 120100Z 00000KT 8000 FEW010 26/23 Q1010=
12/09/2020 01:30:00Z	 SAID32 WIBB 120130	METAR WIBB 120130Z 28006KT 8000 FEW010 27/24 Q1011=
12/09/2020 02:00:00Z	 SAID32 WIBB 120200	METAR WIBB 120200Z 28005KT 9999 FEW012 28/23 Q1011=
12/09/2020 02:30:00Z	 SAID32 WIBB 120230	METAR WIBB 120230Z 21007KT 9999 FEW012 28/23 Q1011=
12/09/2020 03:00:00Z	 SAID32 WIBB 120300	METAR WIBB 120300Z 19005KT 9999 FEW013 29/23 Q1011=
12/09/2020 03:30:00Z	 SAID32 WIBB 120330	METAR WIBB 120330Z 18007KT 9999 FEW013 30/23 Q1011=
12/09/2020 04:00:00Z	 SAID32 WIBB 120400	METAR WIBB 120400Z 20008KT 9999 SCT013 31/23 Q1010=
12/09/2020 04:30:00Z	 SAID32 WIBB 120430	METAR WIBB 120430Z 16011KT 9999 SCT013 31/24 Q1010=
12/09/2020 05:00:00Z	 SAID32 WIBB 120500	METAR WIBB 120500Z 22006KT 9999 BKN010 31/24 Q1010=
12/09/2020 05:30:00Z	 SAID32 WIBB 120530	METAR WIBB 120530Z 18009KT 9999 BKN010 32/23 Q1009=
12/09/2020 06:00:00Z	 SAID32 WIBB 120600	METAR WIBB 120600Z 19006KT 9999 SCT012 32/22 Q1008=
12/09/2020 06:30:00Z	 SAID32 WIBB 120630	METAR WIBB 120630Z 19009KT 9999 SCT012 33/22 Q1008=
12/09/2020 07:00:00Z	 SAID32 WIBB 120700	METAR WIBB 120700Z 17006KT 9999 SCT012 33/22 Q1007=
12/09/2020 07:30:00Z	 SAID32 WIBB 120730	METAR WIBB 120730Z 07005KT 8000 -RA SCT012 27/24 Q1007=
12/09/2020 08:00:00Z	 SAID32 WIBB 120800	METAR WIBB 120800Z 00000KT 8000 SCT013 28/25 Q1007=
12/09/2020 08:30:00Z	 SAID32 WIBB 120830	METAR WIBB 120830Z 00000KT 8000 SCT013 30/25 Q1006=
12/09/2020 09:00:00Z	 SAID32 WIBB 120900	METAR WIBB 120900Z 00000KT 8000 SCT013 30/25 Q1006=
12/09/2020 09:30:00Z	 SAID32 WIBB 120930	METAR WIBB 120930Z 00000KT 8000 SCT013 30/25 Q1006=
12/09/2020 10:00:00Z	 SAID32 WIBB 121000	METAR WIBB 121000Z 00000KT 8000 SCT013 30/24 Q1007=
12/09/2020 10:30:00Z	 SAID32 WIBB 121030	METAR WIBB 121030Z 00000KT 8000 FEW014 30/25 Q1007=
12/09/2020 11:00:00Z	 SAID32 WIBB 121100	METAR WIBB 121100Z 00000KT 8000 FEW014 29/25 Q1007=
12/09/2020 11:30:00Z	 SAID32 WIBB 121130	METAR WIBB 121130Z 00000KT 8000 FEW014 29/25 Q1007=
12/09/2020 12:00:00Z	 SAID32 WIBB 121200	METAR WIBB 121200Z 00000KT 8000 FEW014 28/25 Q1008=
