01/04/2021 00:00:00Z	 SAID32 WIBB 010000	METAR WIBB 010000Z 36005KT 8000 SCT016 25/21 Q1005=
01/04/2021 00:30:00Z	 SAID32 WIBB 010030	METAR WIBB 010030Z 00000KT 8000 SCT016 25/21 Q1006=
01/04/2021 01:00:00Z	 SAID32 WIBB 010100	METAR WIBB 010100Z 00000KT 9000 SCT016 26/21 Q1006=
01/04/2021 01:30:00Z	 SAID32 WIBB 010130	METAR WIBB 010130Z 00000KT 9000 FEW017 26/21 Q1007=
01/04/2021 02:00:00Z	 SAID32 WIBB 010200	METAR WIBB 010200Z 33006KT 9000 NSC 27/21 Q1007=
01/04/2021 02:30:00Z	 SAID32 WIBB 010230	METAR WIBB 010230Z 33006KT 9000 NSC 28/20 Q1007=
01/04/2021 03:00:00Z	 SAID32 WIBB 010300	METAR WIBB 010300Z 32006KT 9000 NSC 29/20 Q1007=
01/04/2021 03:30:00Z	 SAID32 WIBB 010330	METAR WIBB 010330Z 32005KT 9000 NSC 29/20 Q1007=
01/04/2021 04:00:00Z	 SAID32 WIBB 010400	METAR WIBB 010400Z 31006KT 9000 NSC 30/20 Q1007=
01/04/2021 04:30:00Z	 SAID32 WIBB 010430	METAR WIBB 010430Z 33010KT 9000 NSC 32/20 Q1006=
01/04/2021 05:00:00Z	 SAID32 WIBB 010500	METAR WIBB 010500Z 31010KT 9000 NSC 32/20 Q1006=
01/04/2021 05:30:00Z	 SAID32 WIBB 010530	METAR WIBB 010530Z 32008KT 9000 NSC 32/20 Q1006=
01/04/2021 06:00:00Z	 SAID32 WIBB 010600	METAR WIBB 010600Z 31008KT 9000 NSC 31/20 Q1006=
01/04/2021 06:30:00Z	 SAID32 WIBB 010630	METAR WIBB 010630Z 32008KT 9000 NSC 32/20 Q1005=
01/04/2021 07:00:00Z	 SAID32 WIBB 010700	METAR WIBB 010700Z 29009KT 9000 NSC 32/21 Q1004=
01/04/2021 07:30:00Z	 SAID32 WIBB 010730	METAR WIBB 010730Z 30009KT 9000 NSC 32/20 Q1004=
01/04/2021 08:00:00Z	 SAID32 WIBB 010800	METAR WIBB 010800Z 30010KT 9000 NSC 32/19 Q1004=
01/04/2021 08:30:00Z	 SAID32 WIBB 010830	METAR WIBB 010830Z 30008KT 9000 NSC 32/20 Q1004=
01/04/2021 09:00:00Z	 SAID32 WIBB 010900	METAR WIBB 010900Z 31005KT 9000 NSC 31/21 Q1003=
01/04/2021 09:30:00Z	 SAID32 WIBB 010930	METAR WIBB 010930Z 31007KT 9000 NSC 31/21 Q1003=
01/04/2021 10:00:00Z	 SAID32 WIBB 011000	METAR WIBB 011000Z 33009KT 9000 NSC 30/22 Q1003=
01/04/2021 10:30:00Z	 SAID32 WIBB 011030	METAR WIBB 011030Z 34005KT 9000 NSC 30/21 Q1003=
01/04/2021 11:00:00Z	 SAID32 WIBB 011100	METAR WIBB 011100Z 34006KT 8000 FEW014 29/22 Q1004=
01/04/2021 11:30:00Z	 SAID32 WIBB 011130	METAR WIBB 011130Z 00000KT 8000 FEW014 29/22 Q1004=
01/04/2021 12:00:00Z	 SAID32 WIBB 011200	METAR WIBB 011200Z 00000KT 8000 FEW014 28/22 Q1004=
01/04/2021 12:30:00Z	 SAID32 WIBB 011230	METAR WIBB 011230Z 00000KT 8000 FEW014 28/23 Q1004=
01/04/2021 13:00:00Z	 SAID32 WIBB 011300	METAR WIBB 011300Z 00000KT 8000 SCT013 29/23 Q1005=
01/04/2021 13:30:00Z	 SAID32 WIBB 011330	METAR WIBB 011330Z 00000KT 8000 SCT013 28/23 Q1005=
01/04/2021 14:00:00Z	 SAID32 WIBB 011400	METAR WIBB 011400Z 00000KT 8000 SCT013 27/24 Q1005=
01/04/2021 14:30:00Z	 SAID32 WIBB 011430	METAR WIBB 011430Z 00000KT 8000 SCT013 26/23 Q1005=
01/04/2021 15:00:00Z	 SAID32 WIBB 011500	METAR WIBB 011500Z 00000KT 8000 SCT013 26/23 Q1006=
01/04/2021 15:30:00Z	 SAID32 WIBB 011530	METAR WIBB 011530Z 00000KT 8000 SCT013 26/24 Q1006=
01/04/2021 17:00:00Z	 SAID32 WIBB 011700	METAR WIBB 011700Z 00000KT 8000 SCT013 26/24 Q1006=
01/04/2021 22:30:00Z	 SAID32 WIBB 012230	METAR WIBB 012230Z 00000KT 7000 SCT013 25/22 Q1005=
01/04/2021 23:00:00Z	 SAID32 WIBB 012300	METAR WIBB 012300Z 00000KT 7000 FEW013 25/22 Q1005=
01/04/2021 23:30:00Z	 SAID32 WIBB 012330	METAR WIBB 012330Z 00000KT 8000 SCT013 25/21 Q1006=
02/04/2021 00:00:00Z	 SAID32 WIBB 020000	METAR WIBB 020000Z 00000KT 8000 FEW013 26/21 Q1006=
02/04/2021 00:30:00Z	 SAID32 WIBB 020030	METAR WIBB 020030Z 33007KT 8000 FEW013 26/21 Q1006=
02/04/2021 01:00:00Z	 SAID32 WIBB 020100	METAR WIBB 020100Z 32007KT 8000 FEW015 28/21 Q1007=
02/04/2021 01:30:00Z	 SAID32 WIBB 020130	METAR WIBB 020130Z 32008KT 8000 FEW015 29/21 Q1007=
02/04/2021 02:00:00Z	 SAID32 WIBB 020200	METAR WIBB 020200Z 31013KT 9999 FEW015 30/21 Q1007=
02/04/2021 02:30:00Z	 SAID32 WIBB 020230	METAR WIBB 020230Z 32010KT 9999 FEW015 31/22 Q1007=
02/04/2021 03:00:00Z	 SAID32 WIBB 020300	METAR WIBB 020300Z 33011KT 9999 FEW015 31/21 Q1007=
02/04/2021 03:30:00Z	 SAID32 WIBB 020330	METAR WIBB 020330Z 32011KT 9999 FEW015 32/21 Q1007=
02/04/2021 04:00:00Z	 SAID32 WIBB 020400	METAR WIBB 020400Z 32007KT 9999 FEW015 32/21 Q1007=
02/04/2021 04:30:00Z	 SAID32 WIBB 020430	METAR WIBB 020430Z 31013KT 9999 FEW015 32/21 Q1007=
02/04/2021 05:00:00Z	 SAID32 WIBB 020500	METAR WIBB 020500Z 34013KT 9999 FEW015 33/20 Q1006=
02/04/2021 05:30:00Z	 SAID32 WIBB 020530	METAR WIBB 020530Z 34010KT 9999 FEW015 34/22 Q1006=
02/04/2021 06:00:00Z	 SAID32 WIBB 020600	METAR WIBB 020600Z 31013KT 9999 FEW015 33/21 Q1006=
02/04/2021 06:30:00Z	 SAID32 WIBB 020630	METAR WIBB 020630Z 32011KT 9999 SCT015 33/21 Q1005=
02/04/2021 07:00:00Z	 SAID32 WIBB 020700	METAR WIBB 020700Z 32010KT 9999 SCT013 34/21 Q1005=
02/04/2021 07:30:00Z	 SAID32 WIBB 020730	METAR WIBB 020730Z 31010KT 9999 SCT013 34/21 Q1004=
02/04/2021 08:00:00Z	 SAID32 WIBB 020800	METAR WIBB 020800Z 33008KT 9999 FEW013 33/21 Q1004=
02/04/2021 08:30:00Z	 SAID32 WIBB 020830	METAR WIBB 020830Z 32010KT 9999 FEW013 33/20 Q1004=
02/04/2021 09:00:00Z	 SAID32 WIBB 020900	METAR WIBB 020900Z 31010KT 8000 -RA SCT015CB 33/20 Q1003=
02/04/2021 09:30:00Z	 SAID32 WIBB 020930	METAR WIBB 020930Z 31008KT 9000 FEW017CB 31/21 Q1003=
02/04/2021 10:00:00Z	 SAID32 WIBB 021000	METAR WIBB 021000Z 33012KT 9000 FEW017CB 31/22 Q1004=
02/04/2021 10:30:00Z	 SAID32 WIBB 021030	METAR WIBB 021030Z 32010KT 9000 FEW017 30/21 Q1004=
02/04/2021 11:00:00Z	 SAID32 WIBB 021100	METAR WIBB 021100Z 31012KT 9000 FEW017 30/20 Q1005=
02/04/2021 11:30:00Z	 SAID32 WIBB 021130	METAR WIBB 021130Z 31012KT 9000 SCT017 29/20 Q1005=
02/04/2021 12:00:00Z	 SAID32 WIBB 021200	METAR WIBB 021200Z 33012KT 8000 FEW017 28/20 Q1006=
02/04/2021 12:30:00Z	 SAID32 WIBB 021230	METAR WIBB 021230Z 33010KT 8000 FEW017 27/20 Q1006=
02/04/2021 13:00:00Z	 SAID32 WIBB 021300	METAR WIBB 021300Z 34008KT 8000 FEW017 27/20 Q1006=
02/04/2021 13:30:00Z	 SAID32 WIBB 021330	METAR WIBB 021330Z 35006KT 8000 FEW017 26/21 Q1006=
02/04/2021 14:00:00Z	 SAID32 WIBB 021400	METAR WIBB 021400Z 34006KT 8000 FEW017 26/21 Q1006=
02/04/2021 14:30:00Z	 SAID32 WIBB 021430	METAR WIBB 021430Z 34006KT 8000 FEW017 26/21 Q1006=
02/04/2021 15:00:00Z	 SAID32 WIBB 021500	METAR WIBB 021500Z 34006KT 8000 FEW016 26/21 Q1007=
02/04/2021 15:30:00Z	 SAID32 WIBB 021530	METAR WIBB 021530Z 30007KT 8000 FEW016 26/21 Q1007=
02/04/2021 16:00:00Z	 SAID32 WIBB 021600	METAR WIBB 021600Z 32005KT 8000 FEW016 26/21 Q1007=
02/04/2021 16:30:00Z	 SAID32 WIBB 021630	METAR WIBB 021630Z 34008KT 250V360 8000 FEW016 26/21 Q1007=
02/04/2021 17:00:00Z	 SAID32 WIBB 021700	METAR WIBB 021700Z 33005KT 8000 FEW016 25/21 Q1006=
02/04/2021 17:30:00Z	 SAID32 WIBB 021730	METAR WIBB 021730Z 32005KT 8000 FEW016 25/21 Q1006=
02/04/2021 18:30:00Z	 SAID32 WIBB 021830	METAR WIBB 021830Z 34006KT 8000 FEW017 25/21 Q1005=
02/04/2021 21:00:00Z	 SAID32 WIBB 022100	METAR WIBB 022100Z 34006KT 8000 FEW017 25/21 Q1005=
02/04/2021 21:30:00Z	 SAID32 WIBB 022130	METAR WIBB 022130Z 32005KT 8000 FEW017 25/20 Q1005=
02/04/2021 22:00:00Z	 SAID32 WIBB 022200	METAR WIBB 022200Z 34005KT 8000 FEW017 25/20 Q1005=
02/04/2021 22:30:00Z	 SAID32 WIBB 022230	METAR WIBB 022230Z 00000KT 8000 FEW017 24/20 Q1005=
02/04/2021 23:00:00Z	 SAID32 WIBB 022300	METAR WIBB 022300Z 00000KT 8000 FEW017 24/21 Q1006=
02/04/2021 23:30:00Z	 SAID32 WIBB 022330	METAR WIBB 022330Z 00000KT 8000 FEW018 24/21 Q1006=
03/04/2021 00:00:00Z	 SAID32 WIBB 030000	METAR WIBB 030000Z 00000KT 8000 NSC 25/21 Q1007=
03/04/2021 00:30:00Z	 SAID32 WIBB 030030	METAR WIBB 030030Z 00000KT 8000 NSC 25/22 Q1007=
03/04/2021 01:00:00Z	 SAID32 WIBB 030100	METAR WIBB 030100Z 00000KT 6000 FEW015 26/22 Q1008=
03/04/2021 01:30:00Z	 SAID32 WIBB 030130	METAR WIBB 030130Z 00000KT 6000 FEW015 27/21 Q1008=
03/04/2021 02:00:00Z	 SAID32 WIBB 030200	METAR WIBB 030200Z 00000KT 9999 FEW015 29/21 Q1008=
03/04/2021 02:30:00Z	 SAID32 WIBB 030230	METAR WIBB 030230Z 31006KT 9999 FEW015 29/23 Q1009=
03/04/2021 03:00:00Z	 SAID32 WIBB 030300	METAR WIBB 030300Z 32007KT 9999 SCT015 30/23 Q1009=
03/04/2021 03:30:00Z	 SAID32 WIBB 030330	METAR WIBB 030330Z 34006KT 9999 SCT015 30/24 Q1008=
03/04/2021 04:00:00Z	 SAID32 WIBB 030400	METAR WIBB 030400Z 36010KT 9999 SCT015 30/24 Q1008=
03/04/2021 04:30:00Z	 SAID32 WIBB 030430	METAR WIBB 030430Z 33007KT 9999 SCT015 31/21 Q1008=
03/04/2021 05:00:00Z	 SAID32 WIBB 030500	METAR WIBB 030500Z 32010KT 9999 SCT015 32/21 Q1007=
03/04/2021 05:30:00Z	 SAID32 WIBB 030530	METAR WIBB 030530Z 31009KT 9999 SCT015 31/21 Q1007=
03/04/2021 06:00:00Z	 SAID32 WIBB 030600	METAR WIBB 030600Z 28010KT 9999 SCT015 31/21 Q1007=
03/04/2021 06:30:00Z	 SAID32 WIBB 030630	METAR WIBB 030630Z 34009KT 9999 SCT015 32/21 Q1006=
03/04/2021 07:00:00Z	 SAID32 WIBB 030700	METAR WIBB 030700Z 32008KT 9999 TS SCT015 FEW017CB 33/21 Q1005 RMK CB TO N=
03/04/2021 07:30:00Z	 SAID32 WIBB 030730	METAR WIBB 030730Z 04007KT 9999 SCT015 30/24 Q1004 RETS=
03/04/2021 08:00:00Z	 SAID32 WIBB 030800	METAR WIBB 030800Z 06006KT 9999 FEW014 28/24 Q1004=
03/04/2021 08:30:00Z	 SAID32 WIBB 030830	METAR WIBB 030830Z 05005KT 9999 FEW014 29/24 Q1004=
03/04/2021 09:00:00Z	 SAID32 WIBB 030900	METAR WIBB 030900Z 05005KT 9999 FEW014 30/23 Q1004=
03/04/2021 09:30:00Z	 SAID32 WIBB 030930	METAR WIBB 030930Z 05006KT 9999 FEW014 30/23 Q1004=
03/04/2021 10:00:00Z	 SAID32 WIBB 031000	METAR WIBB 031000Z 06005KT 9000 FEW014 30/23 Q1004=
03/04/2021 10:30:00Z	 SAID32 WIBB 031030	METAR WIBB 031030Z 02004KT 9000 FEW014 30/23 Q1004=
03/04/2021 11:00:00Z	 SAID32 WIBB 031100	METAR WIBB 031100Z 05005KT 9000 FEW014 30/24 Q1004=
03/04/2021 11:30:00Z	 SAID32 WIBB 031130	METAR WIBB 031130Z 00000KT 8000 FEW014 29/24 Q1004=
03/04/2021 12:00:00Z	 SAID32 WIBB 031200	METAR WIBB 031200Z 00000KT 8000 FEW017CB 29/24 Q1004 RMK CB TO NW=
03/04/2021 12:30:00Z	 SAID32 WIBB 031230	METAR WIBB 031230Z 05005KT 8000 TS FEW017CB 29/24 Q1005=
03/04/2021 13:00:00Z	 SAID32 WIBB 031300	METAR WIBB 031300Z 00000KT 8000 FEW017CB 28/24 Q1006=
03/04/2021 13:30:00Z	 SAID32 WIBB 031330	METAR WIBB 031330Z 26011G19KT 8000 TS SCT015CB 27/24 Q1007=
03/04/2021 14:00:00Z	 SAID32 WIBB 031400	METAR WIBB 031400Z 29005KT 3000 TSRA BKN009CB 23/22 Q1008=
03/04/2021 14:30:00Z	 SAID32 WIBB 031430	METAR WIBB 031430Z 01005KT 4000 -TSRA BKN009CB 24/23 Q1008=
03/04/2021 15:00:00Z	 SAID32 WIBB 031500	METAR WIBB 031500Z 00000KT 5000 -TSRA SCT010 FEW015CB 24/23 Q1008=
03/04/2021 15:30:00Z	 SAID32 WIBB 031530	METAR WIBB 031530Z 00000KT 7000 -RA SCT010 24/23 Q1008=
03/04/2021 16:00:00Z	 SAID32 WIBB 031600	METAR WIBB 031600Z 00000KT 8000 FEW013 24/23 Q1008=
03/04/2021 16:30:00Z	 SAID32 WIBB 031630	METAR WIBB 031630Z 00000KT 8000 FEW013 24/23 Q1008=
03/04/2021 17:00:00Z	 SAID32 WIBB 031700	METAR WIBB 031700Z 00000KT 8000 FEW014 24/23 Q1008=
03/04/2021 17:30:00Z	 SAID32 WIBB 031730	METAR WIBB 031730Z 00000KT 8000 FEW015 24/23 Q1007=
03/04/2021 18:00:00Z	 SAID32 WIBB 031800	METAR WIBB 031800Z 00000KT 8000 FEW015 24/23 Q1007=
03/04/2021 21:00:00Z	 SAID32 WIBB 032100	METAR WIBB 032100Z 00000KT 7000 FEW012 24/23 Q1006=
03/04/2021 22:00:00Z	 SAID32 WIBB 032200	METAR WIBB 032200Z 00000KT 7000 FEW012 24/23 Q1006=
03/04/2021 23:00:00Z	 SAID32 WIBB 032300	METAR WIBB 032300Z 00000KT 8000 SCT015 24/23 Q1007=
03/04/2021 23:30:00Z	 SAID32 WIBB 032330	METAR WIBB 032330Z 00000KT 9000 NSC 24/23 Q1007=
04/04/2021 00:00:00Z	 SAID32 WIBB 040000	METAR WIBB 040000Z 00000KT 9000 NSC 24/23 Q1007=
04/04/2021 00:30:00Z	 SAID32 WIBB 040030	METAR WIBB 040030Z 00000KT 9000 NSC 25/23 Q1008=
04/04/2021 01:00:00Z	 SAID32 WIBB 040100	METAR WIBB 040100Z 00000KT 9000 NSC 25/21 Q1008=
04/04/2021 01:30:00Z	 SAID32 WIBB 040130	METAR WIBB 040130Z 32007KT 9000 NSC 26/21 Q1008=
04/04/2021 02:00:00Z	 SAID32 WIBB 040200	METAR WIBB 040200Z 33008KT 9000 NSC 27/21 Q1008=
04/04/2021 02:30:00Z	 SAID32 WIBB 040230	METAR WIBB 040230Z 33006KT 9000 NSC 28/21 Q1008=
04/04/2021 03:00:00Z	 SAID32 WIBB 040300	METAR WIBB 040300Z 31006KT 9000 NSC 29/21 Q1008=
04/04/2021 03:30:00Z	 SAID32 WIBB 040330	METAR WIBB 040330Z 34008KT 9999 NSC 30/21 Q1008=
04/04/2021 04:00:00Z	 SAID32 WIBB 040400	METAR WIBB 040400Z 32009KT 9999 FEW015 30/19 Q1008=
04/04/2021 04:30:00Z	 SAID32 WIBB 040430	METAR WIBB 040430Z 32007KT 9999 FEW015 31/20 Q1007=
04/04/2021 05:00:00Z	 SAID32 WIBB 040500	METAR WIBB 040500Z 32011KT 9999 FEW015 32/19 Q1007=
04/04/2021 05:30:00Z	 SAID32 WIBB 040530	METAR WIBB 040530Z 33013KT 9999 FEW015 32/18 Q1007=
04/04/2021 06:00:00Z	 SAID32 WIBB 040600	METAR WIBB 040600Z 32012KT 9999 FEW015 31/19 Q1006=
04/04/2021 06:30:00Z	 SAID32 WIBB 040630	METAR WIBB 040630Z 32008KT 9999 FEW015 32/20 Q1006=
04/04/2021 07:00:00Z	 SAID32 WIBB 040700	METAR WIBB 040700Z 31013KT 9999 FEW015 33/20 Q1005=
04/04/2021 07:30:00Z	 SAID32 WIBB 040730	METAR WIBB 040730Z 32010KT 9999 FEW015 32/20 Q1005=
04/04/2021 08:00:00Z	 SAID32 WIBB 040800	METAR WIBB 040800Z 33010KT 9999 FEW016 32/21 Q1004=
04/04/2021 08:30:00Z	 SAID32 WIBB 040830	METAR WIBB 040830Z 31008KT 9999 FEW016 32/21 Q1004=
04/04/2021 09:00:00Z	 SAID32 WIBB 040900	METAR WIBB 040900Z 33012KT 9999 FEW016 32/21 Q1004=
04/04/2021 09:30:00Z	 SAID32 WIBB 040930	METAR WIBB 040930Z 31007KT 9999 FEW016 31/21 Q1004=
04/04/2021 10:00:00Z	 SAID32 WIBB 041000	METAR WIBB 041000Z 32005KT 9999 FEW016 31/21 Q1004=
04/04/2021 10:30:00Z	 SAID32 WIBB 041030	METAR WIBB 041030Z 33007KT 9999 FEW016 30/22 Q1005=
04/04/2021 11:00:00Z	 SAID32 WIBB 041100	METAR WIBB 041100Z 33005KT 9999 FEW016 30/21 Q1005=
04/04/2021 11:30:00Z	 SAID32 WIBB 041130	METAR WIBB 041130Z 33005KT 9000 FEW016 29/21 Q1005=
04/04/2021 12:00:00Z	 SAID32 WIBB 041200	METAR WIBB 041200Z 32005KT 9000 FEW016 28/21 Q1006=
04/04/2021 12:30:00Z	 SAID32 WIBB 041230	METAR WIBB 041230Z 33005KT 9000 FEW016 28/21 Q1006=
04/04/2021 13:00:00Z	 SAID32 WIBB 041300	METAR WIBB 041300Z 00000KT 8000 FEW015 27/22 Q1006=
04/04/2021 13:30:00Z	 SAID32 WIBB 041330	METAR WIBB 041330Z 00000KT 9999 FEW015 27/22 Q1007=
04/04/2021 14:00:00Z	 SAID32 WIBB 041400	METAR WIBB 041400Z 00000KT 8000 SCT013 27/22 Q1007=
04/04/2021 14:30:00Z	 SAID32 WIBB 041430	METAR WIBB 041430Z 00000KT 8000 -RA SCT013 27/23 Q1008=
04/04/2021 15:00:00Z	 SAID32 WIBB 041500	METAR WIBB 041500Z 00000KT 8000 SCT013 26/24 Q1008=
04/04/2021 15:30:00Z	 SAID32 WIBB 041530	METAR WIBB 041530Z 00000KT 8000 SCT013 26/23 Q1008=
04/04/2021 16:00:00Z	 SAID32 WIBB 041600	METAR WIBB 041600Z 00000KT 8000 SCT013 26/23 Q1009=
04/04/2021 16:30:00Z	 SAID32 WIBB 041630	METAR WIBB 041630Z 00000KT 8000 SCT013 26/23 Q1009=
04/04/2021 17:00:00Z	 SAID32 WIBB 041700	METAR WIBB 041700Z 00000KT 8000 -RA SCT013 26/23 Q1008=
04/04/2021 17:30:00Z	 SAID32 WIBB 041730	METAR WIBB 041730Z 00000KT 8000 SCT013 26/23 Q1008=
04/04/2021 18:00:00Z	 SAID32 WIBB 041800	METAR WIBB 041800Z 00000KT 8000 SCT013 26/23 Q1008=
04/04/2021 18:30:00Z	 SAID32 WIBB 041830	METAR WIBB 041830Z 00000KT 7000 SCT013 24/23 Q1007=
04/04/2021 21:00:00Z	 SAID32 WIBB 042100	METAR WIBB 042100Z 00000KT 7000 SCT013 24/23 Q1007=
04/04/2021 21:30:00Z	 SAID32 WIBB 042130	METAR WIBB 042130Z 00000KT 7000 SCT013 25/23 Q1007=
04/04/2021 22:00:00Z	 SAID32 WIBB 042200	METAR WIBB 042200Z 00000KT 7000 SCT013 25/24 Q1007=
04/04/2021 22:30:00Z	 SAID32 WIBB 042230	METAR WIBB 042230Z 00000KT 7000 SCT013 25/24 Q1007=
04/04/2021 23:00:00Z	 SAID32 WIBB 042300	METAR WIBB 042300Z 00000KT 7000 FEW015 25/24 Q1007=
05/04/2021 00:00:00Z	 SAID32 WIBB 050000	METAR WIBB 050000Z 00000KT 7000 FEW015 25/24 Q1008=
05/04/2021 00:30:00Z	 SAID32 WIBB 050030	METAR WIBB 050030Z 00000KT 7000 FEW015 26/24 Q1008=
05/04/2021 01:00:00Z	 SAID32 WIBB 050100	METAR WIBB 050100Z 00000KT 7000 FEW015 27/24 Q1009=
05/04/2021 01:30:00Z	 SAID32 WIBB 050130	METAR WIBB 050130Z 00000KT 8000 FEW015 28/23 Q1009=
05/04/2021 02:00:00Z	 SAID32 WIBB 050200	METAR WIBB 050200Z 26006KT 8000 NSC 29/23 Q1010=
05/04/2021 02:30:00Z	 SAID32 WIBB 050230	METAR WIBB 050230Z 29005KT 8000 NSC 29/23 Q1010=
05/04/2021 03:00:00Z	 SAID32 WIBB 050300	METAR WIBB 050300Z 31009KT 8000 NSC 30/22 Q1010=
05/04/2021 03:30:00Z	 SAID32 WIBB 050330	METAR WIBB 050330Z 32008KT 8000 NSC 30/22 Q1010=
05/04/2021 04:00:00Z	 SAID32 WIBB 050400	METAR WIBB 050400Z 31006KT 9999 FEW015 31/21 Q1009=
05/04/2021 04:30:00Z	 SAID32 WIBB 050430	METAR WIBB 050430Z 31006KT 9999 FEW015 32/22 Q1009=
05/04/2021 05:00:00Z	 SAID32 WIBB 050500	METAR WIBB 050500Z 28008KT 9999 FEW015 33/22 Q1008=
05/04/2021 05:30:00Z	 SAID32 WIBB 050530	METAR WIBB 050530Z 36008KT 9999 SCT015 32/22 Q1007=
05/04/2021 06:00:00Z	 SAID32 WIBB 050600	METAR WIBB 050600Z 32008KT 9999 SCT015 33/22 Q1006=
05/04/2021 06:30:00Z	 SAID32 WIBB 050630	METAR WIBB 050630Z 30010KT 9999 SCT015 34/21 Q1006=
05/04/2021 07:00:00Z	 SAID32 WIBB 050700	METAR WIBB 050700Z 31010KT 9999 FEW015 34/21 Q1005=
05/04/2021 07:30:00Z	 SAID32 WIBB 050730	METAR WIBB 050730Z 31009KT 9999 FEW015 34/21 Q1005=
05/04/2021 08:00:00Z	 SAID32 WIBB 050800	METAR WIBB 050800Z 34008KT 9999 FEW015 34/21 Q1005=
05/04/2021 08:30:00Z	 SAID32 WIBB 050830	METAR WIBB 050830Z 35010KT 9999 FEW015 34/21 Q1005=
05/04/2021 09:00:00Z	 SAID32 WIBB 050900	METAR WIBB 050900Z 01010KT 9999 FEW015 34/22 Q1005=
05/04/2021 09:30:00Z	 SAID32 WIBB 050930	METAR WIBB 050930Z 33008KT 9999 FEW015 33/22 Q1004=
05/04/2021 10:00:00Z	 SAID32 WIBB 051000	METAR WIBB 051000Z 36010KT 9999 FEW016 33/22 Q1005=
05/04/2021 10:30:00Z	 SAID32 WIBB 051030	METAR WIBB 051030Z 06010KT 9999 FEW016 32/22 Q1005=
05/04/2021 11:00:00Z	 SAID32 WIBB 051100	METAR WIBB 051100Z 01010KT 9999 FEW016 30/25 Q1006=
05/04/2021 11:30:00Z	 SAID32 WIBB 051130	METAR WIBB 051130Z 03010KT 8000 FEW016 28/25 Q1006=
05/04/2021 12:00:00Z	 SAID32 WIBB 051200	METAR WIBB 051200Z 03012KT 8000 SCT013 28/24 Q1006=
05/04/2021 12:30:00Z	 SAID32 WIBB 051230	METAR WIBB 051230Z 04010KT 8000 SCT013 28/24 Q1006=
05/04/2021 13:00:00Z	 SAID32 WIBB 051300	METAR WIBB 051300Z 03007KT 8000 SCT013 FEW017CB 28/24 Q1007 RMK CB TO W=
05/04/2021 13:30:00Z	 SAID32 WIBB 051330	METAR WIBB 051330Z 04007KT 8000 SCT013 27/24 Q1008=
05/04/2021 14:00:00Z	 SAID32 WIBB 051400	METAR WIBB 051400Z 03010KT 8000 SCT013 FEW017CB 27/24 Q1009 RMK CB TO W=
05/04/2021 14:30:00Z	 SAID32 WIBB 051430	METAR WIBB 051430Z 02010KT 8000 SCT013 FEW017CB 27/24 Q1009 RMK CB TO W=
05/04/2021 15:00:00Z	 SAID32 WIBB 051500	METAR WIBB 051500Z 01009KT 7000 -RA BKN013 FEW017CB 26/23 Q1010 RMK CB TO W=
05/04/2021 15:30:00Z	 SAID32 WIBB 051530	METAR WIBB 051530Z 32009KT 7000 - RA BKN013 FEW017CB 24/21 Q1010 RMK CB TO SW=
05/04/2021 16:00:00Z	 SAID32 WIBB 051600	METAR WIBB 051600Z 01008KT 7000 -TSRA BKN013 FEW016CB 24/21 Q1010 RMK CB TO S=
05/04/2021 16:30:00Z	 SAID32 WIBB 051630	METAR WIBB 051630Z 00000KT 7000 -TSRA BKN013 FEW016CB 23/22 Q1010 RMK CB TO SE=
05/04/2021 17:00:00Z	 SAID32 WIBB 051700	METAR WIBB 051700Z 21005KT 7000 -RA BKN013 24/22 Q1010 RETS=
05/04/2021 17:30:00Z	 SAID32 WIBB 051730	METAR WIBB 051730Z 00000KT 7000 -RA BKN012 24/22 Q1009=
05/04/2021 18:00:00Z	 SAID32 WIBB 051800	METAR WIBB 051800Z 00000KT 7000 -RA BKN012 24/22 Q1009=
05/04/2021 18:30:00Z	 SAID32 WIBB 051830	METAR WIBB 051830Z 00000KT 7000 -RA BKN012 24/22 Q1009=
05/04/2021 19:00:00Z	 SAID32 WIBB 051900	METAR WIBB 051900Z 00000KT 7000 -RA BKN012 24/22 Q1008=
05/04/2021 19:30:00Z	 SAID32 WIBB 051930	METAR WIBB 051930Z 00000KT 7000 -RA BKN012 24/22 Q1008=
05/04/2021 20:00:00Z	 SAID32 WIBB 052000	METAR WIBB 052000Z 00000KT 7000 -RA BKN012 24/22 Q1008=
05/04/2021 20:30:00Z	 SAID32 WIBB 052030	METAR WIBB 052030Z 00000KT 7000 -RA BKN012 24/22 Q1007=
05/04/2021 21:00:00Z	 SAID32 WIBB 052100	METAR WIBB 052100Z 00000KT 7000 SCT011 24/23 Q1007=
05/04/2021 21:30:00Z	 SAID32 WIBB 052130	METAR WIBB 052130Z 00000KT 7000 SCT011 23/23 Q1008=
05/04/2021 22:00:00Z	 SAID32 WIBB 052200	METAR WIBB 052200Z 00000KT 7000 SCT011 23/22 Q1008=
05/04/2021 22:30:00Z	 SAID32 WIBB 052230	METAR WIBB 052230Z 00000KT 7000 SCT011 23/23 Q1008=
05/04/2021 23:00:00Z	 SAID32 WIBB 052300	METAR WIBB 052300Z 00000KT 7000 FEW013 23/22 Q1008=
05/04/2021 23:30:00Z	 SAID32 WIBB 052330	METAR WIBB 052330Z 00000KT 7000 FEW013 23/22 Q1008=
06/04/2021 00:00:00Z	 SAID32 WIBB 060000	METAR WIBB 060000Z 00000KT 8000 FEW013 24/23 Q1009=
06/04/2021 00:30:00Z	 SAID32 WIBB 060030	METAR WIBB 060030Z 00000KT 8000 FEW013 24/23 Q1009=
06/04/2021 01:00:00Z	 SAID32 WIBB 060100	METAR WIBB 060100Z 00000KT 9000 FEW015 25/22 Q1010=
06/04/2021 01:30:00Z	 SAID32 WIBB 060130	METAR WIBB 060130Z 00000KT 9000 FEW015 25/22 Q1010=
06/04/2021 02:00:00Z	 SAID32 WIBB 060200	METAR WIBB 060200Z 00000KT 9999 FEW015 26/23 Q1010=
06/04/2021 02:30:00Z	 SAID32 WIBB 060230	METAR WIBB 060230Z 00000KT 9999 FEW015 27/23 Q1010=
06/04/2021 03:00:00Z	 SAID32 WIBB 060300	METAR WIBB 060300Z 00000KT 9999 NSC 29/23 Q1010=
06/04/2021 03:30:00Z	 SAID32 WIBB 060330	METAR WIBB 060330Z 00000KT 9999 NSC 29/22 Q1010=
06/04/2021 04:00:00Z	 SAID32 WIBB 060400	METAR WIBB 060400Z 35005KT 9999 FEW015 30/22 Q1010=
06/04/2021 04:30:00Z	 SAID32 WIBB 060430	METAR WIBB 060430Z 01005KT 9999 FEW015 31/22 Q1009 NOSIG=
06/04/2021 05:00:00Z	 SAID32 WIBB 060500	METAR WIBB 060500Z 04005KT 9999 SCT013 31/22 Q1009 NOSIG=
06/04/2021 05:30:00Z	 SAID32 WIBB 060530	METAR WIBB 060530Z 12005KT 9999 SCT013 31/22 Q1008 NOSIG=
06/04/2021 06:00:00Z	 SAID32 WIBB 060600	METAR WIBB 060600Z 03005KT 9999 SCT013 32/22 Q1007 NOSIG=
06/04/2021 06:30:00Z	 SAID32 WIBB 060630	METAR WIBB 060630Z 07005KT 9999 SCT013 32/22 Q1007 NOSIG=
06/04/2021 07:00:00Z	 SAID32 WIBB 060700	METAR WIBB 060700Z 00000KT 9999 SCT013 32/22 Q1006 NOSIG=
06/04/2021 07:30:00Z	 SAID32 WIBB 060730	METAR WIBB 060730Z 00000KT 9999 SCT013 32/22 Q1005 NOSIG=
06/04/2021 08:00:00Z	 SAID32 WIBB 060800	METAR WIBB 060800Z 00000KT 9999 SCT013 32/23 Q1005 NOSIG=
06/04/2021 08:30:00Z	 SAID32 WIBB 060830	METAR WIBB 060830Z 05005KT 9999 SCT013 33/22 Q1005 NOSIG=
06/04/2021 09:00:00Z	 SAID32 WIBB 060900	METAR WIBB 060900Z 36007KT 9999 SCT013 33/21 Q1005 NOSIG=
06/04/2021 09:30:00Z	 SAID32 WIBB 060930	METAR WIBB 060930Z 05007KT 9999 SCT013 33/22 Q1005 NOSIG=
06/04/2021 10:00:00Z	 SAID32 WIBB 061000	METAR WIBB 061000Z 00000KT 9999 FEW017CB FEW014 32/22 Q1005 NOSIG=
06/04/2021 10:30:00Z	 SAID32 WIBB 061030	METAR WIBB 061030Z 05006KT 9000 SCT014 32/22 Q1005 NOSIG=
06/04/2021 11:00:00Z	 SAID32 WIBB 061100	METAR WIBB 061100Z 00000KT 9000 SCT014 31/23 Q1006=
06/04/2021 11:30:00Z	 SAID32 WIBB 061130	METAR WIBB 061130Z 00000KT 7000 SCT014 31/23 Q1006=
06/04/2021 12:00:00Z	 SAID32 WIBB 061200	METAR WIBB 061200Z 19010KT 6000 -RA FEW015CB SCT013 26/23 Q1007 TEMPO TL1300 5000 TSRA FEW015CB=
06/04/2021 12:30:00Z	 SAID32 WIBB 061230	METAR WIBB 061230Z 12004KT 7000 TS FEW015CB SCT013 26/23 Q1008=
06/04/2021 13:00:00Z	 SAID32 WIBB 061300	METAR WIBB 061300Z 04006KT 8000 TS SCT015CB 26/23 Q1008=
06/04/2021 13:30:00Z	 SAID32 WIBB 061330	METAR WIBB 061330Z 36005KT 8000 -TSRA SCT015CB 27/23 Q1008=
06/04/2021 14:00:00Z	 SAID32 WIBB 061400	METAR WIBB 061400Z 00000KT 8000 SCT010 FEW015CB 26/23 Q1009=
06/04/2021 14:30:00Z	 SAID32 WIBB 061430	METAR WIBB 061430Z 13005KT 8000 SCT010 FEW015CB 25/22 Q1009=
06/04/2021 15:00:00Z	 SAID32 WIBB 061500	METAR WIBB 061500Z 00000KT 8000 TS SCT014CB 25/22 Q1009=
06/04/2021 15:30:00Z	 SAID32 WIBB 061530	METAR WIBB 061530Z 28006KT 8000 TS SCT013CB 26/22 Q1010=
06/04/2021 16:00:00Z	 SAID32 WIBB 061600	METAR WIBB 061600Z 36005KT 1000 TSRA SCT005 SCT013CB 24/22 Q1011=
06/04/2021 16:30:00Z	 SAID32 WIBB 061630	METAR WIBB 061630Z 05007KT 6000 -TSRA SCT008 SCT013CB 23/22 Q1011=
06/04/2021 17:00:00Z	 SAID32 WIBB 061700	METAR WIBB 061700Z 05006KT 4000 -TSRA SCT005 SCT013CB 22/22 Q1010=
06/04/2021 17:30:00Z	 SAID32 WIBB 061730	METAR WIBB 061730Z 06005KT 8000 -RA SCT009 FEW015 22/21 Q1010=
06/04/2021 18:00:00Z	 SAID32 WIBB 061800	METAR WIBB 061800Z 00000KT 6000 -RA SCT009 FEW015CB 22/21 Q1009=
06/04/2021 22:00:00Z	 SAID32 WIBB 062200	METAR WIBB 062200Z 00000KT 7000 SCT012 22/21 Q1009=
06/04/2021 23:00:00Z	 SAID32 WIBB 062300	METAR WIBB 062300Z 00000KT 8000 SCT015 23/21 Q1010=
06/04/2021 23:30:00Z	 SAID32 WIBB 062330	METAR WIBB 062330Z 00000KT 7000 SCT015 23/22 Q1010=
07/04/2021 00:00:00Z	 SAID32 WIBB 070000	METAR WIBB 070000Z 00000KT 8000 SCT015 23/22 Q1010=
07/04/2021 00:30:00Z	 SAID32 WIBB 070030	METAR WIBB 070030Z 00000KT 7000 NSC 23/22 Q1010=
07/04/2021 01:00:00Z	 SAID32 WIBB 070100	METAR WIBB 070100Z 00000KT 8000 SCT015 23/22 Q1011 NOSIG=
07/04/2021 01:30:00Z	 SAID32 WIBB 070130	METAR WIBB 070130Z 00000KT 8000 SCT015 24/22 Q1011=
07/04/2021 02:00:00Z	 SAID32 WIBB 070200	METAR WIBB 070200Z 00000KT 6000 FEW015 24/22 Q1011 NOSIG=
07/04/2021 02:30:00Z	 SAID32 WIBB 070230	METAR WIBB 070230Z 00000KT 8000 FEW015 25/22 Q1012 NOSIG=
07/04/2021 03:00:00Z	 SAID32 WIBB 070300	METAR WIBB 070300Z 00000KT 8000 FEW015 26/22 Q1011 NOSIG=
07/04/2021 03:30:00Z	 SAID32 WIBB 070330	METAR WIBB 070330Z 00000KT 9999 FEW015 27/23 Q1011 NOSIG=
07/04/2021 04:00:00Z	 SAID32 WIBB 070400	METAR WIBB 070400Z 00000KT 9999 FEW015 28/23 Q1011 NOSIG=
07/04/2021 04:30:00Z	 SAID32 WIBB 070430	METAR WIBB 070430Z 00000KT 9999 FEW015 28/22 Q1010 NOSIG=
07/04/2021 05:00:00Z	 SAID32 WIBB 070500	METAR WIBB 070500Z 04005KT 9999 FEW014 30/23 Q1009=
07/04/2021 05:30:00Z	 SAID32 WIBB 070530	METAR WIBB 070530Z 34005KT 9999 FEW014 31/23 Q1009 NOSIG=
07/04/2021 06:00:00Z	 SAID32 WIBB 070600	METAR WIBB 070600Z 00000KT 9999 FEW014 31/23 Q1008 NOSIG=
07/04/2021 06:30:00Z	 SAID32 WIBB 070630	METAR WIBB 070630Z 33005KT 9999 FEW014 32/22 Q1008 NOSIG=
07/04/2021 07:00:00Z	 SAID32 WIBB 070700	METAR WIBB 070700Z 32006KT 9999 SCT015 33/22 Q1007=
07/04/2021 07:30:00Z	 SAID32 WIBB 070730	METAR WIBB 070730Z 01005KT 9999 SCT015 33/24 Q1006=
07/04/2021 08:00:00Z	 SAID32 WIBB 070800	METAR WIBB 070800Z 00000KT 9999 SCT015 32/23 Q1005=
07/04/2021 08:30:00Z	 SAID32 WIBB 070830	METAR WIBB 070830Z 00000KT 9999 SCT015 32/24 Q1005=
07/04/2021 09:00:00Z	 SAID32 WIBB 070900	METAR WIBB 070900Z 04006KT 9999 SCT015 32/23 Q1005=
07/04/2021 09:30:00Z	 SAID32 WIBB 070930	METAR WIBB 070930Z 00000KT 9999 SCT015 32/23 Q1005=
07/04/2021 10:00:00Z	 SAID32 WIBB 071000	METAR WIBB 071000Z 05006KT 9999 SCT015 32/23 Q1005=
07/04/2021 10:30:00Z	 SAID32 WIBB 071030	METAR WIBB 071030Z 00000KT 9999 SCT015 32/23 Q1006=
07/04/2021 11:00:00Z	 SAID32 WIBB 071100	METAR WIBB 071100Z 00000KT 8000 SCT015 FEW017CB 31/23 Q1006=
07/04/2021 11:30:00Z	 SAID32 WIBB 071130	METAR WIBB 071130Z 06006KT 9999 SCT015 FEW017CB 30/23 Q1006=
07/04/2021 12:00:00Z	 SAID32 WIBB 071200	METAR WIBB 071200Z 00000KT 7000 -TSRA SCT013 FEW015CB 29/23 Q1007=
07/04/2021 12:30:00Z	 SAID32 WIBB 071230	METAR WIBB 071230Z 00000KT 8000 TS SCT013 FEW015CB 28/24 Q1007=
07/04/2021 13:00:00Z	 SAID32 WIBB 071300	METAR WIBB 071300Z 32010KT 8000 TS SCT013 SCT015CB 28/23 Q1008=
07/04/2021 13:30:00Z	 SAID32 WIBB 071330	METAR WIBB 071330Z 31012KT 8000 TS SCT013 FEW015CB 27/22 Q1009=
07/04/2021 14:00:00Z	 SAID32 WIBB 071400	METAR WIBB 071400Z 32008KT 8000 TS SCT015CB 27/23 Q1009=
07/04/2021 14:30:00Z	 SAID32 WIBB 071430	METAR WIBB 071430Z 33008KT 8000 TS SCT015CB 26/23 Q1009=
07/04/2021 15:00:00Z	 SAID32 WIBB 071500	METAR WIBB 071500Z 36008KT 8000 TS SCT013 SCT015CB 26/22 Q1010=
07/04/2021 15:30:00Z	 SAID32 WIBB 071530	METAR WIBB 071530Z 01010KT 8000 TS SCT013 SCT015CB 26/22 Q1010=
07/04/2021 16:00:00Z	 SAID32 WIBB 071600	METAR WIBB 071600Z 35008KT 8000 SCT015CB 25/22 Q1010=
07/04/2021 16:30:00Z	 SAID32 WIBB 071630	METAR WIBB 071630Z 34005KT 9999 SCT015CB 25/22 Q1010=
07/04/2021 17:00:00Z	 SAID32 WIBB 071700	METAR WIBB 071700Z 00000KT 8000 FEW015CB 25/22 Q1010=
07/04/2021 17:30:00Z	 SAID32 WIBB 071730	METAR WIBB 071730Z 33005KT 8000 FEW015CB 25/22 Q1009=
07/04/2021 18:00:00Z	 SAID32 WIBB 071800	METAR WIBB 071800Z 00000KT 8000 SCT016 25/22 Q1009=
07/04/2021 21:00:00Z	 SAID32 WIBB 072100	METAR WIBB 072100Z 32005KT 8000 SCT013 24/22 Q1008=
07/04/2021 22:00:00Z	 SAID32 WIBB 072200	METAR WIBB 072200Z 00000KT 8000 SCT130 24/22 Q1008=
07/04/2021 22:30:00Z	 SAID32 WIBB 072230	METAR WIBB 072230Z 00000KT 8000 SCT010 24/22 Q1008=
07/04/2021 23:00:00Z	 SAID32 WIBB 072300	METAR WIBB 072300Z 00000KT 8000 SCT008 24/22 Q1008=
07/04/2021 23:30:00Z	 SAID32 WIBB 072330	METAR WIBB 072330Z 00000KT 6000 SCT008 24/23 Q1009=
08/04/2021 00:00:00Z	 SAID32 WIBB 080000	METAR WIBB 080000Z 00000KT 6000 SCT008 24/23 Q1009=
08/04/2021 00:30:00Z	 SAID32 WIBB 080030	METAR WIBB 080030Z 00000KT 7000 SCT008 24/23 Q1009=
08/04/2021 01:00:00Z	 SAID32 WIBB 080100	METAR WIBB 080100Z 00000KT 7000 SCT009 24/22 Q1010=
08/04/2021 01:30:00Z	 SAID32 WIBB 080130	METAR WIBB 080130Z 00000KT 7000 SCT009 25/23 Q1010=
08/04/2021 02:00:00Z	 SAID32 WIBB 080200	METAR WIBB 080200Z 36005KT 7000 SCT010 26/23 Q1010=
08/04/2021 02:30:00Z	 SAID32 WIBB 080230	METAR WIBB 080230Z 01005KT 7000 SCT010 27/22 Q1010=
08/04/2021 03:00:00Z	 SAID32 WIBB 080300	METAR WIBB 080300Z 36005KT 9000 FEW011 28/22 Q1010=
08/04/2021 03:30:00Z	 SAID32 WIBB 080330	METAR WIBB 080330Z 35006KT 9000 FEW011 29/23 Q1009=
08/04/2021 04:00:00Z	 SAID32 WIBB 080400	METAR WIBB 080400Z 33009KT 9999 FEW012 30/23 Q1009=
08/04/2021 04:30:00Z	 SAID32 WIBB 080430	METAR WIBB 080430Z 32007KT 9999 FEW012 31/23 Q1008=
08/04/2021 05:00:00Z	 SAID32 WIBB 080500	METAR WIBB 080500Z 34006KT 9999 SCT014 31/23 Q1008=
08/04/2021 05:30:00Z	 SAID32 WIBB 080530	METAR WIBB 080530Z 32007KT 9999 SCT014 31/23 Q1007=
08/04/2021 06:00:00Z	 SAID32 WIBB 080600	METAR WIBB 080600Z 30009KT 9999 BKN014 32/23 Q1007=
08/04/2021 06:30:00Z	 SAID32 WIBB 080630	METAR WIBB 080630Z 30006KT 9999 BKN014 32/22 Q1006=
08/04/2021 07:00:00Z	 SAID32 WIBB 080700	METAR WIBB 080700Z 34008KT 9999 BKN015 32/23 Q1006=
08/04/2021 07:30:00Z	 SAID32 WIBB 080730	METAR WIBB 080730Z 34010KT 9999 BKN015 33/22 Q1005=
08/04/2021 08:00:00Z	 SAID32 WIBB 080800	METAR WIBB 080800Z 36008KT 9999 SCT015 32/22 Q1005=
08/04/2021 09:00:00Z	 SAID32 WIBB 080900	METAR WIBB 080900Z 35006KT 9999 SCT015 32/23 Q1005=
08/04/2021 09:30:00Z	 SAID32 WIBB 080930	METAR WIBB 080930Z 36009KT 9999 SCT015 32/23 Q1004=
08/04/2021 10:00:00Z	 SAID32 WIBB 081000	METAR WIBB 081000Z 32007KT 9999 SCT015 32/22 Q1005=
08/04/2021 10:30:00Z	 SAID32 WIBB 081030	METAR WIBB 081030Z 34010KT 9999 SCT015 32/22 Q1005=
08/04/2021 11:00:00Z	 SAID32 WIBB 081100	METAR WIBB 081100Z 33005KT 9999 SCT015 31/22 Q1005=
08/04/2021 11:30:00Z	 SAID32 WIBB 081130	METAR WIBB 081130Z 35005KT 9999 SCT015 30/23 Q1006=
08/04/2021 12:00:00Z	 SAID32 WIBB 081200	METAR WIBB 081200Z 01005KT 9999 SCT015 29/23 Q1006=
08/04/2021 12:30:00Z	 SAID32 WIBB 081230	METAR WIBB 081230Z 34005KT 9999 SCT015 29/23 Q1007=
08/04/2021 13:00:00Z	 SAID32 WIBB 081300	METAR WIBB 081300Z 35006KT 8000 FEW017CB 29/24 Q1007=
08/04/2021 13:30:00Z	 SAID32 WIBB 081330	METAR WIBB 081330Z 34008KT 8000 FEW017CB 28/24 Q1008=
08/04/2021 14:00:00Z	 SAID32 WIBB 081400	METAR WIBB 081400Z 33012KT 8000 FEW017CB 28/24 Q1008=
08/04/2021 14:30:00Z	 SAID32 WIBB 081430	METAR WIBB 081430Z 33008KT 8000 FEW017CB 27/21 Q1009=
08/04/2021 15:00:00Z	 SAID32 WIBB 081500	METAR WIBB 081500Z 30006KT 8000 FEW017CB 25/20 Q1009=
08/04/2021 15:30:00Z	 SAID32 WIBB 081530	METAR WIBB 081530Z 27006KT 8000 FEW017CB 24/21 Q1010=
08/04/2021 16:00:00Z	 SAID32 WIBB 081600	METAR WIBB 081600Z 00000KT 8000 FEW017 24/21 Q1010=
08/04/2021 16:30:00Z	 SAID32 WIBB 081630	METAR WIBB 081630Z 00000KT 8000 FEW017 24/21 Q1009=
08/04/2021 17:00:00Z	 SAID32 WIBB 081700	METAR WIBB 081700Z 00000KT 8000 NSC 24/21 Q1009=
08/04/2021 17:30:00Z	 SAID32 WIBB 081730	METAR WIBB 081730Z 00000KT 8000 NSC 23/21 Q1008=
08/04/2021 18:00:00Z	 SAID32 WIBB 081800	METAR WIBB 081800Z 00000KT 8000 NSC 23/21 Q1008=
08/04/2021 21:00:00Z	 SAID32 WIBB 082100	METAR WIBB 082100Z 00000KT 8000 NSC 23/22 Q1008=
08/04/2021 22:00:00Z	 SAID32 WIBB 082200	METAR WIBB 082200Z 00000KT 8000 NSC 23/22 Q1007=
