01/09/2020 01:00:00Z	 SAID32 WIPP 010100	METAR WIPP 010100Z 16012KT 9999 SCT010 27/24 Q1009 NOSIG=
01/09/2020 01:30:00Z	 SAID32 WIPP 010130	METAR WIPP 010130Z 17012KT 9999 SCT010 29/24 Q1010 NOSIG=
01/09/2020 02:00:00Z	 SAID32 WIPP 010200	METAR WIPP 010200Z 14015KT 9999 SCT010 29/24 Q1010 NOSIG=
01/09/2020 02:30:00Z	 SAID32 WIPP 010230	METAR WIPP 010230Z 14015KT 9999 BKN010 30/24 Q1010 NOSIG=
01/09/2020 03:00:00Z	 SAID32 WIPP 010300	METAR WIPP 010300Z 14015KT 9999 BKN010 31/24 Q1010 NOSIG=
01/09/2020 03:30:00Z	 SAID32 WIPP 010330	METAR WIPP 010330Z 13015KT 9999 BKN010 31/24 Q1010 NOSIG=
01/09/2020 04:00:00Z	 SAID32 WIPP 010400	METAR WIPP 010400Z 15012KT 9999 BKN010 31/24 Q1009 NOSIG=
01/09/2020 04:30:00Z	 SAID32 WIPP 010430	METAR WIPP 010430Z 12015KT 9999 BKN010 32/24 Q1009 NOSIG=
01/09/2020 05:00:00Z	 SAID32 WIPP 010500	METAR WIPP 010500Z 15015KT 9999 BKN010 33/23 Q1009 NOSIG=
01/09/2020 05:30:00Z	 SAID32 WIPP 010530	METAR WIPP 010530Z 14015KT 9999 BKN010 32/23 Q1008 NOSIG=
01/09/2020 06:00:00Z	 SAID32 WIPP 010600	METAR WIPP 010600Z 12013KT 9999 BKN010 33/23 Q1008 NOSIG=
01/09/2020 06:30:00Z	 SAID32 WIPP 010630	METAR WIPP 010630Z 09010KT 9999 BKN010 33/23 Q1007 NOSIG=
01/09/2020 07:00:00Z	 SAID32 WIPP 010700	METAR WIPP 010700Z 10010KT 9999 BKN010 33/23 Q1007 NOSIG=
01/09/2020 07:30:00Z	 SAID32 WIPP 010730	METAR WIPP 010730Z 12012KT 9999 BKN010 33/23 Q1007 NOSIG=
01/09/2020 08:00:00Z	 SAID32 WIPP 010800	METAR WIPP 010800Z 11010KT 9999 BKN010 33/23 Q1006 NOSIG=
01/09/2020 08:30:00Z	 SAID32 WIPP 010830	METAR WIPP 010830Z 09011KT 9999 BKN010 32/23 Q1006 NOSIG=
01/09/2020 09:00:00Z	 SAID32 WIPP 010900	METAR WIPP 010900Z 11008KT 9999 BKN010 32/23 Q1006 NOSIG=
01/09/2020 09:30:00Z	 SAID32 WIPP 010930	METAR WIPP 010930Z 12012KT 9999 SCT010 31/23 Q1006 NOSIG=
01/09/2020 10:00:00Z	 SAID32 WIPP 011000	METAR WIPP 011000Z 11010KT 9999 SCT010 31/23 Q1006 NOSIG=
01/09/2020 10:30:00Z	 SAID32 WIPP 011030	METAR WIPP 011030Z 10013KT 9999 SCT010 31/22 Q1006 NOSIG=
01/09/2020 11:00:00Z	 SAID32 WIPP 011100	METAR WIPP 011100Z 11011KT 9999 SCT010 30/22 Q1006 NOSIG=
01/09/2020 11:30:00Z	 SAID32 WIPP 011130	METAR WIPP 011130Z 10012KT 9999 SCT010 29/23 Q1007 NOSIG=
01/09/2020 12:00:00Z	 SAID32 WIPP 011200	METAR WIPP 011200Z 11009KT 9999 SCT010 29/23 Q1007 NOSIG=
01/09/2020 12:30:00Z	 SAID32 WIPP 011230	METAR WIPP 011230Z 12008KT 9999 SCT010 28/23 Q1008 NOSIG=
01/09/2020 13:00:00Z	 SAID32 WIPP 011300	METAR WIPP 011300Z 11006KT 9999 SCT010 28/23 Q1009 NOSIG=
01/09/2020 14:00:00Z	 SAID32 WIPP 011400	METAR WIPP 011400Z 10004KT 9999 SCT010 28/23 Q1009 NOSIG=
01/09/2020 15:00:00Z	 SAID32 WIPP 011500	METAR WIPP 011500Z 11005KT 9999 FEW010 27/23 Q1010 NOSIG=
01/09/2020 16:00:00Z	 SAID32 WIPP 011600	METAR WIPP 011600Z 12004KT 9999 FEW010 27/24 Q1010 NOSIG=
01/09/2020 17:00:00Z	 SAID32 WIPP 011700	METAR WIPP 011700Z 13003KT 9999 FEW010 27/23 Q1010 NOSIG=
01/09/2020 18:00:00Z	 SAID32 WIPP 011800	METAR WIPP 011800Z AUTO 13004KT 9000NDV NCD 26/24 Q1009=
01/09/2020 18:30:00Z	 SAID32 WIPP 011830	METAR WIPP 011830Z AUTO 00000KT 5000NDV NCD 25/24 Q1009=
01/09/2020 19:00:00Z	 SAID32 WIPP 011900	METAR WIPP 011900Z AUTO 15003KT 8000NDV NCD 26/24 Q1009=
01/09/2020 19:30:00Z	 SAID32 WIPP 011930	METAR WIPP 011930Z AUTO 00000KT 5000NDV NCD 25/24 Q1009=
01/09/2020 20:00:00Z	 SAID32 WIPP 012000	METAR WIPP 012000Z AUTO 00000KT 4500NDV BR NCD 25/24 Q1008=
01/09/2020 20:30:00Z	 SAID32 WIPP 012030	METAR WIPP 012030Z AUTO 00000KT 3400NDV BR NCD 24/23 Q1008=
01/09/2020 21:00:00Z	 SAID32 WIPP 012100	METAR WIPP 012100Z AUTO 00000KT 2900NDV BR NCD 24/23 Q1009=
01/09/2020 21:30:00Z	 SAID32 WIPP 012130	METAR WIPP 012130Z AUTO 00000KT 2200NDV BR NCD 24/23 Q1008=
01/09/2020 22:00:00Z	 SAID32 WIPP 012200	METAR WIPP 012200Z AUTO 21002KT 2700NDV BR NCD 24/24 Q1008=
01/09/2020 22:30:00Z	 SAID32 WIPP 012230	METAR WIPP 012230Z AUTO 21002KT 3200NDV BR NCD 24/24 Q1009=
01/09/2020 23:00:00Z	 SAID32 WIPP 012300	METAR WIPP 012300Z AUTO 18002KT 2700NDV BR NCD 24/24 Q1009=
01/09/2020 23:30:00Z	 SAID32 WIPP 012330	METAR WIPP 012330Z 18003KT 3000 BR FEW010 24/23 Q1009=
02/09/2020 00:00:00Z	 SAID32 WIPP 020000	METAR WIPP 020000Z 20004KT 5000 HZ FEW010 25/23 Q1010=
02/09/2020 00:30:00Z	 SAID32 WIPP 020030	METAR WIPP 020030Z 14004KT 6000 FEW010 26/23 Q1010=
02/09/2020 01:00:00Z	 SAID32 WIPP 020100	METAR WIPP 020100Z 14005KT 9999 FEW010 27/23 Q1010 NOSIG=
02/09/2020 02:00:00Z	 SAID32 WIPP 020200	METAR WIPP 020200Z 16004KT 9999 FEW010 28/23 Q1010 NOSIG=
02/09/2020 02:30:00Z	 SAID32 WIPP 020230	METAR WIPP 020230Z 13008KT 9999 FEW010 30/23 Q1010 NOSIG=
02/09/2020 03:00:00Z	 SAID32 WIPP 020300	METAR WIPP 020300Z 12006KT 9999 SCT010 30/23 Q1010 NOSIG=
02/09/2020 03:30:00Z	 SAID32 WIPP 020330	METAR WIPP 020330Z 11009KT 9999 SCT010 31/23 Q1010 NOSIG=
02/09/2020 04:00:00Z	 SAID32 WIPP 020400	METAR WIPP 020400Z 13008KT 9999 SCT010 32/24 Q1010 NOSIG=
02/09/2020 04:30:00Z	 SAID32 WIPP 020430	METAR WIPP 020430Z 11008KT 9999 SCT010 31/23 Q1009 NOSIG=
02/09/2020 05:00:00Z	 SAID32 WIPP 020500	METAR WIPP 020500Z 09008KT 9999 BKN010 32/23 Q1009 NOSIG=
02/09/2020 05:30:00Z	 SAID32 WIPP 020530	METAR WIPP 020530Z 10009KT 9999 BKN010 32/23 Q1008 NOSIG=
02/09/2020 06:00:00Z	 SAID32 WIPP 020600	METAR WIPP 020600Z 05008KT 9999 BKN010 FEW012CB 31/23 Q1008 RMK CB TO S=
02/09/2020 06:30:00Z	 SAID32 WIPP 020630	METAR WIPP 020630Z 11005KT 9999 BKN010 FEW012CB 31/23 Q1008 RMK CB TO S=
02/09/2020 07:00:00Z	 SAID32 WIPP 020700	METAR WIPP 020700Z 22004KT 9999 BKN010 FEW012CB 30/23 Q1007 RMK CB TO SW=
02/09/2020 07:30:00Z	 SAID32 WIPP 020730	METAR WIPP 020730Z 13003KT 9999 BKN010 FEW012CB 29/22 Q1007 RMK CB TO SW=
02/09/2020 08:00:00Z	 SAID32 WIPP 020800	METAR WIPP 020800Z 12005KT 9999 BKN010 FEW012CB 30/22 Q1007 RMK CB TO W=
02/09/2020 08:30:00Z	 SAID32 WIPP 020830	METAR WIPP 020830Z 12010KT 9999 BKN010 FEW012CB 31/21 Q1007 RMK CB TO W=
02/09/2020 09:00:00Z	 SAID32 WIPP 020900 CCA	METAR WIPP 020900Z 10006KT 9999 SCT010 FEW012CB 31/22 Q1007 RMK CB TO W=
02/09/2020 09:00:00Z	 SAID32 WIPP 020900	METAR WIPP 020900Z 10006KT 9999 BKN010 FEW012CB 31/22 Q1007 RMK CB TO W=
02/09/2020 09:30:00Z	 SAID32 WIPP 020930	METAR WIPP 020930Z 11009KT 9999 SCT010 FEW012CB 31/24 Q1007 RMK CB TO E=
02/09/2020 10:00:00Z	 SAID32 WIPP 021000	METAR WIPP 021000Z 11013KT 9999 SCT010 FEW012CB 31/23 Q1007 RMK CB TO NE=
02/09/2020 10:30:00Z	 SAID32 WIPP 021030	METAR WIPP 021030Z 11011KT 9999 SCT010 FEW012CB 29/23 Q1008 RMK CB TO NE=
02/09/2020 11:00:00Z	 SAID32 WIPP 021100	METAR WIPP 021100Z 11012KT 9999 BKN010 FEW012CB 28/22 Q1008 RMK CB TO NE=
02/09/2020 11:30:00Z	 SAID32 WIPP 021130	METAR WIPP 021130Z 11007KT 9999 BKN010 FEW012CB 28/22 Q1008 RMK CB TO NE=
02/09/2020 12:00:00Z	 SAID32 WIPP 021200	METAR WIPP 021200Z 09003KT 9999 SCT010 FEW012CB 28/23 Q1009 RMK CB TO E=
02/09/2020 12:30:00Z	 SAID32 WIPP 021230	METAR WIPP 021230Z 08003KT 9999 SCT010 FEW012CB 28/23 Q1009 RMK CB TO E=
02/09/2020 13:00:00Z	 SAID32 WIPP 021300	METAR WIPP 021300Z 12005KT 9999 BKN010 28/23 Q1010 NOSIG=
02/09/2020 14:00:00Z	 SAID32 WIPP 021400	METAR WIPP 021400Z 12005KT 9999 BKN010 28/24 Q1010 NOSIG=
02/09/2020 15:00:00Z	 SAID32 WIPP 021500	METAR WIPP 021500Z 12005KT 9999 SCT010 27/24 Q1011 NOSIG=
02/09/2020 16:00:00Z	 SAID32 WIPP 021600	METAR WIPP 021600Z 12005KT 9999 SCT010 27/24 Q1011 NOSIG=
02/09/2020 16:30:00Z	 SAID32 WIPP 021630	METAR WIPP 021630Z AUTO 14003KT 9999NDV NCD 27/25 Q1011=
02/09/2020 17:00:00Z	 SAID32 WIPP 021700	METAR WIPP 021700Z AUTO 17003KT 130V190 8000NDV NCD 26/25 Q1010=
02/09/2020 17:30:00Z	 SAID32 WIPP 021730	METAR WIPP 021730Z AUTO 14003KT 9999NDV NCD 26/25 Q1010=
02/09/2020 18:00:00Z	 SAID32 WIPP 021800	METAR WIPP 021800Z 20003KT 8000 FEW010 26/24 Q1010 NOSIG=
02/09/2020 18:30:00Z	 SAID32 WIPP 021830	METAR WIPP 021830Z AUTO 23002KT 5000NDV NCD 25/24 Q1009=
02/09/2020 19:00:00Z	 SAID32 WIPP 021900	METAR WIPP 021900Z AUTO 23002KT 7000NDV SCT018 SCT025 BKN033 25/25 Q1009=
02/09/2020 19:30:00Z	 SAID32 WIPP 021930	METAR WIPP 021930Z AUTO 23002KT 7000NDV BKN016 BKN038 25/24 Q1009=
02/09/2020 20:00:00Z	 SAID32 WIPP 022000	METAR WIPP 022000Z AUTO 24002KT 4100NDV BR NCD 25/24 Q1009=
02/09/2020 20:30:00Z	 SAID32 WIPP 022030	METAR WIPP 022030Z AUTO 22002KT 7000NDV NCD 25/24 Q1009=
02/09/2020 21:00:00Z	 SAID32 WIPP 022100	METAR WIPP 022100Z AUTO 21002KT 5000NDV NCD 25/24 Q1008=
02/09/2020 21:30:00Z	 SAID32 WIPP 022130	METAR WIPP 022130Z AUTO 19002KT 5000NDV NCD 25/24 Q1009=
02/09/2020 22:00:00Z	 SAID32 WIPP 022200	METAR WIPP 022200Z AUTO 20003KT 170V230 8000NDV NCD 25/24 Q1009=
02/09/2020 22:30:00Z	 SAID32 WIPP 022230	METAR WIPP 022230Z AUTO VRB02KT 6000NDV NCD 24/24 Q1009=
02/09/2020 23:00:00Z	 SAID32 WIPP 022300	METAR WIPP 022300Z AUTO VRB02KT 3400NDV BR NCD 24/24 Q1009=
02/09/2020 23:30:00Z	 SAID32 WIPP 022330	METAR WIPP 022330Z AUTO VRB02KT 3700NDV BR NCD 24/24 Q1010=
03/09/2020 00:00:00Z	 SAID32 WIPP 030000	METAR WIPP 030000Z AUTO VRB02KT 4400NDV BR BKN011 25/24 Q1010=
03/09/2020 00:30:00Z	 SAID32 WIPP 030030	METAR WIPP 030030Z 20005KT 6000 BKN010 26/24 Q1010 NOSIG=
03/09/2020 01:00:00Z	 SAID32 WIPP 030100	METAR WIPP 030100Z 15002KT 8000 SCT010 26/24 Q1011 NOSIG=
03/09/2020 01:30:00Z	 SAID32 WIPP 030130	METAR WIPP 030130Z 18003KT 9999 SCT010 27/24 Q1011 NOSIG=
03/09/2020 02:00:00Z	 SAID32 WIPP 030200	METAR WIPP 030200Z 16005KT 9999 FEW010 28/24 Q1012 NOSIG=
03/09/2020 02:30:00Z	 SAID32 WIPP 030230	METAR WIPP 030230Z 12005KT 9999 SCT010 28/24 Q1012 NOSIG=
03/09/2020 03:00:00Z	 SAID32 WIPP 030300	METAR WIPP 030300Z 16005KT 8000 SCT010 28/24 Q1012 NOSIG=
03/09/2020 03:30:00Z	 SAID32 WIPP 030330	METAR WIPP 030330Z 14006KT 8000 SCT010 28/24 Q1012 NOSIG=
03/09/2020 04:00:00Z	 SAID32 WIPP 030400	METAR WIPP 030400Z 14010KT 8000 BKN010 28/24 Q1012 NOSIG=
03/09/2020 04:30:00Z	 SAID32 WIPP 030430	METAR WIPP 030430Z 15006KT 9999 BKN010 27/24 Q1011 NOSIG=
03/09/2020 05:00:00Z	 SAID32 WIPP 030500	METAR WIPP 030500Z 14010KT 9999 BKN010 27/23 Q1011 NOSIG=
03/09/2020 05:30:00Z	 SAID32 WIPP 030530	METAR WIPP 030530Z 15007KT 9999 SCT010 28/24 Q1010 NOSIG=
03/09/2020 06:00:00Z	 SAID32 WIPP 030600	METAR WIPP 030600Z 14008KT 9999 SCT010 27/23 Q1010 NOSIG=
03/09/2020 06:30:00Z	 SAID32 WIPP 030630	METAR WIPP 030630Z 15007KT 9999 BKN010 27/24 Q1009 NOSIG=
03/09/2020 07:00:00Z	 SAID32 WIPP 030700	METAR WIPP 030700Z 16006KT 8000 -RA BKN010 FEW012CB 27/24 Q1009 RMK CB TO NW=
03/09/2020 07:30:00Z	 SAID32 WIPP 030730	METAR WIPP 030730Z 15007KT 8000 BKN010 FEW012CB 27/23 Q1008 RERA RMK CB TO NW=
03/09/2020 08:00:00Z	 SAID32 WIPP 030800	METAR WIPP 030800Z 13006KT 8000 -RA BKN010 FEW012CB 27/23 Q1008 RMK CB TO N=
03/09/2020 08:30:00Z	 SAID32 WIPP 030830	METAR WIPP 030830Z 13007KT 8000 -RA BKN010 FEW012CB 27/24 Q1008 RMK CB TO N=
03/09/2020 09:00:00Z	 SAID32 WIPP 030900	METAR WIPP 030900Z 13009KT 8000 -RA BKN010 FEW012CB 26/24 Q1008 RMK CB TO N=
03/09/2020 09:30:00Z	 SAID32 WIPP 030930	METAR WIPP 030930Z 14008KT 9999 BKN010 26/23 Q1008 RERA=
03/09/2020 10:00:00Z	 SAID32 WIPP 031000	METAR WIPP 031000Z 13007KT 9999 SCT010 26/23 Q1009 NOSIG=
03/09/2020 10:30:00Z	 SAID32 WIPP 031030	METAR WIPP 031030Z 09007KT 9999 SCT010 26/23 Q1009 NOSIG=
03/09/2020 11:00:00Z	 SAID32 WIPP 031100	METAR WIPP 031100Z 11006KT 9999 BKN010 26/23 Q1009 NOSIG=
03/09/2020 11:30:00Z	 SAID32 WIPP 031130	METAR WIPP 031130Z 10005KT 9999 SCT010 26/23 Q1010 NOSIG=
03/09/2020 12:00:00Z	 SAID32 WIPP 031200	METAR WIPP 031200Z 12005KT 9999 FEW010 26/23 Q1010 NOSIG=
03/09/2020 12:30:00Z	 SAID32 WIPP 031230	METAR WIPP 031230Z 05003KT 9999 FEW010 26/23 Q1011 NOSIG=
03/09/2020 13:00:00Z	 SAID32 WIPP 031300	METAR WIPP 031300Z 04003KT 9999 FEW010 25/23 Q1011 NOSIG=
03/09/2020 13:30:00Z	 SAID32 WIPP 031330	METAR WIPP 031330Z 04002KT 9999 FEW010 25/23 Q1011 NOSIG=
03/09/2020 14:00:00Z	 SAID32 WIPP 031400	METAR WIPP 031400Z 10002KT 9999 FEW010 25/23 Q1012 NOSIG=
03/09/2020 14:30:00Z	 SAID32 WIPP 031430	METAR WIPP 031430Z 21001KT 9999 FEW010 25/23 Q1012 NOSIG=
03/09/2020 15:00:00Z	 SAID32 WIPP 031500	METAR WIPP 031500Z 20002KT 9999 FEW010 25/23 Q1012 NOSIG=
03/09/2020 15:30:00Z	 SAID32 WIPP 031530	METAR WIPP 031530Z 22003KT 9999 FEW010 24/23 Q1012 NOSIG=
03/09/2020 16:00:00Z	 SAID32 WIPP 031600	METAR WIPP 031600Z 27002KT 9999 FEW010 24/23 Q1012 NOSIG=
03/09/2020 16:30:00Z	 SAID32 WIPP 031630	METAR WIPP 031630Z 21003KT 8000 FEW010 24/23 Q1012=
03/09/2020 17:00:00Z	 SAID32 WIPP 031700	METAR WIPP 031700Z 18003KT 8000 FEW010 24/23 Q1011=
03/09/2020 17:30:00Z	 SAID32 WIPP 031730	METAR WIPP 031730Z 19003KT 8000 FEW010 24/23 Q1011=
03/09/2020 18:00:00Z	 SAID32 WIPP 031800	METAR WIPP 031800Z AUTO 19003KT 150V230 9999NDV NCD 24/24 Q1011=
03/09/2020 18:30:00Z	 SAID32 WIPP 031830	METAR WIPP 031830Z AUTO VRB02KT 9000NDV FEW019 FEW024 24/24 Q1011=
03/09/2020 19:00:00Z	 SAID32 WIPP 031900	METAR WIPP 031900Z AUTO VRB02KT 7000NDV BKN019 BKN030 24/24 Q1011=
03/09/2020 19:30:00Z	 SAID32 WIPP 031930	METAR WIPP 031930Z AUTO 20003KT 160V230 4700NDV BR BKN004 BKN020 24/24 Q1010=
03/09/2020 20:00:00Z	 SAID32 WIPP 032000	METAR WIPP 032000Z AUTO 22003KT 180V260 2500NDV BR OVC005 24/24 Q1010=
03/09/2020 20:30:00Z	 SAID32 WIPP 032030	METAR WIPP 032030Z AUTO VRB02KT 5000NDV FEW005 BKN017 24/24 Q1010=
03/09/2020 21:00:00Z	 SAID32 WIPP 032100	METAR WIPP 032100Z AUTO 19003KT 160V230 6000NDV OVC016 24/24 Q1010=
03/09/2020 21:30:00Z	 SAID32 WIPP 032130	METAR WIPP 032130Z AUTO VRB02KT 8000NDV OVC015 24/24 Q1010=
03/09/2020 22:00:00Z	 SAID32 WIPP 032200	METAR WIPP 032200Z 21003KT 9999 FEW010 24/23 Q1010 NOSIG=
03/09/2020 22:30:00Z	 SAID32 WIPP 032230	METAR WIPP 032230Z 18002KT 9999 FEW010 24/23 Q1010 NOSIG=
03/09/2020 23:00:00Z	 SAID32 WIPP 032300	METAR WIPP 032300Z 18002KT 9999 FEW010 24/23 Q1010 NOSIG=
03/09/2020 23:30:00Z	 SAID32 WIPP 032330	METAR WIPP 032330Z 18004KT 9999 FEW010 24/23 Q1010 NOSIG=
04/09/2020 00:00:00Z	 SAID32 WIPP 040000	METAR WIPP 040000Z 18004KT 9999 FEW010 25/23 Q1010 NOSIG=
04/09/2020 00:30:00Z	 SAID32 WIPP 040030	METAR WIPP 040030Z 17004KT 9999 FEW010 25/23 Q1011 NOSIG=
04/09/2020 01:00:00Z	 SAID32 WIPP 040100	METAR WIPP 040100Z 18004KT 9999 FEW010 26/24 Q1011 NOSIG=
04/09/2020 01:30:00Z	 SAID32 WIPP 040130	METAR WIPP 040130Z 14006KT 9999 FEW010 27/24 Q1012 NOSIG=
04/09/2020 02:00:00Z	 SAID32 WIPP 040200	METAR WIPP 040200Z 17003KT 9999 FEW010 28/24 Q1012 NOSIG=
04/09/2020 02:30:00Z	 SAID32 WIPP 040230	METAR WIPP 040230Z 17003KT 9999 SCT010 28/24 Q1012 NOSIG=
04/09/2020 03:00:00Z	 SAID32 WIPP 040300	METAR WIPP 040300Z 17005KT 9999 SCT010 30/24 Q1012 NOSIG=
04/09/2020 03:30:00Z	 SAID32 WIPP 040330	METAR WIPP 040330Z 13007KT 9999 SCT010 31/24 Q1011 NOSIG=
04/09/2020 04:00:00Z	 SAID32 WIPP 040400	METAR WIPP 040400Z 20006KT 9999 SCT010 31/24 Q1011 NOSIG=
04/09/2020 04:30:00Z	 SAID32 WIPP 040430	METAR WIPP 040430Z 12007KT 9999 SCT010 31/24 Q1010 NOSIG=
04/09/2020 05:00:00Z	 SAID32 WIPP 040500	METAR WIPP 040500Z 12007KT 9999 SCT010 32/23 Q1009 NOSIG=
04/09/2020 05:30:00Z	 SAID32 WIPP 040530	METAR WIPP 040530Z 12007KT 9999 SCT010 32/24 Q1009 NOSIG=
04/09/2020 06:00:00Z	 SAID32 WIPP 040600	METAR WIPP 040600Z 14005KT 9999 BKN010 32/24 Q1008 NOSIG=
04/09/2020 06:30:00Z	 SAID32 WIPP 040630	METAR WIPP 040630Z 09007KT 8000 -RA FEW010CB BKN010 28/24 Q1008 RMK CB TO N=
04/09/2020 07:00:00Z	 SAID32 WIPP 040700	METAR WIPP 040700Z 00000KT 8000 -RA FEW010CB BKN010 29/26 Q1007 RMK CB TO NE=
04/09/2020 07:30:00Z	 SAID32 WIPP 040730	METAR WIPP 040730Z 05005KT 8000 -RA FEW010CB BKN010 29/26 Q1007 RMK CB TO NE=
04/09/2020 08:00:00Z	 SAID32 WIPP 040800	METAR WIPP 040800Z 06003KT 8000 FEW010 30/25 Q1007 RERA=
04/09/2020 08:30:00Z	 SAID32 WIPP 040830	METAR WIPP 040830Z 11010KT 8000 -RA FEW010CB BKN010 29/25 Q1007 RMK CB TO NW=
04/09/2020 09:00:00Z	 SAID32 WIPP 040900	METAR WIPP 040900Z 11010KT 9999 FEW010CB SCT010 29/25 Q1007 RMK CB TO NW=
04/09/2020 09:30:00Z	 SAID32 WIPP 040930	METAR WIPP 040930Z 12004KT 9999 FEW010CB SCT010 29/24 Q1006 RMK CB TO W=
04/09/2020 10:00:00Z	 SAID32 WIPP 041000	METAR WIPP 041000Z 09004KT 9999 FEW010 29/24 Q1007 NOSIG=
04/09/2020 10:30:00Z	 SAID32 WIPP 041030	METAR WIPP 041030Z 13013KT 9999 SCT010 28/23 Q1007 NOSIG=
04/09/2020 11:00:00Z	 SAID32 WIPP 041100	METAR WIPP 041100Z 17004KT 8000 -RA FEW010CB SCT010 25/23 Q1007 RMK CB TO E=
04/09/2020 11:30:00Z	 SAID32 WIPP 041130	METAR WIPP 041130Z 18003KT 8000 -RA FEW010 25/23 Q1008=
04/09/2020 12:00:00Z	 SAID32 WIPP 041200	METAR WIPP 041200Z 00000KT 9999 FEW010 25/24 Q1008 RERA=
04/09/2020 12:30:00Z	 SAID32 WIPP 041230	METAR WIPP 041230Z 13002KT 9999 FEW010 25/24 Q1009 NOSIG=
04/09/2020 13:00:00Z	 SAID32 WIPP 041300	METAR WIPP 041300Z 19002KT 9999 FEW010 25/24 Q1009 NOSIG=
04/09/2020 13:30:00Z	 SAID32 WIPP 041330	METAR WIPP 041330Z 16002KT 9999 FEW010 26/24 Q1009 NOSIG=
04/09/2020 14:00:00Z	 SAID32 WIPP 041400	METAR WIPP 041400Z 18002KT 9999 FEW010 26/24 Q1010 NOSIG=
04/09/2020 14:30:00Z	 SAID32 WIPP 041430	METAR WIPP 041430Z 19002KT 9999 FEW010 26/24 Q1010 NOSIG=
04/09/2020 15:00:00Z	 SAID32 WIPP 041500	METAR WIPP 041500Z 21002KT 9999 FEW010 26/24 Q1010 NOSIG=
04/09/2020 15:30:00Z	 SAID32 WIPP 041530	METAR WIPP 041530Z 21002KT 9999 FEW010 26/25 Q1010 NOSIG=
04/09/2020 16:00:00Z	 SAID32 WIPP 041600	METAR WIPP 041600Z 24002KT 9999 FEW010 26/25 Q1010 NOSIG=
04/09/2020 16:30:00Z	 SAID32 WIPP 041630	METAR WIPP 041630Z 25002KT 9999 FEW010 26/25 Q1010 NOSIG=
04/09/2020 17:00:00Z	 SAID32 WIPP 041700	METAR WIPP 041700Z 26002KT 6000 FEW010 25/24 Q1010 NOSIG=
04/09/2020 18:00:00Z	 SAID32 WIPP 041800	METAR WIPP 041800Z 21002KT 9999 SCT010 25/24 Q1009 NOSIG=
04/09/2020 19:00:00Z	 SAID32 WIPP 041900	METAR WIPP 041900Z 26002KT 5000 HZ SCT010 25/24 Q1008=
04/09/2020 20:00:00Z	 SAID32 WIPP 042000	METAR WIPP 042000Z 22003KT 6000 BKN010 24/23 Q1008 NOSIG=
04/09/2020 21:00:00Z	 SAID32 WIPP 042100	METAR WIPP 042100Z 20002KT 9999 FEW010 24/23 Q1008 NOSIG=
04/09/2020 21:30:00Z	 SAID32 WIPP 042130	METAR WIPP 042130Z 21003KT 9999 FEW010 24/23 Q1008 NOSIG=
04/09/2020 22:00:00Z	 SAID32 WIPP 042200	METAR WIPP 042200Z 20002KT 9999 FEW010 24/23 Q1008 NOSIG=
04/09/2020 22:30:00Z	 SAID32 WIPP 042230	METAR WIPP 042230Z 19002KT 9999 SCT010 24/23 Q1008 NOSIG=
04/09/2020 23:00:00Z	 SAID32 WIPP 042300	METAR WIPP 042300Z 17002KT 9999 SCT010 24/23 Q1009 NOSIG=
04/09/2020 23:30:00Z	 SAID32 WIPP 042330	METAR WIPP 042330Z 16003KT 7000 -RA SCT010 25/24 Q1009=
05/09/2020 00:00:00Z	 SAID32 WIPP 050000	METAR WIPP 050000Z 22002KT 7000 -RA SCT010 25/24 Q1009=
05/09/2020 00:30:00Z	 SAID32 WIPP 050030	METAR WIPP 050030Z 18003KT 9999 SCT010 26/24 Q1009 NOSIG=
05/09/2020 01:00:00Z	 SAID32 WIPP 050100	METAR WIPP 050100Z 19005KT 9999 NSC 27/24 Q1010 NOSIG=
05/09/2020 01:30:00Z	 SAID32 WIPP 050130	METAR WIPP 050130Z 18006KT 9999 NSC 28/25 Q1010 NOSIG=
05/09/2020 02:00:00Z	 SAID32 WIPP 050200	METAR WIPP 050200Z 17006KT 9999 FEW010 29/25 Q1010 NOSIG=
05/09/2020 02:30:00Z	 SAID32 WIPP 050230	METAR WIPP 050230Z 19006KT 9999 FEW010 29/24 Q1010 NOSIG=
05/09/2020 03:00:00Z	 SAID32 WIPP 050300	METAR WIPP 050300Z 14007KT 9999 SCT010 30/24 Q1010 NOSIG=
05/09/2020 03:30:00Z	 SAID32 WIPP 050330	METAR WIPP 050330Z 14006KT 9999 SCT010 30/24 Q1009 NOSIG=
05/09/2020 04:00:00Z	 SAID32 WIPP 050400	METAR WIPP 050400Z 15007KT 9999 BKN010 31/24 Q1009 NOSIG=
05/09/2020 04:30:00Z	 SAID32 WIPP 050430	METAR WIPP 050430Z 17008KT 9999 BKN010 31/24 Q1009 NOSIG=
05/09/2020 05:00:00Z	 SAID32 WIPP 050500	METAR WIPP 050500Z 15007KT 9999 BKN010 31/24 Q1008 NOSIG=
05/09/2020 05:30:00Z	 SAID32 WIPP 050530	METAR WIPP 050530Z 14005KT 9999 BKN010 32/23 Q1008 NOSIG=
05/09/2020 06:00:00Z	 SAID32 WIPP 050600	METAR WIPP 050600Z 14006KT 9999 BKN010 32/24 Q1007 NOSIG=
05/09/2020 06:30:00Z	 SAID32 WIPP 050630	METAR WIPP 050630Z 07008KT 9999 FEW010CB SCT010 27/24 Q1007 RERA RMK CB OVER THE FIELD=
05/09/2020 07:00:00Z	 SAID32 WIPP 050700	METAR WIPP 050700Z 17003KT 140V210 9999 FEW010CB SCT010 27/25 Q1007 TEMPO FM0710 TL0750 13010G20KT 1000 RA RMK CB OVER THE FIELD=
05/09/2020 07:30:00Z	 SAID32 WIPP 050730	METAR WIPP 050730Z 14003KT 9999 SCT010 27/24 Q1007=
05/09/2020 08:00:00Z	 SAID32 WIPP 050800	METAR WIPP 050800Z 16005KT 9999 SCT010 28/25 Q1007 NOSIG=
05/09/2020 08:00:00Z	 SAID32 WIPP 050800 CCA	METAR COR WIPP 050800Z 16005KT 140V200 9999 SCT010 28/25 Q1007 NOSIG=
05/09/2020 08:30:00Z	 SAID32 WIPP 050830	METAR WIPP 050830Z 17005KT 140V200 9999 SCT010 29/25 Q1006 NOSIG=
05/09/2020 09:00:00Z	 SAID32 WIPP 050900	METAR WIPP 050900Z 18005KT 130V190 9999 FEW010 30/24 Q1006 NOSIG=
05/09/2020 09:30:00Z	 SAID32 WIPP 050930	METAR WIPP 050930Z 16002KT 9999 FEW010 30/24 Q1007 NOSIG=
05/09/2020 10:00:00Z	 SAID32 WIPP 051000	METAR WIPP 051000Z 09003KT 9999 FEW010 30/24 Q1007 NOSIG=
05/09/2020 10:30:00Z	 SAID32 WIPP 051030	METAR WIPP 051030Z 07005KT 9999 FEW010 30/24 Q1008 NOSIG=
05/09/2020 11:00:00Z	 SAID32 WIPP 051100	METAR WIPP 051100Z 05003KT 9999 FEW010 29/25 Q1008 NOSIG=
05/09/2020 11:30:00Z	 SAID32 WIPP 051130	METAR WIPP 051130Z 04003KT 8000 FEW010 29/25 Q1008 NOSIG=
05/09/2020 12:00:00Z	 SAID32 WIPP 051200	METAR WIPP 051200Z 04001KT 9999 FEW010 28/24 Q1008 NOSIG=
05/09/2020 12:30:00Z	 SAID32 WIPP 051230	METAR WIPP 051230Z 02002KT 9999 FEW010 28/25 Q1009 NOSIG=
05/09/2020 13:00:00Z	 SAID32 WIPP 051300	METAR WIPP 051300Z 06003KT 9999 FEW010 27/24 Q1009 NOSIG=
05/09/2020 14:00:00Z	 SAID32 WIPP 051400	METAR WIPP 051400Z 35002KT 8000 FEW010 26/24 Q1009 NOSIG=
05/09/2020 15:00:00Z	 SAID32 WIPP 051500	METAR WIPP 051500Z 32005KT 8000 FEW010 25/24 Q1010 NOSIG=
05/09/2020 16:00:00Z	 SAID32 WIPP 051600	METAR WIPP 051600Z 30004KT 6000 FEW010 25/23 Q1010 NOSIG=
05/09/2020 17:00:00Z	 SAID32 WIPP 051700	METAR WIPP 051700Z 31003KT 5000 HZ FEW010 24/23 Q1009=
05/09/2020 18:00:00Z	 SAID32 WIPP 051800	METAR WIPP 051800Z 26002KT 5000 HZ FEW010 24/23 Q1009=
05/09/2020 19:00:00Z	 SAID32 WIPP 051900	METAR WIPP 051900Z 21004KT 5000 HZ FEW010 24/23 Q1008=
05/09/2020 20:00:00Z	 SAID32 WIPP 052000	METAR WIPP 052000Z 24003KT 4000 BR FEW010 23/23 Q1008=
05/09/2020 21:00:00Z	 SAID32 WIPP 052100	METAR WIPP 052100Z 2002KT 4000 BR FEW010 23/22 Q1008=
05/09/2020 21:30:00Z	 SAID32 WIPP 052130	METAR WIPP 052130Z 22002KT 4000 BR FEW010 23/22 Q1008=
05/09/2020 22:00:00Z	 SAID32 WIPP 052200	METAR WIPP 052200Z 00000KT 2000 BR FEW010 23/22 Q1009=
05/09/2020 22:30:00Z	 SAID32 WIPP 052230	METAR WIPP 052230Z 00000KT 2000 BR FEW010 23/22 Q1009=
05/09/2020 23:00:00Z	 SAID32 WIPP 052300	METAR WIPP 052300Z 00000KT 1000 BR FEW010 23/22 Q1009=
05/09/2020 23:30:00Z	 SAID32 WIPP 052330	METAR WIPP 052330Z 20002KT 3000 BR FEW010 23/22 Q1009=
06/09/2020 00:00:00Z	 SAID32 WIPP 060000	METAR WIPP 060000Z 22002KT 4000 BR FEW010 23/23 Q1009=
06/09/2020 00:30:00Z	 SAID32 WIPP 060030	METAR WIPP 060030Z 22003KT 6000 FEW010 24/23 Q1010 NOSIG=
06/09/2020 01:00:00Z	 SAID32 WIPP 060100	METAR WIPP 060100Z 23002KT 6000 FEW010 24/24 Q1010 NOSIG=
06/09/2020 01:30:00Z	 SAID32 WIPP 060130	METAR WIPP 060130Z 14002KT 8000 FEW010 26/24 Q1010 NOSIG=
06/09/2020 02:00:00Z	 SAID32 WIPP 060200	METAR WIPP 060200Z 10002KT 9999 FEW010 27/25 Q1010 NOSIG=
06/09/2020 02:30:00Z	 SAID32 WIPP 060230	METAR WIPP 060230Z 11006KT 9999 SCT010 29/24 Q1010 NOSIG=
06/09/2020 03:00:00Z	 SAID32 WIPP 060300	METAR WIPP 060300Z 18004KT 9999 SCT010 30/24 Q1010 NOSIG=
06/09/2020 03:30:00Z	 SAID32 WIPP 060330	METAR WIPP 060330Z 13007KT 9999 SCT010 31/24 Q1010 NOSIG=
06/09/2020 04:00:00Z	 SAID32 WIPP 060400	METAR WIPP 060400Z 12008KT 9999 SCT010 31/23 Q1009 NOSIG=
06/09/2020 04:30:00Z	 SAID32 WIPP 060430	METAR WIPP 060430Z 13005KT 9999 SCT010 31/23 Q1009 NOSIG=
06/09/2020 05:00:00Z	 SAID32 WIPP 060500	METAR WIPP 060500Z 11008KT 9999 SCT010 31/23 Q1009 NOSIG=
06/09/2020 05:30:00Z	 SAID32 WIPP 060530	METAR WIPP 060530Z 12009KT 9999 SCT010 31/23 Q1008 NOSIG=
06/09/2020 06:00:00Z	 SAID32 WIPP 060600	METAR WIPP 060600Z 12010KT 9999 BKN010 32/23 Q1008 NOSIG=
06/09/2020 06:30:00Z	 SAID32 WIPP 060630	METAR WIPP 060630Z 12011KT 9999 BKN010 32/23 Q1008 NOSIG=
06/09/2020 07:00:00Z	 SAID32 WIPP 060700	METAR WIPP 060700Z 15007KT 9999 BKN010 32/21 Q1007 NOSIG=
06/09/2020 07:30:00Z	 SAID32 WIPP 060730	METAR WIPP 060730Z 13005KT 9999 BKN010 32/22 Q1007 NOSIG=
06/09/2020 08:00:00Z	 SAID32 WIPP 060800	METAR WIPP 060800Z 15007KT 9999 SCT010 32/22 Q1007 NOSIG=
06/09/2020 08:30:00Z	 SAID32 WIPP 060830	METAR WIPP 060830Z 10004KT 9999 SCT010 31/23 Q1007 NOSIG=
06/09/2020 09:00:00Z	 SAID32 WIPP 060900	METAR WIPP 060900Z 11006KT 9999 FEW010 31/22 Q1007 NOSIG=
06/09/2020 09:30:00Z	 SAID32 WIPP 060930	METAR WIPP 060930Z 13005KT 9999 FEW010 31/23 Q1007 NOSIG=
06/09/2020 10:00:00Z	 SAID32 WIPP 061000	METAR WIPP 061000Z 12004KT 9999 FEW010 31/23 Q1007 NOSIG=
06/09/2020 10:30:00Z	 SAID32 WIPP 061030	METAR WIPP 061030Z 11004KT 9999 FEW010 31/23 Q1007 NOSIG=
06/09/2020 11:00:00Z	 SAID32 WIPP 061100	METAR WIPP 061100Z 09002KT 9999 FEW010 30/23 Q1007 NOSIG=
06/09/2020 11:30:00Z	 SAID32 WIPP 061130	METAR WIPP 061130Z 07002KT 9999 FEW010 30/23 Q1008 NOSIG=
06/09/2020 12:00:00Z	 SAID32 WIPP 061200	METAR WIPP 061200Z 00000KT 9999 FEW010 29/23 Q1008 NOSIG=
06/09/2020 12:30:00Z	 SAID32 WIPP 061230	METAR WIPP 061230Z 08001KT 9999 FEW010 29/24 Q1008 NOSIG=
06/09/2020 13:00:00Z	 SAID32 WIPP 061300	METAR WIPP 061300Z 11004KT 9999 FEW010 28/24 Q1009 NOSIG=
06/09/2020 13:30:00Z	 SAID32 WIPP 061330	METAR WIPP 061330Z 08003KT 9999 FEW010 28/24 Q1009 NOSIG=
06/09/2020 14:00:00Z	 SAID32 WIPP 061400	METAR WIPP 061400Z 10003KT 9999 FEW010 28/24 Q1009 NOSIG=
06/09/2020 14:30:00Z	 SAID32 WIPP 061430	METAR WIPP 061430Z 07002KT 9999 FEW010 27/23 Q1010 NOSIG=
06/09/2020 15:00:00Z	 SAID32 WIPP 061500	METAR WIPP 061500Z 08001KT 9999 FEW010 27/24 Q1010 NOSIG=
06/09/2020 15:30:00Z	 SAID32 WIPP 061530	METAR WIPP 061530Z AUTO 10002KT 8000NDV NCD 25/24 Q1010=
06/09/2020 16:00:00Z	 SAID32 WIPP 061600	METAR WIPP 061600Z AUTO 00000KT 6000NDV NCD 24/24 Q1010=
06/09/2020 16:30:00Z	 SAID32 WIPP 061630	METAR WIPP 061630Z AUTO 00000KT 6000NDV NCD 24/24 Q1010=
06/09/2020 17:00:00Z	 SAID32 WIPP 061700	METAR WIPP 061700Z AUTO 00000KT 5000NDV NCD 24/24 Q1009=
06/09/2020 17:30:00Z	 SAID32 WIPP 061730	METAR WIPP 061730Z AUTO 10002KT 5000NDV NCD 24/24 Q1009=
06/09/2020 18:00:00Z	 SAID32 WIPP 061800	METAR WIPP 061800Z AUTO 00000KT 5000NDV NCD 24/24 Q1009=
06/09/2020 18:30:00Z	 SAID32 WIPP 061830	METAR WIPP 061830Z AUTO 00000KT 3100NDV BR NCD 23/23 Q1009=
06/09/2020 19:00:00Z	 SAID32 WIPP 061900	METAR WIPP 061900Z AUTO 00000KT 3200NDV BR NCD 24/24 Q1008=
06/09/2020 19:30:00Z	 SAID32 WIPP 061930	METAR WIPP 061930Z AUTO 12002KT 3000NDV BR NCD 24/24 Q1008=
06/09/2020 20:00:00Z	 SAID32 WIPP 062000	METAR WIPP 062000Z AUTO 00000KT 3100NDV BR NCD 24/24 Q1009=
06/09/2020 20:30:00Z	 SAID32 WIPP 062030	METAR WIPP 062030Z AUTO 00000KT 2100NDV BR NCD 24/24 Q1009=
06/09/2020 21:00:00Z	 SAID32 WIPP 062100	METAR WIPP 062100Z AUTO 00000KT 2200NDV BR NCD 23/23 Q1009=
06/09/2020 21:30:00Z	 SAID32 WIPP 062130	METAR WIPP 062130Z AUTO 15003KT 4200NDV BR NCD 24/24 Q1009=
06/09/2020 22:00:00Z	 SAID32 WIPP 062200	METAR WIPP 062200Z AUTO 19002KT 3500NDV BR NCD 23/24 Q1009=
06/09/2020 22:30:00Z	 SAID32 WIPP 062230	METAR WIPP 062230Z AUTO 21002KT 1800NDV BR NCD 23/23 Q1009=
06/09/2020 23:00:00Z	 SAID32 WIPP 062300	METAR WIPP 062300Z 19003KT 1500 BR FEW010 24/23 Q1009=
06/09/2020 23:30:00Z	 SAID32 WIPP 062330	METAR WIPP 062330Z 19001KT 2000 BR FEW010 24/23 Q1010=
07/09/2020 00:00:00Z	 SAID32 WIPP 070000	METAR WIPP 070000Z 16002KT 3000 BR NSC 25/24 Q1010=
07/09/2020 00:30:00Z	 SAID32 WIPP 070030	METAR WIPP 070030Z 15003KT 6000 NSC 26/25 Q1011=
07/09/2020 01:00:00Z	 SAID32 WIPP 070100	METAR WIPP 070100Z 15005KT 8000 SCT010 27/25 Q1011=
07/09/2020 01:30:00Z	 SAID32 WIPP 070130	METAR WIPP 070130Z 13006KT 9999 SCT010 27/25 Q1011 NOSIG=
07/09/2020 02:00:00Z	 SAID32 WIPP 070200	METAR WIPP 070200Z 13008KT 9999 SCT010 29/24 Q1011 NOSIG=
07/09/2020 02:30:00Z	 SAID32 WIPP 070230	METAR WIPP 070230Z 15005KT 9999 SCT010 30/24 Q1011 NOSIG=
07/09/2020 03:00:00Z	 SAID32 WIPP 070300	METAR WIPP 070300Z 12008KT 9999 SCT010 30/24 Q1011 NOSIG=
07/09/2020 03:30:00Z	 SAID32 WIPP 070330	METAR WIPP 070330Z 13009KT 9999 SCT010 31/23 Q1011 NOSIG=
07/09/2020 04:00:00Z	 SAID32 WIPP 070400	METAR WIPP 070400Z 12005KT 9999 BKN010 31/23 Q1010 NOSIG=
07/09/2020 04:30:00Z	 SAID32 WIPP 070430	METAR WIPP 070430Z 12004KT 9999 BKN010 31/23 Q1010 NOSIG=
07/09/2020 05:00:00Z	 SAID32 WIPP 070500	METAR WIPP 070500Z 14005KT 9999 BKN010 32/23 Q1009 NOSIG=
07/09/2020 05:30:00Z	 SAID32 WIPP 070530	METAR WIPP 070530Z 14006KT 9999 BKN010 31/22 Q1009 NOSIG=
07/09/2020 06:00:00Z	 SAID32 WIPP 070600	METAR WIPP 070600Z 13007KT 9999 BKN010 32/23 Q1008 NOSIG=
07/09/2020 06:30:00Z	 SAID32 WIPP 070630	METAR WIPP 070630Z 11006KT 9999 BKN010 32/23 Q1008 NOSIG=
07/09/2020 07:00:00Z	 SAID32 WIPP 070700	METAR WIPP 070700Z 11008KT 9999 BKN010 32/23 Q1008 NOSIG=
07/09/2020 07:30:00Z	 SAID32 WIPP 070730	METAR WIPP 070730Z 09009KT 9999 BKN010 33/23 Q1007 NOSIG=
07/09/2020 08:00:00Z	 SAID32 WIPP 070800	METAR WIPP 070800Z 12006KT 9999 BKN010 33/22 Q1007 NOSIG=
07/09/2020 08:30:00Z	 SAID32 WIPP 070830	METAR WIPP 070830Z 12010KT 9999 BKN010 33/22 Q1007 NOSIG=
07/09/2020 09:00:00Z	 SAID32 WIPP 070900	METAR WIPP 070900Z 08010KT 9999 BKN010 33/22 Q1007 NOSIG=
07/09/2020 09:30:00Z	 SAID32 WIPP 070930	METAR WIPP 070930Z 11010KT 9999 SCT010 33/22 Q1007 NOSIG=
07/09/2020 10:00:00Z	 SAID32 WIPP 071000	METAR WIPP 071000Z 11010KT 9999 SCT010 32/21 Q1007 NOSIG=
07/09/2020 10:30:00Z	 SAID32 WIPP 071030	METAR WIPP 071030Z 10008KT 9999 SCT010 31/21 Q1008 NOSIG=
07/09/2020 11:00:00Z	 SAID32 WIPP 071100	METAR WIPP 071100Z 11008KT 9999 SCT010 31/21 Q1008 NOSIG=
07/09/2020 11:30:00Z	 SAID32 WIPP 071130	METAR WIPP 071130Z 10007KT 9999 SCT010 30/22 Q1008 NOSIG=
07/09/2020 12:00:00Z	 SAID32 WIPP 071200	METAR WIPP 071200Z 10008KT 9999 SCT010 29/22 Q1009 NOSIG=
07/09/2020 12:30:00Z	 SAID32 WIPP 071230	METAR WIPP 071230Z 10007KT 9999 FEW010 29/22 Q1009 NOSIG=
07/09/2020 13:00:00Z	 SAID32 WIPP 071300	METAR WIPP 071300Z 12005KT 9999 SCT010 29/22 Q1010 NOSIG=
07/09/2020 14:00:00Z	 SAID32 WIPP 071400	METAR WIPP 071400Z 12007KT 9999 FEW010 28/22 Q1010 NOSIG=
07/09/2020 15:00:00Z	 SAID32 WIPP 071500	METAR WIPP 071500Z 12004KT 9999 FEW010 27/23 Q1011 NOSIG=
07/09/2020 16:00:00Z	 SAID32 WIPP 071600	METAR WIPP 071600Z 12005KT 9999 FEW010 27/23 Q1011 NOSIG=
07/09/2020 21:00:00Z	 SAID32 WIPP 072100	METAR WIPP 072100Z 07003KT 9999 FEW010 27/23 Q1010 NOSIG=
07/09/2020 22:00:00Z	 SAID32 WIPP 072200	METAR WIPP 072200Z 00000KT 9999 FEW010 26/23 Q1010 NOSIG=
07/09/2020 22:30:00Z	 SAID32 WIPP 072230	METAR WIPP 072230Z 15002KT 9999 FEW010 26/23 Q1010 NOSIG=
07/09/2020 23:00:00Z	 SAID32 WIPP 072300	METAR WIPP 072300Z 16002KT 9999 FEW010 26/23 Q1011 NOSIG=
07/09/2020 23:30:00Z	 SAID32 WIPP 072330	METAR WIPP 072330Z 18004KT 9999 BKN010 26/23 Q1011 NOSIG=
08/09/2020 00:00:00Z	 SAID32 WIPP 080000	METAR WIPP 080000Z 19006KT 9999 SCT010 26/24 Q1011 NOSIG=
08/09/2020 00:30:00Z	 SAID32 WIPP 080030	METAR WIPP 080030Z 17007KT 9999 SCT010 27/24 Q1011 NOSIG=
08/09/2020 01:00:00Z	 SAID32 WIPP 080100	METAR WIPP 080100Z 18004KT 9999 SCT010 27/24 Q1012 NOSIG=
08/09/2020 01:30:00Z	 SAID32 WIPP 080130	METAR WIPP 080130Z 16005KT 9999 SCT010 28/24 Q1012 NOSIG=
08/09/2020 02:00:00Z	 SAID32 WIPP 080200	METAR WIPP 080200Z 15004KT 9999 SCT010 30/24 Q1012 NOSIG=
08/09/2020 02:30:00Z	 SAID32 WIPP 080230	METAR WIPP 080230Z 13008KT 9999 SCT010 30/25 Q1012 NOSIG=
08/09/2020 03:00:00Z	 SAID32 WIPP 080300	METAR WIPP 080300Z 13008KT 9999 SCT010 30/25 Q1012 NOSIG=
08/09/2020 03:30:00Z	 SAID32 WIPP 080330	METAR WIPP 080330Z 11012KT 9999 SCT010 31/23 Q1011 NOSIG=
08/09/2020 04:00:00Z	 SAID32 WIPP 080400	METAR WIPP 080400Z 12010KT 9999 SCT010 32/23 Q1011 NOSIG=
08/09/2020 04:30:00Z	 SAID32 WIPP 080430	METAR WIPP 080430Z 12008KT 9999 BKN010 32/23 Q1010 NOSIG=
08/09/2020 05:00:00Z	 SAID32 WIPP 080500	METAR WIPP 080500Z 14008KT 9999 BKN010 31/23 Q1010 NOSIG=
08/09/2020 05:30:00Z	 SAID32 WIPP 080530	METAR WIPP 080530Z 17015G25KT 8000 -RA BKN010 FEW010CB 25/23 Q1010 RMK CB TO NE AND NW=
08/09/2020 06:00:00Z	 SAID32 WIPP 080600	METAR WIPP 080600Z 16012KT 9999 BKN010 FEW010CB 28/25 Q1010 RERA RMK CB TO W=
08/09/2020 06:30:00Z	 SAID32 WIPP 080630	METAR WIPP 080630Z 12012KT 9999 BKN010 FEW010CB 31/25 Q1009 RMK CB TO W=
08/09/2020 07:00:00Z	 SAID32 WIPP 080700	METAR WIPP 080700Z 12015KT 9999 SCT010 31/24 Q1009 NOSIG=
08/09/2020 07:30:00Z	 SAID32 WIPP 080730	METAR WIPP 080730Z 12015KT 9999 BKN010 31/24 Q1008 NOSIG=
08/09/2020 08:00:00Z	 SAID32 WIPP 080800	METAR WIPP 080800Z 12015KT 9999 BKN010 FEW012CB 30/23 Q1008 RMK CB TO W=
08/09/2020 08:30:00Z	 SAID32 WIPP 080830	METAR WIPP 080830Z 13015KT 9999 SCT010 FEW012CB 31/23 Q1008 RMK CB TO NW=
08/09/2020 09:00:00Z	 SAID32 WIPP 080900	METAR WIPP 080900Z 13020KT 9999 BKN010 FEW012CB 31/23 Q1008 RMK CB TO N=
08/09/2020 09:30:00Z	 SAID32 WIPP 080930	METAR WIPP 080930Z 13015KT 9999 BKN010 FEW012CB 30/23 Q1008 RMK CB TO N=
08/09/2020 10:00:00Z	 SAID32 WIPP 081000	METAR WIPP 081000Z 13012KT 9999 SCT010 30/23 Q1008 NOSIG=
08/09/2020 10:30:00Z	 SAID32 WIPP 081030	METAR WIPP 081030Z 13010KT 9999 SCT010 29/23 Q1008 NOSIG=
08/09/2020 11:00:00Z	 SAID32 WIPP 081100	METAR WIPP 081100Z 12010KT 9999 SCT010 29/24 Q1008 NOSIG=
08/09/2020 12:00:00Z	 SAID32 WIPP 081200	METAR WIPP 081200Z 13010KT 9999 SCT010 28/24 Q1009 NOSIG=
08/09/2020 12:30:00Z	 SAID32 WIPP 081230	METAR WIPP 081230Z 12005KT 9999 SCT010 28/24 Q1010 NOSIG=
08/09/2020 13:00:00Z	 SAID32 WIPP 081300	METAR WIPP 081300Z 10004KT 9999 SCT010 27/23 Q1010 NOSIG=
08/09/2020 14:00:00Z	 SAID32 WIPP 081400	METAR WIPP 081400Z 12003KT 9999 SCT010 27/24 Q1011 NOSIG=
08/09/2020 15:00:00Z	 SAID32 WIPP 081500	METAR WIPP 081500Z 14003KT 9999 SCT010 27/24 Q1011 NOSIG=
08/09/2020 16:00:00Z	 SAID32 WIPP 081600	METAR WIPP 081600Z 17002KT 9999 SCT010 26/24 Q1011 NOSIG=
08/09/2020 17:00:00Z	 SAID32 WIPP 081700	METAR WIPP 081700Z 14002KT 9999 FEW010 26/24 Q1011 NOSIG=
08/09/2020 18:00:00Z	 SAID32 WIPP 081800	METAR WIPP 081800Z AUTO 15002KT 7000NDV NCD 25/25 Q1010=
08/09/2020 18:30:00Z	 SAID32 WIPP 081830	METAR WIPP 081830Z AUTO 21002KT 6000NDV FEW027 FEW034 25/25 Q1010=
08/09/2020 19:00:00Z	 SAID32 WIPP 081900	METAR WIPP 081900Z AUTO 22002KT 6000NDV NCD 25/25 Q1010=
08/09/2020 19:30:00Z	 SAID32 WIPP 081930	METAR WIPP 081930Z AUTO 21002KT 5000NDV NCD 25/25 Q1009=
08/09/2020 20:00:00Z	 SAID32 WIPP 082000	METAR WIPP 082000Z AUTO 00000KT 6000NDV FEW026 25/25 Q1010=
08/09/2020 20:30:00Z	 SAID32 WIPP 082030	METAR WIPP 082030Z AUTO 21002KT 5000NDV NCD 25/25 Q1009=
08/09/2020 21:00:00Z	 SAID32 WIPP 082100	METAR WIPP 082100Z AUTO 00000KT 2900NDV BR FEW022 24/24 Q1009=
08/09/2020 21:30:00Z	 SAID32 WIPP 082130	METAR WIPP 082130Z AUTO 22002KT 6000NDV BKN021 BKN029 25/25 Q1010=
08/09/2020 22:00:00Z	 SAID32 WIPP 082200	METAR WIPP 082200Z 17002KT 6000 SCT010 25/24 Q1009 NOSIG=
08/09/2020 22:30:00Z	 SAID32 WIPP 082230	METAR WIPP 082230Z AUTO 00000KT 6000NDV FEW013 BKN024 BKN031 25/25 Q1010=
08/09/2020 23:00:00Z	 SAID32 WIPP 082300	METAR WIPP 082300Z 00000KT 5000 HZ SCT010 25/24 Q1010=
08/09/2020 23:30:00Z	 SAID32 WIPP 082330	METAR WIPP 082330Z 00000KT 5000 HZ SCT010 25/24 Q1010=
09/09/2020 00:00:00Z	 SAID32 WIPP 090000	METAR WIPP 090000Z 22003KT 8000 SCT010 26/24 Q1010=
09/09/2020 00:30:00Z	 SAID32 WIPP 090030	METAR WIPP 090030Z 23002KT 8000 SCT010 26/24 Q1010=
09/09/2020 01:00:00Z	 SAID32 WIPP 090100	METAR WIPP 090100Z 23003KT 8000 SCT010 27/24 Q1011=
09/09/2020 01:30:00Z	 SAID32 WIPP 090130	METAR WIPP 090130Z 21004KT 9999 SCT010 27/24 Q1011 NOSIG=
09/09/2020 02:00:00Z	 SAID32 WIPP 090200	METAR WIPP 090200Z 15005KT 9999 SCT010 28/24 Q1011 NOSIG=
09/09/2020 02:30:00Z	 SAID32 WIPP 090230	METAR WIPP 090230Z 12005KT 9999 SCT010 29/24 Q1011 NOSIG=
09/09/2020 03:00:00Z	 SAID32 WIPP 090300	METAR WIPP 090300Z 10007KT 9999 SCT010 29/24 Q1011 NOSIG=
09/09/2020 03:30:00Z	 SAID32 WIPP 090330	METAR WIPP 090330Z 09005KT 9999 SCT010 30/25 Q1010 NOSIG=
09/09/2020 04:00:00Z	 SAID32 WIPP 090400	METAR WIPP 090400Z 17005KT 9999 SCT010 30/25 Q1010 NOSIG=
09/09/2020 04:30:00Z	 SAID32 WIPP 090430	METAR WIPP 090430Z 16005KT 9999 SCT010 31/24 Q1009 NOSIG=
09/09/2020 05:00:00Z	 SAID32 WIPP 090500	METAR WIPP 090500Z 29004KT 9999 BKN010 31/24 Q1009 NOSIG=
09/09/2020 05:30:00Z	 SAID32 WIPP 090530	METAR WIPP 090530Z 34003KT 9999 -RA BKN010 FEW012CB 31/25 Q1008 RMK CB TO SE=
09/09/2020 06:00:00Z	 SAID32 WIPP 090600	METAR WIPP 090600Z 03004KT 9999 BKN010 FEW012CB 31/24 Q1007 RERA RMK CB TO W=
09/09/2020 06:30:00Z	 SAID32 WIPP 090630	METAR WIPP 090630Z 25005KT 9999 BKN010 FEW012CB 31/25 Q1007 RERA RMK CB TO SW=
09/09/2020 06:30:00Z	 SAID32 WIPP 090630 CCA	METAR WIPP 090630Z 25005KT 9999 BKN010 FEW012CB 31/25 Q1007 RMK CB TO SW=
09/09/2020 07:00:00Z	 SAID32 WIPP 090700	METAR WIPP 090700Z 21002KT 8000 -RA BKN010 FEW012CB 31/25 Q1007 RMK CB TO SW=
09/09/2020 07:30:00Z	 SAID32 WIPP 090730	METAR WIPP 090730Z 22005KT 9999 BKN010 FEW012CB 31/25 Q1006 RERA RMK CB TO SW=
09/09/2020 08:00:00Z	 SAID32 WIPP 090800	METAR WIPP 090800Z 24004KT 9999 BKN010 FEW012CB 31/25 Q1006 RMK CB TO W=
09/09/2020 08:30:00Z	 SAID32 WIPP 090830	METAR WIPP 090830Z 22006KT 9999 BKN010 FEW012CB 30/25 Q1006 TEMPO FM0840 TL0920 27012G25KT 3000 RA RMK CB TO NW=
09/09/2020 09:00:00Z	 SAID32 WIPP 090900	METAR WIPP 090900Z 19009KT 0500 TSRA BKN010 FEW012CB 27/25 Q1006 RMK CB OVER THE FIELD=
09/09/2020 09:30:00Z	 SAID32 WIPP 090930	METAR WIPP 090930Z 03005KT 3000 TSRA BKN010 FEW012CB 26/25 Q1007 RMK CB OVER THE FIELD=
09/09/2020 10:00:00Z	 SAID32 WIPP 091000	METAR WIPP 091000Z 01005KT 8000 -TSRA BKN010 FEW012CB 25/24 Q1007 RMK CB OVER THE FIELD=
09/09/2020 10:30:00Z	 SAID32 WIPP 091030	METAR WIPP 091030Z 35002KT 8000 TS BKN010 FEW012CB 25/24 Q1007 RMK CB OVER THE FIELD=
09/09/2020 10:30:00Z	 SAID32 WIPP 091030 CCA	METAR WIPP 091030Z 35002KT 8000 TSRA BKN010 FEW012CB 25/24 Q1007 RMK CB OVER THE FIELD=
09/09/2020 11:00:00Z	 SAID32 WIPP 091100	METAR WIPP 091100Z 02002KT 4000 -RA BKN010 FEW012CB 25/24 Q1008 RETS RMK CB TO N=
09/09/2020 11:30:00Z	 SAID32 WIPP 091130	METAR WIPP 091130Z 07005KT 8000 -RA BKN010 FEW012CB 25/24 Q1008 RMK CB TO N=
09/09/2020 12:00:00Z	 SAID32 WIPP 091200	METAR WIPP 091200Z 09005KT 8000 -TSRA BKN010 FEW012CB 25/24 Q1008 RMK CB TO NW=
09/09/2020 12:30:00Z	 SAID32 WIPP 091230	METAR WIPP 091230Z 07004KT 5000 TSRA BKN010 FEW012CB 25/24 Q1009 RMK CB OVER THE FIELD=
09/09/2020 13:00:00Z	 SAID32 WIPP 091300	METAR WIPP 091300Z 07005KT 6000 -RA BKN010 FEW012CB 25/24 Q1009 RMK CB TO E AND NW=
09/09/2020 14:00:00Z	 SAID32 WIPP 091400	METAR WIPP 091400Z 03003KT 8000 -RA BKN010 25/24 Q1010=
09/09/2020 15:00:00Z	 SAID32 WIPP 091500	METAR WIPP 091500Z 00000KT 9999 SCT010 25/24 Q1010 RERA=
09/09/2020 16:00:00Z	 SAID32 WIPP 091600	METAR WIPP 091600Z 00000KT 8000 SCT010 25/24 Q1010 NOSIG=
09/09/2020 17:00:00Z	 SAID32 WIPP 091700	METAR WIPP 091700Z 00000KT 9999 SCT010 25/24 Q1010 NOSIG=
09/09/2020 18:00:00Z	 SAID32 WIPP 091800	METAR WIPP 091800Z AUTO 08002KT 2100NDV BR NCD 24/24 Q1009=
09/09/2020 18:30:00Z	 SAID32 WIPP 091830	METAR WIPP 091830Z AUTO 00000KT 3100NDV BR NCD 24/24 Q1009=
09/09/2020 19:00:00Z	 SAID32 WIPP 091900	METAR WIPP 091900Z AUTO 00000KT 1900NDV BR NCD 24/24 Q1008=
09/09/2020 19:30:00Z	 SAID32 WIPP 091930	METAR WIPP 091930Z AUTO 00000KT 1400NDV R11/P2000N R29/P2000N BR BKN065 24/24 Q1008=
09/09/2020 20:00:00Z	 SAID32 WIPP 092000	METAR WIPP 092000Z AUTO 16002KT 3200NDV BR SCT065 SCT080 24/24 Q1007=
09/09/2020 20:30:00Z	 SAID32 WIPP 092030	METAR WIPP 092030Z AUTO 00000KT 8000NDV FEW028 BKN065 24/24 Q1007=
09/09/2020 21:00:00Z	 SAID32 WIPP 092100	METAR WIPP 092100Z AUTO 00000KT 8000NDV NCD 24/24 Q1007=
09/09/2020 21:30:00Z	 SAID32 WIPP 092130	METAR WIPP 092130Z AUTO 00000KT 7000NDV SCT090 24/24 Q1007=
09/09/2020 22:00:00Z	 SAID32 WIPP 092200	METAR WIPP 092200Z AUTO 00000KT 5000NDV SCT085 24/24 Q1007=
09/09/2020 22:30:00Z	 SAID32 WIPP 092230	METAR WIPP 092230Z AUTO VRB02KT 2900NDV BR SCT080 BKN095 24/24 Q1007=
09/09/2020 23:00:00Z	 SAID32 WIPP 092300	METAR WIPP 092300Z AUTO 22002KT 2000NDV BR OVC070 24/24 Q1008=
09/09/2020 23:30:00Z	 SAID32 WIPP 092330	METAR WIPP 092330Z 23003KT 2000 BR BKN010 25/24 Q1008=
10/09/2020 00:00:00Z	 SAID32 WIPP 100000	METAR WIPP 100000Z 22003KT 2000 BR BKN010 25/24 Q1009=
10/09/2020 00:30:00Z	 SAID32 WIPP 100030	METAR WIPP 100030Z 25003KT 6000 BKN010 25/24 Q1009 NOSIG=
10/09/2020 01:00:00Z	 SAID32 WIPP 100100	METAR WIPP 100100Z 16002KT 9999 SCT010 26/24 Q1009 NOSIG=
10/09/2020 01:30:00Z	 SAID32 WIPP 100130	METAR WIPP 100130Z 18002KT 9999 SCT010 26/24 Q1009 NOSIG=
10/09/2020 02:00:00Z	 SAID32 WIPP 100200	METAR WIPP 100200Z 21002KT 9999 SCT010 28/24 Q1009 NOSIG=
10/09/2020 02:30:00Z	 SAID32 WIPP 100230	METAR WIPP 100230Z 18003KT 9999 SCT010 29/25 Q1009 NOSIG=
10/09/2020 03:00:00Z	 SAID32 WIPP 100300	METAR WIPP 100300Z 24004KT 9999 BKN010 30/24 Q1009 NOSIG=
10/09/2020 03:30:00Z	 SAID32 WIPP 100330	METAR WIPP 100330Z 15004KT 9999 BKN010 30/24 Q1009 NOSIG=
10/09/2020 04:00:00Z	 SAID32 WIPP 100400	METAR WIPP 100400Z 17006KT 9999 BKN010 30/25 Q1009 NOSIG=
10/09/2020 04:30:00Z	 SAID32 WIPP 100430	METAR WIPP 100430Z 19003KT 9999 BKN010 FEW011CB 30/25 Q1008 RMK CB TO S=
10/09/2020 05:00:00Z	 SAID32 WIPP 100500	METAR WIPP 100500Z 13003KT 9999 BKN010 FEW011CB 30/24 Q1008 RMK CB TO S=
10/09/2020 05:30:00Z	 SAID32 WIPP 100530	METAR WIPP 100530Z 11012KT 9999 BKN010 FEW011CB 30/24 Q1007 RMK CB TO S=
10/09/2020 06:00:00Z	 SAID32 WIPP 100600	METAR WIPP 100600Z 16011KT 9999 BKN010 FEW011CB 30/24 Q1007 RMK CB TO W=
10/09/2020 06:30:00Z	 SAID32 WIPP 100630	METAR WIPP 100630Z 11010KT 9999 BKN010 FEW011CB 30/23 Q1006 RMK CB TO SW=
10/09/2020 08:00:00Z	 SAID32 WIPP 100800	METAR WIPP 100800Z 13005KT 9999 BKN010 FEW011CB 29/24 Q1006 RMK CB TO W=
10/09/2020 08:30:00Z	 SAID32 WIPP 100830	METAR WIPP 100830Z 19004KT 9999 BKN010 FEW011CB 29/24 Q1006 RMK CB TO W=
10/09/2020 09:00:00Z	 SAID32 WIPP 100900	METAR WIPP 100900Z 17008KT 9999 BKN010 FEW011CB 28/23 Q1007 RMK CB TO W=
10/09/2020 10:00:00Z	 SAID32 WIPP 101000	METAR WIPP 101000Z 27003KT 9999 BKN010 26/24 Q1007 NOSIG=
10/09/2020 10:30:00Z	 SAID32 WIPP 101030	METAR WIPP 101030Z 29004KT 9999 SCT010 26/24 Q1007 NOSIG=
10/09/2020 11:00:00Z	 SAID32 WIPP 101100	METAR WIPP 101100Z 28003KT 9999 SCT010 26/24 Q1008 NOSIG=
10/09/2020 11:30:00Z	 SAID32 WIPP 101130	METAR WIPP 101130Z 22003KT 9999 SCT010 25/24 Q1008 NOSIG=
10/09/2020 12:00:00Z	 SAID32 WIPP 101200	METAR WIPP 101200Z 22004KT 9999 SCT010 25/24 Q1008 NOSIG=
10/09/2020 12:30:00Z	 SAID32 WIPP 101230	METAR WIPP 101230Z 24005KT 9999 SCT010 25/24 Q1008 NOSIG=
10/09/2020 13:00:00Z	 SAID32 WIPP 101300	METAR WIPP 101300Z 22005KT 9999 SCT010 25/23 Q1009 NOSIG=
10/09/2020 13:30:00Z	 SAID32 WIPP 101330	METAR WIPP 101330Z 24006KT 9999 SCT010 25/23 Q1009 NOSIG=
10/09/2020 14:00:00Z	 SAID32 WIPP 101400	METAR WIPP 101400Z 22005KT 9999 SCT010 25/23 Q1010 NOSIG=
10/09/2020 14:30:00Z	 SAID32 WIPP 101430	METAR WIPP 101430Z 23003KT 9999 SCT010 24/23 Q1010 NOSIG=
10/09/2020 15:00:00Z	 SAID32 WIPP 101500	METAR WIPP 101500Z 22003KT 9999 SCT010 24/23 Q1010 NOSIG=
10/09/2020 15:30:00Z	 SAID32 WIPP 101530	METAR WIPP 101530Z 22003KT 9999 FEW010 24/23 Q1010 NOSIG=
10/09/2020 16:00:00Z	 SAID32 WIPP 101600	METAR WIPP 101600Z 21003KT 9999 FEW010 24/23 Q1010 NOSIG=
10/09/2020 16:30:00Z	 SAID32 WIPP 101630	METAR WIPP 101630Z 26004KT 9999 FEW010 24/23 Q1010 NOSIG=
10/09/2020 17:00:00Z	 SAID32 WIPP 101700	METAR WIPP 101700Z 25003KT 9999 FEW010 24/23 Q1010 NOSIG=
10/09/2020 17:30:00Z	 SAID32 WIPP 101730	METAR WIPP 101730Z 24001KT 9999 FEW010 24/23 Q1009 NOSIG=
10/09/2020 18:00:00Z	 SAID32 WIPP 101800	METAR WIPP 101800Z 25002KT 9999 FEW010 24/23 Q1009 NOSIG=
10/09/2020 18:30:00Z	 SAID32 WIPP 101830	METAR WIPP 101830Z AUTO 00000KT 3600NDV BR FEW006 SCT065 24/24 Q1009=
10/09/2020 19:00:00Z	 SAID32 WIPP 101900	METAR WIPP 101900Z AUTO VRB02KT 4100NDV BR NCD 23/23 Q1009=
10/09/2020 19:30:00Z	 SAID32 WIPP 101930	METAR WIPP 101930Z AUTO 00000KT 3400NDV BR NCD 23/23 Q1008=
10/09/2020 20:00:00Z	 SAID32 WIPP 102000	METAR WIPP 102000Z AUTO VRB02KT 4200NDV BR NCD 23/23 Q1008=
10/09/2020 20:30:00Z	 SAID32 WIPP 102030	METAR WIPP 102030Z AUTO VRB02KT 7000NDV NCD 23/23 Q1008=
10/09/2020 21:00:00Z	 SAID32 WIPP 102100	METAR WIPP 102100Z 16002KT 9999 FEW010 23/23 Q1008 NOSIG=
10/09/2020 21:30:00Z	 SAID32 WIPP 102130	METAR WIPP 102130Z 18001KT 9999 FEW010 23/23 Q1008 NOSIG=
10/09/2020 22:00:00Z	 SAID32 WIPP 102200	METAR WIPP 102200Z 20002KT 9999 FEW010 23/22 Q1008 NOSIG=
10/09/2020 22:30:00Z	 SAID32 WIPP 102230	METAR WIPP 102230Z 18002KT 9999 FEW010 23/22 Q1009 NOSIG=
10/09/2020 23:00:00Z	 SAID32 WIPP 102300	METAR WIPP 102300Z 17002KT 8000 FEW010 23/22 Q1009 NOSIG=
10/09/2020 23:30:00Z	 SAID32 WIPP 102330	METAR WIPP 102330Z 19001KT 8000 FEW010 23/22 Q1009 NOSIG=
11/09/2020 00:00:00Z	 SAID32 WIPP 110000	METAR WIPP 110000Z 20002KT 8000 FEW010 24/23 Q1009 NOSIG=
11/09/2020 00:30:00Z	 SAID32 WIPP 110030	METAR WIPP 110030Z 17004KT 8000 FEW010 25/23 Q1009 NOSIG=
11/09/2020 01:00:00Z	 SAID32 WIPP 110100	METAR WIPP 110100Z 13006KT 9999 FEW010 27/24 Q1010 NOSIG=
11/09/2020 01:30:00Z	 SAID32 WIPP 110130	METAR WIPP 110130Z 13006KT 9999 FEW010 28/24 Q1010 NOSIG=
11/09/2020 02:00:00Z	 SAID32 WIPP 110200	METAR WIPP 110200Z 11008KT 9999 FEW010 29/24 Q1010 NOSIG=
11/09/2020 02:30:00Z	 SAID32 WIPP 110230	METAR WIPP 110230Z 12008KT 9999 FEW010 30/24 Q1010 NOSIG=
11/09/2020 03:00:00Z	 SAID32 WIPP 110300	METAR WIPP 110300Z 13005KT 9999 SCT010 30/23 Q1010 NOSIG=
11/09/2020 03:30:00Z	 SAID32 WIPP 110330	METAR WIPP 110330Z 11009KT 9999 SCT010 30/23 Q1009 NOSIG=
11/09/2020 04:00:00Z	 SAID32 WIPP 110400	METAR WIPP 110400Z 12011KT 9999 SCT010 31/24 Q1009 NOSIG=
11/09/2020 04:30:00Z	 SAID32 WIPP 110430	METAR WIPP 110430Z 14004KT 9999 SCT010 32/24 Q1009 NOSIG=
11/09/2020 05:00:00Z	 SAID32 WIPP 110500	METAR WIPP 110500Z 11011KT 9999 SCT010 31/22 Q1008 NOSIG=
11/09/2020 05:30:00Z	 SAID32 WIPP 110530	METAR WIPP 110530Z 14005KT 9999 BKN010 31/23 Q1008 NOSIG=
11/09/2020 06:00:00Z	 SAID32 WIPP 110600	METAR WIPP 110600Z 11006KT 9999 BKN010 31/22 Q1008 NOSIG=
11/09/2020 06:30:00Z	 SAID32 WIPP 110630	METAR WIPP 110630Z 07006KT 9999 BKN010 32/23 Q1007 NOSIG=
11/09/2020 07:00:00Z	 SAID32 WIPP 110700	METAR WIPP 110700Z 07008KT 9999 FEW010TCU BKN010 32/22 Q1007 NOSIG=
11/09/2020 07:30:00Z	 SAID32 WIPP 110730	METAR WIPP 110730Z 08010KT 9999 FEW010TCU BKN010 33/22 Q1006 NOSIG=
11/09/2020 08:30:00Z	 SAID32 WIPP 110830	METAR WIPP 110830Z 11013KT 9999 SCT010 33/12 Q1006 NOSIG=
11/09/2020 08:30:00Z	 SAID32 WIPP 110830 CCA	METAR COR WIPP 110830Z 11013KT 9999 SCT010 33/21 Q1006 NOSIG=
11/09/2020 09:00:00Z	 SAID32 WIPP 110900	METAR WIPP 110900Z 11010KT 9999 SCT010 33/22 Q1006 NOSIG=
11/09/2020 09:30:00Z	 SAID32 WIPP 110930	METAR WIPP 110930Z 10011KT 9999 SCT010 33/21 Q1006 NOSIG=
11/09/2020 10:00:00Z	 SAID32 WIPP 111000	METAR WIPP 111000Z 10009KT 9999 SCT010 32/21 Q1007 NOSIG=
11/09/2020 10:30:00Z	 SAID32 WIPP 111030	METAR WIPP 111030Z 10007KT 9999 FEW010 32/22 Q1007 NOSIG=
11/09/2020 11:00:00Z	 SAID32 WIPP 111100	METAR WIPP 111100Z 10007KT 9999 FEW010 31/22 Q1008 NOSIG=
11/09/2020 11:30:00Z	 SAID32 WIPP 111130	METAR WIPP 111130Z 10008KT 9999 FEW010 30/23 Q1008 NOSIG=
11/09/2020 12:00:00Z	 SAID32 WIPP 111200	METAR WIPP 111200Z 10006KT 9999 FEW010 30/23 Q1009 NOSIG=
11/09/2020 12:30:00Z	 SAID32 WIPP 111230	METAR WIPP 111230Z 10006KT 9999 FEW010 29/23 Q1009 NOSIG=
11/09/2020 13:00:00Z	 SAID32 WIPP 111300	METAR WIPP 111300Z 10007KT 9999 FEW010 29/23 Q1010 NOSIG=
11/09/2020 13:30:00Z	 SAID32 WIPP 111330	METAR WIPP 111330Z 12009KT 9999 FEW010 28/23 Q1010 NOSIG=
11/09/2020 14:00:00Z	 SAID32 WIPP 111400	METAR WIPP 111400Z 12011KT 9999 FEW010 28/23 Q1011 NOSIG=
11/09/2020 14:30:00Z	 SAID32 WIPP 111430	METAR WIPP 111430Z 13010KT 9999 FEW010 27/23 Q1011 NOSIG=
11/09/2020 15:00:00Z	 SAID32 WIPP 111500	METAR WIPP 111500Z 14007KT 9999 FEW010 27/23 Q1011 NOSIG=
11/09/2020 15:30:00Z	 SAID32 WIPP 111530	METAR WIPP 111530Z 12006KT 9999 FEW010 27/23 Q1011 NOSIG=
11/09/2020 16:00:00Z	 SAID32 WIPP 111600	METAR WIPP 111600Z 15003KT 9999 FEW010 27/23 Q1011 NOSIG=
11/09/2020 16:30:00Z	 SAID32 WIPP 111630	METAR WIPP 111630Z 15003KT 9999 FEW010 26/23 Q1011 NOSIG=
11/09/2020 17:00:00Z	 SAID32 WIPP 111700	METAR WIPP 111700Z 14003KT 9999 FEW010 26/23 Q1011 NOSIG=
11/09/2020 18:00:00Z	 SAID32 WIPP 111800	METAR WIPP 111800Z 16002KT 9999 FEW010 26/23 Q1010 NOSIG=
11/09/2020 19:00:00Z	 SAID32 WIPP 111900	METAR WIPP 111900Z 18003KT 9999 FEW010 25/22 Q1009 NOSIG=
11/09/2020 20:00:00Z	 SAID32 WIPP 112000	METAR WIPP 112000Z 17002KT 9999 FEW010 25/23 Q1009 NOSIG=
11/09/2020 21:00:00Z	 SAID32 WIPP 112100	METAR WIPP 112100Z 14002KT 9999 FEW010 24/23 Q1010 NOSIG=
11/09/2020 21:30:00Z	 SAID32 WIPP 112130	METAR WIPP 112130Z 19002KT 6000 FEW010 24/23 Q1010 NOSIG=
11/09/2020 22:30:00Z	 SAID32 WIPP 112230	METAR WIPP 112230Z 22004KT 4000 HZ FEW010 23/22 Q1010=
11/09/2020 23:00:00Z	 SAID32 WIPP 112300	METAR WIPP 112300Z 20003KT 4000 HZ FEW010 23/22 Q1010=
11/09/2020 23:30:00Z	 SAID32 WIPP 112330	METAR WIPP 112330Z 22003KT 3000 HZ FEW010 23/22 Q1011=
12/09/2020 00:00:00Z	 SAID32 WIPP 120000	METAR WIPP 120000Z 20004KT 5000 HZ FEW010 24/22 Q1011=
12/09/2020 00:30:00Z	 SAID32 WIPP 120030	METAR WIPP 120030Z 20005KT 7000 FEW010 25/23 Q1012 NOSIG=
12/09/2020 01:00:00Z	 SAID32 WIPP 120100	METAR WIPP 120100Z 18007KT 9999 FEW010 26/23 Q1012 NOSIG=
12/09/2020 01:30:00Z	 SAID32 WIPP 120130	METAR WIPP 120130Z 20008KT 9999 SCT010 27/24 Q1013 NOSIG=
12/09/2020 02:00:00Z	 SAID32 WIPP 120200	METAR WIPP 120200Z 20008KT 9999 SCT010 28/24 Q1013 NOSIG=
12/09/2020 02:30:00Z	 SAID32 WIPP 120230	METAR WIPP 120230Z 14008KT 9999 SCT010 29/24 Q1012 NOSIG=
12/09/2020 03:30:00Z	 SAID32 WIPP 120330	METAR WIPP 120330Z 15010KT 9999 SCT010 30/23 Q1012 NOSIG=
12/09/2020 04:00:00Z	 SAID32 WIPP 120400	METAR WIPP 120400Z 13008KT 9999 BKN010 30/23 Q1012 NOSIG=
12/09/2020 04:30:00Z	 SAID32 WIPP 120430	METAR WIPP 120430Z 13012KT 9999 BKN010 32/23 Q1011 NOSIG=
12/09/2020 05:00:00Z	 SAID32 WIPP 120500	METAR WIPP 120500Z 09006KT 9999 SCT010 32/23 Q1010 NOSIG=
12/09/2020 05:30:00Z	 SAID32 WIPP 120530	METAR WIPP 120530Z 16008KT 9999 SCT010 32/24 Q1010 NOSIG=
12/09/2020 06:00:00Z	 SAID32 WIPP 120600	METAR WIPP 120600Z 13009KT 9999 SCT010 32/22 Q1009 NOSIG=
12/09/2020 06:30:00Z	 SAID32 WIPP 120630	METAR WIPP 120630Z 16005KT 9999 SCT010 32/22 Q1009 NOSIG=
12/09/2020 07:00:00Z	 SAID32 WIPP 120700	METAR WIPP 120700Z 13008KT 9999 SCT010 33/22 Q1008 NOSIG=
12/09/2020 07:30:00Z	 SAID32 WIPP 120730	METAR WIPP 120730Z 13004KT 9999 SCT010 32/22 Q1008 NOSIG=
12/09/2020 08:00:00Z	 SAID32 WIPP 120800	METAR WIPP 120800Z 12008KT 9999 SCT010 33/22 Q1008 NOSIG=
12/09/2020 08:30:00Z	 SAID32 WIPP 120830	METAR WIPP 120830Z 15010KT 9999 SCT010 33/22 Q1007 NOSIG=
12/09/2020 09:00:00Z	 SAID32 WIPP 120900	METAR WIPP 120900Z 10009KT 9999 SCT010 33/22 Q1007 NOSIG=
12/09/2020 09:30:00Z	 SAID32 WIPP 120930	METAR WIPP 120930Z 12008KT 9999 SCT010 32/22 Q1007 NOSIG=
12/09/2020 10:00:00Z	 SAID32 WIPP 121000	METAR WIPP 121000Z 10008KT 9999 SCT010 32/23 Q1008 NOSIG=
12/09/2020 10:30:00Z	 SAID32 WIPP 121030	METAR WIPP 121030Z 10004KT 9999 SCT010 31/22 Q1008 NOSIG=
12/09/2020 11:00:00Z	 SAID32 WIPP 121100	METAR WIPP 121100Z 11006KT 9999 SCT010 31/23 Q1009 NOSIG=
12/09/2020 11:30:00Z	 SAID32 WIPP 121130	METAR WIPP 121130Z 10005KT 9999 SCT010 30/23 Q1009 NOSIG=
