01/08/2020 00:00:00Z	 SAID32 WIBB 010000	METAR WIBB 010000Z 12006KT 8000 SCT012 24/23 Q1008=
01/08/2020 00:30:00Z	 SAID32 WIBB 010030	METAR WIBB 010030Z 00000KT 8000 SCT012 24/23 Q1008=
01/08/2020 01:00:00Z	 SAID32 WIBB 010100	METAR WIBB 010100Z 00000KT 8000 SCT012 24/23 Q1009=
01/08/2020 01:30:00Z	 SAID32 WIBB 010130	METAR WIBB 010130Z 00000KT 8000 SCT012 25/23 Q1009=
01/08/2020 02:00:00Z	 SAID32 WIBB 010200	METAR WIBB 010200Z 15005KT 8000 SCT014 26/23 Q1009=
01/08/2020 02:30:00Z	 SAID32 WIBB 010230	METAR WIBB 010230Z 16006KT 9999 SCT014 26/23 Q1009=
01/08/2020 03:00:00Z	 SAID32 WIBB 010300	METAR WIBB 010300Z 17009KT 9999 SCT015 27/23 Q1008=
01/08/2020 03:30:00Z	 SAID32 WIBB 010330	METAR WIBB 010330Z 16007KT 9999 SCT015 28/23 Q1008=
01/08/2020 04:00:00Z	 SAID32 WIBB 010400	METAR WIBB 010400Z 15009KT 9000 SCT013 28/23 Q1008=
01/08/2020 04:30:00Z	 SAID32 WIBB 010430	METAR WIBB 010430Z 16010KT 9000 SCT013 28/23 Q1008=
01/08/2020 05:00:00Z	 SAID32 WIBB 010500	METAR WIBB 010500Z 19011KT 9000 SCT013 29/23 Q1007=
01/08/2020 05:30:00Z	 SAID32 WIBB 010530	METAR WIBB 010530Z 18009KT 9000 SCT013 29/23 Q1007=
01/08/2020 06:00:00Z	 SAID32 WIBB 010600	METAR WIBB 010600Z 17011KT 9000 SCT013 30/23 Q1007=
01/08/2020 06:30:00Z	 SAID32 WIBB 010630	METAR WIBB 010630Z 18010KT 9000 SCT013 30/23 Q1006=
01/08/2020 07:00:00Z	 SAID32 WIBB 010700	METAR WIBB 010700Z 15008KT 9999 SCT015 31/23 Q1006=
01/08/2020 07:30:00Z	 SAID32 WIBB 010730	METAR WIBB 010730Z 18007KT 9999 SCT015 32/23 Q1005=
01/08/2020 08:00:00Z	 SAID32 WIBB 010800	METAR WIBB 010800Z 15006KT 9999 SCT015 31/23 Q1005=
01/08/2020 08:30:00Z	 SAID32 WIBB 010830	METAR WIBB 010830Z 16008KT 9999 SCT015 32/23 Q1005=
01/08/2020 09:00:00Z	 SAID32 WIBB 010900	METAR WIBB 010900Z 14006KT 9999 SCT016 31/23 Q1005=
01/08/2020 09:30:00Z	 SAID32 WIBB 010930	METAR WIBB 010930Z 14006KT 9999 FEW017 31/24 Q1005=
01/08/2020 10:00:00Z	 SAID32 WIBB 011000	METAR WIBB 011000Z 13005KT 9999 FEW015 31/23 Q1005=
01/08/2020 10:30:00Z	 SAID32 WIBB 011030	METAR WIBB 011030Z 00000KT 9000 FEW015 30/23 Q1005=
01/08/2020 11:00:00Z	 SAID32 WIBB 011100	METAR WIBB 011100Z 00000KT 9000 FEW017 30/23 Q1005=
01/08/2020 11:30:00Z	 SAID32 WIBB 011130	METAR WIBB 011130Z 00000KT 8000 FEW017 29/23 Q1006=
01/08/2020 12:00:00Z	 SAID32 WIBB 011200	METAR WIBB 011200Z 00000KT 8000 FEW017 29/24 Q1006=
01/08/2020 12:30:00Z	 SAID32 WIBB 011230	METAR WIBB 011230Z 00000KT 8000 FEW017 29/24 Q1006=
01/08/2020 13:00:00Z	 SAID32 WIBB 011300	METAR WIBB 011300Z 00000KT 8000 SCT013 29/24 Q1007=
01/08/2020 13:30:00Z	 SAID32 WIBB 011330	METAR WIBB 011330Z 30010KT 7000 SCT 013 28/24 Q1008 TEMPO FM1400 TL1500 5000 TSRA SCT015CB=
01/08/2020 14:00:00Z	 SAID32 WIBB 011400	METAR WIBB 011400Z 28012KT 3000 R18/1600R R36/1500 TSRA SCT010 FEW015CB 24/23 Q1009=
01/08/2020 14:30:00Z	 SAID32 WIBB 011430	METAR WIBB 011430Z 30009KT 3000 R18/1600R R36/1500 TSRA SCT010 FEW015CB 24/23 Q1009=
01/08/2020 15:00:00Z	 SAID32 WIBB 011500	METAR WIBB 011500Z 34007KT 7000 -RA SCT010 FEW015CB 24/23 Q1009=
01/08/2020 15:30:00Z	 SAID32 WIBB 011530	METAR WIBB 011530Z 35007KT 7000 -RA SCT010 FEW015CB 24/23 Q1009=
01/08/2020 16:00:00Z	 SAID32 WIBB 011600	METAR WIBB 011600Z 35008KT 4000 -RA SCT013 FEW015CB 24/23 Q1009=
01/08/2020 23:00:00Z	 SAID32 WIBB 012300	METAR WIBB 012300Z 00000KT 7000 FEW013 24/23 Q1008=
01/08/2020 23:30:00Z	 SAID32 WIBB 012330	METAR WIBB 012330Z 00000KT 7000 FEW013 24/23 Q1008=
02/08/2020 00:00:00Z	 SAID32 WIBB 020000	METAR WIBB 020000Z 00000KT 7000 FEW013 24/23 Q1008=
02/08/2020 00:30:00Z	 SAID32 WIBB 020030	METAR WIBB 020030Z 00000KT 7000 FEW013 25/23 Q1008=
02/08/2020 01:00:00Z	 SAID32 WIBB 020100	METAR WIBB 020100Z 20005KT 8000 FEW014 25/23 Q1009=
02/08/2020 01:30:00Z	 SAID32 WIBB 020130	METAR WIBB 020130Z 18005KT 9000 FEW014 26/24 Q1009=
02/08/2020 02:00:00Z	 SAID32 WIBB 020200	METAR WIBB 020200Z 18005KT 9000 NSC 27/24 Q1009=
02/08/2020 02:30:00Z	 SAID32 WIBB 020230	METAR WIBB 020230Z 00000KT 9000 FEW014 28/23 Q1009=
02/08/2020 03:00:00Z	 SAID32 WIBB 020300	METAR WIBB 020300Z 16005KT 9000 FEW014 29/24 Q1009=
02/08/2020 03:30:00Z	 SAID32 WIBB 020330	METAR WIBB 020330Z 15007KT 9000 FEW014 29/24 Q1009=
02/08/2020 04:00:00Z	 SAID32 WIBB 020400	METAR WIBB 020400Z 18008KT 9999 SCT014 30/23 Q1009=
02/08/2020 04:30:00Z	 SAID32 WIBB 020430	METAR WIBB 020430Z 19010KT 9999 SCT014 30/23 Q1008=
02/08/2020 05:00:00Z	 SAID32 WIBB 020500	METAR WIBB 020500Z 18008KT 9999 SCT014 31/23 Q1008=
02/08/2020 05:30:00Z	 SAID32 WIBB 020530	METAR WIBB 020530Z 18008KT 9999 SCT014 31/23 Q1007=
02/08/2020 06:00:00Z	 SAID32 WIBB 020600	METAR WIBB 020600Z 18007KT 9999 SCT014 32/22 Q1007=
02/08/2020 06:30:00Z	 SAID32 WIBB 020630	METAR WIBB 020630Z 18006KT 9999 SCT014 31/23 Q1006=
02/08/2020 07:00:00Z	 SAID32 WIBB 020700	METAR WIBB 020700Z 15005KT 9999 SCT014 32/22 Q1006=
02/08/2020 07:30:00Z	 SAID32 WIBB 020730	METAR WIBB 020730Z 17005KT 9999 FEW014 32/22 Q1005=
02/08/2020 08:00:00Z	 SAID32 WIBB 020800	METAR WIBB 020800Z 18006KT 9999 SCT015 32/21 Q1005=
02/08/2020 08:30:00Z	 SAID32 WIBB 020830	METAR WIBB 020830Z 19005KT 9999 FEW015 33/23 Q1005=
02/08/2020 09:00:00Z	 SAID32 WIBB 020900	METAR WIBB 020900Z 16006KT 9999 SCT015 32/21 Q1004=
02/08/2020 09:30:00Z	 SAID32 WIBB 020930	METAR WIBB 020930Z 18005KT 9999 SCT014 32/22 Q1004=
02/08/2020 10:00:00Z	 SAID32 WIBB 021000	METAR WIBB 021000Z 19005KT 9999 FEW013 33/21 Q1004=
02/08/2020 10:30:00Z	 SAID32 WIBB 021030	METAR WIBB 021030Z 17005KT 9000 FEW013 31/21 Q1004=
02/08/2020 11:00:00Z	 SAID32 WIBB 021100	METAR WIBB 021100Z 00000KT 9000 NSC 31/22 Q1004=
02/08/2020 11:30:00Z	 SAID32 WIBB 021130	METAR WIBB 021130Z 00000KT 8000 NSC 30/22 Q1005=
02/08/2020 12:00:00Z	 SAID32 WIBB 021200	METAR WIBB 021200Z 00000KT 8000 NSC 30/23 Q1005=
02/08/2020 12:30:00Z	 SAID32 WIBB 021230	METAR WIBB 021230Z 00000KT 8000 NSC 29/23 Q1005=
02/08/2020 13:00:00Z	 SAID32 WIBB 021300	METAR WIBB 021300Z 00000KT 8000 NSC 29/23 Q1006=
02/08/2020 13:30:00Z	 SAID32 WIBB 021330	METAR WIBB 021330Z 00000KT 8000 NSC 28/23 Q1006=
02/08/2020 14:00:00Z	 SAID32 WIBB 021400	METAR WIBB 021400Z 00000KT 8000 FEW015 28/23 Q1006=
02/08/2020 14:30:00Z	 SAID32 WIBB 021430	METAR WIBB 021430Z 00000KT 8000 FEW015 28/22 Q1007=
02/08/2020 15:00:00Z	 SAID32 WIBB 021500	METAR WIBB 021500Z 00000KT 8000 FEW015 28/22 Q1007=
02/08/2020 15:30:00Z	 SAID32 WIBB 021530	METAR WIBB 021530Z 00000KT 8000 SCT015 28/23 Q1007=
02/08/2020 16:00:00Z	 SAID32 WIBB 021600	METAR WIBB 021600Z 00000KT 8000 FEW015 27/23 Q1007=
02/08/2020 16:30:00Z	 SAID32 WIBB 021630	METAR WIBB 021630Z 00000KT 8000 FEW015 27/23 Q1007=
02/08/2020 17:00:00Z	 SAID32 WIBB 021700	METAR WIBB 021700Z 00000KT 8000 FEW015 27/23 Q1007=
02/08/2020 18:00:00Z	 SAID32 WIBB 021800	METAR WIBB 021800Z 00000KT 8000 FEW015 26/24 Q1007=
02/08/2020 21:00:00Z	 SAID32 WIBB 022100	METAR WIBB 022100Z 00000KT 9999 FEW015 25/23 Q1006=
02/08/2020 22:30:00Z	 SAID32 WIBB 022230	METAR WIBB 022230Z 15006KT 8000 SCT015 25/23 Q1006=
02/08/2020 23:00:00Z	 SAID32 WIBB 022300	METAR WIBB 022300Z 00000KT 8000 NCD 25/23 Q1006=
02/08/2020 23:30:00Z	 SAID32 WIBB 022330	METAR WIBB 022330Z 00000KT 8000 NCD 25/23 Q1007=
03/08/2020 00:00:00Z	 SAID32 WIBB 030000	METAR WIBB 030000Z 00000KT 7000 SCT013 25/23 Q1007=
03/08/2020 00:30:00Z	 SAID32 WIBB 030030	METAR WIBB 030030Z 00000KT 7000 SCT013 26/22 Q1007=
03/08/2020 01:00:00Z	 SAID32 WIBB 030100	METAR WIBB 030100Z 20008KT 8000 SCT013 27/23 Q1008=
03/08/2020 01:30:00Z	 SAID32 WIBB 030130	METAR WIBB 030130Z 18005KT 8000 SCT013 27/23 Q1008=
03/08/2020 02:00:00Z	 SAID32 WIBB 030200	METAR WIBB 030200Z 19006KT 8000 SCT013 28/23 Q1008=
03/08/2020 02:30:00Z	 SAID32 WIBB 030230	METAR WIBB 030230Z 18007KT 9000 SCT013 29/23 Q1008=
03/08/2020 03:00:00Z	 SAID32 WIBB 030300	METAR WIBB 030300Z 18009KT 9000 FEW013 30/23 Q1008=
03/08/2020 03:30:00Z	 SAID32 WIBB 030330	METAR WIBB 030330Z 19010KT 9000 FEW013 31/23 Q1008=
03/08/2020 04:00:00Z	 SAID32 WIBB 030400	METAR WIBB 030400Z 15009KT 9999 FEW013 31/23 Q1007=
03/08/2020 04:30:00Z	 SAID32 WIBB 030430	METAR WIBB 030430Z 17012KT 9999 FEW013 31/23 Q1007=
03/08/2020 05:00:00Z	 SAID32 WIBB 030500	METAR WIBB 030500Z 17007KT 9999 FEW015 31/22 Q1006=
03/08/2020 05:30:00Z	 SAID32 WIBB 030530	METAR WIBB 030530Z 18012KT 9999 FEW015 31/23 Q1006=
03/08/2020 06:00:00Z	 SAID32 WIBB 030600	METAR WIBB 030600Z 19008KT 9999 SCT015 31/22 Q1006=
03/08/2020 06:30:00Z	 SAID32 WIBB 030630	METAR WIBB 030630Z 18008KT 9999 SCT015 32/22 Q1005=
03/08/2020 07:00:00Z	 SAID32 WIBB 030700	METAR WIBB 030700Z 18010KT 9999 SCT015 32/22 Q1004=
03/08/2020 07:30:00Z	 SAID32 WIBB 030730	METAR WIBB 030730Z 19008KT 9999 SCT014 33/22 Q1004=
03/08/2020 08:00:00Z	 SAID32 WIBB 030800	METAR WIBB 030800Z 18008KT 9999 SCT014 32/22 Q1004=
03/08/2020 08:30:00Z	 SAID32 WIBB 030830	METAR WIBB 030830Z 13008KT 9000 SCT014 32/22 Q1004=
03/08/2020 09:00:00Z	 SAID32 WIBB 030900	METAR WIBB 030900Z 17007KT 9000 SCT014 32/22 Q1003=
03/08/2020 09:30:00Z	 SAID32 WIBB 030930	METAR WIBB 030930Z 11006KT 9000 SCT014 32/22 Q1004=
03/08/2020 10:00:00Z	 SAID32 WIBB 031000	METAR WIBB 031000Z 14005KT 9000 SCT014 31/23 Q1004=
03/08/2020 10:30:00Z	 SAID32 WIBB 031030	METAR WIBB 031030Z 14007KT 9000 SCT014 31/22 Q1004=
03/08/2020 11:00:00Z	 SAID32 WIBB 031100	METAR WIBB 031100Z 10004KT 8000 FEW014 30/23 Q1004=
03/08/2020 11:30:00Z	 SAID32 WIBB 031130	METAR WIBB 031130Z 11004KT 8000 FEW014 30/23 Q1004=
03/08/2020 12:00:00Z	 SAID32 WIBB 031200	METAR WIBB 031200Z 00000KT 8000 NSC 29/23 Q1004=
03/08/2020 12:30:00Z	 SAID32 WIBB 031230	METAR WIBB 031230Z 00000KT 8000 NSC 29/24 Q1004=
03/08/2020 13:00:00Z	 SAID32 WIBB 031300	METAR WIBB 031300Z 00000KT 8000 NSC 29/24 Q1005=
03/08/2020 13:30:00Z	 SAID32 WIBB 031330	METAR WIBB 031330Z 00000KT 8000 NSC 29/24 Q1005=
03/08/2020 14:00:00Z	 SAID32 WIBB 031400	METAR WIBB 031400Z 00000KT 8000 FEW017 29/24 Q1006=
03/08/2020 14:30:00Z	 SAID32 WIBB 031430	METAR WIBB 031430Z 00000KT 8000 SCT017 29/23 Q1006=
03/08/2020 15:00:00Z	 SAID32 WIBB 031500	METAR WIBB 031500Z 00000KT 8000 SCT017 29/24 Q1006=
03/08/2020 15:30:00Z	 SAID32 WIBB 031530	METAR WIBB 031530Z 00000KT 8000 SCT017 28/24 Q1006=
03/08/2020 16:00:00Z	 SAID32 WIBB 031600	METAR WIBB 031600Z 00000KT 8000 SCT017 28/24 Q1007=
03/08/2020 16:30:00Z	 SAID32 WIBB 031630	METAR WIBB 031630Z 00000KT 8000 SCT017 28/25 Q1007=
03/08/2020 17:00:00Z	 SAID32 WIBB 031700	METAR WIBB 031700Z 00000KT 8000 SCT017 28/25 Q1007=
03/08/2020 17:30:00Z	 SAID32 WIBB 031730	METAR WIBB 031730Z 00000KT 8000 SCT017 28/24 Q1007=
03/08/2020 18:00:00Z	 SAID32 WIBB 031800	METAR WIBB 031800Z 32008KT 8000 TS SCT017CB 27/24 Q1006=
03/08/2020 21:00:00Z	 SAID32 WIBB 032100	METAR WIBB 032100Z 00000KT 2000 -RA BKN007 FEW015CB 23/22 Q1007=
03/08/2020 22:00:00Z	 SAID32 WIBB 032200	METAR WIBB 032200Z 26005KT 1000 RA OVC005 23/22 Q1007=
03/08/2020 23:00:00Z	 SAID32 WIBB 032300	METAR WIBB 032300Z 00000KT 6000 -RA SCT010 23/22 Q1007=
03/08/2020 23:30:00Z	 SAID32 WIBB 032330	METAR WIBB 032330Z 00000KT 6000 -RA BKN010 23/22 Q1007=
04/08/2020 00:00:00Z	 SAID32 WIBB 040000	METAR WIBB 040000Z 19004KT 5000 -RA OVC008 23/23 Q1008=
04/08/2020 00:30:00Z	 SAID32 WIBB 040030	METAR WIBB 040030Z 16004KT 5000 RA BKN007 23/23 Q1008=
04/08/2020 01:00:00Z	 SAID32 WIBB 040100	METAR WIBB 040100Z 19005KT 8000 -RA SCT008 23/23 Q1007=
04/08/2020 01:30:00Z	 SAID32 WIBB 040130	METAR WIBB 040130Z 19006KT 7000 -RA BKN008 23/22 Q1008=
04/08/2020 02:00:00Z	 SAID32 WIBB 040200	METAR WIBB 040200Z 18007KT 8000 SCT010 24/23 Q1008=
04/08/2020 02:30:00Z	 SAID32 WIBB 040230	METAR WIBB 040230Z 19007KT 8000 SCT010 24/23 Q1008=
04/08/2020 03:00:00Z	 SAID32 WIBB 040300	METAR WIBB 040300Z 19007KT 8000 BKN010 25/23 Q1008=
04/08/2020 03:30:00Z	 SAID32 WIBB 040330	METAR WIBB 040330Z 20006KT 8000 BKN010 26/23 Q1008=
04/08/2020 04:00:00Z	 SAID32 WIBB 040400	METAR WIBB 040400Z 20006KT 8000 SCT010 26/24 Q1008=
04/08/2020 04:30:00Z	 SAID32 WIBB 040430	METAR WIBB 040430Z 00000KT 8000 BKN010 27/23 Q1007=
04/08/2020 05:00:00Z	 SAID32 WIBB 040500	METAR WIBB 040500Z 00000KT 8000 SCT010 27/24 Q1007=
04/08/2020 05:30:00Z	 SAID32 WIBB 040530	METAR WIBB 040530Z 00000KT 8000 SCT010 28/23 Q1006=
04/08/2020 06:00:00Z	 SAID32 WIBB 040600	METAR WIBB 040600Z 00000KT 8000 FEW010 28/23 Q1006=
04/08/2020 06:30:00Z	 SAID32 WIBB 040630	METAR WIBB 040630Z 12005KT 8000 FEW012 28/23 Q1006=
04/08/2020 07:00:00Z	 SAID32 WIBB 040700	METAR WIBB 040700Z 00000KT 8000 FEW012 28/23 Q1005=
04/08/2020 07:30:00Z	 SAID32 WIBB 040730	METAR WIBB 040730Z 00000KT 8000 FEW012 28/24 Q1005=
04/08/2020 08:00:00Z	 SAID32 WIBB 040800	METAR WIBB 040800Z 00000KT 8000 -RA FEW012 29/24 Q1005=
04/08/2020 08:30:00Z	 SAID32 WIBB 040830	METAR WIBB 040830Z 00000KT 8000 FEW012 29/24 Q1005=
04/08/2020 09:30:00Z	 SAID32 WIBB 040930	METAR WIBB 040930Z 14006KT 8000 FEW013 29/24 Q1005=
04/08/2020 10:00:00Z	 SAID32 WIBB 041000	METAR WIBB 041000Z 00000KT 8000 FEW013 28/24 Q1005=
04/08/2020 10:30:00Z	 SAID32 WIBB 041030	METAR WIBB 041030Z 00000KT 8000 FEW013 28/24 Q1005=
04/08/2020 11:00:00Z	 SAID32 WIBB 041100	METAR WIBB 041100Z 14006KT 8000 FEW015 27/24 Q1005=
04/08/2020 11:30:00Z	 SAID32 WIBB 041130	METAR WIBB 041130Z 14005KT 8000 -RA FEW015 27/24 Q1005=
04/08/2020 12:00:00Z	 SAID32 WIBB 041200	METAR WIBB 041200Z 00000KT 8000 FEW015 27/24 Q1005=
04/08/2020 12:30:00Z	 SAID32 WIBB 041230	METAR WIBB 041230Z 14005KT 8000 SCT015 26/24 Q1006=
04/08/2020 13:00:00Z	 SAID32 WIBB 041300	METAR WIBB 041300Z 13005KT 8000 FEW015 26/24 Q1006=
04/08/2020 13:30:00Z	 SAID32 WIBB 041330	METAR WIBB 041330Z 11005KT 8000 FEW015 26/24 Q1007=
04/08/2020 14:00:00Z	 SAID32 WIBB 041400	METAR WIBB 041400Z 15006KT 7000 FEW015 26/24 Q1007=
04/08/2020 14:30:00Z	 SAID32 WIBB 041430	METAR WIBB 041430Z 13006KT 7000 FEW015 25/24 Q1007=
04/08/2020 15:00:00Z	 SAID32 WIBB 041500	METAR WIBB 041500Z 15006KT 7000 FEW015 25/24 Q1007=
04/08/2020 15:30:00Z	 SAID32 WIBB 041530	METAR WIBB 041530Z 14005KT 7000 FEW015 25/24 Q1007=
04/08/2020 16:00:00Z	 SAID32 WIBB 041600	METAR WIBB 041600Z 13006KT 7000 FEW015 25/24 Q1007=
04/08/2020 17:00:00Z	 SAID32 WIBB 041700	METAR WIBB 041700Z 14005KT 7000 FEW015 25/23 Q1007=
04/08/2020 18:00:00Z	 SAID32 WIBB 041800	METAR WIBB 041800Z 15005KT 7000 SCT015 24/23 Q1007=
04/08/2020 21:00:00Z	 SAID32 WIBB 042100	METAR WIBB 042100Z 17008KT 7000 SCT015 24/23 Q1006=
04/08/2020 22:00:00Z	 SAID32 WIBB 042200	METAR WIBB 042200Z 17006KT 7000 SCT013 24/23 Q1006=
04/08/2020 22:30:00Z	 SAID32 WIBB 042230	METAR WIBB 042230Z 16005KT 7000 SCT013 24/23 Q1006=
04/08/2020 23:00:00Z	 SAID32 WIBB 042300	METAR WIBB 042300Z 17006KT 6000 SCT012 24/23 Q1006=
04/08/2020 23:30:00Z	 SAID32 WIBB 042330	METAR WIBB 042330Z 20003KT 6000 SCT012 24/23 Q1007=
05/08/2020 00:00:00Z	 SAID32 WIBB 050000	METAR WIBB 050000Z 20005KT 6000 FEW012 24/23 Q1007=
05/08/2020 00:30:00Z	 SAID32 WIBB 050030	METAR WIBB 050030Z 18007KT 7000 NSC 24/23 Q1007=
05/08/2020 01:00:00Z	 SAID32 WIBB 050100	METAR WIBB 050100Z 18009KT 9999 FEW015 25/22 Q1008=
05/08/2020 01:30:00Z	 SAID32 WIBB 050130	METAR WIBB 050130Z 20009KT 8000 FEW015 25/22 Q1008=
05/08/2020 02:00:00Z	 SAID32 WIBB 050200	METAR WIBB 050200Z 17007KT 8000 FEW015 26/22 Q1008=
05/08/2020 02:30:00Z	 SAID32 WIBB 050230	METAR WIBB 050230Z 18009KT 9000 FEW015 26/22 Q1008=
05/08/2020 03:00:00Z	 SAID32 WIBB 050300	METAR WIBB 050300Z 18008KT 9000 FEW015 26/23 Q1008=
05/08/2020 03:30:00Z	 SAID32 WIBB 050330	METAR WIBB 050330Z 17010KT 9999 FEW015 27/22 Q1008=
05/08/2020 04:00:00Z	 SAID32 WIBB 050400	METAR WIBB 050400Z 16010KT 9000 FEW015 27/02 Q1008=
05/08/2020 04:30:00Z	 SAID32 WIBB 050430	METAR WIBB 050430Z 16008KT 9999 FEW015 28/22 Q1007=
05/08/2020 05:00:00Z	 SAID32 WIBB 050500	METAR WIBB 050500Z 17007KT 9999 FEW015 28/22 Q1007=
05/08/2020 05:30:00Z	 SAID32 WIBB 050530	METAR WIBB 050530Z 18005KT 9999 FEW015 29/23 Q1007=
05/08/2020 06:00:00Z	 SAID32 WIBB 050600	METAR WIBB 050600Z 18010KT 9999 FEW015 30/23 Q1006=
05/08/2020 06:30:00Z	 SAID32 WIBB 050630	METAR WIBB 050630Z 17009KT 9999 FEW015 30/23 Q1006=
05/08/2020 07:00:00Z	 SAID32 WIBB 050700	METAR WIBB 050700Z 17008KT 8000 FEW013 31/23 Q1005=
05/08/2020 07:30:00Z	 SAID32 WIBB 050730	METAR WIBB 050730Z 17005KT 8000 FEW013 31/23 Q1005=
05/08/2020 08:00:00Z	 SAID32 WIBB 050800	METAR WIBB 050800Z 20006KT 8000 FEW013 31/22 Q1005=
05/08/2020 08:30:00Z	 SAID32 WIBB 050830	METAR WIBB 050830Z 19005KT 8000 FEW013 30/22 Q1005=
05/08/2020 09:00:00Z	 SAID32 WIBB 050900	METAR WIBB 050900Z 19005KT 8000 FEW013 30/22 Q1005=
05/08/2020 09:30:00Z	 SAID32 WIBB 050930	METAR WIBB 050930Z 17006KT 8000 FEW013 30/23 Q1005=
05/08/2020 10:00:00Z	 SAID32 WIBB 051000	METAR WIBB 051000Z 16005KT 8000 FEW013 31/23 Q1005=
05/08/2020 10:30:00Z	 SAID32 WIBB 051030	METAR WIBB 051030Z 16005KT 8000 FEW013 30/22 Q1006=
05/08/2020 11:00:00Z	 SAID32 WIBB 051100	METAR WIBB 051100Z 19005KT 8000 FEW013 29/23 Q1006=
05/08/2020 11:30:00Z	 SAID32 WIBB 051130	METAR WIBB 051130Z 00000KT 8000 FEW013 29/23 Q1006=
05/08/2020 12:00:00Z	 SAID32 WIBB 051200	METAR WIBB 051200Z 00000KT 8000 FEW013 28/24 Q1006=
05/08/2020 12:30:00Z	 SAID32 WIBB 051230	METAR WIBB 051230Z 19005KT 8000 FEW013 28/24 Q1007=
05/08/2020 13:00:00Z	 SAID32 WIBB 051300	METAR WIBB 051300Z 19005KT 8000 FEW015 28/24 Q1007=
05/08/2020 13:30:00Z	 SAID32 WIBB 051330	METAR WIBB 051330Z 00000KT 8000 FEW015 27/24 Q1008=
05/08/2020 14:00:00Z	 SAID32 WIBB 051400	METAR WIBB 051400Z 00000KT 8000 FEW015 27/24 Q1008=
05/08/2020 14:30:00Z	 SAID32 WIBB 051430	METAR WIBB 051430Z 00000KT 8000 FEW015 27/24 Q1008=
05/08/2020 15:00:00Z	 SAID32 WIBB 051500	METAR WIBB 051500Z 00000KT 8000 FEW015 26/24 Q1008=
05/08/2020 15:30:00Z	 SAID32 WIBB 051530	METAR WIBB 051530Z 00000KT 8000 FEW015 26/24 Q1008=
05/08/2020 16:30:00Z	 SAID32 WIBB 051630	METAR WIBB 051630Z 00000KT 8000 FEW015 26/24 Q1008=
05/08/2020 17:00:00Z	 SAID32 WIBB 051700	METAR WIBB 051700Z 00000KT 8000 FEW015 26/24 Q1008=
05/08/2020 18:00:00Z	 SAID32 WIBB 051800	METAR WIBB 051800Z 18005KT 8000 FEW015 25/23 Q1007=
05/08/2020 18:30:00Z	 SAID32 WIBB 051830	METAR WIBB 051830Z 00000KT 8000 FEW015 25/23 Q1007=
05/08/2020 21:00:00Z	 SAID32 WIBB 052100	METAR WIBB 052100Z 00000KT 8000 FEW015 25/23 Q1006=
05/08/2020 21:30:00Z	 SAID32 WIBB 052130	METAR WIBB 052130Z 00000KT 8000 FEW015 24/23 Q1006=
05/08/2020 22:00:00Z	 SAID32 WIBB 052200	METAR WIBB 052200Z 00000KT 8000 FEW015 24/23 Q1007=
05/08/2020 22:30:00Z	 SAID32 WIBB 052230	METAR WIBB 052230Z 00000KT 8000 FEW015 25/23 Q1007=
05/08/2020 23:00:00Z	 SAID32 WIBB 052300	METAR WIBB 052300Z 00000KT 8000 FEW015 25/23 Q1007=
05/08/2020 23:30:00Z	 SAID32 WIBB 052330	METAR WIBB 052330Z 00000KT 8000 FEW015 25/23 Q1007=
06/08/2020 00:00:00Z	 SAID32 WIBB 060000	METAR WIBB 060000Z 00000KT 8000 FEW015 25/23 Q1007=
06/08/2020 00:30:00Z	 SAID32 WIBB 060030	METAR WIBB 060030Z 16006KT 8000 NSC 25/23 Q1008=
06/08/2020 01:00:00Z	 SAID32 WIBB 060100	METAR WIBB 060100Z 00000KT 8000 FEW015 25/23 Q1008=
06/08/2020 01:30:00Z	 SAID32 WIBB 060130	METAR WIBB 060130Z 16005KT 8000 FEW015 26/23 Q1009=
06/08/2020 02:00:00Z	 SAID32 WIBB 060200	METAR WIBB 060200Z 16005KT 8000 FEW015 27/23 Q1009=
06/08/2020 02:30:00Z	 SAID32 WIBB 060230	METAR WIBB 060230Z 16006KT 8000 FEW015 27/23 Q1009=
06/08/2020 03:00:00Z	 SAID32 WIBB 060300	METAR WIBB 060300Z 16005KT 9000 FEW015 28/23 Q1009=
06/08/2020 03:30:00Z	 SAID32 WIBB 060330	METAR WIBB 060330Z 16007KT 9000 FEW015 29/23 Q1009=
06/08/2020 04:00:00Z	 SAID32 WIBB 060400	METAR WIBB 060400Z 16006KT 9000 FEW015 29/24 Q1008=
06/08/2020 04:30:00Z	 SAID32 WIBB 060430	METAR WIBB 060430Z 16006KT 9000 FEW015 30/24 Q1008=
06/08/2020 05:00:00Z	 SAID32 WIBB 060500	METAR WIBB 060500Z 16008KT 9000 FEW014 30/24 Q1007=
06/08/2020 05:30:00Z	 SAID32 WIBB 060530	METAR WIBB 060530Z 07007KT 9999 FEW014 31/24 Q1007=
06/08/2020 06:00:00Z	 SAID32 WIBB 060600	METAR WIBB 060600Z 16005KT 9999 FEW014 32/22 Q1006=
06/08/2020 06:30:00Z	 SAID32 WIBB 060630	METAR WIBB 060630Z 19009KT 9999 FEW014 32/23 Q1006=
06/08/2020 07:00:00Z	 SAID32 WIBB 060700	METAR WIBB 060700Z 00000KT 9999 SCT013 32/22 Q1005=
06/08/2020 07:30:00Z	 SAID32 WIBB 060730	METAR WIBB 060730Z 17005KT 9999 SCT013 32/23 Q1005=
06/08/2020 08:00:00Z	 SAID32 WIBB 060800	METAR WIBB 060800Z 18006KT 9000 SCT014 32/22 Q1005=
06/08/2020 08:30:00Z	 SAID32 WIBB 060830	METAR WIBB 060830Z 14006KT 9000 SCT014 32/22 Q1005=
06/08/2020 09:00:00Z	 SAID32 WIBB 060900	METAR WIBB 060900Z 13006KT 9000 FEW014 32/22 Q1004=
06/08/2020 09:30:00Z	 SAID32 WIBB 060930	METAR WIBB 060930Z 13005KT 8000 FEW014 32/21 Q1004=
06/08/2020 10:00:00Z	 SAID32 WIBB 061000	METAR WIBB 061000Z 00000KT 8000 FEW014 32/23 Q1004=
06/08/2020 10:30:00Z	 SAID32 WIBB 061030	METAR WIBB 061030Z 00000KT 8000 NCD 31/22 Q1005=
06/08/2020 11:00:00Z	 SAID32 WIBB 061100	METAR WIBB 061100Z 00000KT 8000 NCD 31/23 Q1005=
06/08/2020 11:30:00Z	 SAID32 WIBB 061130	METAR WIBB 061130Z 00000KT 8000 NCD 30/23 Q1005=
06/08/2020 12:00:00Z	 SAID32 WIBB 061200	METAR WIBB 061200Z 00000KT 8000 NCD 29/24 Q1006=
06/08/2020 12:30:00Z	 SAID32 WIBB 061230	METAR WIBB 061230Z 00000KT 7000 FEW014 29/24 Q1006=
06/08/2020 13:00:00Z	 SAID32 WIBB 061300	METAR WIBB 061300Z 00000KT 6000 FEW013 29/24 Q1006=
06/08/2020 13:30:00Z	 SAID32 WIBB 061330	METAR WIBB 061330Z 00000KT 8000 FEW013 29/24 Q1007=
06/08/2020 14:00:00Z	 SAID32 WIBB 061400	METAR WIBB 061400Z 00000KT 8000 FEW013 29/24 Q1007=
06/08/2020 14:30:00Z	 SAID32 WIBB 061430	METAR WIBB 061430Z 00000KT 8000 FEW013 28/25 Q1008=
06/08/2020 15:30:00Z	 SAID32 WIBB 061530	METAR WIBB 061530Z 00000KT 8000 FEW013 28/25 Q1008=
06/08/2020 18:00:00Z	 SAID32 WIBB 061800	METAR WIBB 061800Z 00000KT 8000 SCT013 27/25 Q1007=
06/08/2020 18:30:00Z	 SAID32 WIBB 061830	METAR WIBB 061830Z 00000KT 7000 FEW013 26/25 Q1007=
06/08/2020 22:00:00Z	 SAID32 WIBB 062200	METAR WIBB 062200Z 00000KT 7000 FEW013 26/25 Q1007=
06/08/2020 22:30:00Z	 SAID32 WIBB 062230	METAR WIBB 062230Z 00000KT 7000 FEW013 26/24 Q1007=
06/08/2020 23:00:00Z	 SAID32 WIBB 062300	METAR WIBB 062300Z 00000KT 7000 FEW013 25/24 Q1007=
06/08/2020 23:30:00Z	 SAID32 WIBB 062330	METAR WIBB 062330Z 00000KT 7000 FEW013 25/24 Q1007=
07/08/2020 00:00:00Z	 SAID32 WIBB 070000	METAR WIBB 070000Z 00000KT 7000 FEW013 26/24 Q1007=
07/08/2020 00:30:00Z	 SAID32 WIBB 070030	METAR WIBB 070030Z 00000KT 8000 FEW013 26/24 Q1008=
07/08/2020 01:00:00Z	 SAID32 WIBB 070100	METAR WIBB 070100Z 17008KT 8000 NSC 28/25 Q1008=
07/08/2020 01:30:00Z	 SAID32 WIBB 070130	METAR WIBB 070130Z 15006KT 9999 FEW015 28/25 Q1009=
07/08/2020 02:00:00Z	 SAID32 WIBB 070200	METAR WIBB 070200Z 13006KT 9999 FEW013 29/25 Q1008=
07/08/2020 02:30:00Z	 SAID32 WIBB 070230	METAR WIBB 070230Z 15005KT 9999 SCT013 30/25 Q1008=
07/08/2020 03:00:00Z	 SAID32 WIBB 070300	METAR WIBB 070300Z 19005KT 9999 SCT013 31/24 Q1008=
07/08/2020 03:30:00Z	 SAID32 WIBB 070330	METAR WIBB 070330Z 20005KT 9999 SCT013 31/24 Q1008=
07/08/2020 04:00:00Z	 SAID32 WIBB 070400	METAR WIBB 070400Z 15007KT 9999 SCT014 31/24 Q1008=
07/08/2020 04:30:00Z	 SAID32 WIBB 070430	METAR WIBB 070430Z 19007KT 9999 SCT014 32/23 Q1008=
07/08/2020 05:00:00Z	 SAID32 WIBB 070500	METAR WIBB 070500Z 20007KT 9999 SCT014 33/22 Q1007=
07/08/2020 05:30:00Z	 SAID32 WIBB 070530	METAR WIBB 070530Z 19008KT 9999 SCT014 33/20 Q1007=
07/08/2020 06:00:00Z	 SAID32 WIBB 070600	METAR WIBB 070600Z 19008KT 9999 SCT014 34/21 Q1006=
07/08/2020 06:30:00Z	 SAID32 WIBB 070630	METAR WIBB 070630Z 00000KT 9999 SCT014 34/21 Q1006=
07/08/2020 07:00:00Z	 SAID32 WIBB 070700	METAR WIBB 070700Z 24005KT 9999 SCT014 34/20 Q1005=
07/08/2020 07:30:00Z	 SAID32 WIBB 070730	METAR WIBB 070730Z 20005KT 9999 FEW014 34/19 Q1005=
07/08/2020 08:00:00Z	 SAID32 WIBB 070800	METAR WIBB 070800Z 22009KT 9999 FEW014 34/19 Q1005=
07/08/2020 08:30:00Z	 SAID32 WIBB 070830	METAR WIBB 070830Z 25006KT 9999 FEW014 34/20 Q1004=
07/08/2020 09:00:00Z	 SAID32 WIBB 070900	METAR WIBB 070900Z 18008KT 9999 FEW014 34/20 Q1004=
07/08/2020 09:30:00Z	 SAID32 WIBB 070930	METAR WIBB 070930Z 22006KT 9999 FEW014 34/20 Q1004=
07/08/2020 10:00:00Z	 SAID32 WIBB 071000	METAR WIBB 071000Z 18006KT 9000 FEW014 34/20 Q1004=
07/08/2020 10:30:00Z	 SAID32 WIBB 071030	METAR WIBB 071030Z 19005KT 8000 FEW014 32/21 Q1004=
07/08/2020 11:00:00Z	 SAID32 WIBB 071100	METAR WIBB 071100Z 00000KT 9000 FEW014 32/21 Q1004=
07/08/2020 11:30:00Z	 SAID32 WIBB 071130	METAR WIBB 071130Z 00000KT 8000 FEW014 31/23 Q1005=
07/08/2020 12:00:00Z	 SAID32 WIBB 071200	METAR WIBB 071200Z 00000KT 8000 FEW015 29/23 Q1005=
07/08/2020 12:30:00Z	 SAID32 WIBB 071230	METAR WIBB 071230Z 00000KT 8000 FEW015 30/23 Q1006=
07/08/2020 13:00:00Z	 SAID32 WIBB 071300	METAR WIBB 071300Z 00000KT 8000 FEW015 29/24 Q1006=
07/08/2020 13:30:00Z	 SAID32 WIBB 071330	METAR WIBB 071330Z 00000KT 8000 FEW015 29/24 Q1007=
07/08/2020 14:00:00Z	 SAID32 WIBB 071400	METAR WIBB 071400Z 00000KT 8000 HZ FEW015 29/24 Q1007=
07/08/2020 14:30:00Z	 SAID32 WIBB 071430	METAR WIBB 071430Z 00000KT 8000 SCT014 29/24 Q1007=
07/08/2020 15:00:00Z	 SAID32 WIBB 071500	METAR WIBB 071500Z 00000KT 8000 SCT013 28/24 Q1008=
07/08/2020 15:30:00Z	 SAID32 WIBB 071530	METAR WIBB 071530Z 00000KT 8000 SCT013 28/23 Q1008=
07/08/2020 16:00:00Z	 SAID32 WIBB 071600	METAR WIBB 071600Z 00000KT 8000 NSC 28/23 Q1008=
07/08/2020 16:30:00Z	 SAID32 WIBB 071630	METAR WIBB 071630Z 00000KT 8000 FEW015 27/24 Q1008=
07/08/2020 17:00:00Z	 SAID32 WIBB 071700	METAR WIBB 071700Z 00000KT 8000 FEW017 28/24 Q1008=
07/08/2020 17:30:00Z	 SAID32 WIBB 071730	METAR WIBB 071730Z 00000KT 8000 NSC 26/24 Q1007=
07/08/2020 18:00:00Z	 SAID32 WIBB 071800	METAR WIBB 071800Z 00000KT 8000 NSC 26/24 Q1007=
07/08/2020 21:00:00Z	 SAID32 WIBB 072100	METAR WIBB 072100Z 00000KT 8000 NSC 26/24 Q1006=
07/08/2020 22:00:00Z	 SAID32 WIBB 072200	METAR WIBB 072200Z 00000KT 8000 NSC 25/23 Q1007=
07/08/2020 23:00:00Z	 SAID32 WIBB 072300	METAR WIBB 072300Z 00000KT 8000 NSC 25/24 Q1007=
07/08/2020 23:30:00Z	 SAID32 WIBB 072330	METAR WIBB 072330Z 00000KT 8000 NSC 25/24 Q1007=
08/08/2020 00:00:00Z	 SAID32 WIBB 080000	METAR WIBB 080000Z 00000KT 8000 NSC 26/24 Q1008=
08/08/2020 00:30:00Z	 SAID32 WIBB 080030	METAR WIBB 080030Z 00000KT 9000 NSC 27/24 Q1008=
08/08/2020 01:00:00Z	 SAID32 WIBB 080100	METAR WIBB 080100Z 13005KT 9000 NSC 28/25 Q1008=
08/08/2020 01:30:00Z	 SAID32 WIBB 080130	METAR WIBB 080130Z 11005KT 9999 NSC 29/25 Q1008=
08/08/2020 02:00:00Z	 SAID32 WIBB 080200	METAR WIBB 080200Z 00000KT CAVOK 29/25 Q1008=
08/08/2020 02:30:00Z	 SAID32 WIBB 080230	METAR WIBB 080230Z 15006KT CAVOK 30/24 Q1008=
08/08/2020 03:00:00Z	 SAID32 WIBB 080300	METAR WIBB 080300Z 17005KT CAVOK 31/22 Q1008=
08/08/2020 03:30:00Z	 SAID32 WIBB 080330	METAR WIBB 080330Z 00000KT 9999 FEW013 31/21 Q1008=
08/08/2020 04:00:00Z	 SAID32 WIBB 080400	METAR WIBB 080400Z 00000KT 9999 FEW013 32/22 Q1008=
08/08/2020 04:30:00Z	 SAID32 WIBB 080430	METAR WIBB 080430Z 00000KT 9999 FEW013 32/22 Q1007=
08/08/2020 05:00:00Z	 SAID32 WIBB 080500	METAR WIBB 080500Z 00000KT 9999 SCT013 32/22 Q1006=
08/08/2020 05:30:00Z	 SAID32 WIBB 080530	METAR WIBB 080530Z 00000KT 9999 SCT013 32/22 Q1006=
08/08/2020 06:00:00Z	 SAID32 WIBB 080600	METAR WIBB 080600Z 00000KT 9999 SCT013 34/23 Q1006=
08/08/2020 06:30:00Z	 SAID32 WIBB 080630	METAR WIBB 080630Z 10005KT 9999 SCT013 33/22 Q1005=
08/08/2020 07:00:00Z	 SAID32 WIBB 080700	METAR WIBB 080700Z 07005KT 9999 SCT014 34/22 Q1005=
08/08/2020 07:30:00Z	 SAID32 WIBB 080730	METAR WIBB 080730Z 00000KT 9999 SCT014 34/22 Q1004=
08/08/2020 08:00:00Z	 SAID32 WIBB 080800	METAR WIBB 080800Z 09004KT 9999 SCT014 33/22 Q1004=
08/08/2020 08:30:00Z	 SAID32 WIBB 080830	METAR WIBB 080830Z 14004KT 9999 SCT014 34/22 Q1004=
08/08/2020 09:00:00Z	 SAID32 WIBB 080900	METAR WIBB 080900Z 06005KT 9000 SCT014 33/22 Q1004=
08/08/2020 09:30:00Z	 SAID32 WIBB 080930	METAR WIBB 080930Z 05006KT 9000 SCT014 33/23 Q1003=
08/08/2020 10:00:00Z	 SAID32 WIBB 081000	METAR WIBB 081000Z 07005KT 9000 SCT014 32/23 Q1004=
08/08/2020 10:30:00Z	 SAID32 WIBB 081030	METAR WIBB 081030Z 00000KT 9000 SCT014 32/23 Q1004=
08/08/2020 11:00:00Z	 SAID32 WIBB 081100	METAR WIBB 081100Z 00000KT 9000 SCT015 32/23 Q1004=
08/08/2020 11:30:00Z	 SAID32 WIBB 081130	METAR WIBB 081130Z 06004KT 8000 FEW015 31/23 Q1005=
08/08/2020 12:00:00Z	 SAID32 WIBB 081200	METAR WIBB 081200Z 00000KT 8000 FEW015 31/24 Q1005=
08/08/2020 12:30:00Z	 SAID32 WIBB 081230	METAR WIBB 081230Z 00000KT 7000 FEW015 29/25 Q1006=
08/08/2020 13:00:00Z	 SAID32 WIBB 081300	METAR WIBB 081300Z 00000KT 8000 FEW015 29/25 Q1006=
08/08/2020 13:30:00Z	 SAID32 WIBB 081330	METAR WIBB 081330Z 00000KT 8000 FEW015 29/24 Q1006=
08/08/2020 14:00:00Z	 SAID32 WIBB 081400	METAR WIBB 081400Z 00000KT 8000 FEW015 29/24 Q1007=
08/08/2020 14:30:00Z	 SAID32 WIBB 081430	METAR WIBB 081430Z 00000KT 8000 FEW015 28/24 Q1007=
08/08/2020 15:00:00Z	 SAID32 WIBB 081500	METAR WIBB 081500Z 00000KT 8000 FEW012 28/25 Q1008=
08/08/2020 15:30:00Z	 SAID32 WIBB 081530	METAR WIBB 081530Z 00000KT 8000 FEW012 28/25 Q1008=
08/08/2020 16:00:00Z	 SAID32 WIBB 081600	METAR WIBB 081600Z 32004KT 7000 FEW013 28/24 Q1008=
08/08/2020 16:30:00Z	 SAID32 WIBB 081630	METAR WIBB 081630Z 00000KT 7000 NSC 27/24 Q1008=
08/08/2020 17:00:00Z	 SAID32 WIBB 081700	METAR WIBB 081700Z 00000KT 8000 NSC 28/23 Q1008=
08/08/2020 17:30:00Z	 SAID32 WIBB 081730	METAR WIBB 081730Z 00000KT 8000 NSC 27/24 Q1008=
08/08/2020 18:00:00Z	 SAID32 WIBB 081800	METAR WIBB 081800Z 00000KT 8000 NSC 27/23 Q1007=
08/08/2020 21:00:00Z	 SAID32 WIBB 082100	METAR WIBB 082100Z 00000KT 8000 NSC 25/24 Q1007=
08/08/2020 21:30:00Z	 SAID32 WIBB 082130	METAR WIBB 082130Z 00000KT 8000 NSC 25/24 Q1007=
08/08/2020 23:00:00Z	 SAID32 WIBB 082300	METAR WIBB 082300Z 00000KT 7000 NSC 25/23 Q1008=
08/08/2020 23:30:00Z	 SAID32 WIBB 082330	METAR WIBB 082330Z 00000KT 7000 NSC 25/24 Q1008=
09/08/2020 00:00:00Z	 SAID32 WIBB 090000	METAR WIBB 090000Z 00000KT 4000 HZ NSC 26/24 Q1008=
09/08/2020 00:30:00Z	 SAID32 WIBB 090030	METAR WIBB 090030Z 08004KT 4000 FU NSC 26/25 Q1008=
09/08/2020 01:00:00Z	 SAID32 WIBB 090100	METAR WIBB 090100Z 00000KT 6000 SKC 27/25 Q1008=
09/08/2020 01:30:00Z	 SAID32 WIBB 090130	METAR WIBB 090130Z 00000KT 8000 NSC 29/25 Q1008=
09/08/2020 02:00:00Z	 SAID32 WIBB 090200	METAR WIBB 090200Z 16005KT 8000 NSC 30/24 Q1009=
09/08/2020 02:30:00Z	 SAID32 WIBB 090230	METAR WIBB 090230Z 09006KT 8000 FEW013 30/24 Q1008=
09/08/2020 03:00:00Z	 SAID32 WIBB 090300	METAR WIBB 090300Z 10008KT 8000 FEW013 31/24 Q1008=
09/08/2020 03:30:00Z	 SAID32 WIBB 090330	METAR WIBB 090330Z 12005KT 8000 FEW013 31/24 Q1008=
09/08/2020 04:00:00Z	 SAID32 WIBB 090400	METAR WIBB 090400Z 15005KT 8000 FEW013 32/21 Q1007=
09/08/2020 04:30:00Z	 SAID32 WIBB 090430	METAR WIBB 090430Z 20007KT 8000 FEW013 32/22 Q1007=
09/08/2020 05:00:00Z	 SAID32 WIBB 090500	METAR WIBB 090500Z 20008KT 8000 SCT013 33/22 Q1007=
09/08/2020 05:30:00Z	 SAID32 WIBB 090530	METAR WIBB 090530Z 16005KT 8000 SCT013 33/21 Q1007=
09/08/2020 06:00:00Z	 SAID32 WIBB 090600	METAR WIBB 090600Z 00000KT 8000 BKN013 33/22 Q1006=
09/08/2020 06:30:00Z	 SAID32 WIBB 090630	METAR WIBB 090630Z 18005KT 9999 BKN013 33/22 Q1006=
09/08/2020 07:00:00Z	 SAID32 WIBB 090700	METAR WIBB 090700Z 00000KT 9999 SCT013 33/22 Q1005=
09/08/2020 07:30:00Z	 SAID32 WIBB 090730	METAR WIBB 090730Z 00000KT 9000 SCT013 35/21 Q1005=
09/08/2020 08:00:00Z	 SAID32 WIBB 090800	METAR WIBB 090800Z 00000KT 9000 SCT013 34/22 Q1005=
09/08/2020 08:30:00Z	 SAID32 WIBB 090830	METAR WIBB 090830Z 00000KT 9000 SCT013 35/22 Q1004=
09/08/2020 09:00:00Z	 SAID32 WIBB 090900	METAR WIBB 090900Z 00000KT 9000 SCT013 34/21 Q1004=
09/08/2020 09:30:00Z	 SAID32 WIBB 090930	METAR WIBB 090930Z 04006KT 9000 SCT013 34/22 Q1004=
09/08/2020 10:00:00Z	 SAID32 WIBB 091000	METAR WIBB 091000Z 00000KT 9000 SCT013 33/22 Q1004=
09/08/2020 10:30:00Z	 SAID32 WIBB 091030	METAR WIBB 091030Z 09005KT 9000 FEW014 33/22 Q1004=
09/08/2020 11:00:00Z	 SAID32 WIBB 091100	METAR WIBB 091100Z 00000KT 8000 FEW015 32/22 Q1005=
09/08/2020 11:30:00Z	 SAID32 WIBB 091130	METAR WIBB 091130Z 00000KT 8000 FEW015 32/23 Q1005=
09/08/2020 12:00:00Z	 SAID32 WIBB 091200	METAR WIBB 091200Z 00000KT 8000 FEW015 31/23 Q1005=
09/08/2020 12:30:00Z	 SAID32 WIBB 091230	METAR WIBB 091230Z 00000KT 8000 FEW015 31/24 Q1005=
09/08/2020 13:00:00Z	 SAID32 WIBB 091300	METAR WIBB 091300Z 00000KT 8000 FEW015 30/24 Q1006=
09/08/2020 13:30:00Z	 SAID32 WIBB 091330	METAR WIBB 091330Z 00000KT 8000 FEW015 29/24 Q1006=
09/08/2020 14:00:00Z	 SAID32 WIBB 091400	METAR WIBB 091400Z 00000KT 8000 FEW015 29/24 Q1007=
09/08/2020 14:30:00Z	 SAID32 WIBB 091430	METAR WIBB 091430Z 00000KT 8000 FEW015 28/24 Q1007=
09/08/2020 15:00:00Z	 SAID32 WIBB 091500	METAR WIBB 091500Z 00000KT 8000 FEW015 30/23 Q1008=
09/08/2020 15:30:00Z	 SAID32 WIBB 091530	METAR WIBB 091530Z 00000KT 8000 FEW015 27/24 Q1008=
09/08/2020 16:00:00Z	 SAID32 WIBB 091600	METAR WIBB 091600Z 00000KT 8000 FEW015 27/24 Q1008=
09/08/2020 18:00:00Z	 SAID32 WIBB 091800	METAR WIBB 091800Z 00000KT 8000 FEW015 27/25 Q1008=
09/08/2020 21:00:00Z	 SAID32 WIBB 092100	METAR WIBB 092100Z 00000KT 7000 NSC 27/25 Q1008=
09/08/2020 22:30:00Z	 SAID32 WIBB 092230	METAR WIBB 092230Z 00000KT 7000 NSC 26/25 Q1008=
09/08/2020 23:00:00Z	 SAID32 WIBB 092300	METAR WIBB 092300Z 00000KT 7000 FEW010 26/25 Q1008=
09/08/2020 23:30:00Z	 SAID32 WIBB 092330	METAR WIBB 092330Z 00000KT 6000 FEW012 26/25 Q1008=
10/08/2020 00:00:00Z	 SAID32 WIBB 100000	METAR WIBB 100000Z 00000KT 5000 HZ NSC 26/25 Q1009=
10/08/2020 00:30:00Z	 SAID32 WIBB 100030	METAR WIBB 100030Z 00000KT 5000 HZ FEW010 27/25 Q1009=
10/08/2020 01:00:00Z	 SAID32 WIBB 100100	METAR WIBB 100100Z 18007KT 8000 NCD 27/23 Q1009=
10/08/2020 01:30:00Z	 SAID32 WIBB 100130	METAR WIBB 100130Z 14007KT 8000 NCD 28/22 Q1009=
10/08/2020 02:00:00Z	 SAID32 WIBB 100200	METAR WIBB 100200Z 16006KT 9999 NCD 29/22 Q1010=
10/08/2020 02:30:00Z	 SAID32 WIBB 100230	METAR WIBB 100230Z 18005KT 9999 NCD 29/23 Q1010=
10/08/2020 03:00:00Z	 SAID32 WIBB 100300	METAR WIBB 100300Z 14005KT 9999 NCD 29/24 Q1010=
10/08/2020 03:30:00Z	 SAID32 WIBB 100330	METAR WIBB 100330Z 12007KT 9999 FEW014 30/24 Q1010=
10/08/2020 04:00:00Z	 SAID32 WIBB 100400	METAR WIBB 100400Z 14005KT 9999 FEW014 30/23 Q1009=
10/08/2020 04:30:00Z	 SAID32 WIBB 100430	METAR WIBB 100430Z 00000KT 9999 FEW014 30/23 Q1009=
10/08/2020 05:00:00Z	 SAID32 WIBB 100500	METAR WIBB 100500Z 17005KT 9999 FEW014 31/23 Q1009=
10/08/2020 05:30:00Z	 SAID32 WIBB 100530	METAR WIBB 100530Z 15007KT 9999 SCT014 32/23 Q1008=
10/08/2020 06:00:00Z	 SAID32 WIBB 100600	METAR WIBB 100600Z 19009KT 9999 SCT014 32/22 Q1008=
10/08/2020 06:30:00Z	 SAID32 WIBB 100630	METAR WIBB 100630Z 12006KT 9999 FEW014 33/23 Q1007=
10/08/2020 07:00:00Z	 SAID32 WIBB 100700	METAR WIBB 100700Z 18005KT 8000 BKN013 34/22 Q1006=
10/08/2020 07:30:00Z	 SAID32 WIBB 100730	METAR WIBB 100730Z 18006KT 8000 BKN013 34/22 Q1006=
10/08/2020 08:00:00Z	 SAID32 WIBB 100800	METAR WIBB 100800Z 16005KT 7000 BKN013 33/22 Q1006=
10/08/2020 08:30:00Z	 SAID32 WIBB 100830	METAR WIBB 100830Z 00000KT 8000 BKN013 33/22 Q1006=
10/08/2020 09:00:00Z	 SAID32 WIBB 100900	METAR WIBB 100900Z 07005KT 8000 BKN013 33/23 Q1006=
10/08/2020 09:30:00Z	 SAID32 WIBB 100930	METAR WIBB 100930Z 06005KT 8000 BKN013 32/23 Q1006=
10/08/2020 10:00:00Z	 SAID32 WIBB 101000	METAR WIBB 101000Z 00000KT 8000 BKN013 32/23 Q1006=
10/08/2020 10:30:00Z	 SAID32 WIBB 101030	METAR WIBB 101030Z 00000KT 8000 FEW013 32/23 Q1006=
10/08/2020 11:00:00Z	 SAID32 WIBB 101100	METAR WIBB 101100Z 00000KT 8000 FEW013 32/23 Q1006=
10/08/2020 11:30:00Z	 SAID32 WIBB 101130	METAR WIBB 101130Z 00000KT 8000 FEW013 31/23 Q1006=
10/08/2020 12:00:00Z	 SAID32 WIBB 101200	METAR WIBB 101200Z 00000KT 8000 FEW013 31/24 Q1007=
10/08/2020 12:30:00Z	 SAID32 WIBB 101230	METAR WIBB 101230Z 00000KT 7000 FEW013 31/24 Q1007=
10/08/2020 13:00:00Z	 SAID32 WIBB 101300	METAR WIBB 101300Z 20009KT 3000 RA SCT013 FEW016CB 27/23 Q1008=
10/08/2020 13:30:00Z	 SAID32 WIBB 101330	METAR WIBB 101330Z 18011KT 7000 -RA SCT013 FEW016 26/24 Q1008=
10/08/2020 14:00:00Z	 SAID32 WIBB 101400	METAR WIBB 101400Z 17008KT 7000 SCT014 25/23 Q1009 RERA=
10/08/2020 14:30:00Z	 SAID32 WIBB 101430	METAR WIBB 101430Z 17005KT 7000 SCT014 25/22 Q1009=
10/08/2020 15:00:00Z	 SAID32 WIBB 101500	METAR WIBB 101500Z 00000KT 7000 FEW014 25/22 Q1009=
10/08/2020 15:30:00Z	 SAID32 WIBB 101530	METAR WIBB 101530Z 19004KT 7000 FEW014 25/22 Q1009=
10/08/2020 16:00:00Z	 SAID32 WIBB 101600	METAR WIBB 101600Z 19004KT 7000 FEW014 25/22 Q1009=
10/08/2020 16:30:00Z	 SAID32 WIBB 101630	METAR WIBB 101630Z 20004KT 7000 FEW014 25/22 Q1009=
10/08/2020 17:00:00Z	 SAID32 WIBB 101700	METAR WIBB 101700Z 18004KT 7000 FEW014 25/22 Q1009=
10/08/2020 17:30:00Z	 SAID32 WIBB 101730	METAR WIBB 101730Z 20006KT 7000 FEW014 24/22 Q1009=
10/08/2020 18:00:00Z	 SAID32 WIBB 101800	METAR WIBB 101800Z 19005KT 7000 SCT014 24/22 Q1009=
10/08/2020 18:30:00Z	 SAID32 WIBB 101830	METAR WIBB 101830Z 19002KT 7000 SCT014 24/22 Q1009=
10/08/2020 22:00:00Z	 SAID32 WIBB 102200	METAR WIBB 102200Z 00000KT 7000 SCT014 25/22 Q1009=
10/08/2020 22:30:00Z	 SAID32 WIBB 102230	METAR WIBB 102230Z 00000KT 7000 SCT014 25/23 Q1009=
10/08/2020 23:00:00Z	 SAID32 WIBB 102300	METAR WIBB 102300Z 00000KT 6000 SCT014 25/23 Q1009=
10/08/2020 23:30:00Z	 SAID32 WIBB 102330	METAR WIBB 102330Z 00000KT 7000 FEW016 25/23 Q1009=
11/08/2020 00:00:00Z	 SAID32 WIBB 110000	METAR WIBB 110000Z 00000KT 7000 NSC 25/22 Q1009=
11/08/2020 00:30:00Z	 SAID32 WIBB 110030	METAR WIBB 110030Z 00000KT 7000 NSC 26/22 Q1010=
11/08/2020 01:00:00Z	 SAID32 WIBB 110100	METAR WIBB 110100Z 14004KT 9000 NSC 27/22 Q1010=
11/08/2020 01:30:00Z	 SAID32 WIBB 110130	METAR WIBB 110130Z 18005KT CAVOK 27/22 Q1010=
11/08/2020 02:00:00Z	 SAID32 WIBB 110200	METAR WIBB 110200Z 16005KT CAVOK 27/22 Q1010=
11/08/2020 02:30:00Z	 SAID32 WIBB 110230	METAR WIBB 110230Z 17005KT CAVOK 27/22 Q1010=
11/08/2020 03:00:00Z	 SAID32 WIBB 110300	METAR WIBB 110300Z 16007KT CAVOK 28/22 Q1010=
11/08/2020 03:30:00Z	 SAID32 WIBB 110330	METAR WIBB 110330Z 16007KT CAVOK 29/23 Q1010=
11/08/2020 04:00:00Z	 SAID32 WIBB 110400	METAR WIBB 110400Z 16008KT CAVOK 29/23 Q1009=
11/08/2020 04:30:00Z	 SAID32 WIBB 110430	METAR WIBB 110430Z 16007KT CAVOK 29/24 Q1009=
11/08/2020 05:00:00Z	 SAID32 WIBB 110500	METAR WIBB 110500Z 16006KT CAVOK 29/24 Q1009=
11/08/2020 05:30:00Z	 SAID32 WIBB 110530	METAR WIBB 110530Z 16005KT CAVOK 30/24 Q1009=
11/08/2020 06:00:00Z	 SAID32 WIBB 110600	METAR WIBB 110600Z 16005KT CAVOK 30/24 Q1008=
11/08/2020 06:30:00Z	 SAID32 WIBB 110630	METAR WIBB 110630Z 17005KT CAVOK 30/24 Q1008=
11/08/2020 07:00:00Z	 SAID32 WIBB 110700	METAR WIBB 110700Z 18009KT 9999 NCD 31/23 Q1008=
11/08/2020 07:30:00Z	 SAID32 WIBB 110730	METAR WIBB 110730Z 17008KT 9999 NCD 31/22 Q1007=
11/08/2020 08:00:00Z	 SAID32 WIBB 110800	METAR WIBB 110800Z 18008KT 8000 SCT013 30/22 Q1007=
11/08/2020 08:30:00Z	 SAID32 WIBB 110830	METAR WIBB 110830Z 17008KT 9000 SCT013 30/22 Q1007=
11/08/2020 09:00:00Z	 SAID32 WIBB 110900	METAR WIBB 110900Z 15005KT 9000 SCT013 31/22 Q1007=
11/08/2020 09:30:00Z	 SAID32 WIBB 110930	METAR WIBB 110930Z 00000KT 8000 SCT013 30/22 Q1006=
11/08/2020 10:00:00Z	 SAID32 WIBB 111000	METAR WIBB 111000Z 15005KT 9999 FEW015 30/22 Q1006=
11/08/2020 10:30:00Z	 SAID32 WIBB 111030	METAR WIBB 111030Z 14005KT 8000 FEW015 30/23 Q1007=
11/08/2020 12:00:00Z	 SAID32 WIBB 111200	METAR WIBB 111200Z 00000KT 8000 FEW015 28/24 Q1007=
11/08/2020 12:30:00Z	 SAID32 WIBB 111230	METAR WIBB 111230Z 00000KT 8000 FEW015 28/24 Q1008=
11/08/2020 13:00:00Z	 SAID32 WIBB 111300	METAR WIBB 111300Z 00000KT 8000 FEW013 27/24 Q1008=
11/08/2020 13:30:00Z	 SAID32 WIBB 111330	METAR WIBB 111330Z 00000KT 8000 FEW013 27/24 Q1008=
11/08/2020 14:00:00Z	 SAID32 WIBB 111400	METAR WIBB 111400Z 00000KT 8000 FEW013 28/25 Q1009=
11/08/2020 14:30:00Z	 SAID32 WIBB 111430	METAR WIBB 111430Z 00000KT 7000 FEW013 28/25 Q1009=
11/08/2020 15:00:00Z	 SAID32 WIBB 111500	METAR WIBB 111500Z 00000KT 8000 FEW013 27/25 Q1009=
11/08/2020 15:30:00Z	 SAID32 WIBB 111530	METAR WIBB 111530Z 00000KT 8000 FEW013 28/25 Q1010=
11/08/2020 16:00:00Z	 SAID32 WIBB 111600	METAR WIBB 111600Z 00000KT 8000 FEW013 28/25 Q1010=
11/08/2020 18:00:00Z	 SAID32 WIBB 111800	METAR WIBB 111800Z 00000KT 8000 FEW013 27/25 Q1010=
11/08/2020 18:30:00Z	 SAID32 WIBB 111830	METAR WIBB 111830Z 00000KT 7000 FEW013 27/25 Q1010=
11/08/2020 23:00:00Z	 SAID32 WIBB 112300	METAR WIBB 112300Z 00000KT 7000 FEW013 26/24 Q1009=
11/08/2020 23:30:00Z	 SAID32 WIBB 112330	METAR WIBB 112330Z 00000KT 6000 FEW013 25/24 Q1009=
12/08/2020 00:00:00Z	 SAID32 WIBB 120000	METAR WIBB 120000Z 00000KT 5000 HZ FEW013 26/24 Q1009=
12/08/2020 00:30:00Z	 SAID32 WIBB 120030	METAR WIBB 120030Z 00000KT 5000 HZ FEW013 26/24 Q1010=
12/08/2020 01:00:00Z	 SAID32 WIBB 120100	METAR WIBB 120100Z 16005KT 7000 FEW015 28/24 Q1010=
12/08/2020 01:30:00Z	 SAID32 WIBB 120130	METAR WIBB 120130Z 16006KT 8000 FEW015 29/24 Q1011=
12/08/2020 02:00:00Z	 SAID32 WIBB 120200	METAR WIBB 120200Z 15008KT 9000 FEW014 29/24 Q1011=
12/08/2020 02:30:00Z	 SAID32 WIBB 120230	METAR WIBB 120230Z 15006KT 9000 FEW014 29/24 Q1011=
12/08/2020 03:00:00Z	 SAID32 WIBB 120300	METAR WIBB 120300Z 15010KT 9000 FEW015 30/23 Q1010=
12/08/2020 03:30:00Z	 SAID32 WIBB 120330	METAR WIBB 120330Z 16007KT 9000 FEW015 30/24 Q1010=
12/08/2020 04:00:00Z	 SAID32 WIBB 120400	METAR WIBB 120400Z 16008KT 9000 SCT014 31/23 Q1010=
12/08/2020 04:30:00Z	 SAID32 WIBB 120430	METAR WIBB 120430Z 16008KT 9000 SCT014 32/24 Q1010=
12/08/2020 05:00:00Z	 SAID32 WIBB 120500	METAR WIBB 120500Z 15007KT 9000 SCT014 32/23 Q1009=
12/08/2020 05:30:00Z	 SAID32 WIBB 120530	METAR WIBB 120530Z 20006KT 9000 SCT014 32/23 Q1009=
12/08/2020 06:00:00Z	 SAID32 WIBB 120600	METAR WIBB 120600Z 17005KT 9000 SCT014 32/23 Q1008=
12/08/2020 06:30:00Z	 SAID32 WIBB 120630	METAR WIBB 120630Z 18005KT 9000 SCT014 32/23 Q1008=
12/08/2020 07:00:00Z	 SAID32 WIBB 120700	METAR WIBB 120700Z 16006KT 9999 SCT015 33/22 Q1008=
12/08/2020 07:30:00Z	 SAID32 WIBB 120730	METAR WIBB 120730Z 19005KT 9000 SCT015 33/22 Q1007=
12/08/2020 08:00:00Z	 SAID32 WIBB 120800	METAR WIBB 120800Z 00000KT 9000 SCT015 33/21 Q1007=
12/08/2020 08:30:00Z	 SAID32 WIBB 120830	METAR WIBB 120830Z 00000KT 9000 FEW015 33/21 Q1006=
12/08/2020 09:00:00Z	 SAID32 WIBB 120900	METAR WIBB 120900Z 09005KT 9000 SCT015 33/21 Q1006=
12/08/2020 09:30:00Z	 SAID32 WIBB 120930	METAR WIBB 120930Z 09005KT 9000 SCT015 32/23 Q1006=
12/08/2020 10:00:00Z	 SAID32 WIBB 121000	METAR WIBB 121000Z 08004KT 9000 SCT017 32/23 Q1007=
12/08/2020 10:30:00Z	 SAID32 WIBB 121030	METAR WIBB 121030Z 08005KT 9000 SCT017 31/23 Q1006=
12/08/2020 11:00:00Z	 SAID32 WIBB 121100	METAR WIBB 121100Z 00000KT 8000 SCT017 31/24 Q1007=
12/08/2020 11:30:00Z	 SAID32 WIBB 121130	METAR WIBB 121130Z 05004KT 8000 FEW017 30/24 Q1007=
12/08/2020 12:00:00Z	 SAID32 WIBB 121200	METAR WIBB 121200Z 36012KT 8000 FEW017CB 29/23 Q1008=
12/08/2020 12:30:00Z	 SAID32 WIBB 121230	METAR WIBB 121230Z 02009KT 8000 FEW016CB 27/22 Q1009=
12/08/2020 13:00:00Z	 SAID32 WIBB 121300	METAR WIBB 121300Z 36008KT 8000 FEW017CB 26/21 Q1009=
12/08/2020 13:30:00Z	 SAID32 WIBB 121330	METAR WIBB 121330Z 31010KT 8000 FEW017CB 26/21 Q1010=
12/08/2020 14:00:00Z	 SAID32 WIBB 121400	METAR WIBB 121400Z 31010KT 8000 FEW017CB 25/22 Q1011=
12/08/2020 14:30:00Z	 SAID32 WIBB 121430	METAR WIBB 121430Z 31007KT 8000 SCT013 25/21 Q1011=
12/08/2020 15:00:00Z	 SAID32 WIBB 121500	METAR WIBB 121500Z 31005KT 8000 FEW017CB SCT013 25/21 Q1011=
12/08/2020 15:30:00Z	 SAID32 WIBB 121530	METAR WIBB 121530Z 00000KT 8000 FEW017CB FEW013 25/22 Q1011=
12/08/2020 16:00:00Z	 SAID32 WIBB 121600	METAR WIBB 121600Z 18011KT 9999 -RA FEW017CB SCT013 24/22 Q1012=
12/08/2020 16:30:00Z	 SAID32 WIBB 121630	METAR WIBB 121630Z 17009KT 7000 -RA FEW017CB SCT013 23/21 Q1012=
12/08/2020 17:00:00Z	 SAID32 WIBB 121700	METAR WIBB 121700Z 16005KT 7000 -RA SCT013 22/21 Q1012=
12/08/2020 18:00:00Z	 SAID32 WIBB 121800	METAR WIBB 121800Z 19006KT 7000 SCT013 22/21 Q1011=
12/08/2020 21:00:00Z	 SAID32 WIBB 122100	METAR WIBB 122100Z 00000KT 7000 SCT013 22/21 Q1008=
12/08/2020 22:30:00Z	 SAID32 WIBB 122230	METAR WIBB 122230Z 00000KT 7000 SCT013 22/20 Q1009=
12/08/2020 23:00:00Z	 SAID32 WIBB 122300	METAR WIBB 122300Z 00000KT 7000 SCT013 22/20 Q1009=
12/08/2020 23:30:00Z	 SAID32 WIBB 122330	METAR WIBB 122330Z 00000KT 7000 SCT013 22/20 Q1010=
13/08/2020 00:00:00Z	 SAID32 WIBB 130000	METAR WIBB 130000Z 00000KT 7000 SCT013 22/21 Q1010=
13/08/2020 00:30:00Z	 SAID32 WIBB 130030	METAR WIBB 130030Z 00000KT 7000 SCT013 23/21 Q1010=
13/08/2020 01:00:00Z	 SAID32 WIBB 130100	METAR WIBB 130100Z 00000KT 8000 NSC 24/21 Q1011=
13/08/2020 01:30:00Z	 SAID32 WIBB 130130	METAR WIBB 130130Z 16005KT 8000 NSC 25/21 Q1011=
13/08/2020 02:00:00Z	 SAID32 WIBB 130200	METAR WIBB 130200Z 00000KT 9000 NSC 25/22 Q1010=
13/08/2020 02:30:00Z	 SAID32 WIBB 130230	METAR WIBB 130230Z 00000KT 9000 NSC 27/22 Q1010=
13/08/2020 03:00:00Z	 SAID32 WIBB 130300	METAR WIBB 130300Z 00000KT 9999 NSC 28/22 Q1010=
13/08/2020 03:30:00Z	 SAID32 WIBB 130330	METAR WIBB 130330Z 00000KT CAVOK 29/22 Q1009=
13/08/2020 04:00:00Z	 SAID32 WIBB 130400	METAR WIBB 130400Z 00000KT CAVOK 31/22 Q1009=
13/08/2020 04:30:00Z	 SAID32 WIBB 130430	METAR WIBB 130430Z 21005KT CAVOK 32/21 Q1009=
13/08/2020 05:00:00Z	 SAID32 WIBB 130500	METAR WIBB 130500Z 00000KT 9999 FEW010 31/21 Q1009=
13/08/2020 05:30:00Z	 SAID32 WIBB 130530	METAR WIBB 130530Z 31008KT 9999 FEW010 32/21 Q1008=
13/08/2020 06:00:00Z	 SAID32 WIBB 130600	METAR WIBB 130600Z 31006KT 9999 FEW010 33/21 Q1007=
13/08/2020 06:30:00Z	 SAID32 WIBB 130630	METAR WIBB 130630Z 33007KT 9999 FEW010 33/20 Q1006=
13/08/2020 07:00:00Z	 SAID32 WIBB 130700	METAR COR WIBB 130700Z 35005KT CAVOK 33/21 Q1006=
13/08/2020 07:30:00Z	 SAID32 WIBB 130730	METAR WIBB 130730Z 33005KT 9000 NSC 33/21 Q1006=
13/08/2020 08:00:00Z	 SAID32 WIBB 130800	METAR WIBB 130800Z 30004KT 9000 FEW014 33/21 Q1005=
13/08/2020 08:30:00Z	 SAID32 WIBB 130830	METAR WIBB 130830Z 32004KT 9000 FEW014 32/20 Q1005=
13/08/2020 09:00:00Z	 SAID32 WIBB 130900	METAR WIBB 130900Z 32004KT 9000 FEW014 33/20 Q1005=
13/08/2020 09:30:00Z	 SAID32 WIBB 130930	METAR WIBB 130930Z 36003KT 9000 SCT014 32/22 Q1005=
13/08/2020 10:00:00Z	 SAID32 WIBB 131000	METAR WIBB 131000Z 00000KT 9000 FEW014 31/23 Q1005=
13/08/2020 10:30:00Z	 SAID32 WIBB 131030	METAR WIBB 131030Z 08004KT 9000 FEW014 31/22 Q1005=
13/08/2020 12:00:00Z	 SAID32 WIBB 131200	METAR WIBB 131200Z 00000KT 8000 FEW016 29/24 Q1007=
13/08/2020 12:30:00Z	 SAID32 WIBB 131230	METAR WIBB 131230Z 00000KT 8000 FEW016 29/24 Q1007=
13/08/2020 13:00:00Z	 SAID32 WIBB 131300	METAR WIBB 131300Z 00000KT 8000 FEW016 28/25 Q1007=
13/08/2020 13:30:00Z	 SAID32 WIBB 131330	METAR WIBB 131330Z 00000KT 8000 FEW017 28/24 Q1008=
13/08/2020 14:00:00Z	 SAID32 WIBB 131400	METAR WIBB 131400Z 00000KT 8000 FEW017 28/24 Q1008=
13/08/2020 14:30:00Z	 SAID32 WIBB 131430	METAR WIBB 131430Z 00000KT 8000 FEW017 28/24 Q1009=
13/08/2020 15:00:00Z	 SAID32 WIBB 131500	METAR WIBB 131500Z 00000KT 8000 FEW015 27/24 Q1009=
13/08/2020 15:30:00Z	 SAID32 WIBB 131530	METAR WIBB 131530Z 00000KT 8000 FEW015 27/24 Q1010=
13/08/2020 16:00:00Z	 SAID32 WIBB 131600	METAR WIBB 131600Z 28007KT 8000 SCT015 27/24 Q1010=
13/08/2020 16:30:00Z	 SAID32 WIBB 131630	METAR WIBB 131630Z 28004KT 8000 SCT015 26/23 Q1010=
13/08/2020 17:00:00Z	 SAID32 WIBB 131700	METAR WIBB 131700Z 30005KT 8000 SCT015 26/22 Q1009=
13/08/2020 17:30:00Z	 SAID32 WIBB 131730	METAR WIBB 131730Z 00000KT 8000 SCT015 26/22 Q1009=
13/08/2020 18:00:00Z	 SAID32 WIBB 131800	METAR WIBB 131800Z 33004KT 8000 SCT015 25/22 Q1009=
13/08/2020 19:00:00Z	 SAID32 WIBB 131900	METAR WIBB 131900Z 00000KT 8000 SCT014 25/22 Q1008=
13/08/2020 21:00:00Z	 SAID32 WIBB 132100	METAR WIBB 132100Z 00000KT 8000 FEW014 25/22 Q1008=
13/08/2020 22:00:00Z	 SAID32 WIBB 132200	METAR WIBB 132200Z 00000KT 8000 FEW013 24/22 Q1008=
13/08/2020 23:00:00Z	 SAID32 WIBB 132300	METAR WIBB 132300Z 00000KT 8000 SCT015 24/22 Q1008=
13/08/2020 23:30:00Z	 SAID32 WIBB 132330	METAR WIBB 132330Z 00000KT 8000 SCT015 24/22 Q1008=
14/08/2020 00:00:00Z	 SAID32 WIBB 140000	METAR WIBB 140000Z 35004KT 8000 SCT015 24/22 Q1009=
14/08/2020 00:30:00Z	 SAID32 WIBB 140030	METAR WIBB 140030Z 00000KT 8000 SCT017 24/22 Q1009=
14/08/2020 01:00:00Z	 SAID32 WIBB 140100	METAR WIBB 140100Z 00000KT 8000 FEW013 26/22 Q1010=
14/08/2020 01:30:00Z	 SAID32 WIBB 140130	METAR WIBB 140130Z 30005KT 8000 FEW013 26/22 Q1010=
14/08/2020 02:00:00Z	 SAID32 WIBB 140200	METAR WIBB 140200Z 30005KT 8000 FEW013 28/22 Q1010=
14/08/2020 02:30:00Z	 SAID32 WIBB 140230	METAR WIBB 140230Z 00000KT 8000 SCT013 28/22 Q1010=
14/08/2020 03:00:00Z	 SAID32 WIBB 140300	METAR WIBB 140300Z 00000KT 8000 SCT013 28/22 Q1010=
14/08/2020 03:30:00Z	 SAID32 WIBB 140330	METAR WIBB 140330Z 00000KT 8000 SCT013 30/22 Q1010=
14/08/2020 04:00:00Z	 SAID32 WIBB 140400	METAR WIBB 140400Z 00000KT 8000 SCT013 30/22 Q1010=
14/08/2020 04:30:00Z	 SAID32 WIBB 140430	METAR WIBB 140430Z 00000KT 8000 SCT013 30/22 Q1009=
14/08/2020 05:00:00Z	 SAID32 WIBB 140500	METAR WIBB 140500Z 00000KT 8000 SCT013 30/22 Q1009=
14/08/2020 05:30:00Z	 SAID32 WIBB 140530	METAR WIBB 140530Z 00000KT 8000 SCT013 30/21 Q1008=
14/08/2020 06:00:00Z	 SAID32 WIBB 140600	METAR WIBB 140600Z 00000KT 8000 SCT013 31/22 Q1008=
14/08/2020 06:30:00Z	 SAID32 WIBB 140630	METAR WIBB 140630Z 10005KT 8000 SCT013 30/23 Q1007=
14/08/2020 07:00:00Z	 SAID32 WIBB 140700	METAR WIBB 140700Z 11005KT 8000 SCT013 30/23 Q1007=
14/08/2020 07:30:00Z	 SAID32 WIBB 140730	METAR WIBB 140730Z 06007KT 8000 SCT013 31/23 Q1007=
14/08/2020 08:00:00Z	 SAID32 WIBB 140800	METAR WIBB 140800Z 07005KT 8000 SCT013 31/23 Q1006=
14/08/2020 08:30:00Z	 SAID32 WIBB 140830	METAR WIBB 140830Z 06005KT 8000 SCT013 30/23 Q1006=
14/08/2020 09:00:00Z	 SAID32 WIBB 140900	METAR WIBB 140900Z 00000KT 8000 SCT015 30/23 Q1005=
14/08/2020 09:30:00Z	 SAID32 WIBB 140930	METAR WIBB 140930Z 06006KT 8000 SCT015 30/23 Q1006=
14/08/2020 10:00:00Z	 SAID32 WIBB 141000	METAR WIBB 141000Z 07005KT 8000 FEW015 30/23 Q1006=
14/08/2020 10:30:00Z	 SAID32 WIBB 141030	METAR WIBB 141030Z 08006KT 8000 FEW015 30/23 Q1006=
14/08/2020 11:00:00Z	 SAID32 WIBB 141100	METAR WIBB 141100Z 04005KT 8000 FEW015 29/23 Q1006=
14/08/2020 11:30:00Z	 SAID32 WIBB 141130	METAR WIBB 141130Z 00000KT 7000 FEW015 29/24 Q1007=
14/08/2020 12:00:00Z	 SAID32 WIBB 141200	METAR WIBB 141200Z 00000KT 7000 FEW015 28/24 Q1007=
14/08/2020 12:30:00Z	 SAID32 WIBB 141230	METAR WIBB 141230Z 00000KT 8000 FEW015 28/24 Q1007=
14/08/2020 13:00:00Z	 SAID32 WIBB 141300	METAR WIBB 141300Z 00000KT 7000 FEW015 28/24 Q1008=
14/08/2020 13:30:00Z	 SAID32 WIBB 141330	METAR WIBB 141330Z 00000KT 7000 FEW015 28/24 Q1008=
14/08/2020 14:00:00Z	 SAID32 WIBB 141400	METAR WIBB 141400Z 00000KT 7000 FEW015 27/24 Q1008=
14/08/2020 14:30:00Z	 SAID32 WIBB 141430	METAR WIBB 141430Z 00000KT 7000 FEW015 27/24 Q1009=
14/08/2020 15:00:00Z	 SAID32 WIBB 141500	METAR WIBB 141500Z 00000KT 7000 FEW015 27/24 Q1009=
14/08/2020 17:00:00Z	 SAID32 WIBB 141700	METAR WIBB 141700Z 00000KT 7000 FEW015 26/24 Q1009=
14/08/2020 18:00:00Z	 SAID32 WIBB 141800	METAR WIBB 141800Z 00000KT 7000 FEW015 25/24 Q1008=
14/08/2020 21:00:00Z	 SAID32 WIBB 142100	METAR WIBB 142100Z 00000KT 7000 FEW015 25/24 Q1007=
14/08/2020 22:00:00Z	 SAID32 WIBB 142200	METAR WIBB 142200Z 00000KT 7000 FEW015 25/23 Q1007=
14/08/2020 22:30:00Z	 SAID32 WIBB 142230	METAR WIBB 142230Z 14006KT 7000 FEW012 24/23 Q1007=
14/08/2020 23:00:00Z	 SAID32 WIBB 142300	METAR WIBB 142300Z 15006KT 7000 FEW012 23/22 Q1008=
14/08/2020 23:30:00Z	 SAID32 WIBB 142330	METAR WIBB 142330Z 15005KT 7000 NSC 23/22 Q1008=
15/08/2020 00:00:00Z	 SAID32 WIBB 150000	METAR WIBB 150000Z 15006KT 7000 NSC 23/22 Q1008=
15/08/2020 00:30:00Z	 SAID32 WIBB 150030	METAR WIBB 150030Z 15006KT 7000 NSC 23/21 Q1008=
15/08/2020 01:00:00Z	 SAID32 WIBB 150100	METAR WIBB 150100Z 16007KT 8000 NSC 24/21 Q1009=
15/08/2020 01:30:00Z	 SAID32 WIBB 150130	METAR WIBB 150130Z 19007KT 8000 FEW015 25/21 Q1009=
15/08/2020 02:00:00Z	 SAID32 WIBB 150200	METAR WIBB 150200Z 18007KT 9999 FEW015 26/22 Q1009=
15/08/2020 02:30:00Z	 SAID32 WIBB 150230	METAR WIBB 150230Z 17006KT 9999 FEW015 27/22 Q1009=
15/08/2020 03:00:00Z	 SAID32 WIBB 150300	METAR WIBB 150300Z 17006KT 9999 NCD 28/22 Q1009=
15/08/2020 03:30:00Z	 SAID32 WIBB 150330	METAR WIBB 150330Z 17006KT 9999 NCD 29/21 Q1009=
15/08/2020 04:00:00Z	 SAID32 WIBB 150400	METAR WIBB 150400Z 18007KT 9999 NCD 30/22 Q1009=
15/08/2020 04:30:00Z	 SAID32 WIBB 150430	METAR WIBB 150430Z 16006KT 9999 NCD 30/21 Q1009=
15/08/2020 05:00:00Z	 SAID32 WIBB 150500	METAR WIBB 150500Z 17006KT 9999 NCD 31/21 Q1008=
15/08/2020 05:30:00Z	 SAID32 WIBB 150530	METAR WIBB 150530Z 19008KT 9999 FEW015 32/22 Q1007=
15/08/2020 06:00:00Z	 SAID32 WIBB 150600	METAR WIBB 150600Z 17008KT 9999 FEW014 32/21 Q1007=
15/08/2020 06:30:00Z	 SAID32 WIBB 150630	METAR WIBB 150630Z 22005KT 9999 FEW014 33/21 Q1007=
15/08/2020 07:00:00Z	 SAID32 WIBB 150700	METAR WIBB 150700Z 08005KT 8000 SCT013 33/21 Q1006=
15/08/2020 07:30:00Z	 SAID32 WIBB 150730	METAR WIBB 150730Z 18005KT 8000 SCT013 33/21 Q1006=
15/08/2020 08:00:00Z	 SAID32 WIBB 150800	METAR WIBB 150800Z 00000KT 8000 SCT013 34/21 Q1005=
15/08/2020 08:30:00Z	 SAID32 WIBB 150830	METAR WIBB 150830Z 00000KT 8000 SCT013 33/21 Q1005=
15/08/2020 09:00:00Z	 SAID32 WIBB 150900	METAR WIBB 150900Z 00000KT 8000 SCT013 33/21 Q1005=
15/08/2020 09:30:00Z	 SAID32 WIBB 150930	METAR WIBB 150930Z 06005KT 8000 SCT013 32/22 Q1005=
15/08/2020 10:00:00Z	 SAID32 WIBB 151000	METAR WIBB 151000Z 00000KT 8000 SCT013 32/22 Q1006=
15/08/2020 10:30:00Z	 SAID32 WIBB 151030	METAR WIBB 151030Z 00000KT 8000 SCT013 32/22 Q1006=
15/08/2020 11:00:00Z	 SAID32 WIBB 151100	METAR WIBB 151100Z 00000KT 8000 FEW013 32/22 Q1006=
15/08/2020 11:30:00Z	 SAID32 WIBB 151130	METAR WIBB 151130Z 00000KT 8000 FEW013 30/23 Q1006=
15/08/2020 12:00:00Z	 SAID32 WIBB 151200	METAR WIBB 151200Z 00000KT 8000 SCT013 30/23 Q1007=
15/08/2020 12:30:00Z	 SAID32 WIBB 151230	METAR WIBB 151230Z 00000KT 8000 SCT013 30/24 Q1007=
15/08/2020 13:00:00Z	 SAID32 WIBB 151300	METAR WIBB 151300Z 10004KT 7000 FEW016CB 29/24 Q1007=
15/08/2020 14:00:00Z	 SAID32 WIBB 151400	METAR WIBB 151400Z 22010KT 7000 FEW016CB 27/22 Q1009=
15/08/2020 14:30:00Z	 SAID32 WIBB 151430	METAR WIBB 151430Z 20011KT 7000 TS FEW016CB 25/22 Q1010=
15/08/2020 15:00:00Z	 SAID32 WIBB 151500	METAR WIBB 151500Z 22015KT 7000 TS SCT014 FEW016CB 26/21 Q1010=
15/08/2020 15:30:00Z	 SAID32 WIBB 151530	METAR WIBB 151530Z 21010KT 7000 TS SCT014 FEW016CB 25/21 Q1011=
15/08/2020 16:00:00Z	 SAID32 WIBB 151600	METAR WIBB 151600Z 20005KT 7000 TS SCT014 FEW016CB 25/21 Q1011=
15/08/2020 18:00:00Z	 SAID32 WIBB 151800	METAR WIBB 151800Z 25005KT 7000 TS SCT014 FEW016CB 24/22 Q1010=
15/08/2020 21:00:00Z	 SAID32 WIBB 152100	METAR WIBB 152100Z 17005KT 7000 SCT014 23/22 Q1009=
15/08/2020 22:00:00Z	 SAID32 WIBB 152200	METAR WIBB 152200Z 19005KT 7000 SCT014 23/22 Q1008=
15/08/2020 22:30:00Z	 SAID32 WIBB 152230	METAR WIBB 152230Z 16005KT 7000 SCT014 23/21 Q1008=
15/08/2020 23:00:00Z	 SAID32 WIBB 152300	METAR WIBB 152300Z 15005KT 6000 SCT014 23/21 Q1008=
15/08/2020 23:30:00Z	 SAID32 WIBB 152330	METAR WIBB 152330Z 00000KT 7000 FEW014 23/21 Q1008=
16/08/2020 00:00:00Z	 SAID32 WIBB 160000	METAR WIBB 160000Z 00000KT 7000 NSC 23/21 Q1008=
16/08/2020 00:30:00Z	 SAID32 WIBB 160030	METAR WIBB 160030Z 00000KT 7000 NSC 23/21 Q1009=
16/08/2020 01:00:00Z	 SAID32 WIBB 160100	METAR WIBB 160100Z 00000KT CAVOK 25/21 Q1009=
16/08/2020 01:30:00Z	 SAID32 WIBB 160130	METAR WIBB 160130Z 00000KT CAVOK 25/22 Q1010=
16/08/2020 02:00:00Z	 SAID32 WIBB 160200	METAR WIBB 160200Z 17005KT CAVOK 27/22 Q1010=
16/08/2020 02:30:00Z	 SAID32 WIBB 160230	METAR WIBB 160230Z 15006KT CAVOK 27/22 Q1010=
16/08/2020 03:00:00Z	 SAID32 WIBB 160300	METAR WIBB 160300Z 14006KT CAVOK 28/22 Q1010=
16/08/2020 03:30:00Z	 SAID32 WIBB 160330	METAR WIBB 160330Z 17006KT CAVOK 29/22 Q1009=
16/08/2020 04:00:00Z	 SAID32 WIBB 160400	METAR WIBB 160400Z 20008KT CAVOK 30/21 Q1009=
16/08/2020 04:30:00Z	 SAID32 WIBB 160430	METAR WIBB 160430Z 19008KT CAVOK 30/22 Q1009=
16/08/2020 05:00:00Z	 SAID32 WIBB 160500	METAR WIBB 160500Z 18006KT 9999 FEW009 31/22 Q1009=
16/08/2020 05:30:00Z	 SAID32 WIBB 160530	METAR WIBB 160530Z 18007KT 9999 FEW009 31/22 Q1008=
16/08/2020 06:00:00Z	 SAID32 WIBB 160600	METAR WIBB 160600Z 18007KT 9999 FEW009 32/22 Q1007=
16/08/2020 06:30:00Z	 SAID32 WIBB 160630	METAR WIBB 160630Z 16006KT 9999 FEW010 32/22 Q1007=
16/08/2020 07:00:00Z	 SAID32 WIBB 160700	METAR WIBB 160700Z 19009KT 9999 SCT012 31/21 Q1007=
16/08/2020 07:30:00Z	 SAID32 WIBB 160730	METAR WIBB 160730Z 18007KT 9999 SCT013 32/19 Q1006=
16/08/2020 08:00:00Z	 SAID32 WIBB 160800	METAR WIBB 160800Z 13006KT 9999 SCT012 31/21 Q1006=
16/08/2020 08:30:00Z	 SAID32 WIBB 160830	METAR WIBB 160830Z 19008KT 9999 SCT012 31/21 Q1005=
16/08/2020 09:00:00Z	 SAID32 WIBB 160900	METAR WIBB 160900Z 16005KT 9999 FEW012 32/20 Q1005=
16/08/2020 09:30:00Z	 SAID32 WIBB 160930	METAR WIBB 160930Z 00000KT 9999 FEW012 33/20 Q1005=
16/08/2020 10:00:00Z	 SAID32 WIBB 161000	METAR WIBB 161000Z 22006KT 9999 FEW014 32/21 Q1004=
16/08/2020 10:30:00Z	 SAID32 WIBB 161030	METAR WIBB 161030Z 19005KT 8000 FEW014 31/20 Q1005=
16/08/2020 11:00:00Z	 SAID32 WIBB 161100	METAR WIBB 161100Z 19005KT 8000 FEW014 31/21 Q1005=
16/08/2020 11:30:00Z	 SAID32 WIBB 161130	METAR WIBB 161130Z 00000KT 8000 FEW014 30/21 Q1006=
16/08/2020 12:00:00Z	 SAID32 WIBB 161200	METAR WIBB 161200Z 09005KT 8000 FEW014 29/23 Q1006=
16/08/2020 12:30:00Z	 SAID32 WIBB 161230	METAR WIBB 161230Z 12005KT 8000 FEW014 28/23 Q1007=
16/08/2020 13:00:00Z	 SAID32 WIBB 161300	METAR WIBB 161300Z 00000KT 8000 SCT013 28/23 Q1008=
16/08/2020 13:30:00Z	 SAID32 WIBB 161330	METAR WIBB 161330Z 00000KT 8000 SCT013 28/23 Q1008=
16/08/2020 14:00:00Z	 SAID32 WIBB 161400	METAR WIBB 161400Z 00000KT 8000 SCT013 28/23 Q1009=
16/08/2020 14:30:00Z	 SAID32 WIBB 161430	METAR WIBB 161430Z 00000KT 8000 FEW013 27/23 Q1009=
16/08/2020 15:00:00Z	 SAID32 WIBB 161500	METAR WIBB 161500Z 00000KT 8000 FEW013 27/23 Q1009=
16/08/2020 15:30:00Z	 SAID32 WIBB 161530	METAR WIBB 161530Z 00000KT 8000 FEW013 27/23 Q1009=
16/08/2020 21:30:00Z	 SAID32 WIBB 162130	METAR WIBB 162130Z 00000KT 7000 SCT013 25/24 Q1008=
16/08/2020 23:00:00Z	 SAID32 WIBB 162300	METAR WIBB 162300Z 00000KT 7000 SCT013 25/23 Q1009=
16/08/2020 23:30:00Z	 SAID32 WIBB 162330	METAR WIBB 162330Z 20005KT 7000 BKN010 25/23 Q1009=
17/08/2020 00:00:00Z	 SAID32 WIBB 170000	METAR WIBB 170000Z 19008KT 7000 SCT013 25/23 Q1010=
17/08/2020 00:30:00Z	 SAID32 WIBB 170030	METAR WIBB 170030Z 19008KT 7000 SCT013 25/23 Q1010=
17/08/2020 01:00:00Z	 SAID32 WIBB 170100	METAR WIBB 170100Z 19010KT 8000 FEW015 26/23 Q1010=
17/08/2020 01:30:00Z	 SAID32 WIBB 170130	METAR WIBB 170130Z 19008KT 8000 FEW015 26/23 Q1010=
17/08/2020 02:00:00Z	 SAID32 WIBB 170200	METAR WIBB 170200Z 19010KT 9999 FEW015 28/23 Q1010=
17/08/2020 02:30:00Z	 SAID32 WIBB 170230	METAR WIBB 170230Z 15010KT 9999 FEW015 29/23 Q1010=
17/08/2020 03:00:00Z	 SAID32 WIBB 170300	METAR WIBB 170300Z 18016KT 9999 FEW015 30/22 Q1010=
17/08/2020 03:30:00Z	 SAID32 WIBB 170330	METAR WIBB 170330Z 17010KT 9999 FEW015 30/22 Q1010=
17/08/2020 04:00:00Z	 SAID32 WIBB 170400	METAR WIBB 170400Z 19010KT 9999 FEW015 31/22 Q1010=
17/08/2020 04:30:00Z	 SAID32 WIBB 170430	METAR WIBB 170430Z 15010KT 9999 FEW015 31/22 Q1009=
17/08/2020 05:00:00Z	 SAID32 WIBB 170500	METAR WIBB 170500Z 15008KT 9999 FEW015 31/22 Q1009=
17/08/2020 05:30:00Z	 SAID32 WIBB 170530	METAR WIBB 170530Z 18010KT 9999 FEW015 31/22 Q1008=
17/08/2020 06:00:00Z	 SAID32 WIBB 170600	METAR WIBB 170600Z 19010KT 9999 SCT013 31/22 Q1007=
17/08/2020 06:30:00Z	 SAID32 WIBB 170630	METAR WIBB 170630Z 17010KT 9999 SCT013 31/22 Q1007=
17/08/2020 07:00:00Z	 SAID32 WIBB 170700	METAR WIBB 170700Z 16010KT 9999 FEW014 32/22 Q1006=
17/08/2020 07:30:00Z	 SAID32 WIBB 170730	METAR WIBB 170730Z 18006KT 9999 FEW014 32/22 Q1005=
17/08/2020 08:00:00Z	 SAID32 WIBB 170800	METAR WIBB 170800Z 20010KT 9999 SCT013 32/22 Q1005=
17/08/2020 08:30:00Z	 SAID32 WIBB 170830	METAR WIBB 170830Z 19008KT 9999 SCT013 32/22 Q1005=
17/08/2020 09:00:00Z	 SAID32 WIBB 170900	METAR WIBB 170900Z 16007KT 9999 SCT013 33/22 Q1004=
17/08/2020 09:30:00Z	 SAID32 WIBB 170930	METAR WIBB 170930Z 18006KT 9999 SCT013 33/22 Q1005=
17/08/2020 10:00:00Z	 SAID32 WIBB 171000	METAR WIBB 171000Z 17005KT 9999 SCT012 FEW015CB 31/23 Q1005=
17/08/2020 10:30:00Z	 SAID32 WIBB 171030	METAR WIBB 171030Z 18006KT 9999 SCT012 FEW015CB 31/23 Q1005=
17/08/2020 11:00:00Z	 SAID32 WIBB 171100	METAR WIBB 171100Z 15005KT 8000 FEW013 FEW015CB 30/23 Q1006=
17/08/2020 11:30:00Z	 SAID32 WIBB 171130	METAR WIBB 171130Z 00000KT 8000 FEW013 FEW015CB 30/23 Q1006=
17/08/2020 12:00:00Z	 SAID32 WIBB 171200	METAR WIBB 171200Z 30010KT 7000 TS BKN013CB 27/22 Q1007=
17/08/2020 12:30:00Z	 SAID32 WIBB 171230	METAR WIBB 171230Z 32012KT 5000 TSRA BKN013CB 25/24 Q1007=
17/08/2020 13:00:00Z	 SAID32 WIBB 171300	METAR WIBB 171300Z 23007KT 5000 -TSRA SCT013CB 24/23 Q1008=
17/08/2020 13:30:00Z	 SAID32 WIBB 171330	METAR WIBB 171330Z 17005KT 1000 TSRA SCT013CB 23/23 Q1009=
17/08/2020 14:00:00Z	 SAID32 WIBB 171400	METAR WIBB 171400Z 03006KT 4000 TSRA SCT013CB 24/23 Q1009=
17/08/2020 14:30:00Z	 SAID32 WIBB 171430	METAR WIBB 171430Z 05006KT 5000 -RA FEW015CB SCT012 23/22 Q1009=
17/08/2020 15:00:00Z	 SAID32 WIBB 171500	METAR WIBB 171500Z 00000KT 6000 -RA FEW015CB SCT012 23/22 Q1009=
17/08/2020 15:30:00Z	 SAID32 WIBB 171530	METAR WIBB 171530Z 00000KT 7000 SCT012 23/22 Q1009=
17/08/2020 16:00:00Z	 SAID32 WIBB 171600	METAR WIBB 171600Z 00000KT 7000 -RA SCT012 23/23 Q1009=
17/08/2020 16:30:00Z	 SAID32 WIBB 171630	METAR WIBB 171630Z 00000KT 7000 -RA SCT012 23/22 Q1010=
17/08/2020 18:00:00Z	 SAID32 WIBB 171800	METAR WIBB 171800Z 16007KT 6000 -RA SCT012 23/23 Q1009=
17/08/2020 21:00:00Z	 SAID32 WIBB 172100	METAR WIBB 172100Z 16006KT 6000 SCT012 23/22 Q1007=
17/08/2020 22:30:00Z	 SAID32 WIBB 172230	METAR WIBB 172230Z 16005KT 7000 SCT012 23/22 Q1008=
17/08/2020 23:00:00Z	 SAID32 WIBB 172300	METAR WIBB 172300Z 00000KT 7000 SCT012 23/22 Q1008=
17/08/2020 23:30:00Z	 SAID32 WIBB 172330	METAR WIBB 172330Z 00000KT 7000 SCT012 23/22 Q1008=
18/08/2020 00:00:00Z	 SAID32 WIBB 180000	METAR WIBB 180000Z 00000KT 7000 SCT012 23/22 Q1008=
18/08/2020 00:30:00Z	 SAID32 WIBB 180030	METAR WIBB 180030Z 00000KT 7000 FEW013 24/22 Q1008=
18/08/2020 01:00:00Z	 SAID32 WIBB 180100	METAR WIBB 180100Z 18005KT 7000 SCT010 24/23 Q1009=
18/08/2020 01:30:00Z	 SAID32 WIBB 180130	METAR WIBB 180130Z 17006KT 8000 SCT010 25/23 Q1009=
18/08/2020 02:00:00Z	 SAID32 WIBB 180200	METAR WIBB 180200Z 16008KT 9000 FEW012 26/23 Q1010=
18/08/2020 02:30:00Z	 SAID32 WIBB 180230	METAR WIBB 180230Z 15007KT 9000 SCT012 27/24 Q1010=
18/08/2020 03:00:00Z	 SAID32 WIBB 180300	METAR WIBB 180300Z 18009KT 9000 SCT012 27/24 Q1010=
18/08/2020 03:30:00Z	 SAID32 WIBB 180330	METAR WIBB 180330Z 18010KT 9000 SCT013 28/23 Q1010=
18/08/2020 04:00:00Z	 SAID32 WIBB 180400	METAR WIBB 180400Z 17008KT 9999 SCT013 29/24 Q1009=
18/08/2020 04:30:00Z	 SAID32 WIBB 180430	METAR WIBB 180430Z 17010KT 9999 SCT013 29/23 Q1009=
18/08/2020 05:00:00Z	 SAID32 WIBB 180500	METAR WIBB 180500Z 15010KT 9999 SCT013 30/23 Q1009=
18/08/2020 05:30:00Z	 SAID32 WIBB 180530	METAR WIBB 180530Z 18010KT 9999 SCT013 30/22 Q1008=
18/08/2020 06:00:00Z	 SAID32 WIBB 180600	METAR WIBB 180600Z 18008KT 9999 SCT014 30/22 Q1008=
18/08/2020 06:30:00Z	 SAID32 WIBB 180630	METAR WIBB 180630Z 20005KT 9999 SCT014 31/22 Q1007=
18/08/2020 07:00:00Z	 SAID32 WIBB 180700	METAR WIBB 180700Z 20007KT 9999 SCT014 31/23 Q1006=
18/08/2020 07:30:00Z	 SAID32 WIBB 180730	METAR WIBB 180730Z 19006KT 9999 SCT014 31/23 Q1006=
18/08/2020 08:00:00Z	 SAID32 WIBB 180800	METAR WIBB 180800Z 16006KT 9999 SCT015 32/22 Q1005=
18/08/2020 08:30:00Z	 SAID32 WIBB 180830	METAR WIBB 180830Z 14006KT 9999 SCT015 31/23 Q1005=
18/08/2020 09:00:00Z	 SAID32 WIBB 180900	METAR WIBB 180900Z 14006KT 9999 SCT015 31/22 Q1005=
18/08/2020 09:30:00Z	 SAID32 WIBB 180930	METAR WIBB 180930Z 15006KT 9999 FEW015 31/22 Q1005=
18/08/2020 10:00:00Z	 SAID32 WIBB 181000	METAR WIBB 181000Z 16006KT 9999 NCD 31/22 Q1005=
18/08/2020 10:30:00Z	 SAID32 WIBB 181030	METAR WIBB 181030Z 13006KT 9999 FEW017 31/22 Q1005=
18/08/2020 11:00:00Z	 SAID32 WIBB 181100	METAR WIBB 181100Z 00000KT 9000 FEW020CB 30/23 Q1005=
18/08/2020 11:30:00Z	 SAID32 WIBB 181130	METAR WIBB 181130Z 15005KT 9000 SCT017 29/23 Q1006=
18/08/2020 12:00:00Z	 SAID32 WIBB 181200	METAR WIBB 181200Z 17006KT 8000 FEW017CB 29/24 Q1007=
18/08/2020 12:30:00Z	 SAID32 WIBB 181230	METAR WIBB 181230Z 00000KT 8000 FEW017CB 27/23 Q1007=
18/08/2020 13:00:00Z	 SAID32 WIBB 181300	METAR WIBB 181300Z 00000KT 8000 FEW017 27/23 Q1006=
18/08/2020 13:30:00Z	 SAID32 WIBB 181330	METAR WIBB 181330Z 17005KT 8000 FEW017 27/23 Q1007=
