01/06/2022 00:00:00Z	 SAID34 WIJJ 010000	METAR WIJJ 010000Z 16005KT 5000 HZ SCT015 26/25 Q1008 NOSIG=
01/06/2022 00:30:00Z	 SAID34 WIJJ 010030	METAR WIJJ 010030Z 15005KT 4000 HZ SCT012 26/25 Q1008 NOSIG=
01/06/2022 01:00:00Z	 SAID34 WIJJ 010100	METAR WIJJ 010100Z 14005KT 5000 HZ SCT012 27/25 Q1009 NOSIG=
01/06/2022 01:30:00Z	 SAID34 WIJJ 010130	METAR WIJJ 010130Z 13005KT 7000 FEW015 27/25 Q1009 NOSIG=
01/06/2022 02:00:00Z	 SAID34 WIJJ 010200	METAR WIJJ 010200Z 13006KT 8000 SCT013 28/26 Q1009 NOSIG=
01/06/2022 02:30:00Z	 SAID34 WIJJ 010230	METAR WIJJ 010230Z 15005KT 9999 SCT013 28/25 Q1009 NOSIG=
01/06/2022 03:00:00Z	 SAID34 WIJJ 010300	METAR WIJJ 010300Z 12005KT 8000 SCT013 28/26 Q1009 NOSIG=
01/06/2022 03:30:00Z	 SAID34 WIJJ 010330	METAR WIJJ 010330Z 13005KT 9000 FEW015 29/26 Q1009 NOSIG=
01/06/2022 04:00:00Z	 SAID34 WIJJ 010400	METAR WIJJ 010400Z 13005KT 9999 FEW015 29/25 Q1009 NOSIG=
01/06/2022 04:30:00Z	 SAID34 WIJJ 010430	METAR WIJJ 010430Z 13005KT 9999 FEW015 29/25 Q1009 NOSIG=
01/06/2022 05:00:00Z	 SAID34 WIJJ 010500	METAR WIJJ 010500Z 15005KT 9999 FEW015 30/26 Q1008 NOSIG=
01/06/2022 05:30:00Z	 SAID34 WIJJ 010530	METAR WIJJ 010530Z 12003KT 9999 FEW015 31/26 Q1008 NOSIG=
01/06/2022 06:00:00Z	 SAID34 WIJJ 010600	METAR WIJJ 010600Z 19003KT 9999 SCT016 31/26 Q1007 NOSIG=
01/06/2022 06:30:00Z	 SAID34 WIJJ 010630	METAR WIJJ 010630Z 23003KT 170V310 9999 SCT017 32/25 Q1007 NOSIG=
01/06/2022 07:00:00Z	 SAID34 WIJJ 010700	METAR WIJJ 010700Z 21003KT 140V240 9999 SCT017 33/25 Q1006 NOSIG=
01/06/2022 07:30:00Z	 SAID34 WIJJ 010730	METAR WIJJ 010730Z 17003KT 090V220 9999 SCT017 34/25 Q1006 NOSIG=
01/06/2022 08:00:00Z	 SAID34 WIJJ 010800	METAR WIJJ 010800Z 16003KT 120V240 9999 SCT017 33/25 Q1006 NOSIG=
01/06/2022 08:30:00Z	 SAID34 WIJJ 010830	METAR WIJJ 010830Z 18001KT 9999 SCT017 32/26 Q1005 NOSIG=
01/06/2022 09:00:00Z	 SAID34 WIJJ 010900	METAR WIJJ 010900Z 18002KT 9999 FEW016CB SCT017 33/25 Q1006 NOSIG RMK CB TO E=
01/06/2022 09:30:00Z	 SAID34 WIJJ 010930	METAR WIJJ 010930Z 05004KT 360V070 8000 FEW015CB SCT016 32/25 Q1005 NOSIG RMK CB TO E=
01/06/2022 10:00:00Z	 SAID34 WIJJ 011000	METAR WIJJ 011000Z 02003KT 330V050 5000 VCTS RA FEW014CB SCT015 32/25 Q1005 CB TO E AND SE=
01/06/2022 10:30:00Z	 SAID34 WIJJ 011030	METAR WIJJ 011030Z 10010KT 3300 TS FEW005CB SCT005 27/26 Q1006 NOSIG RMK CB AT AIRPORT=
01/06/2022 11:00:00Z	 SAID34 WIJJ 011100	METAR WIJJ 011100Z 10005KT 7000 -TSRA FEW014CB SCT015 26/25 Q1006 NOSIG RMK CB TO ALQDS=
01/06/2022 11:30:00Z	 SAID34 WIJJ 011130	METAR WIJJ 011130Z 11004KT 080V150 9000 TS FEW014CB SCT015 26/25 Q1007 NOSIG RMK CB TO SE-SW=
01/06/2022 12:00:00Z	 SAID34 WIJJ 011200	METAR WIJJ 011200Z 16002KT 9999 TS FEW014CB SCT015 26/25 Q1007 NOSIG RMK CB TO ALQDS=
01/06/2022 12:30:00Z	 SAID34 WIJJ 011230	METAR WIJJ 011230Z 11003KT 070V140 9999 SCT015 26/25 Q1007 NOSIG=
01/06/2022 13:00:00Z	 SAID34 WIJJ 011300	METAR WIJJ 011300Z 11004KT 9999 SCT016 26/25 Q1007 NOSIG=
01/06/2022 13:30:00Z	 SAID34 WIJJ 011330	METAR WIJJ 011330Z 06003KT 9999 SCT016 26/25 Q1008 NOSIG=
01/06/2022 14:00:00Z	 SAID34 WIJJ 011400	METAR WIJJ 011400Z 08003KT 9999 SCT016 26/25 Q1008 NOSIG=
01/06/2022 14:30:00Z	 SAID34 WIJJ 011430	METAR WIJJ 011430Z 12002KT 9999 SCT016 25/24 Q1008 NOSIG=
01/06/2022 15:00:00Z	 SAID34 WIJJ 011500	METAR WIJJ 011500Z 13002KT 9999 SCT016 25/24 Q1008 NOSIG=
01/06/2022 15:30:00Z	 SAID34 WIJJ 011530	METAR WIJJ 011530Z 14002KT 9999 SCT016 25/24 Q1008 NOSIG=
01/06/2022 16:00:00Z	 SAID34 WIJJ 011600	METAR WIJJ 011600Z 16002KT 9999 SCT017 24/24 Q1008 NOSIG=
01/06/2022 16:30:00Z	 SAID34 WIJJ 011630	METAR WIJJ 011630Z 23002KT 9999 SCT016 25/24 Q1008 NOSIG=
01/06/2022 17:00:00Z	 SAID34 WIJJ 011700	METAR WIJJ 011700Z 00000KT 9999 SCT016 25/24 Q1008 NOSIG=
01/06/2022 18:00:00Z	 SAID34 WIJJ 011800	METAR WIJJ 011800Z 00000KT 9999 SCT016 25/24 Q1008 NOSIG=
01/06/2022 18:30:00Z	 SAID34 WIJJ 011830	METAR WIJJ 011830Z 00000KT 9999 SCT016 25/24 Q1008 NOSIG=
01/06/2022 19:00:00Z	 SAID34 WIJJ 011900	METAR WIJJ 011900Z 00000KT 9999 SCT015 25/24 Q1008 NOSIG=
01/06/2022 19:30:00Z	 SAID34 WIJJ 011930	METAR WIJJ 011930Z 00000KT 9999 SCT015 25/24 Q1008 NOSIG=
01/06/2022 20:00:00Z	 SAID34 WIJJ 012000	METAR WIJJ 012000Z 15002KT 9999 BKN015 24/24 Q1008 NOSIG=
01/06/2022 20:30:00Z	 SAID34 WIJJ 012030	METAR WIJJ 012030Z 14002KT 9999 BKN015 24/24 Q1008 NOSIG=
01/06/2022 21:00:00Z	 SAID34 WIJJ 012100	METAR WIJJ 012100Z 24004KT 2500 VCTS RA FEW010CB BKN011 25/24 Q1007 NOSIG RMK CB TO NE AND SE=
01/06/2022 21:30:00Z	 SAID34 WIJJ 012130	METAR WIJJ 012130Z 17004KT 8000 VCTS RA FEW011CB BKN012 25/24 Q1008 NOSIG RMK CB ALQDS=
01/06/2022 22:00:00Z	 SAID34 WIJJ 012200	METAR WIJJ 012200Z 19004KT 150V220 6000 VCTS RA FEW011CB BKN012 25/24 Q1008 NOSIG RMK CB TO NE-NE=
01/06/2022 22:30:00Z	 SAID34 WIJJ 012230	METAR WIJJ 012230Z 18004KT 150V220 4000 VCTS RA FEW011CB BKN012 25/24 Q1008 NOSIG RMK CB TO NE-NE=
01/06/2022 23:00:00Z	 SAID34 WIJJ 012300	METAR WIJJ 012300Z 23002KT 0500 TSRA FEW010CB OVC011 25/24 Q1009 NOSIG RMK CB AT AIRPORT=
01/06/2022 23:30:00Z	 SAID34 WIJJ 012330	METAR WIJJ 012330Z 06004KT 2000 TSRA FEW009CB OVC010 24/24 Q1010 NOSIG RMK CB AT AIRPORT=
02/06/2022 00:00:00Z	 SAID34 WIJJ 020000	METAR WIJJ 020000Z 11003KT 080V160 1200 -RA FEW010CB BKN011 24/24 Q1009 NOSIG RMK CB TO NW-N=
02/06/2022 00:30:00Z	 SAID34 WIJJ 020030	METAR WIJJ 020030Z 32002KT 3000 -RA BKN013 25/24 Q1009 NOSIG=
02/06/2022 01:00:00Z	 SAID34 WIJJ 020100	METAR WIJJ 020100Z 20004KT 5000 -RA BKN015 25/24 Q1009 NOSIG=
02/06/2022 01:30:00Z	 SAID34 WIJJ 020130	METAR WIJJ 020130Z 23003KT 8000 SCT017 26/25 Q1009 NOSIG=
02/06/2022 02:00:00Z	 SAID34 WIJJ 020200	METAR WIJJ 020200Z 23004KT 9999 SCT017 26/25 Q1009 NOSIG=
02/06/2022 02:30:00Z	 SAID34 WIJJ 020230	METAR WIJJ 020230Z 25004KT 9999 SCT017 27/25 Q1010 NOSIG=
02/06/2022 03:00:00Z	 SAID34 WIJJ 020300	METAR WIJJ 020300Z 27004KT 9999 SCT017 28/25 Q1010 NOSIG=
02/06/2022 03:30:00Z	 SAID34 WIJJ 020330	METAR WIJJ 020330Z 25002KT 9999 SCT017 28/25 Q1010 NOSIG=
02/06/2022 04:00:00Z	 SAID34 WIJJ 020400	METAR WIJJ 020400Z 12002KT 9999 SCT017 28/25 Q1010 NOSIG=
02/06/2022 04:30:00Z	 SAID34 WIJJ 020430	METAR WIJJ 020430Z 12002KT 9999 SCT017 29/25 Q1010 NOSIG=
02/06/2022 05:00:00Z	 SAID34 WIJJ 020500	METAR WIJJ 020500Z 10003KT 9999 SCT017 30/25 Q1009 NOSIG=
02/06/2022 05:30:00Z	 SAID34 WIJJ 020530	METAR WIJJ 020530Z 01002KT 9999 SCT017 30/25 Q1008 NOSIG=
02/06/2022 06:00:00Z	 SAID34 WIJJ 020600	METAR WIJJ 020600Z 03003KT 9999 SCT017 31/25 Q1008 NOSIG=
02/06/2022 06:30:00Z	 SAID34 WIJJ 020630	METAR WIJJ 020630Z 33001KT 9999 SCT017 31/25 Q1008 NOSIG=
02/06/2022 07:00:00Z	 SAID34 WIJJ 020700	METAR WIJJ 020700Z 31004KT 4000 -RA FEW012CB BKN013 30/25 Q1007 NOSIG RMK CB OVER THE FIELD=
02/06/2022 07:30:00Z	 SAID34 WIJJ 020730	METAR WIJJ 020730Z 33005KT 2000 TSRA FEW012CB BKN013 29/25 Q1007 RMK CB OVER TE FIELD=
02/06/2022 08:00:00Z	 SAID34 WIJJ 020800	METAR WIJJ 020800Z 36002KT 9999 -RA SCT014 27/24 Q1007 NOSIG=
02/06/2022 08:30:00Z	 SAID34 WIJJ 020830	METAR WIJJ 020830Z 03002KT 8000 FEW014CB SCT015 28/24 Q1007 RERA NOSIG RMK CB TO E AND SE=
02/06/2022 09:00:00Z	 SAID34 WIJJ 020900	METAR WIJJ 020900Z 02002KT 9999 FEW014CB SCT015 29/25 Q1007 NOSIG RMK CB TO E AND SE=
02/06/2022 09:30:00Z	 SAID34 WIJJ 020930	METAR WIJJ 020930Z 03002KT 9999 VCTS FEW014CB FEW015 29/25 Q1007 NOSIG RMK CB TO E AND SE=
02/06/2022 10:00:00Z	 SAID34 WIJJ 021000	METAR WIJJ 021000Z 09008KT 9000 -TSRA FEW012CB SCT013 28/24 Q1008 RMK CB TO NE-SE=
02/06/2022 10:30:00Z	 SAID34 WIJJ 021030	METAR WIJJ 021030Z 07005KT 9000 FEW013CB FEW014 27/24 Q1008 RETSRA NOSIG RMK CB TO NE=
02/06/2022 11:00:00Z	 SAID34 WIJJ 021100	METAR WIJJ 021100Z 08003KT 6000 -RA BKN013 25/23 Q1008 NOSIG=
02/06/2022 11:30:00Z	 SAID34 WIJJ 021130	METAR WIJJ 021130Z 08003KT 8000 -RA BKN014 25/23 Q1008 NOSIG=
02/06/2022 12:00:00Z	 SAID34 WIJJ 021200	METAR WIJJ 021200Z 03002KT 9000 -RA SCT014 24/23 Q1009 NOSIG=
02/06/2022 12:30:00Z	 SAID34 WIJJ 021230	METAR WIJJ 021230Z 01003KT 330V030 8000 -RA SCT014 24/24 Q1009 NOSIG=
02/06/2022 13:00:00Z	 SAID34 WIJJ 021300	METAR WIJJ 021300Z 09002KT 8000 -RA SCT014 24/24 Q1009 NOSIG=
02/06/2022 13:30:00Z	 SAID34 WIJJ 021330	METAR WIJJ 021330Z 05002KT 9000 -RA SCT014 24/24 Q1009 NOSIG=
02/06/2022 14:00:00Z	 SAID34 WIJJ 021400	METAR WIJJ 021400Z 00000KT 8000 SCT014 24/24 Q1009 NOSIG RMK RERA=
02/06/2022 14:30:00Z	 SAID34 WIJJ 021430	METAR WIJJ 021430Z 00000KT 7000 FEW015 24/24 Q1010 NOSIG=
02/06/2022 15:00:00Z	 SAID34 WIJJ 021500	METAR WIJJ 021500Z 26002KT 5000 HZ FEW015 24/24 Q1010 NOSIG=
02/06/2022 15:30:00Z	 SAID34 WIJJ 021530	METAR WIJJ 021530Z 36001KT 6000 FEW015 24/24 Q1010 NOSIG=
02/06/2022 16:00:00Z	 SAID34 WIJJ 021600	METAR WIJJ 021600Z 28002KT 5000 BR FEW015 24/24 Q1010 NOSIG=
02/06/2022 16:30:00Z	 SAID34 WIJJ 021630	METAR WIJJ 021630Z 26001KT 3800 BR FEW015 24/24 Q1010 NOSIG=
02/06/2022 17:00:00Z	 SAID34 WIJJ 021700	METAR WIJJ 021700Z 24002KT 3800 BR FEW015 24/24 Q1010 NOSIG=
02/06/2022 17:30:00Z	 SAID34 WIJJ 021730	METAR WIJJ 021730Z 18003KT 3300 BR FEW015 24/24 Q1011 NOSIG=
02/06/2022 18:00:00Z	 SAID34 WIJJ 021800	METAR WIJJ 021800Z 13001KT 3700 BR FEW015 24/24 Q1010 NOSIG=
02/06/2022 19:00:00Z	 SAID34 WIJJ 021900	METAR WIJJ 021900Z 12002KT 3600 BR FEW015 24/24 Q1009 NOSIG=
02/06/2022 19:30:00Z	 SAID34 WIJJ 021930	METAR WIJJ 021930Z 19002KT 3500 BR FEW016 24/24 Q1009 NOSIG=
02/06/2022 20:00:00Z	 SAID34 WIJJ 022000	METAR WIJJ 022000Z 22001KT 3400 BR FEW016 24/23 Q1009 NOSIG=
02/06/2022 20:30:00Z	 SAID34 WIJJ 022030	METAR WIJJ 022030Z 00000KT 5000 BR FEW016 23/23 Q1009 NOSIG=
02/06/2022 21:00:00Z	 SAID34 WIJJ 022100	METAR WIJJ 022100Z 25002KT 4100 BR FEW016 23/23 Q1008 NOSIG=
02/06/2022 21:30:00Z	 SAID34 WIJJ 022130	METAR WIJJ 022130Z 24002KT 3100 BR FEW016 23/23 Q1009 NOSIG=
02/06/2022 22:00:00Z	 SAID34 WIJJ 022200	METAR WIJJ 022200Z 26002KT 3100 BR FEW016 23/23 Q1009 NOSIG=
02/06/2022 22:30:00Z	 SAID34 WIJJ 022230	METAR WIJJ 022230Z 24002KT 3000 BR FEW016 23/23 Q1009 NOSIG=
02/06/2022 23:00:00Z	 SAID34 WIJJ 022300	METAR WIJJ 022300Z 22001KT 2000 BR NSC 23/23 Q1009 NOSIG=
02/06/2022 23:30:00Z	 SAID34 WIJJ 022330	METAR WIJJ 022330Z 28002KT 1400 R31/P2000 BR NSC 23/23 Q1009 NOSIG=
03/06/2022 00:00:00Z	 SAID34 WIJJ 030000	METAR WIJJ 030000Z 26002KT 1800 BR NSC 24/23 Q1009 NOSIG=
03/06/2022 00:30:00Z	 SAID34 WIJJ 030030	METAR WIJJ 030030Z 29004KT 4000 HZ FEW015 25/24 Q1009 NOSIG=
03/06/2022 01:00:00Z	 SAID34 WIJJ 030100	METAR WIJJ 030100Z 26004KT 5000 HZ FEW017 25/24 Q1010 NOSIG=
03/06/2022 01:30:00Z	 SAID34 WIJJ 030130	METAR WIJJ 030130Z 25004KT 9000 FEW017 28/26 Q1010 NOSIG=
03/06/2022 02:00:00Z	 SAID34 WIJJ 030200	METAR WIJJ 030200Z 24006KT 9999 FEW017 28/24 Q1010 NOSIG=
03/06/2022 02:30:00Z	 SAID34 WIJJ 030230	METAR WIJJ 030230Z 23005KT 7000 FEW017 28/24 Q1010 NOSIG=
03/06/2022 03:00:00Z	 SAID34 WIJJ 030300	METAR WIJJ 030300Z 18003KT 9999 FEW017 28/24 Q1010 NOSIG=
03/06/2022 03:30:00Z	 SAID34 WIJJ 030330	METAR WIJJ 030330Z 15006KT 9999 FEW017 28/24 Q1010 NIL=
03/06/2022 04:00:00Z	 SAID34 WIJJ 030400	METAR WIJJ 030400Z 16002KT 9999 FEW014 30/24 Q1010 NOSIG=
03/06/2022 04:30:00Z	 SAID34 WIJJ 030430	METAR WIJJ 030430Z 13004KT 9999 FEW014 30/26 Q1010 NOSIG=
03/06/2022 05:00:00Z	 SAID34 WIJJ 030500	METAR WIJJ 030500Z 15003KT 9999 FEW014 31/24 Q1009 NOSIG=
03/06/2022 05:30:00Z	 SAID34 WIJJ 030530	METAR WIJJ 030530Z 13004KT 9999 SCT014 31/26 Q1009 NOSIG=
03/06/2022 06:00:00Z	 SAID34 WIJJ 030600	METAR WIJJ 030600Z 14004KT 9999 FEW017 31/25 Q1008 NOSIG=
03/06/2022 06:30:00Z	 SAID34 WIJJ 030630	METAR WIJJ 030630Z 13003KT 9999 SCT017 31/25 Q1008 NOSIG=
03/06/2022 07:00:00Z	 SAID34 WIJJ 030700	METAR WIJJ 030700Z 18003KT 9999 FEW017 31/24 Q1007 NOSIG=
03/06/2022 07:30:00Z	 SAID34 WIJJ 030730	METAR WIJJ 030730Z 12003KT 9999 SCT017 31/24 Q1007 NOSIG=
03/06/2022 08:00:00Z	 SAID34 WIJJ 030800	METAR WIJJ 030800Z 12004KT 9999 SCT016 31/24 Q1007 NOSIG=
03/06/2022 08:30:00Z	 SAID34 WIJJ 030830	METAR WIJJ 030830Z 10004KT 9999 SCT016 31/24 Q1007 NOSIG=
03/06/2022 09:00:00Z	 SAID34 WIJJ 030900	METAR WIJJ 030900Z 10007KT 9999 SCT016 30/24 Q1007 NOSIG=
03/06/2022 09:30:00Z	 SAID34 WIJJ 030930	METAR WIJJ 030930Z 09007KT 9999 SCT017 30/24 Q1007 NOSIG=
03/06/2022 10:00:00Z	 SAID34 WIJJ 031000	METAR WIJJ 031000Z 08006KT 9999 FEW017 29/24 Q1007 NOSIG=
03/06/2022 10:30:00Z	 SAID34 WIJJ 031030	METAR WIJJ 031030Z 12005KT 9999 FEW017 29/24 Q1007 NOSIG=
03/06/2022 11:00:00Z	 SAID34 WIJJ 031100	METAR WIJJ 031100Z 10003KT 9999 FEW017 28/24 Q1008 NOSIG=
03/06/2022 11:30:00Z	 SAID34 WIJJ 031130	METAR WIJJ 031130Z 18002KT 9999 FEW017 28/24 Q1008 NOSIG=
03/06/2022 12:00:00Z	 SAID34 WIJJ 031200	METAR WIJJ 031200Z 11005KT 9999 FEW017 27/24 Q1009 NOSIG=
03/06/2022 12:30:00Z	 SAID34 WIJJ 031230	METAR WIJJ 031230Z 11002KT 9000 FEW017 27/24 Q1009 NOSIG=
03/06/2022 13:00:00Z	 SAID34 WIJJ 031300	METAR WIJJ 031300Z 11003KT 8000 FEW017 27/24 Q1009 NOSIG=
03/06/2022 13:30:00Z	 SAID34 WIJJ 031330	METAR WIJJ 031330Z 12002KT 7000 FEW017 26/24 Q1009 NOSIG=
03/06/2022 14:00:00Z	 SAID34 WIJJ 031400	METAR WIJJ 031400Z 16002KT 7000 FEW017 26/24 Q1010 NOSIG=
03/06/2022 14:30:00Z	 SAID34 WIJJ 031430	METAR WIJJ 031430Z 26002KT 6000 FEW017 26/24 Q1010 NOSIG=
03/06/2022 15:00:00Z	 SAID34 WIJJ 031500	METAR WIJJ 031500Z 20001KT 6000 FEW017 26/24 Q1010 NOSIG=
03/06/2022 15:30:00Z	 SAID34 WIJJ 031530	METAR WIJJ 031530Z 25003KT 6000 FEW017 26/24 Q1010 NOSIG=
03/06/2022 16:00:00Z	 SAID34 WIJJ 031600	METAR WIJJ 031600Z 25003KT 6000 FEW017 26/24 Q1010 NOSIG=
03/06/2022 16:30:00Z	 SAID34 WIJJ 031630	METAR WIJJ 031630Z 00000KT 6000 FEW017 26/24 Q1010 NOSIG=
03/06/2022 17:00:00Z	 SAID34 WIJJ 031700	METAR WIJJ 031700Z 23002KT 5000 HZ FEW017 25/24 Q1010 NOSIG=
03/06/2022 17:30:00Z	 SAID34 WIJJ 031730	METAR WIJJ 031730Z 20002KT 5000 HZ FEW017 25/24 Q1010 NOSIG=
03/06/2022 18:00:00Z	 SAID34 WIJJ 031800	METAR WIJJ 031800Z 25003KT 7000 FEW016 25/24 Q1010 NOSIG=
03/06/2022 18:30:00Z	 SAID34 WIJJ 031830	METAR WIJJ 031830Z 24006KT 9999 FEW017 25/24 Q1010 NOSIG=
03/06/2022 19:00:00Z	 SAID34 WIJJ 031900	METAR WIJJ 031900Z 26003KT 9999 FEW016 25/24 Q1010 NOSIG=
03/06/2022 19:30:00Z	 SAID34 WIJJ 031930	METAR WIJJ 031930Z 27003KT 9999 FEW016 25/24 Q1010 NOSIG=
03/06/2022 20:00:00Z	 SAID34 WIJJ 032000	METAR WIJJ 032000Z 26005KT 9999 FEW016 25/24 Q1009 NOSIG=
03/06/2022 20:30:00Z	 SAID34 WIJJ 032030	METAR WIJJ 032030Z 22003KT 9999 FEW016 25/24 Q1010 NOSIG=
03/06/2022 21:00:00Z	 SAID34 WIJJ 032100	METAR WIJJ 032100Z 23002KT 9999 FEW016 24/23 Q1010 NOSIG=
03/06/2022 21:30:00Z	 SAID34 WIJJ 032130	METAR WIJJ 032130Z 22002KT 9000 FEW016 24/23 Q1009 NOSIG=
03/06/2022 22:00:00Z	 SAID34 WIJJ 032200	METAR WIJJ 032200Z 26002KT 8000 FEW016 24/23 Q1010 NOSIG=
03/06/2022 22:30:00Z	 SAID34 WIJJ 032230	METAR WIJJ 032230Z 22002KT 9000 FEW016 24/23 Q1010 NOSIG=
03/06/2022 23:00:00Z	 SAID34 WIJJ 032300	METAR WIJJ 032300Z 17001KT 6000 FEW016 24/23 Q1010 NOSIG=
03/06/2022 23:30:00Z	 SAID34 WIJJ 032330	METAR WIJJ 032330Z 22003KT 6000 FEW015 24/23 Q1010 NOSIG=
04/06/2022 00:00:00Z	 SAID34 WIJJ 040000	METAR WIJJ 040000Z 21003KT 6000 FEW015 24/23 Q1010 NOSIG=
04/06/2022 00:30:00Z	 SAID34 WIJJ 040030	METAR WIJJ 040030Z 25003KT 9999 FEW015 26/24 Q1011 NOSIG=
04/06/2022 01:00:00Z	 SAID34 WIJJ 040100	METAR WIJJ 040100Z 26004KT 9999 SCT015 27/25 Q1011 NOSIG=
04/06/2022 01:30:00Z	 SAID34 WIJJ 040130	METAR WIJJ 040130Z 26004KT 9999 FEW015 28/25 Q1011 NOSIG=
04/06/2022 02:00:00Z	 SAID34 WIJJ 040200	METAR WIJJ 040200Z 19002KT 9999 SCT015 29/25 Q1011 NOSIG=
04/06/2022 02:30:00Z	 SAID34 WIJJ 040230	METAR WIJJ 040230Z 16003KT 130V190 9999 SCT015 30/26 Q1011 NOSIG=
04/06/2022 03:00:00Z	 SAID34 WIJJ 040300	METAR WIJJ 040300Z 13003KT 080V170 9999 SCT015 30/26 Q1011 NOSIG=
04/06/2022 03:30:00Z	 SAID34 WIJJ 040330	METAR WIJJ 040330Z 14003KT 080V190 9999 SCT015 30/26 Q1011 NOSIG=
04/06/2022 04:00:00Z	 SAID34 WIJJ 040400	METAR WIJJ 040400Z 13003KT 090V160 9999 BKN015 31/26 Q1010 NOSIG=
04/06/2022 04:30:00Z	 SAID34 WIJJ 040430	METAR WIJJ 040430Z 17002KT 9999 BKN015 31/26 Q1010 NOSIG=
04/06/2022 05:00:00Z	 SAID34 WIJJ 040500	METAR WIJJ 040500Z 17003KT 130V190 9999 BKN016 32/26 Q1010 NOSIG=
04/06/2022 05:30:00Z	 SAID34 WIJJ 040530	METAR WIJJ 040530Z 15003KT 090V190 9999 BKN016 32/25 Q1009 NOSIG=
04/06/2022 06:00:00Z	 SAID34 WIJJ 040600	METAR WIJJ 040600Z 12003KT 080V170 9999 SCT016 32/24 Q1009 NOSIG=
04/06/2022 06:30:00Z	 SAID34 WIJJ 040630	METAR WIJJ 040630Z 14005KT 9999 SCT016 32/24 Q1008 NOSIG=
04/06/2022 07:00:00Z	 SAID34 WIJJ 040700	METAR WIJJ 040700Z 15003KT 9999 SCT016 32/25 Q1007 NOSIG=
04/06/2022 07:30:00Z	 SAID34 WIJJ 040730	METAR WIJJ 040730Z 36002KT 9999 SCT016 32/25 Q1007 NOSIG=
04/06/2022 08:00:00Z	 SAID34 WIJJ 040800	METAR WIJJ 040800Z 22004KT 9999 SCT015 32/24 Q1006 NOSIG=
04/06/2022 08:30:00Z	 SAID34 WIJJ 040830	METAR WIJJ 040830Z 22003KT 9999 SCT015 32/24 Q1006 NOSIG=
04/06/2022 09:00:00Z	 SAID34 WIJJ 040900	METAR WIJJ 040900Z 16002KT 9999 SCT015 33/25 Q1006 NOSIG=
04/06/2022 09:30:00Z	 SAID34 WIJJ 040930	METAR WIJJ 040930Z 17003KT 9999 FEW018 32/25 Q1006 NOSIG=
04/06/2022 10:00:00Z	 SAID34 WIJJ 041000	METAR WIJJ 041000Z 15003KT 9999 SCT016 32/24 Q1007 NOSIG=
04/06/2022 10:30:00Z	 SAID34 WIJJ 041030	METAR WIJJ 041030Z 07002KT 9999 SCT016CB 31/25 Q1007 TEMPO 4000 RA RMK CB TO N-S=
04/06/2022 11:00:00Z	 SAID34 WIJJ 041100	METAR WIJJ 041100Z 09011KT 3000 -TSRA BKN016CB 28/25 Q1007 TEMPO 1000 TSRA RMK CB OVER THE FIELD=
04/06/2022 11:30:00Z	 SAID34 WIJJ 041130	METAR WIJJ 041130Z 05006KT 3800 TSRA BKN016CB 25/24 Q1008 TEMPO 1000 TSRA RMK CB OVER THE FIELD=
04/06/2022 12:00:00Z	 SAID34 WIJJ 041200	METAR WIJJ 041200Z 07004KT 9999 -RA BKN016 26/24 Q1008 NOSIG=
04/06/2022 12:30:00Z	 SAID34 WIJJ 041230	METAR WIJJ 041230Z 08002KT 9999 BKN016 26/24 Q1009 NOSIG=
04/06/2022 13:00:00Z	 SAID34 WIJJ 041300	METAR WIJJ 041300Z 15002KT 9999 BKN016 25/24 Q1009 NOSIG=
04/06/2022 13:30:00Z	 SAID34 WIJJ 041330	METAR WIJJ 041330Z 00000KT 9999 SCT016 25/24 Q1009 NOSIG=
04/06/2022 14:00:00Z	 SAID34 WIJJ 041400	METAR WIJJ 041400Z 00000KT 9999 SCT016 25/24 Q1010 NOSIG=
04/06/2022 14:30:00Z	 SAID34 WIJJ 041430	METAR WIJJ 041430Z 00000KT 9999 SCT016 25/24 Q1010 NOSIG=
04/06/2022 15:00:00Z	 SAID34 WIJJ 041500	METAR WIJJ 041500Z 00000KT 9999 SCT016 25/24 Q1010 NOSIG=
04/06/2022 15:30:00Z	 SAID34 WIJJ 041530	METAR WIJJ 041530Z 00000KT 9999 SCT017 25/23 Q1010 NOSIG=
04/06/2022 16:00:00Z	 SAID34 WIJJ 041600	METAR WIJJ 041600Z 00000KT 9999 SCT017 25/23 Q1010 NOSIG=
04/06/2022 16:30:00Z	 SAID34 WIJJ 041630	METAR WIJJ 041630Z 00000KT 9999 SCT017 25/23 Q1010 NOSIG=
04/06/2022 17:00:00Z	 SAID34 WIJJ 041700	METAR WIJJ 041700Z 00000KT 9999 SCT017 25/23 Q1010 NOSIG=
04/06/2022 17:30:00Z	 SAID34 WIJJ 041730	METAR WIJJ 041730Z 00000KT 9999 SCT017 25/23 Q1010 NOSIG=
04/06/2022 18:00:00Z	 SAID34 WIJJ 041800	METAR WIJJ 041800Z 00000KT 7000 SCT017 25/23 Q1010 NOSIG=
04/06/2022 18:30:00Z	 SAID34 WIJJ 041830	METAR WIJJ 041830Z 00000KT 7000 SCT017 25/23 Q1009 NOSIG=
04/06/2022 19:00:00Z	 SAID34 WIJJ 041900	METAR WIJJ 041900Z 00000KT 7000 SCT017 25/23 Q1009 NOSIG=
04/06/2022 19:30:00Z	 SAID34 WIJJ 041930	METAR WIJJ 041930Z 00000KT 7000 SCT017 25/23 Q1009 NOSIG=
04/06/2022 20:00:00Z	 SAID34 WIJJ 042000	METAR WIJJ 042000Z 00000KT 7000 SCT017 25/23 Q1009 NOSIG=
04/06/2022 20:30:00Z	 SAID34 WIJJ 042030	METAR WIJJ 042030Z 00000KT 7000 SCT017 25/23 Q1009 NOSIG=
04/06/2022 21:00:00Z	 SAID34 WIJJ 042100	METAR WIJJ 042100Z 00000KT 7000 FEW017 25/24 Q1009 NOSIG=
04/06/2022 21:30:00Z	 SAID34 WIJJ 042130	METAR WIJJ 042130Z 00000KT 5000 BR FEW017 25/24 Q1009 NOSIG=
04/06/2022 22:00:00Z	 SAID34 WIJJ 042200	METAR WIJJ 042200Z 00000KT 5000 BR FEW017 25/24 Q1009 NOSIG=
04/06/2022 22:30:00Z	 SAID34 WIJJ 042230	METAR WIJJ 042230Z 00000KT 5000 BR FEW017 25/24 Q1009 NOSIG=
04/06/2022 23:00:00Z	 SAID34 WIJJ 042300	METAR WIJJ 042300Z 18002KT 4000 BR SCT017 24/23 Q1009 NOSIG=
04/06/2022 23:30:00Z	 SAID34 WIJJ 042330	METAR WIJJ 042330Z 20003KT 4000 BR SCT017 24/23 Q1010 NOSIG=
05/06/2022 00:00:00Z	 SAID34 WIJJ 050000	METAR WIJJ 050000Z 23004KT 5000 BR SCT017 24/23 Q1010 NOSIG=
05/06/2022 00:30:00Z	 SAID34 WIJJ 050030	METAR WIJJ 050030Z 23004KT 4500 HZ FEW016 25/24 Q1011 NOSIG=
05/06/2022 01:00:00Z	 SAID34 WIJJ 050100	METAR WIJJ 050100Z 22005KT 4500 HZ FEW016 26/25 Q1011 NOSIG=
05/06/2022 01:30:00Z	 SAID34 WIJJ 050130	METAR WIJJ 050130Z 21005KT 6000 NSC 27/26 Q1011 NOSIG=
05/06/2022 02:00:00Z	 SAID34 WIJJ 050200	METAR WIJJ 050200Z 21005KT 180V240 5000 HZ SCT014 28/26 Q1011 NOSIG=
05/06/2022 02:30:00Z	 SAID34 WIJJ 050230	METAR WIJJ 050230Z 20006KT 7000 BKN016 28/26 Q1011 NOSIG=
05/06/2022 03:00:00Z	 SAID34 WIJJ 050300	METAR WIJJ 050300Z 21004KT 8000 BKN016 29/26 Q1010 NOSIG=
05/06/2022 03:30:00Z	 SAID34 WIJJ 050330	METAR WIJJ 050330Z 18004KT 140V210 9000 FEW016CB SCT017 29/26 Q1010 NOSIG RMK CB TO N AND NE=
05/06/2022 04:00:00Z	 SAID34 WIJJ 050400	METAR WIJJ 050400Z 16006KT 130V190 9999 SCT017 31/27 Q1010 NOSIG=
05/06/2022 04:30:00Z	 SAID34 WIJJ 050430	METAR WIJJ 050430Z 15006KT 120V190 9999 SCT017 31/26 Q1009 NOSIG=
05/06/2022 05:00:00Z	 SAID34 WIJJ 050500	METAR WIJJ 050500Z 16004KT 100V200 9999 SCT017 31/26 Q1009 NOSIG=
05/06/2022 05:30:00Z	 SAID34 WIJJ 050530	METAR WIJJ 050530Z 16004KT 140V200 9999 SCT017 31/25 Q1009 NOSIG=
05/06/2022 06:00:00Z	 SAID34 WIJJ 050600	METAR WIJJ 050600Z 17004KT 140V200 9999 FEW016CB SCT017 31/26 Q1008 NOSIG RMK CB TO N AND NE=
05/06/2022 06:30:00Z	 SAID34 WIJJ 050630	METAR WIJJ 050630Z 17003KT 130V210 9999 SCT017 31/26 Q1008 NOSIG=
05/06/2022 07:00:00Z	 SAID34 WIJJ 050700	METAR WIJJ 050700Z 00000KT 9999 SCT017 31/26 Q1007 NOSIG=
05/06/2022 07:30:00Z	 SAID34 WIJJ 050730	METAR WIJJ 050730Z 00000KT 9999 SCT017 32/26 Q1007 NOSIG=
05/06/2022 08:00:00Z	 SAID34 WIJJ 050800	METAR WIJJ 050800Z 18003KT 130V230 9999 SCT017 32/25 Q1006 NOSIG=
05/06/2022 08:30:00Z	 SAID34 WIJJ 050830	METAR WIJJ 050830Z 16004KT 9999 SCT017 32/25 Q1006 NOSIG=
05/06/2022 09:00:00Z	 SAID34 WIJJ 050900	METAR WIJJ 050900Z 16003KT 100V220 9999 SCT017 32/25 Q1006 NOSIG=
05/06/2022 09:30:00Z	 SAID34 WIJJ 050930	METAR WIJJ 050930Z 14004KT 9999 SCT017 32/25 Q1006 NOSIG=
05/06/2022 10:00:00Z	 SAID34 WIJJ 051000	METAR WIJJ 051000Z 14003KT 9999 FEW016CB SCT017 31/25 Q1007 NOSIG RMK CB TO NE AND NW=
05/06/2022 11:00:00Z	 SAID34 WIJJ 051100	METAR WIJJ 051100Z 07004KT 6000 VCTS FEW014CB SCT015 28/26 Q1007 NOSIG RMK CB ALQDS=
05/06/2022 11:30:00Z	 SAID34 WIJJ 051130	METAR WIJJ 051130Z 06003KT 9999 VCTS FEW014CB SCT015 28/25 Q1008 NOSIG RMK CB ALQDS=
05/06/2022 12:00:00Z	 SAID34 WIJJ 051200	METAR WIJJ 051200Z 13006KT 100V160 3000 VCTS RA FEW013CB BKN014 26/25 Q1009 NOSIG RMK CB ALQDS=
05/06/2022 12:30:00Z	 SAID34 WIJJ 051230	METAR WIJJ 051230Z 06004KT 9000 -RA BKN016 26/24 Q1009 NOSIG=
05/06/2022 13:00:00Z	 SAID34 WIJJ 051300	METAR WIJJ 051300Z 02003KT 9999 SCT017 27/25 Q1009 NOSIG=
05/06/2022 13:30:00Z	 SAID34 WIJJ 051330	METAR WIJJ 051330Z 33003KT 9999 SCT016 26/24 Q1010 NOSIG=
05/06/2022 14:00:00Z	 SAID34 WIJJ 051400	METAR WIJJ 051400Z 30005KT 9999 SCT017 26/24 Q1010 NOSIG=
05/06/2022 14:30:00Z	 SAID34 WIJJ 051430	METAR WIJJ 051430Z 31004KT 9999 FEW015 25/24 Q1010 NOSIG=
05/06/2022 15:00:00Z	 SAID34 WIJJ 051500	METAR WIJJ 051500Z 27002KT 8000 FEW016 25/24 Q1010 NOSIG=
05/06/2022 15:30:00Z	 SAID34 WIJJ 051530	METAR WIJJ 051530Z 17002KT 5000 SCT017 25/24 Q1010 NOSIG=
05/06/2022 16:00:00Z	 SAID34 WIJJ 051600	METAR WIJJ 051600Z 22003KT 4900 HZ FEW017 25/24 Q1010 NOSIG=
05/06/2022 16:28:00Z	 SAID34 WIJJ 051628	METAR WIJJ 051628Z 24003KT 7000 FEW017 24/24 Q1010 NOSIG=
05/06/2022 17:00:00Z	 SAID34 WIJJ 051700	METAR WIJJ 051700Z 17003KT 8000 FEW017 25/24 Q1010 NOSIG=
05/06/2022 17:30:00Z	 SAID34 WIJJ 051730	METAR WIJJ 051730Z 18003KT 6000 FEW017 24/24 Q1010 NOSIG=
05/06/2022 18:00:00Z	 SAID34 WIJJ 051800	METAR WIJJ 051800Z 16002KT 5000 HZ SCT017 24/24 Q1009 NOSIG=
05/06/2022 18:30:00Z	 SAID34 WIJJ 051830	METAR WIJJ 051830Z 16002KT 5000 HZ FEW017 24/23 Q1009 NOSIG=
05/06/2022 19:00:00Z	 SAID34 WIJJ 051900	METAR WIJJ 051900Z 20004KT 5000 HZ FEW017 24/24 Q1009 NOSIG=
05/06/2022 19:30:00Z	 SAID34 WIJJ 051930	METAR WIJJ 051930Z 20004KT 5000 HZ FEW017 24/24 Q1009 NOSIG=
05/06/2022 20:00:00Z	 SAID34 WIJJ 052000	METAR WIJJ 052000Z 20003KT 5000 HZ FEW016 24/24 Q1009 NOSIG=
05/06/2022 20:30:00Z	 SAID34 WIJJ 052030	METAR WIJJ 052030Z 20003KT 4500 HZ FEW016 24/24 Q1009 NOSIG=
05/06/2022 21:00:00Z	 SAID34 WIJJ 052100	METAR WIJJ 052100Z 22003KT 4900 HZ FEW016 24/23 Q1008 NOSIG=
05/06/2022 21:30:00Z	 SAID34 WIJJ 052130	METAR WIJJ 052130Z 22003KT 4500 HZ FEW016 24/24 Q1009 NOSIG=
05/06/2022 22:00:00Z	 SAID34 WIJJ 052200	METAR WIJJ 052200Z 22003KT 6000 FEW017 24/23 Q1008 NOSIG=
05/06/2022 22:30:00Z	 SAID34 WIJJ 052230	METAR WIJJ 052230Z 23003KT 6000 FEW017 24/23 Q1008 NOSIG=
05/06/2022 23:00:00Z	 SAID34 WIJJ 052300	METAR WIJJ 052300Z 22002KT 3100 BR FEW017 24/23 Q1008 NOSIG=
05/06/2022 23:30:00Z	 SAID34 WIJJ 052330	METAR WIJJ 052330Z 00000KT 3300 BR FEW017 24/23 Q1008 NOSIG=
06/06/2022 00:00:00Z	 SAID34 WIJJ 060000	METAR WIJJ 060000Z 24002KT 6000 FEW017 24/24 Q1009 NOSIG=
06/06/2022 00:30:00Z	 SAID34 WIJJ 060030	METAR WIJJ 060030Z 26002KT 6000 FEW017 25/24 Q1009 NOSIG=
06/06/2022 01:00:00Z	 SAID34 WIJJ 060100	METAR WIJJ 060100Z 21003KT 7000 FEW019 25/24 Q1009 NOSIG=
06/06/2022 01:30:00Z	 SAID34 WIJJ 060130	METAR WIJJ 060130Z 18003KT 9999 FEW019 26/24 Q1009 NOSIG=
06/06/2022 02:00:00Z	 SAID34 WIJJ 060200	METAR WIJJ 060200Z 16003KT 9999 FEW019 27/24 Q1010 NOSIG=
06/06/2022 02:30:00Z	 SAID34 WIJJ 060230	METAR WIJJ 060230Z 16003KT 9999 FEW019 28/24 Q1010 NOSIG=
06/06/2022 03:00:00Z	 SAID34 WIJJ 060300	METAR WIJJ 060300Z 12004KT 9999 FEW019 28/24 Q1010 NOSIG=
06/06/2022 03:30:00Z	 SAID34 WIJJ 060330	METAR WIJJ 060330Z 15005KT 8000 SCT018 29/24 Q1010 NOSIG=
06/06/2022 04:00:00Z	 SAID34 WIJJ 060400	METAR WIJJ 060400Z 13004KT 9999 FEW017 29/25 Q1010 NOSIG=
06/06/2022 04:30:00Z	 SAID34 WIJJ 060430	METAR WIJJ 060430Z 14004KT 9999 SCT017 30/25 Q1009 NOSIG=
06/06/2022 05:00:00Z	 SAID34 WIJJ 060500	METAR WIJJ 060500Z 15006KT 9999 SCT017 30/25 Q1008 NOSIG=
06/06/2022 05:30:00Z	 SAID34 WIJJ 060530	METAR WIJJ 060530Z 14006KT 9999 SCT017 30/25 Q1008 NOSIG=
06/06/2022 06:00:00Z	 SAID34 WIJJ 060600	METAR WIJJ 060600Z 12005KT 9999 SCT017 31/25 Q1008 NOSIG=
06/06/2022 06:30:00Z	 SAID34 WIJJ 060630	METAR WIJJ 060630Z 15005KT 120V180 9000 SCT017 31/26 Q1007 NOSIG=
06/06/2022 07:00:00Z	 SAID34 WIJJ 060700	METAR WIJJ 060700Z 13006KT 9999 SCT017 32/26 Q1007 NOSIG=
06/06/2022 07:30:00Z	 SAID34 WIJJ 060730	METAR WIJJ 060730Z 13007KT 9000 FEW016CB SCT017 32/26 Q1006 NOSIG=
06/06/2022 08:00:00Z	 SAID34 WIJJ 060800	METAR WIJJ 060800Z 13009KT 9999 FEW016CB SCT017 31/25 Q1006 NOSIG RMK CB TO S=
06/06/2022 08:30:00Z	 SAID34 WIJJ 060830	METAR WIJJ 060830Z 13006KT 9999 FEW016CB SCT017 30/25 Q1006 NOSIG RMK CB TO S=
06/06/2022 09:00:00Z	 SAID34 WIJJ 060900	METAR WIJJ 060900Z 13008KT 9999 FEW017 31/25 Q1006 NOSIG=
06/06/2022 09:30:00Z	 SAID34 WIJJ 060930	METAR WIJJ 060930Z 14006KT 9000 FEW017 31/25 Q1006 NOSIG=
06/06/2022 10:00:00Z	 SAID34 WIJJ 061000	METAR WIJJ 061000Z 13005KT 9000 FEW017 30/26 Q1006 NOSIG=
06/06/2022 10:30:00Z	 SAID34 WIJJ 061030	METAR WIJJ 061030Z 13005KT 8000 FEW017 29/25 Q1006 NOSIG=
06/06/2022 11:00:00Z	 SAID34 WIJJ 061100	METAR WIJJ 061100Z 14005KT 6000 FEW017 29/25 Q1006 NOSIG=
06/06/2022 11:30:00Z	 SAID34 WIJJ 061130	METAR WIJJ 061130Z 14005KT 5000 HZ FEW017 28/26 Q1007 NOSIG=
06/06/2022 12:00:00Z	 SAID34 WIJJ 061200	METAR WIJJ 061200Z 15004KT 6000 NSC 27/26 Q1007 NOSIG=
06/06/2022 12:30:00Z	 SAID34 WIJJ 061230	METAR WIJJ 061230Z 13002KT 6000 FEW017 27/26 Q1008 NOSIG=
06/06/2022 13:00:00Z	 SAID34 WIJJ 061300	METAR WIJJ 061300Z 13002KT 5000 HZ FEW017 27/26 Q1008 NOSIG=
06/06/2022 13:30:00Z	 SAID34 WIJJ 061330	METAR WIJJ 061330Z 13002KT 5000 HZ FEW017 26/26 Q1008 NOSIG=
06/06/2022 14:00:00Z	 SAID34 WIJJ 061400	METAR WIJJ 061400Z 15003KT 5000 HZ FEW017 26/25 Q1009 NOSIG=
06/06/2022 14:30:00Z	 SAID34 WIJJ 061430	METAR WIJJ 061430Z 15003KT 5000 HZ FEW017 26/25 Q1009 NOSIG=
06/06/2022 15:00:00Z	 SAID34 WIJJ 061500	METAR WIJJ 061500Z 15002KT 3500 HZ FEW016 26/25 Q1009 NOSIG=
06/06/2022 15:30:00Z	 SAID34 WIJJ 061530	METAR WIJJ 061530Z 14003KT 3000 HZ FEW016 25/25 Q1009 NOSIG=
06/06/2022 16:00:00Z	 SAID34 WIJJ 061600	METAR WIJJ 061600Z 12003KT 2000 HZ FEW015 26/24 Q1009 NOSIG=
06/06/2022 16:30:00Z	 SAID34 WIJJ 061630	METAR WIJJ 061630Z 12005KT 2000 HZ FEW015 25/24 Q1009 NOSIG=
06/06/2022 17:00:00Z	 SAID34 WIJJ 061700	METAR WIJJ 061700Z 15002KT 2500 BR FEW015 25/24 Q1009 NOSIG=
06/06/2022 18:00:00Z	 SAID34 WIJJ 061800	METAR WIJJ 061800Z 16003KT 2000 BR FEW015 25/24 Q1008 NOSIG=
06/06/2022 18:30:00Z	 SAID34 WIJJ 061830	METAR WIJJ 061830Z 15003KT 2400 BR FEW015 25/24 Q1008 NOSIG=
06/06/2022 19:00:00Z	 SAID34 WIJJ 061900	METAR WIJJ 061900Z 13002KT 3000 HZ FEW015 24/24 Q1008 NOSIG=
06/06/2022 19:30:00Z	 SAID34 WIJJ 061930	METAR WIJJ 061930Z 12003KT 3000 HZ FEW015 24/24 Q10087 NOSIG=
06/06/2022 20:00:00Z	 SAID34 WIJJ 062000	METAR WIJJ 062000Z 12002KT 3000 HZ FEW015 24/24 Q1007 NOSIG=
06/06/2022 20:30:00Z	 SAID34 WIJJ 062030	METAR WIJJ 062030Z 00000KT 3000 HZ FEW015 24/24 Q1007 NOSIG=
06/06/2022 21:00:00Z	 SAID34 WIJJ 062100	METAR WIJJ 062100Z 00000KT 2500 BR FEW015 24/24 Q1007 NOSIG=
06/06/2022 21:30:00Z	 SAID34 WIJJ 062130	METAR WIJJ 062130Z 00000KT 2500 BR SCT015 24/24 Q1007 NOSIG=
06/06/2022 22:00:00Z	 SAID34 WIJJ 062200	METAR WIJJ 062200Z 20002KT 2000 BR FEW015 24/24 Q1008 NOSIG=
06/06/2022 22:30:00Z	 SAID34 WIJJ 062230	METAR WIJJ 062230Z 25002KT 2000 BR FEW015 24/24 Q1008 NOSIG=
06/06/2022 23:00:00Z	 SAID34 WIJJ 062300	METAR WIJJ 062300Z 25002KT 1200 BR FEW013 24/24 Q1008 NOSIG=
06/06/2022 23:30:00Z	 SAID34 WIJJ 062330	METAR WIJJ 062330Z 24002KT 1200 BR FEW014 24/24 Q1008 NOSIG=
07/06/2022 00:00:00Z	 SAID34 WIJJ 070000	METAR WIJJ 070000Z 24002KT 1200 R31/1200 FG NCD 24/24 Q1009 NOSIG=
07/06/2022 00:30:00Z	 SAID34 WIJJ 070030	METAR WIJJ 070030Z 20003KT 2500 HZ FEW016 25/24 Q1009 NOSIG=
07/06/2022 01:00:00Z	 SAID34 WIJJ 070100	METAR WIJJ 070100Z 18003KT 3000 HZ FEW016 26/24 Q1009 NOSIG=
07/06/2022 01:30:00Z	 SAID34 WIJJ 070130	METAR WIJJ 070130Z 17005KT 6000 FEW016 26/24 Q1009 NOSIG=
07/06/2022 02:00:00Z	 SAID34 WIJJ 070200	METAR WIJJ 070200Z 16005KT 9999 FEW015 28/24 Q1009 NOSIG=
07/06/2022 02:30:00Z	 SAID34 WIJJ 070230	METAR WIJJ 070230Z 14005KT 9999 FEW015 28/24 Q1009 NOSIG=
07/06/2022 03:00:00Z	 SAID34 WIJJ 070300	METAR WIJJ 070300Z 14003KT 9999 FEW016 29/25 Q1009 NOSIG=
07/06/2022 03:30:00Z	 SAID34 WIJJ 070330	METAR WIJJ 070330Z 12004KT 9999 SCT016 29/25 Q1009 NOSIG=
07/06/2022 04:00:00Z	 SAID34 WIJJ 070400	METAR WIJJ 070400Z 16004KT 9999 SCT016 30/25 Q1009 NOSIG=
07/06/2022 04:30:00Z	 SAID34 WIJJ 070430	METAR WIJJ 070430Z 13003KT 9999 SCT016 30/25 Q1008 NOSIG=
07/06/2022 05:00:00Z	 SAID34 WIJJ 070500	METAR WIJJ 070500Z 15004KT 9999 SCT016 31/24 Q1008 NOSIG=
07/06/2022 05:30:00Z	 SAID34 WIJJ 070530	METAR WIJJ 070530Z 17004KT 9999 SCT016 32/25 Q1007 NOSIG=
07/06/2022 06:00:00Z	 SAID34 WIJJ 070600	METAR WIJJ 070600Z 13004KT 9999 SCT016 32/24 Q1007 NOSIG=
07/06/2022 06:30:00Z	 SAID34 WIJJ 070630	METAR WIJJ 070630Z 14005KT 9999 FEW017 33/24 Q1007 NOSIG=
07/06/2022 07:00:00Z	 SAID34 WIJJ 070700	METAR WIJJ 070700Z 09003KT 9999 FEW017 33/24 Q1006 NOSIG=
07/06/2022 07:30:00Z	 SAID34 WIJJ 070730	METAR WIJJ 070730Z 08003KT 9999 FEW017 33/24 Q1006 NOSIG=
07/06/2022 08:00:00Z	 SAID34 WIJJ 070800	METAR WIJJ 070800Z 06005KT 9999 SCT017 33/24 Q1006 NOSIG=
07/06/2022 08:30:00Z	 SAID34 WIJJ 070830	METAR WIJJ 070830Z 03006KT 9999 -RA SCT015 33/24 Q1006 NOSIG=
07/06/2022 09:00:00Z	 SAID34 WIJJ 070900	METAR WIJJ 070900Z 04004KT 9999 FEW015CB SCT016 32/25 Q1005 NOSIG RMK CB TO E=
07/06/2022 09:30:00Z	 SAID34 WIJJ 070930	METAR WIJJ 070930Z 05012KT 9999 SCT015 31/24 Q1006 NOSIG=
07/06/2022 10:00:00Z	 SAID34 WIJJ 071000	METAR WIJJ 071000Z 05009KT 9999 SCT015 30/25 Q1006 NOSIG=
07/06/2022 10:30:00Z	 SAID34 WIJJ 071030	METAR WIJJ 071030Z 04006KT 9999 SCT015 30/25 Q1006 NOSIG=
07/06/2022 11:00:00Z	 SAID34 WIJJ 071100	METAR WIJJ 071100Z 04004KT 9999 FEW017 29/25 Q1007 NOSIG=
07/06/2022 11:30:00Z	 SAID34 WIJJ 071130	METAR WIJJ 071130Z 04004KT 8000 VCTS FEW016CB SCT017 29/25 Q1007 NOSIG RMK CB TO SW=
07/06/2022 12:00:00Z	 SAID34 WIJJ 071200	METAR WIJJ 071200Z 02003KT 9999 SCT017 28/25 Q1008 NOSIG=
07/06/2022 12:30:00Z	 SAID34 WIJJ 071230	METAR WIJJ 071230Z 05002KT 8000 FEW017CB 28/26 Q1008 NOSIG RMK CB TO SW=
07/06/2022 13:00:00Z	 SAID34 WIJJ 071300	METAR WIJJ 071300Z 19003KT 6000 FEW017 27/26 Q1008 NOSIG=
07/06/2022 13:30:00Z	 SAID34 WIJJ 071330	METAR WIJJ 071330Z 24002KT 5000 HZ FEW017 28/26 Q1009 NOSIG=
07/06/2022 14:00:00Z	 SAID34 WIJJ 071400	METAR WIJJ 071400Z 03002KT 8000 NSC 28/26 Q1009 NOSIG=
07/06/2022 14:30:00Z	 SAID34 WIJJ 071430	METAR WIJJ 071430Z 14001KT 8000 FEW017 27/26 Q1009 NOSIG=
07/06/2022 15:00:00Z	 SAID34 WIJJ 071500	METAR WIJJ 071500Z 16002KT 8000 NSC 26/25 Q1009 NOSIG=
07/06/2022 15:30:00Z	 SAID34 WIJJ 071530	METAR WIJJ 071530Z 19002KT 6000 NSC 26/25 Q1009 NOSIG=
07/06/2022 16:00:00Z	 SAID34 WIJJ 071600	METAR WIJJ 071600Z 36001KT 7000 NSC 26/25 Q1009 NOSIG=
07/06/2022 16:30:00Z	 SAID34 WIJJ 071630	METAR WIJJ 071630Z 07002KT 6000 NSC 26/25 Q1009 NOSIG=
07/06/2022 17:00:00Z	 SAID34 WIJJ 071700	METAR WIJJ 071700Z 14003KT 5000 HZ NSC 25/25 Q1009 NOSIG=
07/06/2022 17:30:00Z	 SAID34 WIJJ 071730	METAR COR WIJJ 071730Z 10002KT 4400 HZ NSC 25/25 Q1009 NOSIG=
07/06/2022 18:00:00Z	 SAID34 WIJJ 071800	METAR WIJJ 071800Z 09002KT 2800 HZ FEW016CB 25/25 Q1009 NOSIG RMK CB TO S=
07/06/2022 18:30:00Z	 SAID34 WIJJ 071830	METAR WIJJ 071830Z 12001KT 3600 HZ FEW016 25/25 Q1009 NOSIG=
07/06/2022 19:00:00Z	 SAID34 WIJJ 071900	METAR WIJJ 071900Z 20002KT 3100 HZ FEW016 25/25 Q1008 NOSIG=
07/06/2022 19:30:00Z	 SAID34 WIJJ 071930	METAR WIJJ 071930Z 17003KT 4000 HZ FEW016 25/25 Q1008 NOSIG=
07/06/2022 20:00:00Z	 SAID34 WIJJ 072000	METAR WIJJ 072000Z 16003KT 130V200 6000 FEW016 25/24 Q1008 NOSIG=
07/06/2022 20:30:00Z	 SAID34 WIJJ 072030	METAR WIJJ 072030Z 20003KT 6000 FEW016 24/24 Q1008 NOSIG=
07/06/2022 21:00:00Z	 SAID34 WIJJ 072100	METAR WIJJ 072100Z 20001KT 5000 HZ FEW016 24/24 Q1008 NOSIG=
07/06/2022 21:30:00Z	 SAID34 WIJJ 072130	METAR WIJJ 072130Z 17001KT 4900 HZ NSC 24/24 Q1008 NOSIG=
07/06/2022 22:00:00Z	 SAID34 WIJJ 072200	METAR WIJJ 072200Z 17002KT 4000 HZ FEW016 24/24 Q1008 NOSIG=
07/06/2022 22:30:00Z	 SAID34 WIJJ 072230	METAR WIJJ 072230Z 17002KT 4000 BR NSC 24/24 Q1009 NOSIG=
07/06/2022 23:00:00Z	 SAID34 WIJJ 072300	METAR WIJJ 072300Z 15003KT 3800 BR SCT016 24/24 Q1009 NOSIG=
07/06/2022 23:30:00Z	 SAID34 WIJJ 072330	METAR WIJJ 072330Z 18004KT 3700 BR FEW016CB 24/24 Q1009 NOSIG RMK CB TO E AND W=
08/06/2022 00:00:00Z	 SAID34 WIJJ 080000	METAR WIJJ 080000Z 19003KT 160V220 3200 BR FEW016 24/24 Q1009 NOSIG=
08/06/2022 00:30:00Z	 SAID34 WIJJ 080030	METAR WIJJ 080030Z 19002KT 4700 HZ FEW016 24/24 Q1010 NOSIG=
08/06/2022 01:00:00Z	 SAID34 WIJJ 080100	METAR WIJJ 080100Z 18003KT 6000 FEW016 25/24 Q1010 NOSIG=
08/06/2022 01:30:00Z	 SAID34 WIJJ 080130	METAR WIJJ 080130Z 17004KT 9999 FEW016 26/24 Q1010 NOSIG=
08/06/2022 02:00:00Z	 SAID34 WIJJ 080200	METAR WIJJ 080200Z 12003KT 9999 FEW015 27/25 Q1010 NOSIG=
08/06/2022 02:30:00Z	 SAID34 WIJJ 080230	METAR WIJJ 080230Z 09003KT 9999 FEW015 29/25 Q1010 NOSIG=
08/06/2022 03:30:00Z	 SAID34 WIJJ 080330	METAR WIJJ 080330Z 05003KT 9999 BKN014 29/25 Q1009 NOSIG=
08/06/2022 04:00:00Z	 SAID34 WIJJ 080400	METAR WIJJ 080400Z 08003KT 9999 BKN014 30/25 Q1009 NOSIG=
08/06/2022 05:00:00Z	 SAID34 WIJJ 080500	METAR WIJJ 080500Z 18004KT 9999 BKN014 30/25 Q1008 NOSIG=
08/06/2022 05:30:00Z	 SAID34 WIJJ 080530	METAR WIJJ 080530Z 17002KT 9999 BKN014 30/28 Q1008 NOSIG=
08/06/2022 05:58:00Z	 SAID34 WIJJ 080558	METAR WIJJ 080558Z 08005KT 9000 -RA FEW015CB BKN016 30/26 Q1008 NOSIG RMK CB TO N=
08/06/2022 06:30:00Z	 SAID34 WIJJ 080630	METAR WIJJ 080630Z 35006KT 9999 TS FEW015CB SCT016 30/25 Q1007 NOSIG RMK CB TO W AND N=
08/06/2022 07:00:00Z	 SAID34 WIJJ 080700	METAR WIJJ 080700Z 35006KT 9999 FEW015CB SCT016 30/25 Q1006 NOSIG RMK CB TO N=
08/06/2022 07:30:00Z	 SAID34 WIJJ 080730	METAR WIJJ 080730Z 36005KT 9999 SCT016 29/25 Q1006 NOSIG=
08/06/2022 08:00:00Z	 SAID34 WIJJ 080800	METAR WIJJ 080800Z 36003KT 9999 SCT016 29/24 Q1006 NOSIG=
08/06/2022 08:30:00Z	 SAID34 WIJJ 080830	METAR WIJJ 080830Z 01004KT 9999 SCT017 30/25 Q1006 NOSIG=
08/06/2022 09:00:00Z	 SAID34 WIJJ 080900	METAR WIJJ 080900Z 01005KT 9999 SCT017 30/25 Q1005 NOSIG=
08/06/2022 09:30:00Z	 SAID34 WIJJ 080930	METAR WIJJ 080930Z 01005KT 9999 SCT017 30/25 Q1006 NOSIG=
08/06/2022 10:00:00Z	 SAID34 WIJJ 081000	METAR WIJJ 081000Z 01002KT 9999 SCT017 29/24 Q1006 NOSIG=
08/06/2022 10:30:00Z	 SAID34 WIJJ 081030	METAR WIJJ 081030Z 06002KT 9999 SCT017 29/24 Q1006 NOSIG=
08/06/2022 11:00:00Z	 SAID34 WIJJ 081100	METAR WIJJ 081100Z 02002KT 9999 SCT017 29/24 Q1007 NOSIG=
08/06/2022 11:30:00Z	 SAID34 WIJJ 081130	METAR WIJJ 081130Z 01003KT 8000 SCT017 29/24 Q1007 NOSIG=
08/06/2022 12:00:00Z	 SAID34 WIJJ 081200	METAR WIJJ 081200Z 36002KT 8000 SCT017 28/24 Q1008 NOSIG=
08/06/2022 12:30:00Z	 SAID34 WIJJ 081230	METAR WIJJ 081230Z 32002KT 6000 SCT017 28/24 Q1008 NOSIG=
08/06/2022 13:00:00Z	 SAID34 WIJJ 081300	METAR WIJJ 081300Z 02001KT 5000 HZ SCT017 28/25 Q1009 NOSIG=
08/06/2022 13:30:00Z	 SAID34 WIJJ 081330	METAR WIJJ 081330Z 35002KT 5000 HZ SCT017 28/25 Q1009 NOSIG=
08/06/2022 14:00:00Z	 SAID34 WIJJ 081400	METAR WIJJ 081400Z 35002KT 5000 HZ FEW016 27/24 Q1009 NOSIG=
08/06/2022 14:30:00Z	 SAID34 WIJJ 081430	METAR WIJJ 081430Z 36002KT 5000 HZ FEW016 27/24 Q1009 NOSIG=
08/06/2022 15:00:00Z	 SAID34 WIJJ 081500	METAR WIJJ 081500Z 34002KT 4000 HZ FEW016 27/25 Q1009 NOSIG=
08/06/2022 15:30:00Z	 SAID34 WIJJ 081530	METAR WIJJ 081530Z 00000KT 5000 HZ FEW016 27/25 Q1009 NOSIG=
08/06/2022 16:00:00Z	 SAID34 WIJJ 081600	METAR WIJJ 081600Z 27002KT 3500 HZ FEW015 27/25 Q1010 NOSIG=
08/06/2022 16:30:00Z	 SAID34 WIJJ 081630	METAR WIJJ 081630Z 27002KT 3500 HZ FEW015 26/25 Q1009 NOSIG=
08/06/2022 17:00:00Z	 SAID34 WIJJ 081700	METAR WIJJ 081700Z 00000KT 3500 HZ FEW015 26/25 Q1009 NOSIG=
08/06/2022 17:30:00Z	 SAID34 WIJJ 081730	METAR WIJJ 081730Z 31003KT 3000 HZ FEW015 26/25 Q1009 NOSIG=
08/06/2022 18:00:00Z	 SAID34 WIJJ 081800	METAR WIJJ 081800Z 32002KT 5000 HZ FEW015 26/25 Q1009 NOSIG=
08/06/2022 18:30:00Z	 SAID34 WIJJ 081830	METAR WIJJ 081830Z 26002KT 7000 FEW015 26/25 Q1008 NOSIG=
08/06/2022 19:00:00Z	 SAID34 WIJJ 081900	METAR WIJJ 081900Z 23003KT 7000 FEW015 25/23 Q1008 NOSIG=
08/06/2022 19:30:00Z	 SAID34 WIJJ 081930	METAR WIJJ 081930Z 26004KT 6000 FEW015 25/23 Q1008 NOSIG=
08/06/2022 20:00:00Z	 SAID34 WIJJ 082000	METAR WIJJ 082000Z 29003KT 7000 FEW015 25/23 Q1008 NOSIG=
08/06/2022 20:30:00Z	 SAID34 WIJJ 082030	METAR WIJJ 082030Z 27002KT 8000 FEW015 25/23 Q1008 NOSIG=
08/06/2022 21:00:00Z	 SAID34 WIJJ 082100	METAR WIJJ 082100Z 28002KT 7000 FEW015 25/23 Q1008 NOSIG=
08/06/2022 21:30:00Z	 SAID34 WIJJ 082130	METAR WIJJ 082130Z 26002KT 8000 FEW016 25/24 Q1008 NOSIG=
08/06/2022 22:00:00Z	 SAID34 WIJJ 082200	METAR WIJJ 082200Z 26004KT 8000 FEW015 25/24 Q1008 NOSIG=
08/06/2022 22:30:00Z	 SAID34 WIJJ 082230	METAR WIJJ 082230Z 24002KT 9999 FEW015 25/24 Q1008 NOSIG=
08/06/2022 23:00:00Z	 SAID34 WIJJ 082300	METAR WIJJ 082300Z 27002KT 9000 FEW015 24/23 Q1008 NOSIG=
08/06/2022 23:30:00Z	 SAID34 WIJJ 082330	METAR WIJJ 082330Z 29001KT 8000 FEW015 24/23 Q1009 NOSIG=
09/06/2022 00:00:00Z	 SAID34 WIJJ 090000	METAR WIJJ 090000Z 25002KT 6000 SCT015 25/23 Q1009 NOSIG=
09/06/2022 00:30:00Z	 SAID34 WIJJ 090030	METAR WIJJ 090030Z 21002KT 9999 SCT015 25/24 Q1010 NOSIG=
09/06/2022 01:00:00Z	 SAID34 WIJJ 090100	METAR WIJJ 090100Z 00000KT 9999 SCT015 26/25 Q1010 NOSIG=
09/06/2022 01:30:00Z	 SAID34 WIJJ 090130	METAR WIJJ 090130Z 00000KT 210V270 9999 SCT015 27/25 Q1010 NOSIG=
09/06/2022 02:00:00Z	 SAID34 WIJJ 090200	METAR WIJJ 090200Z 25002KT 9999 SCT015 27/25 Q1010 NOSIG=
09/06/2022 02:30:00Z	 SAID34 WIJJ 090230	METAR WIJJ 090230Z 24003KT 210V270 9999 SCT015 27/25 Q1011 NOSIG=
09/06/2022 03:00:00Z	 SAID34 WIJJ 090300	METAR WIJJ 090300Z 23004KT 200V260 9999 SCT015 28/25 Q1011 NOSIG=
09/06/2022 03:30:00Z	 SAID34 WIJJ 090330	METAR WIJJ 090330Z 22003KT 180V260 9999 BKN015 28/26 Q1010 NOSIG=
09/06/2022 04:00:00Z	 SAID34 WIJJ 090400	METAR WIJJ 090400Z 22004KT 9999 BKN015 28/26 Q1010 NOSIG=
09/06/2022 04:30:00Z	 SAID34 WIJJ 090430	METAR WIJJ 090430Z 20005KT 7000 BKN015 28/26 Q1010 NOSIG=
09/06/2022 05:00:00Z	 SAID34 WIJJ 090500	METAR WIJJ 090500Z 21007KT 9999 SCT015 28/25 Q1010 NOSIG=
09/06/2022 05:30:00Z	 SAID34 WIJJ 090530	METAR COR WIJJ 090530Z 22004KT 9999 FEW015CB SCT016 28/26 Q1009 NOSIG RMK CB TO NE AND SE=
09/06/2022 06:00:00Z	 SAID34 WIJJ 090600	METAR WIJJ 090600Z 17003KT 140V200 9999 TS FEW015CB SCT016 28/26 Q1009 NOSIG RMK CB TO NE AND SE=
09/06/2022 06:30:00Z	 SAID34 WIJJ 090630	METAR WIJJ 090630Z 13004KT 9999 FEW015CB SCT016 28/24 Q1009 NOSIG RMK CB TO NE=
09/06/2022 07:00:00Z	 SAID34 WIJJ 090700	METAR WIJJ 090700Z 09004KT 9999 SCT015 28/24 Q1008 NOSIG=
09/06/2022 08:00:00Z	 SAID34 WIJJ 090800	METAR WIJJ 090800Z 13005KT 9999 SCT015 28/25 Q1008 NOSIG=
09/06/2022 08:30:00Z	 SAID34 WIJJ 090830	METAR WIJJ 090830Z 12005KT 9999 SCT015 28/25 Q1008 NOSIG=
09/06/2022 09:00:00Z	 SAID34 WIJJ 090900	METAR WIJJ 090900Z 12005KT 9999 BKN015 27/24 Q1008 NOSIG=
09/06/2022 09:30:00Z	 SAID34 WIJJ 090930	METAR WIJJ 090930Z 14006KT 9999 BKN015 27/24 Q1008 NOSIG=
09/06/2022 10:00:00Z	 SAID34 WIJJ 091000	METAR WIJJ 091000Z 13009KT 9999 SCT015 27/24 Q1008 NOSIG=
09/06/2022 10:30:00Z	 SAID34 WIJJ 091030	METAR WIJJ 091030Z 14005KT 9999 SCT015 27/24 Q1008 NOSIG=
09/06/2022 11:00:00Z	 SAID34 WIJJ 091100	METAR WIJJ 091100Z 12004KT 9999 FEW018 26/23 Q1009 NOSIG=
09/06/2022 11:30:00Z	 SAID34 WIJJ 091130	METAR WIJJ 091130Z 15004KT 9999 FEW018 25/23 Q1009 NOSIG=
09/06/2022 12:00:00Z	 SAID34 WIJJ 091200	METAR WIJJ 091200Z 17004KT 9999 SCT017 25/23 Q1010 NOSIG=
09/06/2022 12:30:00Z	 SAID34 WIJJ 091230	METAR WIJJ 091230Z 18002KT 9999 SCT017 25/23 Q1010 NOSIG=
09/06/2022 13:00:00Z	 SAID34 WIJJ 091300	METAR WIJJ 091300Z 18002KT 9999 SCT017 25/23 Q1010 NOSIG=
09/06/2022 13:30:00Z	 SAID34 WIJJ 091330 CCA	METAR COR WIJJ 091330Z 18002KT 9999 SCT017 24/23 Q1010 NOSIG=
09/06/2022 14:00:00Z	 SAID34 WIJJ 091400	METAR WIJJ 091400Z 20002KT 9999 SCT017 24/23 Q1011 NOSIG=
09/06/2022 14:30:00Z	 SAID34 WIJJ 091430	METAR WIJJ 091430Z 20002KT 9999 SCT017 24/23 Q1011 NOSIG=
09/06/2022 15:00:00Z	 SAID34 WIJJ 091500	METAR WIJJ 091500Z 19002KT 9999 SCT017 24/23 Q1011 NOSIG=
09/06/2022 15:30:00Z	 SAID34 WIJJ 091530	METAR WIJJ 091530Z 19002KT 9999 SCT017 24/23 Q1011 NOSIG=
09/06/2022 16:00:00Z	 SAID34 WIJJ 091600	METAR WIJJ 091600Z 20004KT 9999 SCT017 24/23 Q1011 NOSIG=
09/06/2022 16:30:00Z	 SAID34 WIJJ 091630	METAR WIJJ 091630Z 21004KT 9999 SCT017 24/23 Q1011 NOSIG=
09/06/2022 17:00:00Z	 SAID34 WIJJ 091700	METAR WIJJ 091700Z 22004KT 9999 SCT017 24/23 Q1010 NOSIG=
09/06/2022 17:30:00Z	 SAID34 WIJJ 091730	METAR WIJJ 091730Z 21003KT 9999 SCT017 24/23 Q1010 NOSIG=
09/06/2022 18:00:00Z	 SAID34 WIJJ 091800	METAR WIJJ 091800Z 20004KT 9999 SCT017 24/23 Q1009 NOSIG=
09/06/2022 18:30:00Z	 SAID34 WIJJ 091830	METAR WIJJ 091830Z 20003KT 9999 SCT017 24/23 Q1009 NOSIG=
09/06/2022 19:00:00Z	 SAID34 WIJJ 091900	METAR WIJJ 091900Z 20002KT 9999 SCT017 24/23 Q1009 NOSIG=
09/06/2022 19:30:00Z	 SAID34 WIJJ 091930	METAR WIJJ 091930Z 20002KT 9999 SCT017 24/23 Q1008 NOSIG=
09/06/2022 20:00:00Z	 SAID34 WIJJ 092000	METAR WIJJ 092000Z 20002KT 9999 SCT017 24/23 Q1008 NOSIG=
09/06/2022 20:30:00Z	 SAID34 WIJJ 092030	METAR WIJJ 092030Z 20002KT 8000 SCT017 23/23 Q1007 NOSIG=
09/06/2022 21:00:00Z	 SAID34 WIJJ 092100	METAR WIJJ 092100Z 20002KT 7000 SCT017 23/23 Q1007 NOSIG=
09/06/2022 21:30:00Z	 SAID34 WIJJ 092130	METAR WIJJ 092130Z 10002KT 5000 BR SCT015 23/23 Q1007 NOSIG=
09/06/2022 22:00:00Z	 SAID34 WIJJ 092200	METAR WIJJ 092200Z 10002KT 5000 BR SCT015 23/23 Q1009 NOSIG=
09/06/2022 22:30:00Z	 SAID34 WIJJ 092230	METAR WIJJ 092230Z 10003KT 4000 BR SCT012 23/23 Q1007 NOSIG=
09/06/2022 23:00:00Z	 SAID34 WIJJ 092300	METAR WIJJ 092300Z 10003KT 1500 BR SCT010 23/23 Q1007 NOSIG=
09/06/2022 23:30:00Z	 SAID34 WIJJ 092330	METAR WIJJ 092330Z 10003KT 200 FG OVC006 23/23 Q1008 TEMPO 0040 2000 BR=
10/06/2022 00:30:00Z	 SAID34 WIJJ 100030	METAR WIJJ 100030Z 11003KT 0150 R31/0350 FG OVC002 23/23 Q1008 NOSIG=
10/06/2022 01:00:00Z	 SAID34 WIJJ 100100	METAR WIJJ 100100Z 11004KT 1100 R31/1300 BR OVC003 23/23 Q1009 NOSIG=
10/06/2022 01:30:00Z	 SAID34 WIJJ 100130	METAR WIJJ 100130Z 09003KT 070V130 4300 BR BKN004 24/24 Q1009 NOSIG=
10/06/2022 02:00:00Z	 SAID34 WIJJ 100200	METAR WIJJ 100200Z 13003KT 7000 BKN005 BKN006 25/24 Q1009 NOSIG=
10/06/2022 02:30:00Z	 SAID34 WIJJ 100230	METAR WIJJ 100230Z VRB02KT 8000 FEW008 27/25 Q1009 NOSIG=
10/06/2022 03:00:00Z	 SAID34 WIJJ 100300	METAR WIJJ 100300Z 12001KT 9999 FEW013 28/25 Q1009 NOSIG=
10/06/2022 03:30:00Z	 SAID34 WIJJ 100330	METAR WIJJ 100330Z 17002KT 9999 FEW015 29/25 Q1009 NOSIG=
10/06/2022 04:00:00Z	 SAID34 WIJJ 100400	METAR WIJJ 100400Z 17002KT 9999 SCT015 30/26 Q1009 NOSIG=
10/06/2022 04:30:00Z	 SAID34 WIJJ 100430	METAR WIJJ 100430Z 10003KT 050V150 9999 SCT016 31/25 Q1008 NOSIG=
10/06/2022 05:00:00Z	 SAID34 WIJJ 100500	METAR WIJJ 100500Z 14001KT 9999 SCT016 31/24 Q1008 NOSIG=
10/06/2022 05:30:00Z	 SAID34 WIJJ 100530	METAR WIJJ 100530Z 12001KT 9999 SCT017 32/23 Q1008 NOSIG=
10/06/2022 06:00:00Z	 SAID34 WIJJ 100600	METAR WIJJ 100600Z 16003KT 120V210 9999 BKN017 32/24 Q1007 NOSIG=
10/06/2022 06:30:00Z	 SAID34 WIJJ 100630	METAR WIJJ 100630Z 07002KT 9999 BKN017 33/23 Q1007 NOSIG=
10/06/2022 07:00:00Z	 SAID34 WIJJ 100700	METAR WIJJ 100700Z 19003KT 100V230 9999 BKN017 33/23 Q1007 NOSIG=
10/06/2022 07:30:00Z	 SAID34 WIJJ 100730	METAR WIJJ 100730Z 00000KT 9999 SCT017 33/22 Q1006 NOSIG=
10/06/2022 08:00:00Z	 SAID34 WIJJ 100800	METAR WIJJ 100800Z 00000KT 9999 SCT017 32/23 Q1006 NOSIG=
10/06/2022 08:30:00Z	 SAID34 WIJJ 100830	METAR WIJJ 100830Z 00000KT 9999 SCT017 32/23 Q1006 NOSIG=
10/06/2022 09:00:00Z	 SAID34 WIJJ 100900	METAR WIJJ 100900Z 00000KT 9999 SCT016 32/23 Q1006 NOSIG=
10/06/2022 09:30:00Z	 SAID34 WIJJ 100930	METAR WIJJ 100930Z 00000KT 9999 SCT017 31/24 Q1006 NOSIG=
10/06/2022 10:00:00Z	 SAID34 WIJJ 101000	METAR WIJJ 101000Z 00000KT 9999 SCT017 30/24 Q1006 NOSIG=
10/06/2022 10:30:00Z	 SAID34 WIJJ 101030	METAR WIJJ 101030Z 11005KT 9999 SCT016 30/25 Q1006 NOSIG=
10/06/2022 11:00:00Z	 SAID34 WIJJ 101100	METAR WIJJ 101100Z 13004KT 9999 BKN015 29/25 Q1006 NOSIG=
10/06/2022 11:30:00Z	 SAID34 WIJJ 101130	METAR WIJJ 101130Z 14003KT 6000 BKN015 28/25 Q1007 NOSIG=
10/06/2022 12:00:00Z	 SAID34 WIJJ 101200	METAR WIJJ 101200Z 20003KT 8000 BKN015 28/24 Q1007 NOSIG=
10/06/2022 12:30:00Z	 SAID34 WIJJ 101230	METAR WIJJ 101230Z 13005KT 8000 SCT015 28/25 Q1008 NOSIG=
10/06/2022 13:00:00Z	 SAID34 WIJJ 101300	METAR WIJJ 101300Z 11002KT 9999 SCT015 28/24 Q1008 NOSIG=
10/06/2022 13:30:00Z	 SAID34 WIJJ 101330	METAR WIJJ 101330Z 13002KT 7000 FEW015 27/26 Q1008 NOSIG=
10/06/2022 14:00:00Z	 SAID34 WIJJ 101400	METAR WIJJ 101400Z 07002KT 7000 SCT016 28/25 Q1009 NOSIG=
10/06/2022 14:30:00Z	 SAID34 WIJJ 101430	METAR WIJJ 101430Z 10002KT 7000 FEW017 26/24 Q1009 NOSIG=
10/06/2022 15:00:00Z	 SAID34 WIJJ 101500	METAR WIJJ 101500Z 00000KT 7000 FEW017 28/25 Q1009 NOSIG=
10/06/2022 15:30:00Z	 SAID34 WIJJ 101530	METAR WIJJ 101530Z 10002KT 7000 FEW017 25/25 Q1009 NOSIG=
10/06/2022 16:00:00Z	 SAID34 WIJJ 101600	METAR WIJJ 101600Z 10002KT 4500 HZ FEW017 27/24 Q1009 NOSIG=
10/06/2022 16:30:00Z	 SAID34 WIJJ 101630	METAR WIJJ 101630Z 10002KT 6000 FEW017 26/24 Q1010 NOSIG=
10/06/2022 17:00:00Z	 SAID34 WIJJ 101700	METAR WIJJ 101700Z 00000KT 7000 FEW018 27/25 Q1010 NOSIG=
10/06/2022 17:30:00Z	 SAID34 WIJJ 101730	METAR WIJJ 101730Z 11000KT 6000 FEW017 26/24 Q1009 NOSIG=
10/06/2022 18:00:00Z	 SAID34 WIJJ 101800	METAR WIJJ 101800Z 13003KT 6000 FEW017 26/24 Q1009 NOSIG=
10/06/2022 18:30:00Z	 SAID34 WIJJ 101830	METAR WIJJ 101830Z 14002KT 9000 FEW018 26/24 Q1009 NOSIG=
10/06/2022 19:00:00Z	 SAID34 WIJJ 101900	METAR WIJJ 101900Z 16002KT 9000 FEW018 26/24 Q1009 NOSIG=
10/06/2022 19:30:00Z	 SAID34 WIJJ 101930	METAR WIJJ 101930Z 16002KT 9000 FEW018 26/24 Q1009 NOSIG=
10/06/2022 20:00:00Z	 SAID34 WIJJ 102000	METAR WIJJ 102000Z 16004KT 9000 FEW018 25/24 Q1008 NOSIG=
10/06/2022 20:30:00Z	 SAID34 WIJJ 102030	METAR WIJJ 102030Z 16004KT 9000 FEW018 25/24 Q1008 NOSIG=
10/06/2022 21:00:00Z	 SAID34 WIJJ 102100	METAR WIJJ 102100Z 17002KT 9999 FEW018 25/24 Q1008 NOSIG=
10/06/2022 21:30:00Z	 SAID34 WIJJ 102130	METAR WIJJ 102130Z 16002KT 9999 FEW017 25/24 Q1008 NOSIG=
10/06/2022 22:00:00Z	 SAID34 WIJJ 102200	METAR WIJJ 102200Z 16002KT 9999 FEW018 25/24 Q1008 NOSIG=
10/06/2022 22:30:00Z	 SAID34 WIJJ 102230	METAR WIJJ 102230Z 17002KT 9999 FEW018 25/24 Q1008 NOSIG=
10/06/2022 23:00:00Z	 SAID34 WIJJ 102300	METAR WIJJ 102300Z 15002KT 6000 FEW018 25/24 Q1008 NOSIG=
10/06/2022 23:30:00Z	 SAID34 WIJJ 102330	METAR WIJJ 102330Z 16002KT 6000 FEW018 24/24 Q1009 NOSIG=
11/06/2022 00:00:00Z	 SAID34 WIJJ 110000	METAR WIJJ 110000Z 15002KT 6000 FEW016 25/24 Q1009 NOSIG=
11/06/2022 00:30:00Z	 SAID34 WIJJ 110030	METAR WIJJ 110030Z 16002KT 5000 HZ FEW015 25/24 Q1010 NOSIG=
11/06/2022 01:00:00Z	 SAID34 WIJJ 110100	METAR WIJJ 110100Z 15004KT 7000 SCT015 26/24 Q1010 NOSIG=
11/06/2022 01:30:00Z	 SAID34 WIJJ 110130	METAR WIJJ 110130Z 16005KT 8000 SCT015 27/24 Q1010 NOSIG=
11/06/2022 02:00:00Z	 SAID34 WIJJ 110200	METAR WIJJ 110200Z 15004KT 9999 FEW015 28/25 Q1010 NOSIG=
11/06/2022 02:30:00Z	 SAID34 WIJJ 110230	METAR WIJJ 110230Z 15005KT 9999 FEW015 28/25 Q1010 NOSIG=
11/06/2022 03:00:00Z	 SAID34 WIJJ 110300	METAR WIJJ 110300Z 17004KT 9999 SCT015 29/25 Q1010 NOSIG=
11/06/2022 03:30:00Z	 SAID34 WIJJ 110330	METAR WIJJ 110330Z 16005KT 9999 SCT015 30/25 Q1010 NOSIG=
11/06/2022 04:00:00Z	 SAID34 WIJJ 110400	METAR WIJJ 110400Z 14004KT 9999 SCT015 30/25 Q1010 NOSIG=
11/06/2022 04:30:00Z	 SAID34 WIJJ 110430	METAR WIJJ 110430Z 15003KT 9999 SCT016 30/25 Q1009 NOSIG=
11/06/2022 05:00:00Z	 SAID34 WIJJ 110500	METAR WIJJ 110500Z 19003KT 9999 SCT016 30/25 Q1009 NOSIG=
11/06/2022 05:30:00Z	 SAID34 WIJJ 110530	METAR WIJJ 110530Z 22004KT 9999 FEW015CB SCT016 30/25 Q1009 NOSIG RMK CB TO N=
11/06/2022 06:00:00Z	 SAID34 WIJJ 110600	METAR COR WIJJ 110600Z 20005KT 9999 FEW015CB SCT016 31/25 Q1008 NOSIG RMK CB TO N=
11/06/2022 06:30:00Z	 SAID34 WIJJ 110630	METAR WIJJ 110630Z 26002KT 9999 FEW015CB SCT016 31/25 Q1008 NOSIG RMK CB TO N AND NE=
11/06/2022 07:00:00Z	 SAID34 WIJJ 110700	METAR WIJJ 110700Z 31003KT 9999 SCT015 30/26 Q1007 NOSIG=
11/06/2022 07:30:00Z	 SAID34 WIJJ 110730	METAR WIJJ 110730Z 33006KT 9000 FEW015CB SCT016 30/27 Q1007 TEMPO 2000 TSRA OVC012 RMK CB TO SE AND SW=
11/06/2022 08:00:00Z	 SAID34 WIJJ 110800	METAR WIJJ 110800Z 35003KT 250V060 5000 -RA SCT015 28/27 Q1006 TEMPO 3000 -TSRA=
11/06/2022 08:30:00Z	 SAID34 WIJJ 110830	METAR WIJJ 110830Z 35005KT 4100 SCT015 28/27 Q1006 NOSIG RMK RERA=
11/06/2022 09:00:00Z	 SAID34 WIJJ 110900	METAR WIJJ 110900Z 36005KT 3400 HZ FEW016 28/27 Q1007 NOSIG=
11/06/2022 09:30:00Z	 SAID34 WIJJ 110930	METAR WIJJ 110930Z 01004KT 4600 BR HZ NCD 27/26 Q1007=
11/06/2022 10:00:00Z	 SAID34 WIJJ 111000	METAR WIJJ 111000Z 03003KT 5000 HZ FEW016CB 28/26 Q1007 NOSIG RMK CB TO SW=
11/06/2022 10:30:00Z	 SAID34 WIJJ 111030	METAR WIJJ 111030Z 01005KT 5000 HZ FEW016 27/26 Q1007 NOSIG=
11/06/2022 11:00:00Z	 SAID34 WIJJ 111100	METAR WIJJ 111100Z 35004KT 4400 HZ FEW010CB SCT011 27/26 Q1008 NOSIG RMK CB TO SW AND W=
11/06/2022 11:30:00Z	 SAID34 WIJJ 111130	METAR WIJJ 111130Z 35004KT 5000 VCTS FEW015CB SCT016 27/26 Q1009 NOSIG RMK CB TO E AND SW=
11/06/2022 12:00:00Z	 SAID34 WIJJ 111200	METAR WIJJ 111200Z 33005KT 9999 FEW015 27/25 Q1009 NOSIG RMK RETS=
11/06/2022 12:30:00Z	 SAID34 WIJJ 111230	METAR WIJJ 111230Z 34003KT 9999 FEW015 27/25 Q1009 NOSIG=
11/06/2022 13:00:00Z	 SAID34 WIJJ 111300	METAR WIJJ 111300Z 36003KT 9999 FEW016 26/25 Q1009 NOSIG=
11/06/2022 13:30:00Z	 SAID34 WIJJ 111330	METAR WIJJ 111330Z 30003KT 9999 FEW016 26/25 Q1010 NOSIG=
11/06/2022 14:00:00Z	 SAID34 WIJJ 111400	METAR WIJJ 111400Z 33003KT 9999 FEW016 26/25 Q1010 NOSIG=
11/06/2022 14:30:00Z	 SAID34 WIJJ 111430	METAR WIJJ 111430Z 00000KT 9999 FEW016 26/25 Q1011 NOSIG=
11/06/2022 15:00:00Z	 SAID34 WIJJ 111500	METAR WIJJ 111500Z 00000KT 9999 FEW017 26/25 Q1010 NOSIG=
11/06/2022 15:30:00Z	 SAID34 WIJJ 111530	METAR WIJJ 111530Z 28002KT 9999 FEW018 26/25 Q1011 NOSIG=
11/06/2022 16:00:00Z	 SAID34 WIJJ 111600	METAR WIJJ 111600Z 00000KT 9999 FEW017 25/25 Q1011 NOSIG=
11/06/2022 16:30:00Z	 SAID34 WIJJ 111630	METAR WIJJ 111630Z 15003KT 4000 HZ SCT016 25/25 Q1011 NOSIG=
11/06/2022 17:00:00Z	 SAID34 WIJJ 111700	METAR WIJJ 111700Z 00000KT 6000 SCT016 26/25 Q1011 NOSIG=
11/06/2022 17:30:00Z	 SAID34 WIJJ 111730	METAR WIJJ 111730Z 00000KT 6000 SCT016 25/25 Q1010 NOSIG=
11/06/2022 18:00:00Z	 SAID34 WIJJ 111800	METAR WIJJ 111800Z 00000KT 6000 SCT016 25/25 Q1010 NOSIG=
11/06/2022 18:30:00Z	 SAID34 WIJJ 111830	METAR WIJJ 111830Z 17003KT 4000 HZ SCT016 25/25 Q1010 NOSIG=
11/06/2022 19:00:00Z	 SAID34 WIJJ 111900	METAR WIJJ 111900Z 19003KT 5000 HZ SCT016 25/24 Q1009 NOSIG=
11/06/2022 19:30:00Z	 SAID34 WIJJ 111930	METAR WIJJ 111930Z 24002KT 5000 HZ FEW017 24/24 Q1009 NOSIG=
11/06/2022 20:00:00Z	 SAID34 WIJJ 112000	METAR WIJJ 112000Z 19004KT 5000 HZ FEW016 24/24 Q1009 NOSIG=
11/06/2022 21:00:00Z	 SAID34 WIJJ 112100	METAR WIJJ 112100Z 19004KT 4000 HZ FEW016 24/24 Q1009 NOSIG=
11/06/2022 21:30:00Z	 SAID34 WIJJ 112130	METAR WIJJ 112130Z 18003KT 3000 HZ SCT015 24/24 Q1009 NOSIG=
11/06/2022 22:00:00Z	 SAID34 WIJJ 112200	METAR WIJJ 112200Z 18002KT 2000 BR BKN015 24/24 Q1009 NOSIG=
11/06/2022 22:30:00Z	 SAID34 WIJJ 112230	METAR WIJJ 112230Z 18002KT 1400 R31/1900 BR SCT015 24/24 Q1009 NOSIG=
11/06/2022 23:00:00Z	 SAID34 WIJJ 112300	METAR WIJJ 112300Z 18002KT 1500 BR BKN010 24/24 Q1009 NOSIG=
11/06/2022 23:30:00Z	 SAID34 WIJJ 112330	METAR WIJJ 112330Z 19002KT 3000 HZ BKN011 24/24 Q1009 NOSIG=
12/06/2022 00:00:00Z	 SAID34 WIJJ 120000	METAR WIJJ 120000Z 18003KT 6000 BKN013 24/24 Q1010 NOSIG=
12/06/2022 00:30:00Z	 SAID34 WIJJ 120030	METAR WIJJ 120030Z 19003KT 9999 SCT015 25/24 Q1010 NOSIG=
12/06/2022 01:00:00Z	 SAID34 WIJJ 120100	METAR WIJJ 120100Z 19004KT 9999 FEW017 26/24 Q1010 NOSIG=
12/06/2022 01:30:00Z	 SAID34 WIJJ 120130	METAR WIJJ 120130Z 19004KT 9999 FEW017 27/24 Q1010 NOSIG=
12/06/2022 02:00:00Z	 SAID34 WIJJ 120200	METAR WIJJ 120200Z 19003KT 9999 FEW017 28/24 Q1011 NOSIG=
12/06/2022 02:30:00Z	 SAID34 WIJJ 120230	METAR WIJJ 120230Z 18003KT 9999 FEW017 28/24 Q1011 NOSIG=
12/06/2022 03:00:00Z	 SAID34 WIJJ 120300	METAR WIJJ 120300Z 15002KT 9999 FEW017 28/24 Q1011 NOSIG=
12/06/2022 03:30:00Z	 SAID34 WIJJ 120330	METAR WIJJ 120330Z 13002KT 9999 SCT017 28/24 Q1011 NOSIG=
12/06/2022 04:00:00Z	 SAID34 WIJJ 120400	METAR WIJJ 120400Z 13003KT 9999 SCT017 29/24 Q1011 NOSIG=
12/06/2022 04:30:00Z	 SAID34 WIJJ 120430	METAR WIJJ 120430Z 05003KT 9999 SCT017 29/24 Q1010 NOSIG=
12/06/2022 05:00:00Z	 SAID34 WIJJ 120500	METAR WIJJ 120500Z 09002KT 9999 SCT017 29/24 Q1010 NOSIG=
12/06/2022 05:30:00Z	 SAID34 WIJJ 120530	METAR WIJJ 120530Z 13003KT 9999 SCT017 30/24 Q1009 NOSIG=
12/06/2022 06:00:00Z	 SAID34 WIJJ 120600	METAR WIJJ 120600Z 09005KT 9999 SCT017 30/24 Q1009 NOSIG=
12/06/2022 06:30:00Z	 SAID34 WIJJ 120630	METAR WIJJ 120630Z 07002KT 9999 FEW017 30/24 Q1008 NOSIG=
12/06/2022 07:00:00Z	 SAID34 WIJJ 120700	METAR WIJJ 120700Z 09003KT 9999 FEW017 31/24 Q1008 NOSIG=
12/06/2022 07:30:00Z	 SAID34 WIJJ 120730	METAR WIJJ 120730Z 09003KT 9999 FEW017 31/24 Q1007 NOSIG=
12/06/2022 08:00:00Z	 SAID34 WIJJ 120800	METAR WIJJ 120800Z 11002KT 9999 FEW016 31/24 Q1007 NOSIG=
12/06/2022 08:30:00Z	 SAID34 WIJJ 120830	METAR WIJJ 120830Z 09003KT 9999 FEW016 31/24 Q1007 NOSIG=
12/06/2022 09:00:00Z	 SAID34 WIJJ 120900	METAR WIJJ 120900Z 11004KT 9999 SCT016 30/24 Q1007 NOSIG=
12/06/2022 09:30:00Z	 SAID34 WIJJ 120930	METAR WIJJ 120930Z 09004KT 9999 SCT013 30/24 Q1007 NOSIG=
12/06/2022 10:00:00Z	 SAID34 WIJJ 121000	METAR WIJJ 121000Z 05003KT 9999 SCT013 30/25 Q1008 NOSIG=
12/06/2022 10:30:00Z	 SAID34 WIJJ 121030	METAR WIJJ 121030Z 02004KT 9000 SCT015 30/25 Q1008 NOSIG=
12/06/2022 11:00:00Z	 SAID34 WIJJ 121100	METAR WIJJ 121100Z 03002KT 8000 FEW015 29/25 Q1009 NOSIG=
12/06/2022 11:30:00Z	 SAID34 WIJJ 121130	METAR WIJJ 121130Z 03003KT 8000 FEW015 29/25 Q1008 NOSIG=
12/06/2022 12:00:00Z	 SAID34 WIJJ 121200	METAR WIJJ 121200Z 02003KT 7000 FEW015 29/25 Q1009 NOSIG=
12/06/2022 12:30:00Z	 SAID34 WIJJ 121230	METAR WIJJ 121230Z 03004KT 7000 FEW015 28/26 Q1009 NOSIG=
12/06/2022 13:00:00Z	 SAID34 WIJJ 121300	METAR WIJJ 121300Z 01005KT 8000 FEW015CB 28/26 Q1010 NOSIG RMK CB TO W AND NW=
12/06/2022 13:30:00Z	 SAID34 WIJJ 121330	METAR WIJJ 121330Z 01005KT 9000 FEW015CB 27/26 Q1011 NOSIG RMK CB TO W=
12/06/2022 14:00:00Z	 SAID34 WIJJ 121400	METAR WIJJ 121400Z 33005KT 7000 SCT015 27/26 Q1011 NOSIG=
12/06/2022 14:30:00Z	 SAID34 WIJJ 121430	METAR WIJJ 121430Z 32005KT 8000 SCT014 27/26 Q1011 NOSIG=
12/06/2022 15:00:00Z	 SAID34 WIJJ 121500	METAR WIJJ 121500Z 31004KT 9000 FEW016 26/25 Q1011 NOSIG=
12/06/2022 15:30:00Z	 SAID34 WIJJ 121530	METAR WIJJ 121530Z 31003KT 9000 FEW016 26/25 Q1010 NOSIG=
12/06/2022 16:00:00Z	 SAID34 WIJJ 121600	METAR WIJJ 121600Z 31007KT 9999 FEW016 26/25 Q1010 NOSIG=
12/06/2022 16:30:00Z	 SAID34 WIJJ 121630	METAR WIJJ 121630Z 27002KT 9999 FEW016 25/24 Q1010 NOSIG=
12/06/2022 17:00:00Z	 SAID34 WIJJ 121700	METAR WIJJ 121700Z 31002KT 9999 FEW016 25/24 Q1010 NOSIG=
12/06/2022 17:30:00Z	 SAID34 WIJJ 121730	METAR WIJJ 121730Z 23002KT 9999 FEW016 25/24 Q1010 NOSIG=
12/06/2022 18:00:00Z	 SAID34 WIJJ 121800	METAR WIJJ 121800Z 22002KT 9999 FEW016 25/24 Q1010 NOSIG=
12/06/2022 18:30:00Z	 SAID34 WIJJ 121830	METAR WIJJ 121830Z 25003KT 8000 FEW016 25/24 Q1009 NOSIG=
12/06/2022 19:00:00Z	 SAID34 WIJJ 121900	METAR WIJJ 121900Z 23003KT 9999 FEW016 25/24 Q1009 NOSIG=
12/06/2022 19:30:00Z	 SAID34 WIJJ 121930	METAR WIJJ 121930Z 21003KT 9999 FEW016 24/24 Q1009 NOSIG=
12/06/2022 20:00:00Z	 SAID34 WIJJ 122000	METAR WIJJ 122000Z 22003KT 9999 FEW016 24/24 Q1009 NOSIG=
12/06/2022 20:30:00Z	 SAID34 WIJJ 122030	METAR WIJJ 122030Z 20003KT 8000 FEW016 24/24 Q1009 NOSIG=
12/06/2022 21:00:00Z	 SAID34 WIJJ 122100	METAR WIJJ 122100Z 19002KT 7000 FEW016 24/23 Q1009 NOSIG=
12/06/2022 21:30:00Z	 SAID34 WIJJ 122130	METAR WIJJ 122130Z 18002KT 7000 FEW016 24/23 Q1009 NOSIG=
12/06/2022 22:00:00Z	 SAID34 WIJJ 122200	METAR WIJJ 122200Z 16002KT 4900 BR FEW016 24/23 Q1009 NOSIG=
12/06/2022 22:30:00Z	 SAID34 WIJJ 122230	METAR WIJJ 122230Z 18002KT 5000 BR FEW016 24/23 Q1009 NOSIG=
12/06/2022 23:00:00Z	 SAID34 WIJJ 122300	METAR WIJJ 122300Z 18002KT 4600 BR NSC 24/23 Q1009 NOSIG=
12/06/2022 23:30:00Z	 SAID34 WIJJ 122330	METAR WIJJ 122330Z 09001KT 3800 BR NSC 24/23 Q1009 NOSIG=
13/06/2022 00:00:00Z	 SAID34 WIJJ 130000	METAR WIJJ 130000Z 12003KT 1100 R31/1500 BR NSC 24/24 Q1009 NOSIG=
13/06/2022 00:30:00Z	 SAID34 WIJJ 130030	METAR WIJJ 130030Z 12003KT 2700 BR BKN011 24/23 Q1010 NOSIG=
13/06/2022 00:39:00Z	 SAID34 WIJJ 130039 CCA	METAR COR WIJJ 130030Z 12004KT 0550 R31/0100 R13/0500 FG OVC008 24/24 Q1010 TEMPO 0130 1000 FG=
13/06/2022 00:39:00Z	 SAID34 WIJJ 130039	METAR WIJJ 130039Z 12004KT 0550 R31/0100 R13/0500 FG OVC008 24/24 Q1010 TEMPO 0130 1000 FG=
13/06/2022 01:00:00Z	 SAID34 WIJJ 130100	METAR WIJJ 130100Z 11003KT 0800 R31/0150 R13/0700 FG OVC008 24/23 Q1010 TEMPO 0130 1000 FG=
13/06/2022 01:30:00Z	 SAID34 WIJJ 130130	METAR WIJJ 130130Z 11004KT 0800 R31/0250 R13/0800 FG OVC005 24/24 Q1010 TEMPO 0215 1000 FG=
13/06/2022 02:00:00Z	 SAID34 WIJJ 130200	METAR WIJJ 130200Z 13003KT 4500 OVC010 25/24 Q1011 NOSIG=
13/06/2022 02:30:00Z	 SAID34 WIJJ 130230	METAR WIJJ 130230Z 13003KT 7000 BKN013 26/24 Q1011 NOSIG=
13/06/2022 03:00:00Z	 SAID34 WIJJ 130300	METAR WIJJ 130300Z 07002KT 9999 FEW015 27/25 Q1011 NOSIG=
13/06/2022 03:30:00Z	 SAID34 WIJJ 130330	METAR WIJJ 130330Z 25002KT 9999 FEW015 27/25 Q1010 NOSIG=
13/06/2022 04:00:00Z	 SAID34 WIJJ 130400	METAR WIJJ 130400Z 10002KT 9999 SCT015 29/24 Q1010 NOSIG=
13/06/2022 04:30:00Z	 SAID34 WIJJ 130430	METAR WIJJ 130430Z 22002KT 9999 SCT015 30/26 Q1010 NOSIG=
13/06/2022 05:00:00Z	 SAID34 WIJJ 130500	METAR WIJJ 130500Z 20002KT 9999 SCT015 30/25 Q1009 NOSIG=
13/06/2022 05:30:00Z	 SAID34 WIJJ 130530	METAR WIJJ 130530Z 25002KT 9999 SCT015 31/26 Q1009 NOSIG=
13/06/2022 06:00:00Z	 SAID34 WIJJ 130600	METAR WIJJ 130600Z 20002KT 9999 BKN015 31/25 Q1008 NOSIG=
13/06/2022 06:30:00Z	 SAID34 WIJJ 130630	METAR WIJJ 130630Z 23003KT 9999 SCT017 32/25 Q1008 NOSIG=
13/06/2022 07:00:00Z	 SAID34 WIJJ 130700	METAR WIJJ 130700Z 12003KT 9999 SCT017 32/25 Q1007 NOSIG=
13/06/2022 07:30:00Z	 SAID34 WIJJ 130730	METAR WIJJ 130730Z 10003KT 9999 SCT017 32/25 Q1007 NOSIG=
13/06/2022 08:00:00Z	 SAID34 WIJJ 130800	METAR WIJJ 130800Z 07004KT 9999 SCT017 32/24 Q1006 NOSIG=
13/06/2022 08:30:00Z	 SAID34 WIJJ 130830	METAR WIJJ 130830Z 15007KT 9999 FEW015CB SCT016 31/25 Q1006 NOSIG RMK CB TO N AND E=
13/06/2022 09:00:00Z	 SAID34 WIJJ 130900	METAR WIJJ 130900Z 15006KT 9000 -RA FEW015CB SCT016 31/25 Q1006 NOSIG RMK CB OVER THE FIELD=
13/06/2022 09:30:00Z	 SAID34 WIJJ 130930	METAR WIJJ 130930Z 01008KT 8000 -TSRA FEW012CB BKN013 28/25 Q1007 NOSIG RMK CB TO N=
13/06/2022 10:00:00Z	 SAID34 WIJJ 131000	METAR WIJJ 131000Z 01008KT 6000 -TSRA FEW012CB BKN013 27/25 Q1007 NOSIG RMK CB TO N AND W=
13/06/2022 10:30:00Z	 SAID34 WIJJ 131030	METAR WIJJ 131030Z 01004KT 8000 -TSRA FEW014CB BKN015 25/24 Q1007 NOSIG RMK CB TO NW=
13/06/2022 11:00:00Z	 SAID34 WIJJ 131100	METAR WIJJ 131100Z 05003KT 8000 -TSRA FEW014CB BKN015 25/24 Q1008 NOSIG RMK CB TO NW=
13/06/2022 11:30:00Z	 SAID34 WIJJ 131130	METAR WIJJ 131130Z 36006KT 7000 -TSRA FEW014CB BKN015 25/24 Q1009 NOSIG RMK CB TO SE AND NW=
13/06/2022 12:00:00Z	 SAID34 WIJJ 131200	METAR WIJJ 131200Z 35003KT 8000 -TSRA FEW014CB BKN015 24/23 Q1009 NOSIG RMK CB TO SW=
13/06/2022 12:30:00Z	 SAID34 WIJJ 131230	METAR WIJJ 131230Z 08003KT 8000 FEW014CB BKN015 24/23 Q1009 RETSRA NOSIG RMK CB TO E-S=
13/06/2022 13:00:00Z	 SAID34 WIJJ 131300	METAR WIJJ 131300Z 03002KT 9999 FEW014CB SCT015 24/23 Q1009 NOSIG RMK CB TO SE AND W=
13/06/2022 13:30:00Z	 SAID34 WIJJ 131330	METAR WIJJ 131330Z 35002KT 9999 SCT015 24/23 Q1010 NOSIG=
13/06/2022 14:00:00Z	 SAID34 WIJJ 131400	METAR WIJJ 131400Z 14002KT 9999 SCT015 25/24 Q1010 NOSIG=
13/06/2022 14:30:00Z	 SAID34 WIJJ 131430	METAR WIJJ 131430Z 11003KT 8000 SCT015 25/24 Q1010 NOSIG=
13/06/2022 15:00:00Z	 SAID34 WIJJ 131500	METAR WIJJ 131500Z 09003KT 9999 SCT015 25/24 Q1010 NOSIG=
13/06/2022 15:30:00Z	 SAID34 WIJJ 131530	METAR WIJJ 131530Z 12003KT 8000 SCT015 25/24 Q1010 NOSIG=
13/06/2022 16:00:00Z	 SAID34 WIJJ 131600	METAR WIJJ 131600Z 13003KT 8000 -RA BKN015 25/24 Q1010 NOSIG=
13/06/2022 16:30:00Z	 SAID34 WIJJ 131630	METAR WIJJ 131630Z 00000KT 7000 SCT015 25/24 Q1011 RERA NOSIG=
13/06/2022 17:00:00Z	 SAID34 WIJJ 131700	METAR WIJJ 131700Z 28004KT 7000 BKN015 25/24 Q1011 NOSIG=
13/06/2022 18:00:00Z	 SAID34 WIJJ 131800	METAR WIJJ 131800Z 26004KT 9999 BKN015 24/23 Q1010 NOSIG=
13/06/2022 18:30:00Z	 SAID34 WIJJ 131830	METAR WIJJ 131830Z 25006KT 9999 BKN015 24/23 Q1010 NOSIG=
13/06/2022 19:00:00Z	 SAID34 WIJJ 131900	METAR WIJJ 131900Z 25004KT 9999 SCT015 24/23 Q1009 NOSIG=
13/06/2022 19:30:00Z	 SAID34 WIJJ 131930	METAR WIJJ 131930Z 24006KT 9999 SCT015 24/23 Q1009 NOSIG=
13/06/2022 20:00:00Z	 SAID34 WIJJ 132000	METAR WIJJ 132000Z 23004KT 9999 SCT015 24/23 Q1009 NOSIG=
13/06/2022 20:30:00Z	 SAID34 WIJJ 132030	METAR WIJJ 132030Z 24004KT 9999 SCT015 24/23 Q1009 NOSIG=
13/06/2022 21:00:00Z	 SAID34 WIJJ 132100	METAR WIJJ 132100Z 22005KT 9999 SCT015 24/23 Q1009 NOSIG=
13/06/2022 21:30:00Z	 SAID34 WIJJ 132130	METAR WIJJ 132130Z 24005KT 9999 SCT015 24/23 Q1010 NOSIG=
13/06/2022 22:00:00Z	 SAID34 WIJJ 132200	METAR WIJJ 132200Z 23004KT 9999 SCT012 24/23 Q1010 NOSIG=
13/06/2022 22:30:00Z	 SAID34 WIJJ 132230	METAR WIJJ 132230Z 24003KT 8000 SCT012 24/23 Q1010 NOSIG=
13/06/2022 23:00:00Z	 SAID34 WIJJ 132300	METAR WIJJ 132300Z 25003KT 8000 SCT012 24/23 Q1010 NOSIG=
13/06/2022 23:30:00Z	 SAID34 WIJJ 132330	METAR WIJJ 132330Z 24004KT 9000 SCT015 24/23 Q1010 NOSIG=
14/06/2022 00:00:00Z	 SAID34 WIJJ 140000	METAR WIJJ 140000Z 25004KT 9999 BKN015 24/23 Q1010 NOSIG=
14/06/2022 00:30:00Z	 SAID34 WIJJ 140030	METAR WIJJ 140030Z 25004KT 9999 BKN015 25/24 Q1010 NOSIG=
14/06/2022 01:00:00Z	 SAID34 WIJJ 140100	METAR WIJJ 140100Z 23004KT 9999 FEW016 25/24 Q1011 NOSIG=
14/06/2022 01:30:00Z	 SAID34 WIJJ 140130	METAR WIJJ 140130Z 21002KT 9999 FEW016 26/24 Q1011 NOSIG=
14/06/2022 02:00:00Z	 SAID34 WIJJ 140200	METAR WIJJ 140200Z 25002KT 9999 FEW016 27/25 Q1011 NOSIG=
14/06/2022 02:30:00Z	 SAID34 WIJJ 140230	METAR WIJJ 140230Z 00000KT 9999 SCT016 28/25 Q1011 NOSIG=
14/06/2022 03:00:00Z	 SAID34 WIJJ 140300	METAR WIJJ 140300Z 18003KT 130V240 9999 FEW016 29/26 Q1011 NOSIG=
14/06/2022 03:30:00Z	 SAID34 WIJJ 140330	METAR WIJJ 140330Z 16005KT 130V190 9999 TS SCT016 30/26 Q1010 NOSIG=
14/06/2022 04:00:00Z	 SAID34 WIJJ 140400	METAR WIJJ 140400Z 15004KT 120V180 9999 SCT017 30/26 Q1010 NOSIG=
14/06/2022 04:30:00Z	 SAID34 WIJJ 140430	METAR WIJJ 140430Z 15005KT 130V190 9999 BKN017 31/25 Q1009 NOSIG=
14/06/2022 05:00:00Z	 SAID34 WIJJ 140500	METAR WIJJ 140500Z 14005KT 9999 SCT017 31/26 Q1009 NOSIG=
14/06/2022 05:30:00Z	 SAID34 WIJJ 140530	METAR WIJJ 140530Z 14005KT 100V170 9999 SCT017 31/25 Q1008 NOSIG=
14/06/2022 06:00:00Z	 SAID34 WIJJ 140600	METAR WIJJ 140600Z 15006KT 9999 SCT017 32/25 Q1008 NOSIG=
14/06/2022 06:30:00Z	 SAID34 WIJJ 140630	METAR WIJJ 140630Z 15005KT 9999 SCT015 31/26 Q1007 NOSIG=
14/06/2022 07:00:00Z	 SAID34 WIJJ 140700	METAR WIJJ 140700Z 13006KT 9999 SCT016 32/23 Q1007 NOSIG=
14/06/2022 07:30:00Z	 SAID34 WIJJ 140730	METAR WIJJ 140730Z 15004KT 9999 SCT016 32/27 Q1006 NOSIG=
14/06/2022 08:00:00Z	 SAID34 WIJJ 140800	METAR WIJJ 140800Z 13004KT 9999 SCT016 32/25 Q1006 NOSIG=
14/06/2022 08:30:00Z	 SAID34 WIJJ 140830	METAR WIJJ 140830Z 15005KT 9999 SCT016 31/25 Q1006 NOSIG=
14/06/2022 09:00:00Z	 SAID34 WIJJ 140900	METAR WIJJ 140900Z 13005KT 9999 SCT016 32/25 Q1006 NOSIG=
14/06/2022 09:30:00Z	 SAID34 WIJJ 140930	METAR WIJJ 140930Z 14004KT 9999 FEW016 32/26 Q1006 NOSIG=
14/06/2022 10:00:00Z	 SAID34 WIJJ 141000	METAR WIJJ 141000Z 19004KT 9999 FEW015 32/25 Q1006 NOSIG=
14/06/2022 10:30:00Z	 SAID34 WIJJ 141030	METAR WIJJ 141030Z 13005KT 9999 FEW015 31/25 Q1006 NOSIG=
14/06/2022 11:00:00Z	 SAID34 WIJJ 141100	METAR WIJJ 141100Z 12002KT 9999 FEW016 31/24 Q1007 NOSIG=
14/06/2022 11:30:00Z	 SAID34 WIJJ 141130	METAR WIJJ 141130Z 11003KT 9999 FEW016 30/26 Q1007 NOSIG=
14/06/2022 12:00:00Z	 SAID34 WIJJ 141200	METAR WIJJ 141200Z 09002KT 8000 FEW017 30/25 Q1007 NOSIG=
14/06/2022 12:30:00Z	 SAID34 WIJJ 141230	METAR WIJJ 141230Z 13002KT 7000 FEW017 29/25 Q1008 NOSIG=
14/06/2022 13:00:00Z	 SAID34 WIJJ 141300	METAR WIJJ 141300Z 00000KT 7000 FEW017 28/25 Q1008 NOSIG=
14/06/2022 13:30:00Z	 SAID34 WIJJ 141330	METAR WIJJ 141330Z 00000KT 7000 FEW017 28/25 Q1009 NOSIG=
14/06/2022 14:00:00Z	 SAID34 WIJJ 141400	METAR WIJJ 141400Z 00000KT 7000 FEW017 28/25 Q1009 NOSIG=
14/06/2022 14:30:00Z	 SAID34 WIJJ 141430	METAR WIJJ 141430Z 00000KT 7000 FEW017 28/25 Q1009 NOSIG=
14/06/2022 15:00:00Z	 SAID34 WIJJ 141500	METAR WIJJ 141500Z 00000KT 7000 FEW017 28/25 Q1010 NOSIG=
14/06/2022 15:30:00Z	 SAID34 WIJJ 141530	METAR WIJJ 141530Z 00000KT 7000 FEW017 28/25 Q1010 NOSIG=
14/06/2022 16:00:00Z	 SAID34 WIJJ 141600	METAR WIJJ 141600Z 00000KT 7000 FEW017 28/25 Q1010 NOSIG=
14/06/2022 16:30:00Z	 SAID34 WIJJ 141630	METAR WIJJ 141630Z 12002KT 7000 FEW017 28/25 Q1010 NOSIG=
14/06/2022 17:00:00Z	 SAID34 WIJJ 141700	METAR WIJJ 141700Z 11002KT 7000 FEW017 27/25 Q1010 NOSIG=
14/06/2022 17:30:00Z	 SAID34 WIJJ 141730	METAR WIJJ 141730Z 11002KT 7000 FEW017 27/25 Q1009 NOSIG=
14/06/2022 18:00:00Z	 SAID34 WIJJ 141800	METAR WIJJ 141800Z 11004KT 7000 SCT015 27/25 Q1009 NOSIG=
14/06/2022 18:30:00Z	 SAID34 WIJJ 141830	METAR WIJJ 141830Z 11004KT 7000 SCT015 26/24 Q1009 NOSIG=
14/06/2022 19:00:00Z	 SAID34 WIJJ 141900	METAR WIJJ 141900Z 11003KT 7000 SCT015 26/24 Q1009 NOSIG=
14/06/2022 19:30:00Z	 SAID34 WIJJ 141930	METAR WIJJ 141930Z 18002KT 6000 SCT015 26/24 Q1009 NOSIG=
14/06/2022 20:00:00Z	 SAID34 WIJJ 142000	METAR WIJJ 142000Z 20002KT 5000 HZ SCT015 26/24 Q1009 NOSIG=
14/06/2022 20:30:00Z	 SAID34 WIJJ 142030	METAR WIJJ 142030Z 20002KT 5000 HZ SCT015 25/24 Q1008 NOSIG=
14/06/2022 21:00:00Z	 SAID34 WIJJ 142100	METAR WIJJ 142100Z 18002KT 5000 HZ SCT015 25/24 Q1008 NOSIG=
14/06/2022 21:30:00Z	 SAID34 WIJJ 142130	METAR WIJJ 142130Z 16003KT 5000 HZ SCT013 25/24 Q1008 NOSIG=
14/06/2022 22:00:00Z	 SAID34 WIJJ 142200	METAR WIJJ 142200Z 19002KT 4000 BR FEW015 25/24 Q1008 NOSIG=
14/06/2022 22:30:00Z	 SAID34 WIJJ 142230	METAR WIJJ 142230Z 25002KT 4000 BR FEW015 25/24 Q1009 NOSIG=
14/06/2022 23:00:00Z	 SAID34 WIJJ 142300	METAR WIJJ 142300Z 26002KT 3000 BR FEW017 25/24 Q1009 NOSIG=
14/06/2022 23:30:00Z	 SAID34 WIJJ 142330	METAR WIJJ 142330Z 25004KT 3000 BR FEW017 25/24 Q1009 NOSIG=
15/06/2022 00:00:00Z	 SAID34 WIJJ 150000	METAR WIJJ 150000Z 25003KT 3500 BR SCT013 25/24 Q1009 NOSIG=
15/06/2022 00:30:00Z	 SAID34 WIJJ 150030	METAR WIJJ 150030Z 21003KT 3900 HZ FEW014 25/25 Q1010 NOSIG=
15/06/2022 01:00:00Z	 SAID34 WIJJ 150100	METAR COR WIJJ 150100Z 19004KT 140V230 5000 HZ FEW014 27/25 Q1010 NOSIG=
15/06/2022 01:30:00Z	 SAID34 WIJJ 150130	METAR WIJJ 150130Z 19005KT 6000 SCT013 28/26 Q1010 NOSIG=
15/06/2022 02:00:00Z	 SAID34 WIJJ 150200	METAR WIJJ 150200Z 15004KT 6000 BKN015 28/26 Q1011 NOSIG=
15/06/2022 02:30:00Z	 SAID34 WIJJ 150230	METAR WIJJ 150230Z 16005KT 130V190 7000 BKN015 29/26 Q1010 NOSIG=
15/06/2022 03:00:00Z	 SAID34 WIJJ 150300	METAR WIJJ 150300Z 15004KT 8000 SCT016 28/26 Q1010 NOSIG=
15/06/2022 03:30:00Z	 SAID34 WIJJ 150330	METAR WIJJ 150330Z 16004KT 130V190 9000 SCT016 29/26 Q1010 NOSIG=
15/06/2022 04:00:00Z	 SAID34 WIJJ 150400	METAR WIJJ 150400Z 15004KT 120V180 9000 SCT016 30/26 Q1010 NOSIG=
15/06/2022 04:30:00Z	 SAID34 WIJJ 150430	METAR WIJJ 150430Z 15004KT 120V190 9999 BKN016 31/26 Q1010 NOSIG=
15/06/2022 05:00:00Z	 SAID34 WIJJ 150500	METAR WIJJ 150500Z 16005KT 110V200 9999 BKN017 32/25 Q1009 NOSIG=
15/06/2022 05:30:00Z	 SAID34 WIJJ 150530	METAR WIJJ 150530Z 14005KT 110V170 9999 BKN017 32/25 Q1009 NOSIG=
15/06/2022 06:00:00Z	 SAID34 WIJJ 150600	METAR WIJJ 150600Z 16004KT 130V200 9999 SCT017 32/24 Q1008 NOSIG=
15/06/2022 06:30:00Z	 SAID34 WIJJ 150630	METAR WIJJ 150630Z 19005KT 140V220 9999 SCT017 32/25 Q1008 NOSIG=
15/06/2022 07:00:00Z	 SAID34 WIJJ 150700	METAR WIJJ 150700Z 17005KT 130V200 9999 SCT016 33/24 Q1007 NOSIG=
15/06/2022 07:30:00Z	 SAID34 WIJJ 150730	METAR WIJJ 150730Z 16004KT 120V180 9999 SCT017 33/24 Q1007 NOSIG=
15/06/2022 08:00:00Z	 SAID34 WIJJ 150800	METAR WIJJ 150800Z 12004KT 100V170 9999 SCT017 33/24 Q1006 NOSIG=
15/06/2022 08:30:00Z	 SAID34 WIJJ 150830	METAR WIJJ 150830Z 15004KT 100V190 9999 FEW014CB BKN015 33/24 Q1006 NOSIG RMK CB ALQDS=
15/06/2022 09:00:00Z	 SAID34 WIJJ 150900	METAR WIJJ 150900Z 13009G20KT 070V160 3500 RA FEW012CB BKN013 27/25 Q1007 NOSIG RMK CB ALQDS=
15/06/2022 09:30:00Z	 SAID34 WIJJ 150930	METAR WIJJ 150930Z 04008KT 360V070 3500 TSRA FEW011CB BKN012 26/25 Q1008 NOSIG RMK TEMPO 2000 -TSRA=
15/06/2022 10:00:00Z	 SAID34 WIJJ 151000	METAR WIJJ 151000Z 31003KT 290V360 5000 TSRA FEW010CB BKN011 25/24 Q1009 NOSIG RMK CB AT AIRPORT=
15/06/2022 10:30:00Z	 SAID34 WIJJ 151030	METAR WIJJ 151030Z 00000KT 9999 -RA FEW011CB BKN012 25/24 Q1009 NOSIG RMK CB ALQDS=
15/06/2022 11:00:00Z	 SAID34 WIJJ 151100	METAR WIJJ 151100Z 00000KT 9999 VCTS FEW014CB SCT015 25/24 Q1009 NOSIG RMK CB ALQDS=
15/06/2022 11:30:00Z	 SAID34 WIJJ 151130	METAR WIJJ 151130Z 17002KT 9999 FEW014 SCT015 25/24 Q1008 NOSIG RMK CB TO SW-W=
15/06/2022 12:00:00Z	 SAID34 WIJJ 151200	METAR WIJJ 151200Z 19003KT 9999 SCT015 25/24 Q1009 NOSIG=
15/06/2022 12:30:00Z	 SAID34 WIJJ 151230	METAR WIJJ 151230Z 17002KT 9999 SCT015 24/23 Q1009 NOSIG=
15/06/2022 13:00:00Z	 SAID34 WIJJ 151300	METAR WIJJ 151300Z 21003KT 9999 SCT015 25/23 Q1010 NOSIG=
15/06/2022 13:30:00Z	 SAID34 WIJJ 151330	METAR WIJJ 151330Z 26004KT 9000 SCT015 25/24 Q1010 NOSIG=
15/06/2022 14:00:00Z	 SAID34 WIJJ 151400	METAR WIJJ 151400Z 28003KT 9999 SCT015 25/24 Q1011 NOSIG=
15/06/2022 14:30:00Z	 SAID34 WIJJ 151430	METAR WIJJ 151430Z 26002KT 9000 SCT016 24/24 Q1011 NOSIG=
15/06/2022 15:00:00Z	 SAID34 WIJJ 151500	METAR WIJJ 151500Z 25001KT 9000 FEW017 25/24 Q1011 NOSIG=
15/06/2022 15:30:00Z	 SAID34 WIJJ 151530	METAR WIJJ 151530Z 25001KT 7000 FEW017 24/24 Q1011 NOSIG=
15/06/2022 16:00:00Z	 SAID34 WIJJ 151600	METAR WIJJ 151600Z 00000KT 7000 FEW018 25/24 Q1011 NOSIG=
15/06/2022 16:30:00Z	 SAID34 WIJJ 151630	METAR WIJJ 151630Z 00000KT 9000 FEW018 25/24 Q1011 NOSIG=
15/06/2022 17:00:00Z	 SAID34 WIJJ 151700	METAR WIJJ 151700Z 00000KT 4000 HZ SCT018 25/24 Q1011 NOSIG=
15/06/2022 17:30:00Z	 SAID34 WIJJ 151730	METAR WIJJ 151730Z 19002KT 3700 BR SCT018 25/24 Q1011 NOSIG=
15/06/2022 18:00:00Z	 SAID34 WIJJ 151800	METAR WIJJ 151800Z 26003KT 4500 HZ SCT017 24/24 Q1011 NOSIG=
15/06/2022 18:30:00Z	 SAID34 WIJJ 151830	METAR WIJJ 151830Z 27002KT 5000 HZ SCT016 24/24 Q1011 NOSIG=
15/06/2022 19:00:00Z	 SAID34 WIJJ 151900	METAR WIJJ 151900Z 24003KT 4500 HZ SCT017 24/23 Q1011 NOSIG=
15/06/2022 19:30:00Z	 SAID34 WIJJ 151930	METAR WIJJ 151930Z 23003KT 4500 HZ SCT017 24/23 Q1011 NOSIG=
15/06/2022 20:00:00Z	 SAID34 WIJJ 152000	METAR WIJJ 152000Z 22003KT 5000 HZ SCT016 24/23 Q1010 NOSIG=
15/06/2022 20:30:00Z	 SAID34 WIJJ 152030	METAR WIJJ 152030Z 21004KT 5000 HZ SCT016 24/23 Q1010 NOSIG=
15/06/2022 21:30:00Z	 SAID34 WIJJ 152130	METAR WIJJ 152130Z 24002KT 3500 BR SCT016 24/23 Q1009 NOSIG=
15/06/2022 22:00:00Z	 SAID34 WIJJ 152200	METAR WIJJ 152200Z 23004KT 7000 SCT016 23/23 Q1009 NOSIG=
15/06/2022 22:30:00Z	 SAID34 WIJJ 152230	METAR WIJJ 152230Z 20003KT 6000 SCT016 23/23 Q1009 NOSIG=
15/06/2022 23:00:00Z	 SAID34 WIJJ 152300	METAR WIJJ 152300Z 20004KT 3600 BR FEW018 23/23 Q1009 NOSIG=
15/06/2022 23:30:00Z	 SAID34 WIJJ 152330	METAR WIJJ 152330Z 27002KT 4500 HZ FEW017 23/23 Q1010 NOSIG=
16/06/2022 00:00:00Z	 SAID34 WIJJ 160000	METAR WIJJ 160000Z 27002KT 6000 FEW017 23/23 Q1010 NOSIG=
16/06/2022 00:30:00Z	 SAID34 WIJJ 160030	METAR WIJJ 160030Z 22002KT 4000 HZ FEW017 24/23 Q1010 NOSIG=
16/06/2022 01:00:00Z	 SAID34 WIJJ 160100	METAR WIJJ 160100Z 17004KT 4500 HZ FEW015 25/24 Q1010 NOSIG=
16/06/2022 01:30:00Z	 SAID34 WIJJ 160130	METAR WIJJ 160130Z 18004KT 6000 FEW013 26/24 Q1011 NOSIG=
16/06/2022 02:00:00Z	 SAID34 WIJJ 160200	METAR WIJJ 160200Z 17004KT 7000 SCT013 27/24 Q1011 NOSIG=
16/06/2022 02:30:00Z	 SAID34 WIJJ 160230	METAR WIJJ 160230Z 15004KT 9000 SCT013 27/24 Q1011 NOSIG=
16/06/2022 03:30:00Z	 SAID34 WIJJ 160330	METAR WIJJ 160330Z 17004KT 9999 SCT015 28/24 Q1011 NOSIG=
16/06/2022 04:00:00Z	 SAID34 WIJJ 160400	METAR WIJJ 160400Z 17004KT 9999 SCT015 29/24 Q1011 NOSIG=
16/06/2022 04:30:00Z	 SAID34 WIJJ 160430	METAR WIJJ 160430Z VRB04KT 9999 SCT015 30/26 Q1010 NOSIG=
16/06/2022 05:00:00Z	 SAID34 WIJJ 160500	METAR WIJJ 160500Z 13004KT 9999 SCT016 30/24 Q1010 NOSIG=
16/06/2022 05:30:00Z	 SAID34 WIJJ 160530	METAR WIJJ 160530Z 16003KT 9999 SCT016 30/24 Q1009 NOSIG=
16/06/2022 06:00:00Z	 SAID34 WIJJ 160600	METAR WIJJ 160600Z 13005KT 9999 SCT016 30/24 Q1009 NOSIG=
16/06/2022 06:30:00Z	 SAID34 WIJJ 160630	METAR WIJJ 160630Z 14005KT 110V180 9999 SCT016 30/25 Q1009 NOSIG=
16/06/2022 07:00:00Z	 SAID34 WIJJ 160700	METAR WIJJ 160700Z 06002KT 9999 SCT016 30/25 Q1008 NOSIG=
16/06/2022 07:30:00Z	 SAID34 WIJJ 160730	METAR WIJJ 160730Z 08002KT 9999 SCT016 30/26 Q1008 NOSIG=
16/06/2022 08:00:00Z	 SAID34 WIJJ 160800	METAR WIJJ 160800Z 07005KT 9999 SCT016 29/25 Q1008 NOSIG=
16/06/2022 08:30:00Z	 SAID34 WIJJ 160830	METAR WIJJ 160830Z 06005KT 9000 FEW016 29/26 Q1008 NOSIG=
16/06/2022 09:00:00Z	 SAID34 WIJJ 160900	METAR WIJJ 160900Z 06006KT 9999 FEW016 29/26 Q1008 NOSIG=
16/06/2022 09:30:00Z	 SAID34 WIJJ 160930	METAR WIJJ 160930Z 07004KT 9999 FEW016 29/26 Q1008 NOSIG=
16/06/2022 10:00:00Z	 SAID34 WIJJ 161000	METAR WIJJ 161000Z 05005KT 9999 FEW016 29/26 Q1008 NOSIG=
16/06/2022 10:30:00Z	 SAID34 WIJJ 161030	METAR WIJJ 161030Z 04005KT 8000 FEW016 28/26 Q1008 NOSIG=
16/06/2022 11:00:00Z	 SAID34 WIJJ 161100	METAR WIJJ 161100Z 06005KT 9000 FEW016 28/26 Q1009 NOSIG=
16/06/2022 11:30:00Z	 SAID34 WIJJ 161130	METAR WIJJ 161130Z 05004KT 7000 FEW016 28/26 Q1009 NOSIG=
16/06/2022 12:00:00Z	 SAID34 WIJJ 161200	METAR WIJJ 161200Z 05004KT 9999 FEW016 27/26 Q1010 NOSIG=
16/06/2022 12:30:00Z	 SAID34 WIJJ 161230	METAR WIJJ 161230Z 05004KT 9999 FEW016 27/26 Q1010 NOSIG=
16/06/2022 13:00:00Z	 SAID34 WIJJ 161300	METAR WIJJ 161300Z 03004KT 9999 SCT016 27/26 Q1010 NOSIG=
16/06/2022 14:00:00Z	 SAID34 WIJJ 161400	METAR WIJJ 161400Z 02004KT 9999 SCT016 26/25 Q1011 NOSIG=
16/06/2022 14:30:00Z	 SAID34 WIJJ 161430	METAR WIJJ 161430Z 03002KT 9999 SCT016 26/25 Q1012 NOSIG=
16/06/2022 15:00:00Z	 SAID34 WIJJ 161500	METAR WIJJ 161500Z 04002KT 9999 SCT016 26/25 Q1012 NOSIG=
16/06/2022 15:30:00Z	 SAID34 WIJJ 161530	METAR WIJJ 161530Z 02002KT 9999 SCT016 26/25 Q1011 NOSIG=
16/06/2022 16:00:00Z	 SAID34 WIJJ 161600	METAR WIJJ 161600Z 07003KT 9999 SCT016 26/25 Q1011 NOSIG=
16/06/2022 16:30:00Z	 SAID34 WIJJ 161630	METAR WIJJ 161630Z 08002KT 9999 SCT016 26/25 Q1011 NOSIG=
16/06/2022 17:00:00Z	 SAID34 WIJJ 161700	METAR WIJJ 161700Z 06002KT 9999 SCT016 26/25 Q1011 NOSIG=
16/06/2022 17:30:00Z	 SAID34 WIJJ 161730	METAR WIJJ 161730Z 07002KT 9999 SCT015 26/25 Q1011 NOSIG=
16/06/2022 18:00:00Z	 SAID34 WIJJ 161800	METAR WIJJ 161800Z 00000KT 6000 BKN015 25/25 Q1010 NOSIG=
16/06/2022 18:30:00Z	 SAID34 WIJJ 161830	METAR WIJJ 161830Z 00000KT 6000 BKN015 25/25 Q1010 NOSIG=
16/06/2022 19:00:00Z	 SAID34 WIJJ 161900	METAR WIJJ 161900Z 17002KT 7000 BKN015 25/25 Q1010 NOSIG=
16/06/2022 19:30:00Z	 SAID34 WIJJ 161930	METAR WIJJ 161930Z 20002KT 7000 BKN015 25/25 Q1010 NOSIG=
16/06/2022 20:00:00Z	 SAID34 WIJJ 162000	METAR WIJJ 162000Z 20003KT 4000 -RA BKN013 25/25 Q1010 NOSIG=
16/06/2022 20:30:00Z	 SAID34 WIJJ 162030	METAR WIJJ 162030Z 21002KT 4000 HZ SCT013 25/25 Q1010 NOSIG RMK RERA=
16/06/2022 21:00:00Z	 SAID34 WIJJ 162100	METAR WIJJ 162100Z 19003KT 150V210 5000 HZ SCT015 25/24 Q1010 NOSIG=
16/06/2022 21:30:00Z	 SAID34 WIJJ 162130	METAR WIJJ 162130Z 19003KT 5000 SCT015 25/24 Q1009 NOSIG=
16/06/2022 22:00:00Z	 SAID34 WIJJ 162200	METAR WIJJ 162200Z 18003KT 5000 HZ SCT015 25/24 Q1009 NOSIG=
16/06/2022 22:30:00Z	 SAID34 WIJJ 162230	METAR WIJJ 162230Z 20002KT 4000 HZ SCT015 24/24 Q1009 NOSIG=
16/06/2022 23:00:00Z	 SAID34 WIJJ 162300	METAR WIJJ 162300Z 19003KT 1200 BR BKN011 24/24 Q1009 NOSIG=
16/06/2022 23:30:00Z	 SAID34 WIJJ 162330	METAR WIJJ 162330Z 17004KT 0300 R31/0800 FG BKN006 24/24 Q1009 TEMPO FM0040 2000 BR=
17/06/2022 00:30:00Z	 SAID34 WIJJ 170030	METAR WIJJ 170030Z 18005KT 5000 BR BKN010 25/24 Q1010 NOSIG=
17/06/2022 01:00:00Z	 SAID34 WIJJ 170100	METAR WIJJ 170100Z 16005KT 6000 BKN010 26/24 Q1010 NOSIG=
17/06/2022 01:30:00Z	 SAID34 WIJJ 170130	METAR WIJJ 170130Z 15003KT 8000 BKN010 26/24 Q1010 NOSIG=
17/06/2022 02:00:00Z	 SAID34 WIJJ 170200	METAR WIJJ 170200Z 14003KT 9999 BKN012 27/25 Q1010 NOSIG=
17/06/2022 02:30:00Z	 SAID34 WIJJ 170230	METAR WIJJ 170230Z 16003KT 9999 BKN013 27/25 Q1011 NOSIG=
17/06/2022 03:00:00Z	 SAID34 WIJJ 170300	METAR WIJJ 170300Z 14005KT 9999 SCT015 28/25 Q1011 NOSIG=
17/06/2022 03:30:00Z	 SAID34 WIJJ 170330	METAR WIJJ 170330Z 15005KT 9999 SCT017 29/25 Q1011 NOSIG=
17/06/2022 04:00:00Z	 SAID34 WIJJ 170400	METAR WIJJ 170400Z 15005KT 9999 SCT017 30/24 Q1011 NOSIG=
17/06/2022 04:30:00Z	 SAID34 WIJJ 170430	METAR WIJJ 170430Z 15005KT 9999 SCT017 30/24 Q1011 NOSIG=
17/06/2022 05:00:00Z	 SAID34 WIJJ 170500	METAR WIJJ 170500Z 14005KT 9999 FEW017 30/24 Q1010 NOSIG=
17/06/2022 05:30:00Z	 SAID34 WIJJ 170530	METAR WIJJ 170530Z 18005KT 9999 FEW017 31/24 Q1010 NOSIG=
17/06/2022 06:00:00Z	 SAID34 WIJJ 170600	METAR WIJJ 170600Z 15003KT 9999 FEW017 31/24 Q1010 NOSIG=
17/06/2022 06:30:00Z	 SAID34 WIJJ 170630	METAR WIJJ 170630Z 16004KT 9999 SCT017 31/24 Q1009 NOSIG=
17/06/2022 07:00:00Z	 SAID34 WIJJ 170700	METAR WIJJ 170700Z 16004KT 9999 SCT017 32/25 Q1009 NOSIG=
17/06/2022 07:30:00Z	 SAID34 WIJJ 170730	METAR WIJJ 170730Z 13003KT 9999 SCT017 32/25 Q1008 NOSIG=
17/06/2022 08:00:00Z	 SAID34 WIJJ 170800	METAR WIJJ 170800Z 11004KT 9999 FEW016CB SCT017 32/23 Q1008 NOSIG RMK CB TO N AND SE=
17/06/2022 08:30:00Z	 SAID34 WIJJ 170830	METAR WIJJ 170830Z 11005KT 9999 VCTS FEW015CB SCT016 32/23 Q1007 NOSIG RMK CB TO N - E=
17/06/2022 09:00:00Z	 SAID34 WIJJ 170900	METAR WIJJ 170900Z 11006KT 9999 FEW015CB SCT016 32/24 Q1008 NOSIG RMK CB TO N, NE, AND NW=
17/06/2022 09:30:00Z	 SAID34 WIJJ 170930	METAR WIJJ 170930Z 06008KT 9999 FEW014CB BKN015 30/24 Q1008 NOSIG RMK CB TO NE AND W=
17/06/2022 10:00:00Z	 SAID34 WIJJ 171000	METAR WIJJ 171000Z 36006KT 8000 -RA FEW014CB BKN015 27/24 Q1009 NOSIG RMK CB TO SW - NW=
17/06/2022 10:30:00Z	 SAID34 WIJJ 171030	METAR WIJJ 171030Z 29005KT 8000 VCTS RA FEW014CB BKN015 27/24 Q1009 NOSIG RMK CB TO SW - NW=
17/06/2022 11:00:00Z	 SAID34 WIJJ 171100	METAR WIJJ 171100Z 32002KT 9999 FEW014CB SCT015 26/24 Q1009 RERA NOSIG RMK CB TO S=
17/06/2022 11:30:00Z	 SAID34 WIJJ 171130	METAR WIJJ 171130Z 34002KT 9000 -RA FEW014CB BKN015 26/24 Q1010 NOSIG RMK CB TO S=
17/06/2022 12:00:00Z	 SAID34 WIJJ 171200	METAR WIJJ 171200Z 21001KT 6000 -RA BKN014 26/24 Q1010 NOSIG=
17/06/2022 12:30:00Z	 SAID34 WIJJ 171230	METAR WIJJ 171230Z 25002KT 5000 -RA SCT014 25/25 Q1010 NOSIG=
17/06/2022 13:00:00Z	 SAID34 WIJJ 171300	METAR WIJJ 171300Z 23003KT 5000 SCT014 25/25 Q1010 NOSIG RMK RERA=
17/06/2022 13:30:00Z	 SAID34 WIJJ 171330	METAR WIJJ 171330Z VRB02KT 7000 FEW014 25/25 Q1010 NOSIG=
17/06/2022 14:00:00Z	 SAID34 WIJJ 171400	METAR WIJJ 171400Z 27002KT 9000 FEW014 25/24 Q1010 NOSIG=
17/06/2022 14:30:00Z	 SAID34 WIJJ 171430	METAR WIJJ 171430Z 26003KT 7000 FEW014 25/24 Q1010 NOSIG=
17/06/2022 15:00:00Z	 SAID34 WIJJ 171500	METAR WIJJ 171500Z 23002KT 7000 FEW014 25/24 Q1010 NOSIG=
17/06/2022 15:30:00Z	 SAID34 WIJJ 171530	METAR WIJJ 171530Z 25003KT 6000 FEW015 25/24 Q1010 NOSIG=
17/06/2022 16:00:00Z	 SAID34 WIJJ 171600	METAR WIJJ 171600Z 26003KT 9999 FEW014 24/24 Q1010 NOSIG=
17/06/2022 16:30:00Z	 SAID34 WIJJ 171630	METAR WIJJ 171630Z 25003KT 9999 FEW016 24/24 Q1010 NOSIG=
17/06/2022 17:00:00Z	 SAID34 WIJJ 171700	METAR WIJJ 171700Z 27003KT 9999 FEW015 24/24 Q1010 NOSIG=
17/06/2022 17:30:00Z	 SAID34 WIJJ 171730	METAR WIJJ 171730Z 26003KT 9999 FEW015 24/24 Q1010 NOSIG=
17/06/2022 18:00:00Z	 SAID34 WIJJ 171800	METAR WIJJ 171800Z 25002KT 9999 FEW015 24/24 Q1010 NOSIG=
17/06/2022 18:30:00Z	 SAID34 WIJJ 171830	METAR WIJJ 171830Z 26001KT 9999 FEW016 24/24 Q1010 NOSIG=
17/06/2022 19:00:00Z	 SAID34 WIJJ 171900	METAR WIJJ 171900Z 18003KT 9000 FEW015 24/24 Q1009 NOSIG=
17/06/2022 19:30:00Z	 SAID34 WIJJ 171930	METAR WIJJ 171930Z 20001KT 7000 SCT015 24/24 Q1009 NOSIG=
17/06/2022 20:00:00Z	 SAID34 WIJJ 172000	METAR WIJJ 172000Z 23002KT 5000 HZ FEW014 24/24 Q1009 NOSIG=
17/06/2022 20:30:00Z	 SAID34 WIJJ 172030	METAR WIJJ 172030Z 28002KT 5000 HZ FEW014 24/24 Q1009 NOSIG=
17/06/2022 21:00:00Z	 SAID34 WIJJ 172100	METAR WIJJ 172100Z 28002KT 2200 HZ FEW015 24/24 Q1009 NOSIG=
17/06/2022 21:30:00Z	 SAID34 WIJJ 172130	METAR WIJJ 172130Z 19001KT 2700 BR FEW015 24/24 Q1009 NOSIG=
17/06/2022 22:00:00Z	 SAID34 WIJJ 172200	METAR WIJJ 172200Z VRB02KT 2800 BR FEW014 24/24 Q1010 NOSIG=
17/06/2022 22:30:00Z	 SAID34 WIJJ 172230	METAR WIJJ 172230Z 00000KT 2900 BR SCT014 24/24 Q1010 NOSIG=
17/06/2022 23:00:00Z	 SAID34 WIJJ 172300	METAR WIJJ 172300Z 00000KT 3300 BR FEW017 24/24 Q1010 NOSIG=
17/06/2022 23:30:00Z	 SAID34 WIJJ 172330	METAR WIJJ 172330Z 10001KT 2200 BR FEW016 24/24 Q1010 NOSIG=
18/06/2022 00:00:00Z	 SAID34 WIJJ 180000	METAR WIJJ 180000Z 06001KT 2200 BR NSC 25/24 Q1010 NOSIG=
18/06/2022 00:30:00Z	 SAID34 WIJJ 180030	METAR WIJJ 180030Z 21001KT 5000 HZ BKN017 25/25 Q1011 NOSIG=
18/06/2022 01:00:00Z	 SAID34 WIJJ 180100	METAR WIJJ 180100Z 24002KT 6000 BKN017 25/24 Q1011 NOSIG=
18/06/2022 01:30:00Z	 SAID34 WIJJ 180130	METAR WIJJ 180130Z 21004KT 4800 HZ SCT017 26/24 Q1011 NOSIG=
18/06/2022 02:00:00Z	 SAID34 WIJJ 180200	METAR WIJJ 180200Z 17003KT 7000 FEW017 26/24 Q1011 NOSIG=
18/06/2022 02:30:00Z	 SAID34 WIJJ 180230	METAR WIJJ 180230Z 15003KT 7000 FEW017 28/24 Q1011 NOSIG=
18/06/2022 03:00:00Z	 SAID34 WIJJ 180300	METAR WIJJ 180300Z 17005KT 9999 FEW016 29/24 Q1011 NOSIG=
18/06/2022 03:30:00Z	 SAID34 WIJJ 180330	METAR WIJJ 180330Z 14055KT 9999 FEW016 29/26 Q1011 NOSIG=
18/06/2022 04:30:00Z	 SAID34 WIJJ 180430	METAR WIJJ 180430Z 15004KT 9999 SCT015 30/26 Q1011 NOSIG=
18/06/2022 05:30:00Z	 SAID34 WIJJ 180530	METAR WIJJ 180530Z 15004KT 9999 SCT015 31/24 Q1010 NOSIG=
18/06/2022 06:00:00Z	 SAID34 WIJJ 180600	METAR WIJJ 180600Z 21003KT 9999 BKN015 32/24 Q1009 NOSIG=
18/06/2022 06:30:00Z	 SAID34 WIJJ 180630	METAR WIJJ 180630Z 18005KT 9999 SCT016 32/24 Q1008 NOSIG=
18/06/2022 07:00:00Z	 SAID34 WIJJ 180700	METAR WIJJ 180700Z 15005KT 9999 SCT016 32/24 Q1008 NOSIG=
18/06/2022 07:30:00Z	 SAID34 WIJJ 180730	METAR WIJJ 180730Z 18007KT 9999 SCT016 32/24 Q1008 NOSIG=
18/06/2022 08:00:00Z	 SAID34 WIJJ 180800	METAR WIJJ 180800Z 15005KT 9999 FEW016CB SCT017 31/24 Q1007 NOSIG RMK CB TO NW=
18/06/2022 08:30:00Z	 SAID34 WIJJ 180830	METAR WIJJ 180830Z 18005KT 9999 FEW016CB SCT017 30/25 Q1007 NOSIG RMK CB TO NW=
18/06/2022 09:00:00Z	 SAID34 WIJJ 180900	METAR WIJJ 180900Z 25004KT 9999 SCT017 30/23 Q1007 NOSIG=
18/06/2022 09:30:00Z	 SAID34 WIJJ 180930	METAR WIJJ 180930Z 22003KT 9999 FEW017 30/23 Q1007 NOSIG=
18/06/2022 10:00:00Z	 SAID34 WIJJ 181000	METAR WIJJ 181000Z 20002KT 9999 SCT017 30/23 Q1008 NOSIG=
18/06/2022 10:30:00Z	 SAID34 WIJJ 181030	METAR WIJJ 181030Z 28003KT 9999 SCT017 30/23 Q1008 NOSIG=
18/06/2022 11:00:00Z	 SAID34 WIJJ 181100	METAR WIJJ 181100Z 28003KT 7000 SCT017 29/24 Q1009 NOSIG=
18/06/2022 11:30:00Z	 SAID34 WIJJ 181130	METAR WIJJ 181130Z 36006KT 7000 SCT017 29/24 Q1009 NOSIG=
18/06/2022 12:00:00Z	 SAID34 WIJJ 181200	METAR WIJJ 181200Z 34005KT 7000 SCT017 28/24 Q1009 NOSIG=
18/06/2022 12:30:00Z	 SAID34 WIJJ 181230	METAR WIJJ 181230Z 34003KT 8000 SCT017 28/24 Q1010 NOSIG=
18/06/2022 13:00:00Z	 SAID34 WIJJ 181300	METAR WIJJ 181300Z 02003KT 8000 FEW017 26/24 Q1010 NOSIG=
18/06/2022 13:30:00Z	 SAID34 WIJJ 181330	METAR WIJJ 181330Z 36004KT 7000 FEW017 26/24 Q1010 NOSIG=
18/06/2022 14:00:00Z	 SAID34 WIJJ 181400	METAR WIJJ 181400Z 33004KT 8000 FEW017 26/24 Q1010 NOSIG=
18/06/2022 14:30:00Z	 SAID34 WIJJ 181430	METAR WIJJ 181430Z 34003KT 7000 FEW017 26/24 Q1011 NOSIG=
18/06/2022 15:00:00Z	 SAID34 WIJJ 181500	METAR WIJJ 181500Z 35002KT 7000 FEW017 26/24 Q1011 NOSIG=
18/06/2022 15:30:00Z	 SAID34 WIJJ 181530	METAR WIJJ 181530Z 04002KT 7000 FEW017 26/24 Q1010 NOSIG=
18/06/2022 16:00:00Z	 SAID34 WIJJ 181600	METAR WIJJ 181600Z 00000KT 6000 SCT016 25/23 Q1010 NOSIG=
18/06/2022 16:30:00Z	 SAID34 WIJJ 181630	METAR WIJJ 181630Z 06001KT 6000 FEW016 25/23 Q1010 NOSIG=
18/06/2022 17:00:00Z	 SAID34 WIJJ 181700	METAR WIJJ 181700Z 01002KT 7000 FEW016 25/23 Q1010 NOSIG=
18/06/2022 17:30:00Z	 SAID34 WIJJ 181730	METAR WIJJ 181730Z 32002KT 8000 FEW016 25/23 Q1010 NOSIG=
18/06/2022 18:00:00Z	 SAID34 WIJJ 181800	METAR WIJJ 181800Z 02001KT 7000 FEW016 25/23 Q1010 NOSIG=
18/06/2022 18:30:00Z	 SAID34 WIJJ 181830	METAR WIJJ 181830Z 31004KT 8000 FEW016 25/23 Q1009 NOSIG=
18/06/2022 19:00:00Z	 SAID34 WIJJ 181900	METAR WIJJ 181900Z 27003KT 8000 FEW016 25/23 Q1009 NOSIG=
18/06/2022 19:30:00Z	 SAID34 WIJJ 181930	METAR WIJJ 181930Z 23001KT 8000 FEW016 25/23 Q1009 NOSIG=
18/06/2022 20:00:00Z	 SAID34 WIJJ 182000	METAR WIJJ 182000Z 20001KT 6000 SCT016 24/23 Q1009 NOSIG=
18/06/2022 20:30:00Z	 SAID34 WIJJ 182030	METAR WIJJ 182030Z 12001KT 5000 HZ SCT016 24/23 Q1009 NOSIG=
18/06/2022 21:00:00Z	 SAID34 WIJJ 182100	METAR WIJJ 182100Z 16003KT 4000 HZ SCT016 24/23 Q1009 NOSIG=
18/06/2022 21:30:00Z	 SAID34 WIJJ 182130	METAR WIJJ 182130Z 21002KT 4500 HZ SCT016 24/23 Q1009 NOSIG=
18/06/2022 22:00:00Z	 SAID34 WIJJ 182200	METAR WIJJ 182200Z 18001KT 4600 HZ SCT016 24/23 Q1009 NOSIG=
18/06/2022 22:30:00Z	 SAID34 WIJJ 182230	METAR WIJJ 182230Z 19002KT 4000 HZ SCT016 24/23 Q1009 NOSIG=
18/06/2022 23:00:00Z	 SAID34 WIJJ 182300	METAR WIJJ 182300Z 21001KT 3500 HZ SCT015 24/23 Q1009 NOSIG=
18/06/2022 23:30:00Z	 SAID34 WIJJ 182330	METAR WIJJ 182330Z 11001KT 2500 BR SCT015 24/23 Q1009 NOSIG=
19/06/2022 00:00:00Z	 SAID34 WIJJ 190000	METAR WIJJ 190000Z 00000KT 3000 BR SCT015 24/24 Q1010 NOSIG=
19/06/2022 00:30:00Z	 SAID34 WIJJ 190030	METAR WIJJ 190030Z 00000KT 2500 BR SCT015 24/24 Q1010 NOSIG=
19/06/2022 01:00:00Z	 SAID34 WIJJ 190100	METAR WIJJ 190100Z 00000KT 4000 HZ SCT015 25/25 Q1010 NOSIG=
19/06/2022 02:00:00Z	 SAID34 WIJJ 190200	METAR WIJJ 190200Z 00000KT 9999 SCT015 28/26 Q1010 NOSIG=
19/06/2022 02:30:00Z	 SAID34 WIJJ 190230	METAR WIJJ 190230Z 00000KT 9999 BKN012 28/26 Q1011 NOSIG=
19/06/2022 03:00:00Z	 SAID34 WIJJ 190300	METAR WIJJ 190300Z 14002KT 9999 BKN016 28/26 Q1010 NOSIG=
19/06/2022 03:30:00Z	 SAID34 WIJJ 190330	METAR WIJJ 190330Z 00000KT 9999 BKN015 28/26 Q1010 NOSIG=
19/06/2022 04:00:00Z	 SAID34 WIJJ 190400	METAR WIJJ 190400Z 20004KT 9999 FEW015 29/25 Q1010 NOSIG=
19/06/2022 04:30:00Z	 SAID34 WIJJ 190430	METAR WIJJ 190430Z 13004KT 9999 SCT016 30/25 Q1009 NOSIG=
19/06/2022 05:00:00Z	 SAID34 WIJJ 190500	METAR WIJJ 190500Z 11002KT 9999 BKN016 31/25 Q1009 NOSIG=
19/06/2022 05:30:00Z	 SAID34 WIJJ 190530	METAR WIJJ 190530Z 08002KT 9999 BKN016 31/25 Q1008 NOSIG=
19/06/2022 06:00:00Z	 SAID34 WIJJ 190600	METAR WIJJ 190600Z 00000KT 9999 BKN017 32/24 Q1008 NOSIG=
19/06/2022 06:30:00Z	 SAID34 WIJJ 190630	METAR WIJJ 190630Z 05003KT 9999 BKN016 32/25 Q1007 NOSIG=
19/06/2022 07:00:00Z	 SAID34 WIJJ 190700	METAR WIJJ 190700Z 19009G18KT 9999 SCT015CB BKN016 31/24 Q1007 NOSIG RMK CB TO SE-SW=
19/06/2022 07:30:00Z	 SAID34 WIJJ 190730	METAR WIJJ 190730Z 18009KT 9999 SCT015CB BKN016 29/26 Q1007 NOSIG RMK CB TO SE-SW=
19/06/2022 08:00:00Z	 SAID34 WIJJ 190800	METAR WIJJ 190800Z 18005KT 9999 SCT016 29/22 Q1006 NOSIG=
19/06/2022 08:30:00Z	 SAID34 WIJJ 190830	METAR WIJJ 190830Z 14005KT 9999 SCT016 28/25 Q1007 NOSIG=
19/06/2022 09:00:00Z	 SAID34 WIJJ 190900	METAR WIJJ 190900Z 16003KT 9999 SCT016 28/23 Q1007 NOSIG=
19/06/2022 09:30:00Z	 SAID34 WIJJ 190930	METAR WIJJ 190930Z 12003KT 9999 FEW018 27/24 Q1007 NOSIG=
19/06/2022 10:00:00Z	 SAID34 WIJJ 191000	METAR WIJJ 191000Z 10043KT 9999 FEW018 28/25 Q1007 NOSIG=
19/06/2022 10:30:00Z	 SAID34 WIJJ 191030	METAR WIJJ 191030Z 10003KT 9999 FEW018 26/24 Q1007 NOSIG=
19/06/2022 11:00:00Z	 SAID34 WIJJ 191100	METAR WIJJ 191100Z 12002KT 9999 FEW018 27/24 Q1008 NOSIG=
19/06/2022 12:00:00Z	 SAID34 WIJJ 191200	METAR WIJJ 191200Z 13001KT 8000 FEW018 26/24 Q1008 NOSIG=
19/06/2022 12:30:00Z	 SAID34 WIJJ 191230	METAR WIJJ 191230Z 15003KT 9999 FEW017 26/24 Q1009 NOSIG=
19/06/2022 13:00:00Z	 SAID34 WIJJ 191300	METAR WIJJ 191300Z 16003KT 9999 FEW017 26/24 Q1009 NOSIG=
19/06/2022 13:30:00Z	 SAID34 WIJJ 191330	METAR WIJJ 191330Z 17003KT 9999 FEW017 26/24 Q1009 NOSIG=
19/06/2022 14:00:00Z	 SAID34 WIJJ 191400	METAR WIJJ 191400Z 17003KT 9999 FEW017 26/24 Q1009 NOSIG=
19/06/2022 14:30:00Z	 SAID34 WIJJ 191430	METAR WIJJ 191430Z 16002KT 9999 FEW017 25/24 Q1009 NOSIG=
19/06/2022 15:00:00Z	 SAID34 WIJJ 191500	METAR WIJJ 191500Z 14003KT 9999 FEW017 25/24 Q1009 NOSIG=
19/06/2022 15:30:00Z	 SAID34 WIJJ 191530	METAR WIJJ 191530Z 16003KT 9999 FEW017 25/24 Q1009 NOSIG=
19/06/2022 16:00:00Z	 SAID34 WIJJ 191600	METAR WIJJ 191600Z 18002KT 9999 FEW017 25/24 Q1010 NOSIG=
19/06/2022 16:30:00Z	 SAID34 WIJJ 191630	METAR WIJJ 191630Z 18002KT 9999 FEW017 25/24 Q1010 NOSIG=
19/06/2022 17:00:00Z	 SAID34 WIJJ 191700	METAR WIJJ 191700Z 17002KT 9999 FEW017 25/23 Q1009 NOSIG=
19/06/2022 17:30:00Z	 SAID34 WIJJ 191730	METAR WIJJ 191730Z 18002KT 9999 FEW017 25/23 Q1009 NOSIG=
19/06/2022 18:00:00Z	 SAID34 WIJJ 191800	METAR WIJJ 191800Z 19003KT 9999 FEW017 25/23 Q1009 NOSIG=
19/06/2022 18:30:00Z	 SAID34 WIJJ 191830	METAR WIJJ 191830Z 19003KT 9999 FEW017 25/23 Q1009 NOSIG=
19/06/2022 19:00:00Z	 SAID34 WIJJ 191900	METAR WIJJ 191900Z 20003KT 9999 FEW017 24/23 Q1009 NOSIG=
19/06/2022 19:30:00Z	 SAID34 WIJJ 191930	METAR WIJJ 191930Z 20003KT 9999 FEW017 24/23 Q1008 NOSIG=
19/06/2022 20:00:00Z	 SAID34 WIJJ 192000	METAR WIJJ 192000Z 21003KT 9999 FEW017 24/23 Q1008 NOSIG=
19/06/2022 20:30:00Z	 SAID34 WIJJ 192030	METAR WIJJ 192030Z 21003KT 9999 FEW017 24/23 Q1008 NOSIG=
19/06/2022 21:00:00Z	 SAID34 WIJJ 192100	METAR WIJJ 192100Z 21003KT 9999 FEW017 24/23 Q1008 NOSIG=
19/06/2022 21:30:00Z	 SAID34 WIJJ 192130	METAR WIJJ 192130Z 24003KT 9999 FEW017 24/23 Q1008 NOSIG=
19/06/2022 22:00:00Z	 SAID34 WIJJ 192200	METAR WIJJ 192200Z 24004KT 8000 SCT017 24/23 Q1008 NOSIG=
19/06/2022 22:30:00Z	 SAID34 WIJJ 192230	METAR WIJJ 192230Z 25004KT 9999 SCT017 24/23 Q1008 NOSIG=
19/06/2022 23:00:00Z	 SAID34 WIJJ 192300	METAR WIJJ 192300Z 28003KT 9999 BKN017 24/23 Q1009 NOSIG=
19/06/2022 23:30:00Z	 SAID34 WIJJ 192330	METAR WIJJ 192330Z 26003KT 8000 SCT017 24/23 Q1009 NOSIG=
20/06/2022 00:00:00Z	 SAID34 WIJJ 200000	METAR WIJJ 200000Z 28002KT 8000 SCT017 24/23 Q1009 NOSIG=
20/06/2022 00:30:00Z	 SAID34 WIJJ 200030	METAR WIJJ 200030Z 26004KT 7000 FEW014 25/24 Q1009 NOSIG=
20/06/2022 01:00:00Z	 SAID34 WIJJ 200100	METAR WIJJ 200100Z 27004KT 8000 FEW016 25/24 Q1010 NOSIG=
20/06/2022 01:30:00Z	 SAID34 WIJJ 200130	METAR WIJJ 200130Z 23003KT 9999 FEW016 26/24 Q1010 NOSIG=
20/06/2022 02:00:00Z	 SAID34 WIJJ 200200	METAR WIJJ 200200Z 21003KT 9999 FEW016 27/25 Q1010 NOSIG=
20/06/2022 02:30:00Z	 SAID34 WIJJ 200230	METAR WIJJ 200230Z 19003KT 150V220 9999 FEW016 27/25 Q1010 NOSIG=
20/06/2022 03:00:00Z	 SAID34 WIJJ 200300	METAR WIJJ 200300Z 15003KT 9999 FEW016 27/25 Q1009 NOSIG=
20/06/2022 03:30:00Z	 SAID34 WIJJ 200330	METAR WIJJ 200330Z 15004KT 9999 FEW016 28/25 Q1009 NOSIG=
20/06/2022 04:00:00Z	 SAID34 WIJJ 200400	METAR WIJJ 200400Z 15004KT 9999 FEW015 29/26 Q1009 NOSIG=
20/06/2022 04:30:00Z	 SAID34 WIJJ 200430	METAR WIJJ 200430Z 16005KT 130V200 9999 SCT015 30/26 Q1008 NOSIG=
20/06/2022 05:00:00Z	 SAID34 WIJJ 200500	METAR WIJJ 200500Z 15005KT 120V180 9999 SCT016 30/26 Q1008 NOSIG=
20/06/2022 05:30:00Z	 SAID34 WIJJ 200530	METAR WIJJ 200530Z 14003KT 090V180 9999 BKN016 31/26 Q1008 NOSIG=
20/06/2022 06:00:00Z	 SAID34 WIJJ 200600	METAR WIJJ 200600Z 13005KT 090V180 9999 BKN016 31/25 Q1007 NOSIG=
20/06/2022 06:30:00Z	 SAID34 WIJJ 200630	METAR WIJJ 200630Z 11004KT 080V150 9999 BKN016 32/24 Q1007 NOSIG=
20/06/2022 07:00:00Z	 SAID34 WIJJ 200700	METAR WIJJ 200700Z 13005KT 9999 SCT016 31/24 Q1006 NOSIG=
20/06/2022 07:30:00Z	 SAID34 WIJJ 200730	METAR WIJJ 200730Z 14003KT 100V200 9999 FEW015CB SCT016 33/24 Q1006 NOSIG RMK CB TO NE AND SE=
20/06/2022 08:00:00Z	 SAID34 WIJJ 200800	METAR WIJJ 200800Z 11007KT 060V160 9999 VCTS FEW013CB BKN015 30/24 Q1006 NOSIG RMK CB TO SE=
20/06/2022 09:00:00Z	 SAID34 WIJJ 200900	METAR WIJJ 200900Z 05006KT 9999 TS FEW014CB BKN015 27/25 Q1006 NOSIG RMK CB ALQDS=
20/06/2022 09:30:00Z	 SAID34 WIJJ 200930	METAR WIJJ 200930Z 07004KT 020V110 9999 TS FEW014 BKN015 27/25 Q1006 NOSIG RMK CB TO SE-S=
20/06/2022 10:00:00Z	 SAID34 WIJJ 201000	METAR WIJJ 201000Z 14003KT 9999 SCT016 27/25 Q1006 NOSIG=
20/06/2022 10:30:00Z	 SAID34 WIJJ 201030	METAR WIJJ 201030Z 15004KT 9999 SCT016 27/25 Q1006 NOSIG=
20/06/2022 11:00:00Z	 SAID34 WIJJ 201100	METAR WIJJ 201100Z 13003KT 9999 SCT015 26/25 Q1006 NOSIG=
20/06/2022 11:30:00Z	 SAID34 WIJJ 201130	METAR WIJJ 201130Z 18002KT 7000 SCT015 26/24 Q1007 NOSIG=
20/06/2022 12:00:00Z	 SAID34 WIJJ 201200	METAR WIJJ 201200Z 00000KT 7000 SCT016 26/25 Q1007 NOSIG=
20/06/2022 12:31:00Z	 SAID34 WIJJ 201231	METAR WIJJ 201231Z 19002KT 4800 HZ SCT017 25/24 Q1007 NOSIG=
20/06/2022 13:00:00Z	 SAID34 WIJJ 201300	METAR WIJJ 201300Z 14002KT 8000 FEW016 26/24 Q1007 NOSIG=
20/06/2022 13:30:00Z	 SAID34 WIJJ 201330	METAR WIJJ 201330Z 14002KT 6000 FEW017 25/24 Q1008 NOSIG=
20/06/2022 14:00:00Z	 SAID34 WIJJ 201400	METAR WIJJ 201400Z VRB03KT 7000 SCT017 25/24 Q1008 NOSIG=
20/06/2022 15:00:00Z	 SAID34 WIJJ 201500	METAR WIJJ 201500Z 15002KT 8000 SCT017 25/23 Q1009 NOSIG=
20/06/2022 15:30:00Z	 SAID34 WIJJ 201530	METAR WIJJ 201530Z 15002KT 9999 SCT017 25/24 Q1009 NOSIG=
20/06/2022 16:00:00Z	 SAID34 WIJJ 201600	METAR WIJJ 201600Z 17003KT 8000 SCT017 25/23 Q1008 NOSIG=
20/06/2022 16:30:00Z	 SAID34 WIJJ 201630	METAR WIJJ 201630Z 16002KT 7000 SCT017 24/23 Q1008 NOSIG=
20/06/2022 17:00:00Z	 SAID34 WIJJ 201700	METAR WIJJ 201700Z 14003KT 6000 SCT018 24/23 Q1008 NOSIG=
20/06/2022 17:30:00Z	 SAID34 WIJJ 201730	METAR WIJJ 201730Z 14003KT 6000 SCT018 24/23 Q1007 NOSIG=
20/06/2022 18:00:00Z	 SAID34 WIJJ 201800	METAR WIJJ 201800Z 14003KT 8000 SCT018 24/23 Q1007 NOSIG=
20/06/2022 21:00:00Z	 SAID34 WIJJ 202100	METAR WIJJ 202100Z 18002KT 7000 FEW017 24/23 Q1007 NOSIG=
20/06/2022 22:00:00Z	 SAID34 WIJJ 202200	METAR WIJJ 202200Z 19002KT 6000 FEW018 24/23 Q1007 NOSIG=
20/06/2022 22:30:00Z	 SAID34 WIJJ 202230	METAR WIJJ 202230Z 20002KT 4400 HZ FEW018 24/23 Q1007 NOSIG=
20/06/2022 23:00:00Z	 SAID34 WIJJ 202300	METAR WIJJ 202300Z 25003KT 7000 FEW017 24/23 Q1007 NOSIG=
20/06/2022 23:30:00Z	 SAID34 WIJJ 202330	METAR WIJJ 202330Z 23002KT 7000 FEW017 24/23 Q1008 NOSIG=
21/06/2022 00:00:00Z	 SAID34 WIJJ 210000	METAR WIJJ 210000Z 25003KT 6000 FEW017 24/23 Q1008 NOSIG=
21/06/2022 00:30:00Z	 SAID34 WIJJ 210030	METAR WIJJ 210030Z 20004KT 5000 HZ FEW017 24/23 Q1008 NOSIG=
21/06/2022 01:00:00Z	 SAID34 WIJJ 210100	METAR WIJJ 210100Z 21004KT 7000 FEW017 25/23 Q1009 NOSIG=
21/06/2022 01:30:00Z	 SAID34 WIJJ 210130	METAR WIJJ 210130Z 17003KT 8000 FEW015 25/23 Q1009 NOSIG=
21/06/2022 02:00:00Z	 SAID34 WIJJ 210200	METAR WIJJ 210200Z 15004KT 9999 FEW015 26/24 Q1009 NOSIG=
21/06/2022 02:30:00Z	 SAID34 WIJJ 210230	METAR WIJJ 210230Z 15004KT 9999 FEW013 27/24 Q1009 NOSIG=
21/06/2022 03:00:00Z	 SAID34 WIJJ 210300	METAR WIJJ 210300Z 17005KT 9999 FEW015 28/25 Q1009 NOSIG=
21/06/2022 03:30:00Z	 SAID34 WIJJ 210330	METAR WIJJ 210330Z 16005KT 9999 FEW016 29/25 Q1009 NOSIG=
21/06/2022 04:00:00Z	 SAID34 WIJJ 210400	METAR COR WIJJ 210400Z 14005KT 9999 SCT016 29/25 Q1009 NOSIG=
21/06/2022 04:30:00Z	 SAID34 WIJJ 210430	METAR WIJJ 210430Z 14006KT 9999 SCT016 30/25 Q1008 NOSIG=
21/06/2022 05:00:00Z	 SAID34 WIJJ 210500	METAR WIJJ 210500Z 13007KT 9999 SCT016 31/24 Q1007 NOSIG=
21/06/2022 05:30:00Z	 SAID34 WIJJ 210530	METAR WIJJ 210530Z 12005KT 9999 SCT015 32/25 Q1007 NOSIG=
21/06/2022 06:00:00Z	 SAID34 WIJJ 210600	METAR WIJJ 210600Z 13006KT 9999 SCT016 31/24 Q1006 NOSIG=
21/06/2022 06:30:00Z	 SAID34 WIJJ 210630	METAR WIJJ 210630Z 16006KT 130V200 9999 BKN016 31/24 Q1006 NOSIG=
21/06/2022 07:00:00Z	 SAID34 WIJJ 210700	METAR WIJJ 210700Z 30004KT 260V330 9999 -RA FEW010CB BKN010 28/26 Q1005 NOSIG RMK CB TO N-E=
21/06/2022 07:30:00Z	 SAID34 WIJJ 210730	METAR WIJJ 210730Z 24005KT 9999 BKN015 28/26 Q1005 NOSIG=
21/06/2022 08:00:00Z	 SAID34 WIJJ 210800	METAR WIJJ 210800Z 15006G16KT 090V240 9999 FEW010CB BKN010 28/26 Q1005 NOSIG RMK CB TO N AND S=
21/06/2022 08:30:00Z	 SAID34 WIJJ 210830	METAR WIJJ 210830Z 11008KT 0900 R31/1400 RA BKN006 25/24 Q1006 NOSIG=
21/06/2022 09:00:00Z	 SAID34 WIJJ 210900	METAR WIJJ 210900Z 28001KT 1100 R31/1500 RA BKN014 24/24 Q1006 NOSIG=
21/06/2022 09:30:00Z	 SAID34 WIJJ 210930	METAR WIJJ 210930Z 36003KT 310V040 8000 -RA FEW014CB SCT015 25/24 Q1006 NOSIG RMK CB TO ALQDS=
21/06/2022 10:00:00Z	 SAID34 WIJJ 211000	METAR WIJJ 211000Z 11002KT 3100 -RA FEW015CB SCT016 25/25 Q1006 NOSIG RMK CB TO W=
21/06/2022 10:30:00Z	 SAID34 WIJJ 211030	METAR WIJJ 211030Z 11005KT 4200 -RA FEW005 SCT014 25/25 Q1007 NOSIG=
21/06/2022 11:00:00Z	 SAID34 WIJJ 211100	METAR WIJJ 211100Z 11007KT 9999 -RA SCT014 25/24 Q1008 NOSIG=
21/06/2022 11:30:00Z	 SAID34 WIJJ 211130	METAR WIJJ 211130Z 10008KT 9999 SCT016 24/24 Q1008 NOSIG RMK RERA=
21/06/2022 12:00:00Z	 SAID34 WIJJ 211200	METAR WIJJ 211200Z 10005KT 9999 FEW015CB SCT016 24/24 Q1008 NOSIG RMK CB TO NE AND E=
21/06/2022 12:30:00Z	 SAID34 WIJJ 211230	METAR WIJJ 211230Z 12004KT 9999 SCT016 24/24 Q1009 NOSIG=
21/06/2022 13:00:00Z	 SAID34 WIJJ 211300	METAR WIJJ 211300Z 10004KT 9999 -RA FEW013CB BKN014 24/24 Q1009 NOSIG RMK CB TO E AND S=
21/06/2022 13:30:00Z	 SAID34 WIJJ 211330	METAR WIJJ 211330Z 13002KT 9999 BKN014 24/24 Q1009 NOSIG=
21/06/2022 14:00:00Z	 SAID34 WIJJ 211400	METAR WIJJ 211400Z 13003KT 9999 BKN015 24/24 Q1009 NOSIG=
21/06/2022 14:30:00Z	 SAID34 WIJJ 211430	METAR WIJJ 211430Z 00000KT 9999 -RA SCT015 24/24 Q1009 NOSIG=
21/06/2022 15:00:00Z	 SAID34 WIJJ 211500	METAR WIJJ 211500Z 00000KT 9999 BKN015 24/24 Q1009 NOSIG=
21/06/2022 15:30:00Z	 SAID34 WIJJ 211530	METAR WIJJ 211530Z 21003KT 9999 BKN160 24/24 Q1009 NOSIG=
21/06/2022 16:00:00Z	 SAID34 WIJJ 211600	METAR WIJJ 211600Z 20002KT 9999 BKN015 24/24 Q1009 NOSIG=
21/06/2022 16:30:00Z	 SAID34 WIJJ 211630	METAR WIJJ 211630Z 22003KT 9999 BKN015 24/23 Q1009 NOSIG=
21/06/2022 17:00:00Z	 SAID34 WIJJ 211700	METAR WIJJ 211700Z 22003KT 9999 -RA BKN015 24/23 Q1009 NOSIG=
21/06/2022 17:30:00Z	 SAID34 WIJJ 211730	METAR WIJJ 211730Z 22004KT 9999 -RA BKN015 24/23 Q1009 NOSIG=
21/06/2022 18:30:00Z	 SAID34 WIJJ 211830	METAR WIJJ 211830Z 23004KT 5000 HZ BKN015 24/23 Q1008 NOSIG RMK RERA=
21/06/2022 19:00:00Z	 SAID34 WIJJ 211900	METAR WIJJ 211900Z 24004KT 5000 HZ BKN015 24/23 Q1008 NOSIG=
21/06/2022 19:30:00Z	 SAID34 WIJJ 211930	METAR WIJJ 211930Z 23003KT 6000 BKN015 24/23 Q1008 NOSIG=
21/06/2022 20:00:00Z	 SAID34 WIJJ 212000	METAR WIJJ 212000Z 22003KT 5000 -RA BKN015 24/23 Q1008 NOSIG=
21/06/2022 20:30:00Z	 SAID34 WIJJ 212030	METAR WIJJ 212030Z 21003KT 5000 -RA BKN015 24/23 Q1008 NOSIG=
21/06/2022 21:00:00Z	 SAID34 WIJJ 212100	METAR WIJJ 212100Z 18002KT 6000 FEW016 23/23 Q1007 NOSIG=
21/06/2022 21:30:00Z	 SAID34 WIJJ 212130	METAR WIJJ 212130Z 00000KT 8000 FEW016 23/23 Q1007 NOSIG=
21/06/2022 22:00:00Z	 SAID34 WIJJ 212200	METAR WIJJ 212200Z 00000KT 7000 SCT015 23/23 Q1007 NOSIG=
21/06/2022 22:30:00Z	 SAID34 WIJJ 212230	METAR WIJJ 212230Z 09002KT 7000 FEW015 23/23 Q1008 NOSIG=
21/06/2022 23:00:00Z	 SAID34 WIJJ 212300	METAR WIJJ 212300Z 00000KT 4000 HZ FEW016 23/23 Q1008 NOSIG=
21/06/2022 23:30:00Z	 SAID34 WIJJ 212330	METAR WIJJ 212330Z 00000KT 4000 HZ FEW016 23/23 Q1009 NOSIG=
22/06/2022 00:00:00Z	 SAID34 WIJJ 220000	METAR WIJJ 220000Z 02002KT 4000 HZ FEW016 23/23 Q1009 NOSIG=
22/06/2022 00:30:00Z	 SAID34 WIJJ 220030	METAR COR WIJJ 220030Z 02001KT 1500 R31/1600 BR FEW017CB 24/24 Q1009 NOSIG RMK CB TO NE=
22/06/2022 01:00:00Z	 SAID34 WIJJ 220100	METAR WIJJ 220100Z 36002KT 3300 BR FEW005 24/24 Q1010 NOSIG=
22/06/2022 01:30:00Z	 SAID34 WIJJ 220130	METAR WIJJ 220130Z 02001KT 2500 HZ FEW008 25/24 Q1010 NOSIG=
22/06/2022 02:00:00Z	 SAID34 WIJJ 220200	METAR WIJJ 220200Z 10001KT 3000 HZ NSC 25/25 Q1011 NOSIG=
22/06/2022 02:30:00Z	 SAID34 WIJJ 220230	METAR WIJJ 220230Z 19002KT 5000 HZ NSC 26/25 Q1010 NOSIG=
22/06/2022 03:00:00Z	 SAID34 WIJJ 220300	METAR WIJJ 220300Z 16003KT 8000 NSC 27/25 Q1010 NOSIG=
22/06/2022 03:30:00Z	 SAID34 WIJJ 220330	METAR WIJJ 220330Z 16005KT 130V190 9999 FEW014 28/26 Q1010 NOSIG=
22/06/2022 04:00:00Z	 SAID34 WIJJ 220400	METAR WIJJ 220400Z 14005KT 9999 SCT015 28/26 Q1010 NOSIG=
22/06/2022 04:30:00Z	 SAID34 WIJJ 220430	METAR WIJJ 220430Z 13006KT 9999 SCT015 30/26 Q1010 NOSIG=
22/06/2022 05:00:00Z	 SAID34 WIJJ 220500	METAR WIJJ 220500Z 13006KT 9999 SCT015 31/25 Q1009 NOSIG=
22/06/2022 05:30:00Z	 SAID34 WIJJ 220530	METAR WIJJ 220530Z 13007KT 9999 SCT015 30/25 Q1009 NOSIG=
22/06/2022 06:00:00Z	 SAID34 WIJJ 220600	METAR WIJJ 220600Z 14004KT 9999 SCT015 30/25 Q1008 NOSIG=
22/06/2022 06:30:00Z	 SAID34 WIJJ 220630	METAR WIJJ 220630Z 11007KT 9999 SCT016 30/25 Q1008 NOSIG=
22/06/2022 07:00:00Z	 SAID34 WIJJ 220700	METAR WIJJ 220700Z 10005KT 9999 SCT016 30/24 Q1007 NOSIG=
22/06/2022 07:30:00Z	 SAID34 WIJJ 220730	METAR WIJJ 220730Z 11004KT 9999 FEW016 30/25 Q1007 NOSIG=
22/06/2022 08:00:00Z	 SAID34 WIJJ 220800	METAR WIJJ 220800Z 11004KT 9999 FEW016 30/24 Q1007 NOSIG=
22/06/2022 08:30:00Z	 SAID34 WIJJ 220830	METAR WIJJ 220830Z 11004KT 9999 FEW016 30/24 Q1007 NOSIG=
22/06/2022 09:00:00Z	 SAID34 WIJJ 220900	METAR WIJJ 220900Z 07004KT 9999 FEW016 30/24 Q1007 NOSIG=
22/06/2022 09:30:00Z	 SAID34 WIJJ 220930	METAR WIJJ 220930Z 06005KT 9999 FEW016 30/24 Q1007 NOSIG=
22/06/2022 10:00:00Z	 SAID34 WIJJ 221000	METAR WIJJ 221000Z 06003KT 9999 FEW015CB FEW016 30/25 Q1007 NOSIG RMK CB TO SE-SW=
22/06/2022 10:30:00Z	 SAID34 WIJJ 221030	METAR WIJJ 221030Z 10004KT 9999 FEW015CB FEW016 30/25 Q1007 NOSIG RMK CB TO SE-SW=
22/06/2022 11:00:00Z	 SAID34 WIJJ 221100	METAR WIJJ 221100Z 15007KT 8000 -RA FEW012CB BKN013 25/24 Q1008 NOSIG RMK CB TO E AND W=
22/06/2022 11:30:00Z	 SAID34 WIJJ 221130	METAR WIJJ 221130Z 15005KT 9999 FEW014CB BKN015 24/24 Q1009 NOSIG RMK CB TO E AND NW=
22/06/2022 12:00:00Z	 SAID34 WIJJ 221200	METAR WIJJ 221200Z 13003KT 9999 FEW014CB SCT015 24/23 Q1009 NOSIG RMK CB TO NE AND NW=
22/06/2022 12:30:00Z	 SAID34 WIJJ 221230	METAR WIJJ 221230Z 19004KT 9999 VCTS FEW011CB SCT011 24/24 Q1010 NOSIG RMK CB TO W=
22/06/2022 13:00:00Z	 SAID34 WIJJ 221300	METAR WIJJ 221300Z 19003KT 160V220 9999 SCT014 24/24 Q1010 NOSIG RMK RERA=
22/06/2022 13:30:00Z	 SAID34 WIJJ 221330	METAR WIJJ 221330Z 23001KT 9999 SCT014 24/24 Q1010 NOSIG RMK RERA=
22/06/2022 14:00:00Z	 SAID34 WIJJ 221400	METAR WIJJ 221400Z 16002KT 9999 FEW014 24/24 Q1010 NOSIG=
22/06/2022 14:30:00Z	 SAID34 WIJJ 221430	METAR WIJJ 221430Z AUTO 23002KT 8000 NCD 24/24 Q1010=
22/06/2022 15:00:00Z	 SAID34 WIJJ 221500	METAR WIJJ 221500Z 23001KT 9000 FEW015 24/24 Q1011 NOSIG=
22/06/2022 15:30:00Z	 SAID34 WIJJ 221530	METAR WIJJ 221530Z 21002KT 5000 HZ FEW017 24/24 Q1011 NOSIG=
22/06/2022 16:00:00Z	 SAID34 WIJJ 221600	METAR WIJJ 221600Z 20001KT 4700 BR FEW017 24/24 Q1011 NOSIG=
22/06/2022 16:30:00Z	 SAID34 WIJJ 221630	METAR WIJJ 221630Z 25002KT 4100 BR FEW017 24/24 Q1011 NOSIG=
22/06/2022 17:00:00Z	 SAID34 WIJJ 221700	METAR WIJJ 221700Z 23002KT 4000 BR SCT014 24/24 Q1011 NOSIG=
22/06/2022 17:30:00Z	 SAID34 WIJJ 221730	METAR WIJJ 221730Z 23003KT 6000 FEW015CB 24/23 Q1011 NOSIG RMK CB TO N AND NW=
22/06/2022 18:00:00Z	 SAID34 WIJJ 221800	METAR WIJJ 221800Z 25002KT 6000 FEW015CB 24/23 Q1010 NOSIG RMK CB TO N AND S=
22/06/2022 18:30:00Z	 SAID34 WIJJ 221830	METAR WIJJ 221830Z 23003KT 5000 BR FEW015CB 23/23 Q1010 NOSIG RMK CB TO E AND NW=
22/06/2022 19:00:00Z	 SAID34 WIJJ 221900	METAR WIJJ 221900Z 22002KT 5000 BR FEW015CB 23/23 Q1010 NOSIG RMK CB TO NW=
22/06/2022 19:30:00Z	 SAID34 WIJJ 221930	METAR WIJJ 221930Z 21002KT 6000 FEW015CB 23/23 Q1009 NOSIG RMK CB TO E=
22/06/2022 20:00:00Z	 SAID34 WIJJ 222000	METAR WIJJ 222000Z 23002KT 7000 FEW016 23/23 Q1009 NOSIG=
22/06/2022 20:30:00Z	 SAID34 WIJJ 222030	METAR WIJJ 222030Z 22002KT 9000 FEW015 23/23 Q1009 NOSIG=
22/06/2022 21:00:00Z	 SAID34 WIJJ 222100	METAR WIJJ 222100Z 18002KT 9000 FEW016 23/23 Q1010 NOSIG=
22/06/2022 21:30:00Z	 SAID34 WIJJ 222130	METAR WIJJ 222130Z 17003KT 130V200 9999 FEW017 23/23 Q1010 NOSIG=
22/06/2022 22:00:00Z	 SAID34 WIJJ 222200	METAR WIJJ 222200Z 19003KT 9999 FEW016CB 23/23 Q1010 NOSIG RMK CB TO E=
22/06/2022 22:30:00Z	 SAID34 WIJJ 222230	METAR WIJJ 222230Z 18002KT 9000 FEW016 23/23 Q1010 NOSIG=
22/06/2022 23:00:00Z	 SAID34 WIJJ 222300	METAR WIJJ 222300Z 17002KT 6000 SCT015 23/23 Q1010 NOSIG=
22/06/2022 23:30:00Z	 SAID34 WIJJ 222330	METAR WIJJ 222330Z 15001KT 4300 BR FEW016 23/23 Q1010 NOSIG=
23/06/2022 00:00:00Z	 SAID34 WIJJ 230000	METAR WIJJ 230000Z 21002KT 3100 BR NSC 23/23 Q1010 NOSIG=
23/06/2022 00:30:00Z	 SAID34 WIJJ 230030	METAR WIJJ 230030Z 24003KT 4700 HZ SCT016 24/23 Q1011 NOSIG=
23/06/2022 01:00:00Z	 SAID34 WIJJ 230100	METAR WIJJ 230100Z 20002KT 4700 -DZ SCT016 24/23 Q1011 NOSIG=
23/06/2022 01:30:00Z	 SAID34 WIJJ 230130	METAR WIJJ 230130Z 20003KT 9999 SCT017 25/24 Q1012 NOSIG=
23/06/2022 02:00:00Z	 SAID34 WIJJ 230200	METAR WIJJ 230200Z 21003KT 9999 FEW017 25/24 Q1012 NOSIG=
23/06/2022 02:30:00Z	 SAID34 WIJJ 230230	METAR WIJJ 230230Z 19008KT 9999 FEW017 26/24 Q1011 NOSIG=
23/06/2022 03:00:00Z	 SAID34 WIJJ 230300	METAR WIJJ 230300Z 17006KT 9999 FEW017 27/24 Q1011 NOSIG=
23/06/2022 04:00:00Z	 SAID34 WIJJ 230400	METAR WIJJ 230400Z 18005KT 9999 SCT015 29/25 Q1010 NOSIG=
23/06/2022 04:30:00Z	 SAID34 WIJJ 230430	METAR WIJJ 230430Z 14004KT 9999 BKN014 30/25 Q1010 NOSIG=
23/06/2022 05:00:00Z	 SAID34 WIJJ 230500	METAR WIJJ 230500Z 16005KT 9999 SCT015 30/24 Q1009 NOSIG=
23/06/2022 05:30:00Z	 SAID34 WIJJ 230530	METAR WIJJ 230530Z 14005KT 9999 BKN014 30/24 Q1009 NOSIG=
23/06/2022 06:30:00Z	 SAID34 WIJJ 230630	METAR WIJJ 230630Z 12007KT 9999 SCT017 31/24 Q1008 NOSIG=
23/06/2022 07:00:00Z	 SAID34 WIJJ 230700	METAR WIJJ 230700Z 12007KT 9999 SCT017 31/23 Q1007 NOSIG=
23/06/2022 07:30:00Z	 SAID34 WIJJ 230730	METAR WIJJ 230730Z 11008KT 9999 SCT017 31/24 Q1007 NOSIG=
23/06/2022 08:00:00Z	 SAID34 WIJJ 230800	METAR WIJJ 230800Z 12008KT 9999 VCTS FEW015CB SCT016 30/25 Q1007 NOSIG RMK CB TO N AND S=
23/06/2022 08:30:00Z	 SAID34 WIJJ 230830	METAR WIJJ 230830Z 12013KT 9999 VCTS FEW013CB BKN014 28/25 Q1007 NOSIG RMK CB TO SE=
23/06/2022 09:00:00Z	 SAID34 WIJJ 230900	METAR WIJJ 230900Z 13005KT 4000 -RA FEW012 BKN013 25/24 Q1008 BECMG 6000 -RA RMK CB TO N AND W=
23/06/2022 09:30:00Z	 SAID34 WIJJ 230930	METAR WIJJ 230930Z 02003KT 9999 FEW015CB SCT016 25/24 Q1008 NOSIG RMK CB TO NW=
23/06/2022 10:00:00Z	 SAID34 WIJJ 231000	METAR WIJJ 231000Z 07003KT 7000 -RA FEW015CB SCT016 25/24 Q1008 NOSIG RMK CB TO NW=
23/06/2022 10:30:00Z	 SAID34 WIJJ 231030	METAR WIJJ 231030Z 05004KT 7000 -RA FEW015CB BKN016 25/24 Q1009 NOSIG RMK CB TO NE=
23/06/2022 11:00:00Z	 SAID34 WIJJ 231100	METAR WIJJ 231100Z 36003KT 5000 -RA FEW015CB BKN016 25/24 Q1010 NOSIG RMK CB TO N=
23/06/2022 11:30:00Z	 SAID34 WIJJ 231130	METAR WIJJ 231130Z 05003KT 5000 -RA FEW015CB BKN016 25/24 Q1010 NOSIG RMK CB TO N=
23/06/2022 12:00:00Z	 SAID34 WIJJ 231200	METAR WIJJ 231200Z 06002KT 9999 BKN015 25/24 Q1010 NOSIG RMK RERA=
23/06/2022 12:30:00Z	 SAID34 WIJJ 231230	METAR WIJJ 231230Z 34002KT 9999 BKN013 25/24 Q1010 NOSIG=
23/06/2022 13:00:00Z	 SAID34 WIJJ 231300	METAR WIJJ 231300Z 31003KT 9999 SCT014 25/24 Q1011 NOSIG=
23/06/2022 13:30:00Z	 SAID34 WIJJ 231330	METAR WIJJ 231330Z 28002KT 9999 SCT014 25/24 Q1011 NOSIG=
23/06/2022 14:00:00Z	 SAID34 WIJJ 231400	METAR WIJJ 231400Z 26002KT 7000 FEW014 25/24 Q1011 NOSIG=
23/06/2022 14:30:00Z	 SAID34 WIJJ 231430	METAR WIJJ 231430Z 24002KT 7000 FEW015 25/24 Q1011 NOSIG=
23/06/2022 15:00:00Z	 SAID34 WIJJ 231500	METAR WIJJ 231500Z 20002KT 5000 HZ FEW015 25/24 Q1011 NOSIG=
23/06/2022 15:30:00Z	 SAID34 WIJJ 231530	METAR WIJJ 231530Z 21002KT 5000 HZ FEW015 25/24 Q1011 NOSIG=
23/06/2022 16:00:00Z	 SAID34 WIJJ 231600	METAR WIJJ 231600Z 20002KT 4000 HZ FEW015 24/24 Q1011 NOSIG=
23/06/2022 16:30:00Z	 SAID34 WIJJ 231630	METAR WIJJ 231630Z 24001KT 4000 HZ FEW015 24/24 Q1011 NOSIG=
23/06/2022 17:00:00Z	 SAID34 WIJJ 231700	METAR WIJJ 231700Z 25003KT 4000 BR FEW015 24/24 Q1011 NOSIG=
23/06/2022 17:30:00Z	 SAID34 WIJJ 231730	METAR WIJJ 231730Z 27003KT 4000 BR FEW015 24/24 Q1011 NOSIG=
23/06/2022 18:00:00Z	 SAID34 WIJJ 231800	METAR WIJJ 231800Z 26003KT 5000 -RA SCT013 24/24 Q1010 NOSIG=
23/06/2022 18:30:00Z	 SAID34 WIJJ 231830	METAR WIJJ 231830Z 26003KT 4500 BR FEW014 24/24 Q1009 RERA NOSIG=
23/06/2022 19:00:00Z	 SAID34 WIJJ 231900	METAR WIJJ 231900Z 23004KT 5000 BR FEW015 24/24 Q1009 NOSIG=
23/06/2022 19:30:00Z	 SAID34 WIJJ 231930	METAR WIJJ 231930Z 24004KT 5000 BR FEW015 24/24 Q1009 NOSIG=
23/06/2022 20:00:00Z	 SAID34 WIJJ 232000	METAR WIJJ 232000Z 24005KT 4000 BR SCT015 23/23 Q1009 NOSIG=
23/06/2022 20:30:00Z	 SAID34 WIJJ 232030	METAR WIJJ 232030Z 23003KT 3500 BR SCT010 23/23 Q1008 NOSIG=
23/06/2022 21:00:00Z	 SAID34 WIJJ 232100	METAR WIJJ 232100Z 23003KT 2800 BR BKN010 23/23 Q1009 NOSIG=
23/06/2022 21:30:00Z	 SAID34 WIJJ 232130	METAR WIJJ 232130Z 22003KT 1300 BR BKN010 23/23 Q1008 NOSIG=
23/06/2022 22:00:00Z	 SAID34 WIJJ 232200	METAR WIJJ 232200Z 19003KT 0600 FG BKN010 23/23 Q1009 NOSIG=
23/06/2022 22:30:00Z	 SAID34 WIJJ 232230	METAR WIJJ 232230Z 19003KT 1200 BR BKN010 23/23 Q1009 NOSIG=
23/06/2022 23:00:00Z	 SAID34 WIJJ 232300	METAR WIJJ 232300Z 23003KT 1600 BR BKN010 23/23 Q1009 NOSIG=
23/06/2022 23:30:00Z	 SAID34 WIJJ 232330	METAR WIJJ 232330Z 19002KT 1400 BR BKN010 23/23 Q1009 NOSIG=
24/06/2022 00:30:00Z	 SAID34 WIJJ 240030	METAR WIJJ 240030Z 18002KT 4000 HZ BKN010 24/24 Q1010 NOSIG=
24/06/2022 01:00:00Z	 SAID34 WIJJ 240100	METAR WIJJ 240100Z 22003KT 5000 HZ OVC008 24/24 Q1011 NOSIG=
24/06/2022 01:30:00Z	 SAID34 WIJJ 240130	METAR WIJJ 240130Z 21002KT 4000 HZ OVC008 24/24 Q1011 NOSIG=
24/06/2022 02:00:00Z	 SAID34 WIJJ 240200	METAR WIJJ 240200Z 21002KT 5000 HZ BKN010 25/24 Q1011 NOSIG=
24/06/2022 02:30:00Z	 SAID34 WIJJ 240230	METAR WIJJ 240230Z 17003KT 5000 HZ BKN012 25/25 Q1011 NOSIG=
24/06/2022 03:00:00Z	 SAID34 WIJJ 240300	METAR WIJJ 240300Z 19003KT 150V210 9999 BKN012 26/25 Q1011 NOSIG=
24/06/2022 03:30:00Z	 SAID34 WIJJ 240330	METAR WIJJ 240330Z 16004KT 140V200 9999 BKN012 27/25 Q1011 NOSIG=
24/06/2022 04:00:00Z	 SAID34 WIJJ 240400	METAR WIJJ 240400Z 16003KT 120V200 9999 BKN012 28/26 Q1010 NOSIG=
24/06/2022 04:30:00Z	 SAID34 WIJJ 240430	METAR WIJJ 240430Z 17004KT 140V200 9999 BKN012 28/26 Q1010 NOSIG=
24/06/2022 05:00:00Z	 SAID34 WIJJ 240500	METAR WIJJ 240500Z 14004KT 110V170 9999 BKN014 29/26 Q1009 NOSIG=
24/06/2022 05:30:00Z	 SAID34 WIJJ 240530	METAR WIJJ 240530Z 13003KT 9999 BKN014 29/26 Q1009 NOSIG=
24/06/2022 06:00:00Z	 SAID34 WIJJ 240600	METAR WIJJ 240600Z 13004KT 9999 BKN014 31/25 Q1008 NOSIG=
24/06/2022 06:30:00Z	 SAID34 WIJJ 240630	METAR WIJJ 240630Z 18004KT 9999 BKN014 30/26 Q1008 NOSIG=
24/06/2022 07:00:00Z	 SAID34 WIJJ 240700	METAR WIJJ 240700Z 16005KT 9999 BKN014 30/25 Q1007 NOSIG=
24/06/2022 07:30:00Z	 SAID34 WIJJ 240730	METAR WIJJ 240730Z 14004KT 8000 -RA FEW015CB BKN016 27/24 Q1007 NOSIG RMK CB TO E-S=
24/06/2022 08:00:00Z	 SAID34 WIJJ 240800	METAR WIJJ 240800Z 33003KT 9999 FEW015CB BKN016 27/25 Q1006 NOSIG RMK CB TO NW-NE=
24/06/2022 08:30:00Z	 SAID34 WIJJ 240830	METAR WIJJ 240830Z 17006KT 3000 -RA SCT016CB BKN017 26/24 Q1006 NOSIG RMK CB TO SW-NW=
24/06/2022 09:00:00Z	 SAID34 WIJJ 240900	METAR WIJJ 240900Z 23003KT 9999 FEW015CB BKN016 26/25 Q1006 NOSIG RMK CB TO W-NW=
24/06/2022 09:30:00Z	 SAID34 WIJJ 240930	METAR WIJJ 240930Z 21003KT 9999 FEW015CB BKN016 25/24 Q1007 NOSIG RMK CB TO S-SW=
24/06/2022 10:00:00Z	 SAID34 WIJJ 241000	METAR WIJJ 241000Z 20002KT 4800 -RA FEW015CB BKN016 26/24 Q1007 NOSIG RMK CB TO SE-S=
24/06/2022 10:30:00Z	 SAID34 WIJJ 241030	METAR WIJJ 241030Z 12003KT 9999 -RA FEW015CB BKN016 25/24 Q1007 NOSIG RMK CB TO SE=
24/06/2022 11:00:00Z	 SAID34 WIJJ 241100	METAR WIJJ 241100Z 12003KT 9999 DZ SCT018 26/24 Q1007 NOSIG=
24/06/2022 11:30:00Z	 SAID34 WIJJ 241130	METAR WIJJ 241130Z 21002KT 9999 DZ BKN018 26/24 Q1008 NOSIG=
24/06/2022 12:00:00Z	 SAID34 WIJJ 241200	METAR WIJJ 241200Z 19001KT 9999 BKN018 25/24 Q1008 NOSIG=
24/06/2022 12:30:00Z	 SAID34 WIJJ 241230	METAR WIJJ 241230Z 00000KT 8000 BKN017 25/24 Q1009 NOSIG=
24/06/2022 13:00:00Z	 SAID34 WIJJ 241300	METAR WIJJ 241300Z 15002KT 9999 SCT017 25/24 Q1009 NOSIG=
24/06/2022 13:30:00Z	 SAID34 WIJJ 241330	METAR WIJJ 241330Z 13005KT 9999 SCT017 25/24 Q1009 NOSIG=
24/06/2022 14:00:00Z	 SAID34 WIJJ 241400	METAR WIJJ 241400Z 13006KT 9999 SCT017 25/24 Q1010 NOSIG=
24/06/2022 14:30:00Z	 SAID34 WIJJ 241430	METAR WIJJ 241430Z 13005KT 9999 SCT017 25/24 Q1010 NOSIG=
24/06/2022 15:00:00Z	 SAID34 WIJJ 241500	METAR WIJJ 241500Z 15004KT 9999 SCT017 25/24 Q1010 NOSIG=
24/06/2022 15:30:00Z	 SAID34 WIJJ 241530	METAR WIJJ 241530Z 16004KT 9999 FEW017 25/23 Q1010 NOSIG=
24/06/2022 16:00:00Z	 SAID34 WIJJ 241600	METAR WIJJ 241600Z 16003KT 9999 FEW017 24/23 Q1010 NOSIG=
24/06/2022 16:30:00Z	 SAID34 WIJJ 241630	METAR WIJJ 241630Z 16002KT 9999 FEW017 24/23 Q1009 NOSIG=
24/06/2022 17:00:00Z	 SAID34 WIJJ 241700	METAR WIJJ 241700Z 18002KT 9999 FEW017 24/23 Q1009 NOSIG=
24/06/2022 17:30:00Z	 SAID34 WIJJ 241730	METAR WIJJ 241730Z 18002KT 9999 FEW017 24/23 Q1009 NOSIG=
24/06/2022 18:00:00Z	 SAID34 WIJJ 241800	METAR WIJJ 241800Z 00000KT 7000 FEW017 24/23 Q1009 NOSIG=
24/06/2022 18:30:00Z	 SAID34 WIJJ 241830	METAR WIJJ 241830Z 00000KT 7000 FEW017 24/23 Q1008 NOSIG=
24/06/2022 19:00:00Z	 SAID34 WIJJ 241900	METAR WIJJ 241900Z 00000KT 7000 FEW017 24/23 Q1008 NOSIG=
24/06/2022 19:30:00Z	 SAID34 WIJJ 241930	METAR WIJJ 241930Z 00000KT 7000 FEW017 24/23 Q1008 NOSIG=
24/06/2022 20:00:00Z	 SAID34 WIJJ 242000	METAR WIJJ 242000Z 00000KT 6000 FEW017 23/23 Q1008 NOSIG=
24/06/2022 20:30:00Z	 SAID34 WIJJ 242030	METAR WIJJ 242030Z 00000KT 6000 FEW017 23/23 Q1008 NOSIG=
24/06/2022 21:00:00Z	 SAID34 WIJJ 242100	METAR WIJJ 242100Z 22002KT 5000 BR FEW017 23/23 Q1007 NOSIG=
24/06/2022 21:30:00Z	 SAID34 WIJJ 242130	METAR WIJJ 242130Z 25002KT 5000 BR FEW013 23/23 Q1007 NOSIG=
24/06/2022 22:00:00Z	 SAID34 WIJJ 242200	METAR WIJJ 242200Z 25002KT 5000 BR FEW013 23/23 Q1008 NOSIG=
24/06/2022 22:30:00Z	 SAID34 WIJJ 242230	METAR WIJJ 242230Z 25002KT 4000 BR FEW013 23/23 Q1008 NOSIG=
24/06/2022 23:00:00Z	 SAID34 WIJJ 242300	METAR WIJJ 242300Z 00000KT 2500 BR FEW012 23/23 Q1008 NOSIG=
24/06/2022 23:30:00Z	 SAID34 WIJJ 242330	METAR WIJJ 242330Z 24002KT 2500 BR FEW015 23/23 Q1009 NOSIG=
25/06/2022 00:00:00Z	 SAID34 WIJJ 250000	METAR WIJJ 250000Z 24003KT 3000 BR FEW017 23/23 Q1009 NOSIG=
25/06/2022 00:30:00Z	 SAID34 WIJJ 250030	METAR WIJJ 250030Z 23003KT 1800 BR VV007 24/23 Q1009 NOSIG=
25/06/2022 01:00:00Z	 SAID34 WIJJ 250100	METAR WIJJ 250100Z 23002KT 2200 BR FEW016 24/24 Q1010 NOSIG=
25/06/2022 01:30:00Z	 SAID34 WIJJ 250130	METAR WIJJ 250130Z 23002KT 2600 BR FEW018 24/24 Q1010 NOSIG=
25/06/2022 02:00:00Z	 SAID34 WIJJ 250200	METAR WIJJ 250200Z 22003KT 190V250 3000 HZ FEW005 25/25 Q1010 NOSIG=
25/06/2022 02:30:00Z	 SAID34 WIJJ 250230	METAR WIJJ 250230Z 22004KT 5000 HZ FEW015 26/25 Q1010 NOSIG=
25/06/2022 03:00:00Z	 SAID34 WIJJ 250300	METAR WIJJ 250300Z 19004KT 9999 FEW014 27/25 Q1009 NOSIG=
25/06/2022 03:30:00Z	 SAID34 WIJJ 250330	METAR WIJJ 250330Z 18004KT 140V210 9999 FEW013 SCT014 28/26 Q1009 NOSIG=
25/06/2022 04:00:00Z	 SAID34 WIJJ 250400	METAR WIJJ 250400Z 16004KT 120V190 9999 BKN015 BKN016 28/26 Q1009 NOSIG=
25/06/2022 04:30:00Z	 SAID34 WIJJ 250430	METAR WIJJ 250430Z 17004KT 140V200 9999 BKN015 29/26 Q1008 NOSIG=
25/06/2022 05:00:00Z	 SAID34 WIJJ 250500	METAR WIJJ 250500Z 16003KT 130V200 9999 SCT016 30/26 Q1008 NOSIG=
25/06/2022 05:30:00Z	 SAID34 WIJJ 250530	METAR WIJJ 250530Z 20005KT 160V230 9999 BKN016 31/25 Q1008 NOSIG=
25/06/2022 06:00:00Z	 SAID34 WIJJ 250600	METAR WIJJ 250600Z 12004KT 080V150 9999 BKN016 30/26 Q1007 NOSIG=
25/06/2022 06:30:00Z	 SAID34 WIJJ 250630	METAR WIJJ 250630Z 16004KT 9999 BKN016 30/25 Q1007 NOSIG=
25/06/2022 07:00:00Z	 SAID34 WIJJ 250700	METAR WIJJ 250700Z 20002KT 9999 BKN016 32/24 Q1006 NOSIG=
25/06/2022 07:30:00Z	 SAID34 WIJJ 250730	METAR WIJJ 250730Z 26005KT 9999 BKN015 31/25 Q1006 NOSIG=
25/06/2022 08:00:00Z	 SAID34 WIJJ 250800	METAR WIJJ 250800Z 16004KT 9999 BKN015 29/24 Q1006 NOSIG=
25/06/2022 08:30:00Z	 SAID34 WIJJ 250830	METAR WIJJ 250830Z 34002KT 9999 SCT016 28/24 Q1006 NOSIG=
25/06/2022 09:00:00Z	 SAID34 WIJJ 250900	METAR WIJJ 250900Z 00000KT 9999 -RA SCT016 28/25 Q1006 NOSIG=
25/06/2022 09:30:00Z	 SAID34 WIJJ 250930	METAR WIJJ 250930Z 03003KT 340V050 9999 SCT016 28/26 Q1006 NOSIG RMK RERA=
25/06/2022 10:00:00Z	 SAID34 WIJJ 251000	METAR WIJJ 251000Z 06003KT 7000 VCTS -RA FEW015CB SCT016 28/26 Q1006 NOSIG RMK CB TO E-SE=
25/06/2022 10:30:00Z	 SAID34 WIJJ 251030	METAR WIJJ 251030Z 10007KT 9999 SCT015 26/25 Q1007 NOSIG=
25/06/2022 11:00:00Z	 SAID34 WIJJ 251100	METAR WIJJ 251100Z 10007KT 9999 BKN015 26/25 Q1007 NOSIG=
25/06/2022 11:30:00Z	 SAID34 WIJJ 251130	METAR WIJJ 251130Z 11008KT 9999 -RA SCT015 25/24 Q1007 NOSIG=
25/06/2022 12:00:00Z	 SAID34 WIJJ 251200	METAR WIJJ 251200Z 11005KT 8000 -RA BKN014 25/24 Q1008 NOSIG=
25/06/2022 12:30:00Z	 SAID34 WIJJ 251230	METAR WIJJ 251230Z 09003KT 9999 -RA BKN015 24/23 Q1008 NOSIG=
25/06/2022 13:00:00Z	 SAID34 WIJJ 251300	METAR WIJJ 251300Z 13003KT 9999 DZ SCT015 25/24 Q1008 NOSIG=
25/06/2022 13:30:00Z	 SAID34 WIJJ 251330	METAR WIJJ 251330Z 11003KT 9999 SCT015 24/23 Q1009 NOSIG=
25/06/2022 14:00:00Z	 SAID34 WIJJ 251400	METAR WIJJ 251400Z 13004KT 9999 SCT015 24/23 Q1009 NOSIG=
25/06/2022 14:30:00Z	 SAID34 WIJJ 251430	METAR WIJJ 251430Z 17004KT 9000 SCT015 24/23 Q1010 NOSIG=
25/06/2022 15:00:00Z	 SAID34 WIJJ 251500	METAR WIJJ 251500Z 17003KT 9999 FEW017 24/23 Q1010 NOSIG=
25/06/2022 16:00:00Z	 SAID34 WIJJ 251600	METAR WIJJ 251600Z 20005KT 9999 BKN017 24/23 Q1011 NOSIG=
25/06/2022 16:30:00Z	 SAID34 WIJJ 251630	METAR WIJJ 251630Z 20005KT 9000 SCT016 24/23 Q1011 NOSIG=
25/06/2022 17:00:00Z	 SAID34 WIJJ 251700	METAR WIJJ 251700Z 19003KT 9999 SCT017 24/24 Q1010 NOSIG=
25/06/2022 17:30:00Z	 SAID34 WIJJ 251730	METAR WIJJ 251730Z 17004KT 9000 SCT017 24/24 Q1010 NOSIG=
25/06/2022 18:00:00Z	 SAID34 WIJJ 251800	METAR WIJJ 251800Z 20004KT 9999 FEW015 24/24 Q1009 NOSIG=
25/06/2022 18:30:00Z	 SAID34 WIJJ 251830	METAR WIJJ 251830Z 21005KT 9999 FEW016 24/24 Q1009 NOSIG=
25/06/2022 19:00:00Z	 SAID34 WIJJ 251900	METAR WIJJ 251900Z 22003KT 9999 FEW015 24/23 Q1008 NOSIG=
25/06/2022 19:30:00Z	 SAID34 WIJJ 251930	METAR WIJJ 251930Z 21004KT 9999 FEW015 24/23 Q1008 NOSIG=
25/06/2022 20:00:00Z	 SAID34 WIJJ 252000	METAR WIJJ 252000Z 20003KT 9999 FEW015 24/23 Q1008 NOSIG=
25/06/2022 20:30:00Z	 SAID34 WIJJ 252030	METAR WIJJ 252030Z 20002KT 9999 FEW015 24/23 Q1008 NOSIG=
25/06/2022 21:30:00Z	 SAID34 WIJJ 252130	METAR WIJJ 252130Z 28004KT 9999 FEW015 24/23 Q1008 NOSIG=
25/06/2022 22:00:00Z	 SAID34 WIJJ 252200	METAR WIJJ 252200Z 27003KT 9999 BKN016 23/23 Q1008 NOSIG=
25/06/2022 22:30:00Z	 SAID34 WIJJ 252230	METAR WIJJ 252230Z 25003KT 9999 BKN016 23/23 Q1008 NOSIG=
25/06/2022 23:00:00Z	 SAID34 WIJJ 252300	METAR WIJJ 252300Z 28003KT 9999 BKN017 23/23 Q1008 NOSIG=
25/06/2022 23:30:00Z	 SAID34 WIJJ 252330	METAR WIJJ 252330Z 32002KT 9999 SCT017 23/22 Q1009 NOSIG=
26/06/2022 00:00:00Z	 SAID34 WIJJ 260000	METAR WIJJ 260000Z 28003KT 9999 SCT018 23/23 Q1009 NOSIG=
26/06/2022 00:30:00Z	 SAID34 WIJJ 260030	METAR WIJJ 260030Z 00000KT 6000 SCT015 24/23 Q1009 NOSIG=
26/06/2022 01:00:00Z	 SAID34 WIJJ 260100	METAR WIJJ 260100Z 31001KT 6000 SCT015 25/22 Q1009 NOSIG=
26/06/2022 01:30:00Z	 SAID34 WIJJ 260130	METAR WIJJ 260130Z 18001KT 7000 SCT015 25/22 Q1010 NOSIG=
26/06/2022 02:00:00Z	 SAID34 WIJJ 260200	METAR WIJJ 260200Z 13004KT 7000 FEW015 25/23 Q1010 NOSIG=
26/06/2022 02:30:00Z	 SAID34 WIJJ 260230	METAR WIJJ 260230Z 12004KT 9999 FEW015 26/23 Q1010 NOSIG=
26/06/2022 03:00:00Z	 SAID34 WIJJ 260300	METAR WIJJ 260300Z 12005KT 9999 FEW015 27/24 Q1010 NOSIG=
26/06/2022 03:30:00Z	 SAID34 WIJJ 260330	METAR WIJJ 260330Z 12006KT 9999 FEW016 28/24 Q1009 NOSIG=
26/06/2022 04:00:00Z	 SAID34 WIJJ 260400	METAR WIJJ 260400Z 13006KT 9999 FEW016 29/24 Q1009 NOSIG=
26/06/2022 04:30:00Z	 SAID34 WIJJ 260430	METAR WIJJ 260430Z 14006KT 9999 SCT016 30/24 Q1009 NOSIG=
26/06/2022 05:00:00Z	 SAID34 WIJJ 260500	METAR WIJJ 260500Z 12005KT 9999 SCT016 31/24 Q1009 NOSIG=
26/06/2022 05:30:00Z	 SAID34 WIJJ 260530	METAR WIJJ 260530Z 10006KT 9999 SCT016 31/24 Q1009 NOSIG=
26/06/2022 06:00:00Z	 SAID34 WIJJ 260600	METAR WIJJ 260600Z 15005KT 9999 SCT016 31/24 Q1008 NOSIG=
26/06/2022 06:30:00Z	 SAID34 WIJJ 260630	METAR WIJJ 260630Z 15005KT 9999 FEW017 32/24 Q1008 NOSIG=
26/06/2022 07:00:00Z	 SAID34 WIJJ 260700	METAR WIJJ 260700Z 14005KT 9999 FEW017 32/24 Q1008 NOSIG=
26/06/2022 07:30:00Z	 SAID34 WIJJ 260730	METAR WIJJ 260730Z 15005KT 9999 FEW017 32/24 Q1007 NOSIG=
26/06/2022 08:00:00Z	 SAID34 WIJJ 260800	METAR WIJJ 260800Z 13005KT 9999 FEW017 31/24 Q1007 NOSIG=
26/06/2022 08:30:00Z	 SAID34 WIJJ 260830	METAR WIJJ 260830Z 15005KT 9999 FEW017 31/24 Q1007 NOSIG=
26/06/2022 09:00:00Z	 SAID34 WIJJ 260900	METAR WIJJ 260900Z 12003KT 9999 FEW017 31/24 Q1007 NOSIG=
26/06/2022 09:30:00Z	 SAID34 WIJJ 260930	METAR WIJJ 260930Z 15004KT 9999 FEW017 31/24 Q1007 NOSIG=
26/06/2022 10:00:00Z	 SAID34 WIJJ 261000	METAR WIJJ 261000Z 14005KT 9999 FEW017 31/24 Q1007 NOSIG=
26/06/2022 10:30:00Z	 SAID34 WIJJ 261030	METAR WIJJ 261030Z 13005KT 9999 FEW017 31/24 Q1007 NOSIG=
26/06/2022 11:00:00Z	 SAID34 WIJJ 261100	METAR WIJJ 261100Z 13004KT 9999 FEW017 30/24 Q1008 NOSIG=
26/06/2022 11:30:00Z	 SAID34 WIJJ 261130	METAR WIJJ 261130Z 13003KT 9999 FEW017 30/24 Q1008 NOSIG=
26/06/2022 12:00:00Z	 SAID34 WIJJ 261200	METAR WIJJ 261200Z 14003KT 7000 FEW017 29/25 Q1008 NOSIG=
26/06/2022 12:30:00Z	 SAID34 WIJJ 261230	METAR WIJJ 261230Z 16003KT 9999 FEW017 28/25 Q1009 NOSIG=
26/06/2022 13:00:00Z	 SAID34 WIJJ 261300	METAR WIJJ 261300Z 18002KT 9999 FEW017 28/25 Q1009 NOSIG=
26/06/2022 13:30:00Z	 SAID34 WIJJ 261330	METAR WIJJ 261330Z 18002KT 9999 FEW017 27/25 Q1010 NOSIG=
26/06/2022 14:00:00Z	 SAID34 WIJJ 261400	METAR WIJJ 261400Z 00000KT 9999 FEW017 27/25 Q1010 NOSIG=
26/06/2022 14:30:00Z	 SAID34 WIJJ 261430	METAR WIJJ 261430Z 00000KT 9999 FEW017 27/25 Q1010 NOSIG=
26/06/2022 15:00:00Z	 SAID34 WIJJ 261500	METAR WIJJ 261500Z 00000KT 9999 FEW017 26/25 Q1011 NOSIG=
26/06/2022 15:30:00Z	 SAID34 WIJJ 261530	METAR WIJJ 261530Z 00000KT 7000 FEW017 26/25 Q1011 NOSIG=
26/06/2022 16:00:00Z	 SAID34 WIJJ 261600	METAR WIJJ 261600Z 00000KT 7000 FEW017 26/25 Q1010 NOSIG=
26/06/2022 16:30:00Z	 SAID34 WIJJ 261630	METAR WIJJ 261630Z 10002KT 7000 FEW017 26/25 Q1010 NOSIG=
26/06/2022 17:00:00Z	 SAID34 WIJJ 261700	METAR WIJJ 261700Z 00000KT 7000 FEW016 25/25 Q1010 NOSIG=
26/06/2022 17:30:00Z	 SAID34 WIJJ 261730	METAR WIJJ 261730Z 16002KT 6000 FEW017 25/25 Q1010 NOSIG=
26/06/2022 19:00:00Z	 SAID34 WIJJ 261900	METAR WIJJ 261900Z 00000KT 6000 FEW016 25/25 Q1009 NOSIG=
26/06/2022 19:30:00Z	 SAID34 WIJJ 261930	METAR WIJJ 261930Z 00000KT 6000 FEW016 25/25 Q1009 NOSIG=
26/06/2022 20:00:00Z	 SAID34 WIJJ 262000	METAR WIJJ 262000Z 13002KT 6000 FEW016 25/25 Q1009 NOSIG=
26/06/2022 20:30:00Z	 SAID34 WIJJ 262030	METAR WIJJ 262030Z 00000KT 6000 SCT016 25/25 Q1009 NOSIG=
26/06/2022 21:00:00Z	 SAID34 WIJJ 262100	METAR WIJJ 262100Z 00000KT 6000 FEW016 25/24 Q1009 NOSIG=
26/06/2022 22:00:00Z	 SAID34 WIJJ 262200	METAR WIJJ 262200Z 14002KT 5000 HZ FEW016 25/24 Q1009 NOSIG=
26/06/2022 22:30:00Z	 SAID34 WIJJ 262230	METAR WIJJ 262230Z 14003KT 5000 HZ FEW016 24/24 Q1009 NOSIG=
26/06/2022 23:00:00Z	 SAID34 WIJJ 262300	METAR WIJJ 262300Z 13002KT 2500 BR FEW015 24/24 Q1009 NOSIG=
26/06/2022 23:30:00Z	 SAID34 WIJJ 262330	METAR WIJJ 262330Z 13002KT 2500 BR FEW014 24/24 Q1010 NOSIG=
27/06/2022 00:30:00Z	 SAID34 WIJJ 270030	METAR WIJJ 270030Z 18004KT 6000 FEW019 25/24 Q1010 NOSIG=
27/06/2022 01:00:00Z	 SAID34 WIJJ 270100	METAR WIJJ 270100Z 16005KT 8000 FEW017 26/24 Q1011 NOSIG=
27/06/2022 01:30:00Z	 SAID34 WIJJ 270130	METAR WIJJ 270130Z 15005KT 9000 FEW017 27/24 Q1011 NOSIG=
27/06/2022 02:00:00Z	 SAID34 WIJJ 270200	METAR WIJJ 270200Z 10006KT 9999 FEW017 27/25 Q1011 NOSIG=
27/06/2022 02:30:00Z	 SAID34 WIJJ 270230	METAR WIJJ 270230Z 14006KT 9999 FEW017 28/24 Q1011 NOSIG=
27/06/2022 03:00:00Z	 SAID34 WIJJ 270300	METAR WIJJ 270300Z 14007KT 9999 FEW017 29/25 Q1011 NOSIG=
27/06/2022 03:30:00Z	 SAID34 WIJJ 270330	METAR WIJJ 270330Z 14007KT 9999 FEW017 30/25 Q1011 NOSIG=
27/06/2022 04:00:00Z	 SAID34 WIJJ 270400	METAR WIJJ 270400Z 16006KT 9999 FEW017 31/25 Q1010 NOSIG=
27/06/2022 04:30:00Z	 SAID34 WIJJ 270430	METAR WIJJ 270430Z 15006KT 9999 SCT017 31/25 Q1010 NOSIG=
27/06/2022 05:00:00Z	 SAID34 WIJJ 270500	METAR WIJJ 270500Z 18006KT 9999 SCT017 32/24 Q1009 NOSIG=
27/06/2022 05:30:00Z	 SAID34 WIJJ 270530	METAR WIJJ 270530Z 18005KT 9999 SCT017 32/24 Q1009 NOSIG=
27/06/2022 06:00:00Z	 SAID34 WIJJ 270600	METAR WIJJ 270600Z 16006KT 9999 SCT017 32/25 Q1008 NOSIG=
27/06/2022 06:30:00Z	 SAID34 WIJJ 270630	METAR WIJJ 270630Z 15005KT 9999 SCT017 32/25 Q1008 NOSIG=
27/06/2022 07:00:00Z	 SAID34 WIJJ 270700	METAR WIJJ 270700Z 14006KT 9999 SCT017 33/25 Q1007 NOSIG=
27/06/2022 07:30:00Z	 SAID34 WIJJ 270730	METAR WIJJ 270730Z 18006KT 9999 SCT017 33/25 Q1006 NOSIG=
27/06/2022 08:00:00Z	 SAID34 WIJJ 270800	METAR WIJJ 270800Z 18004KT 9999 SCT017 33/25 Q1006 NOSIG=
27/06/2022 08:30:00Z	 SAID34 WIJJ 270830	METAR WIJJ 270830Z 17003KT 9999 SCT017 33/25 Q1006 NOSIG=
27/06/2022 09:00:00Z	 SAID34 WIJJ 270900	METAR WIJJ 270900Z 16003KT 9999 SCT017 33/24 Q1006 NOSIG=
27/06/2022 09:30:00Z	 SAID34 WIJJ 270930	METAR WIJJ 270930Z 13005KT 9999 SCT017 32/24 Q1006 NOSIG=
27/06/2022 10:00:00Z	 SAID34 WIJJ 271000	METAR WIJJ 271000Z 14003KT 9999 FEW017 32/24 Q1006 NOSIG=
27/06/2022 10:30:00Z	 SAID34 WIJJ 271030	METAR WIJJ 271030Z 11003KT 9999 FEW017 32/24 Q1006 NOSIG=
27/06/2022 11:00:00Z	 SAID34 WIJJ 271100	METAR WIJJ 271100Z 11003KT 7000 FEW017 31/25 Q1007 NOSIG=
27/06/2022 11:30:00Z	 SAID34 WIJJ 271130	METAR WIJJ 271130Z 09004KT 5000 HZ FEW015CB SCT016 31/25 Q1007 NOSIG RMK CB TO NE=
27/06/2022 12:00:00Z	 SAID34 WIJJ 271200	METAR WIJJ 271200Z 11003KT 8000 SCT016 30/25 Q1007 NOSIG=
27/06/2022 13:00:00Z	 SAID34 WIJJ 271300	METAR WIJJ 271300Z 05003KT 9999 FEW016 28/26 Q1008 NOSIG=
27/06/2022 13:30:00Z	 SAID34 WIJJ 271330	METAR WIJJ 271330Z 04003KT 010V070 9999 FEW016 27/25 Q1008 NOSIG=
27/06/2022 14:00:00Z	 SAID34 WIJJ 271400	METAR WIJJ 271400Z 09002KT 9999 FEW015 27/25 Q1008 NOSIG=
27/06/2022 14:30:00Z	 SAID34 WIJJ 271430	METAR WIJJ 271430Z 11002KT 9999 FEW015 26/25 Q1008 NOSIG=
27/06/2022 15:00:00Z	 SAID34 WIJJ 271500	METAR WIJJ 271500Z 36001KT 9999 FEW016 26/25 Q1009 NOSIG=
27/06/2022 15:30:00Z	 SAID34 WIJJ 271530	METAR WIJJ 271530Z 10001KT 9999 FEW016 26/25 Q1009 NOSIG=
27/06/2022 16:00:00Z	 SAID34 WIJJ 271600	METAR WIJJ 271600Z 13002KT 7000 FEW016 26/25 Q1009 NOSIG=
27/06/2022 16:30:00Z	 SAID34 WIJJ 271630	METAR WIJJ 271630Z 10002KT 6000 FEW016 26/25 Q1009 NOSIG=
27/06/2022 17:00:00Z	 SAID34 WIJJ 271700	METAR WIJJ 271700Z 11002KT 7000 FEW016 25/25 Q1009 NOSIG=
27/06/2022 17:30:00Z	 SAID34 WIJJ 271730	METAR WIJJ 271730Z 11002KT 6000 FEW016 25/25 Q1009 NOSIG=
27/06/2022 18:00:00Z	 SAID34 WIJJ 271800	METAR WIJJ 271800Z 15003KT 5000 HZ NSC 25/24 Q1009 NOSIG=
27/06/2022 18:30:00Z	 SAID34 WIJJ 271830	METAR WIJJ 271830Z 14003KT 4400 HZ NSC 25/24 Q1009 NOSIG=
27/06/2022 19:00:00Z	 SAID34 WIJJ 271900	METAR WIJJ 271900Z 15002KT 4500 HZ NSC 25/24 Q1008 NOSIG=
27/06/2022 19:30:00Z	 SAID34 WIJJ 271930	METAR WIJJ 271930Z 18002KT 4800 HZ FEW016 25/24 Q1008 NOSIG=
27/06/2022 20:00:00Z	 SAID34 WIJJ 272000	METAR WIJJ 272000Z 19002KT 4200 HZ NSC 25/24 Q1008 NOSIG=
27/06/2022 20:30:00Z	 SAID34 WIJJ 272030	METAR WIJJ 272030Z 17002KT 4900 HZ NSC 25/24 Q1008 NOSIG=
27/06/2022 21:00:00Z	 SAID34 WIJJ 272100	METAR WIJJ 272100Z 17002KT 5000 BR NSC 25/24 Q1008 NOSIG=
27/06/2022 21:30:00Z	 SAID34 WIJJ 272130	METAR WIJJ 272130Z 18002KT 4900 BR NSC 25/24 Q1008 NOSIG=
27/06/2022 22:00:00Z	 SAID34 WIJJ 272200	METAR WIJJ 272200Z 20002KT 7000 FEW016 25/25 Q1008 NOSIG=
27/06/2022 22:30:00Z	 SAID34 WIJJ 272230	METAR WIJJ 272230Z 18003KT 6000 FEW015 25/25 Q1008 NOSIG=
27/06/2022 23:30:00Z	 SAID34 WIJJ 272330	METAR WIJJ 272330Z 18002KT 2700 BR FEW017 25/24 Q1009 NOSIG=
28/06/2022 00:30:00Z	 SAID34 WIJJ 280030	METAR WIJJ 280030Z 14003KT 7000 NSC 26/25 Q1009 NOSIG=
28/06/2022 01:00:00Z	 SAID34 WIJJ 280100	METAR WIJJ 280100Z 15006KT 8000 NSC 26/25 Q1009 NOSIG=
28/06/2022 01:30:00Z	 SAID34 WIJJ 280130	METAR WIJJ 280130Z 15004KT 9000 NSC 28/25 Q1009 NOSIG=
28/06/2022 02:00:00Z	 SAID34 WIJJ 280200	METAR WIJJ 280200Z 15007KT 8000 NSC 28/24 Q1009 NOSIG=
28/06/2022 02:30:00Z	 SAID34 WIJJ 280230	METAR WIJJ 280230Z 13004KT 9999 NSC 30/25 Q1009 NOSIG=
28/06/2022 03:00:00Z	 SAID34 WIJJ 280300	METAR WIJJ 280300Z 14006KT 9999 FEW015 30/25 Q1009 NOSIG=
28/06/2022 03:30:00Z	 SAID34 WIJJ 280330	METAR WIJJ 280330Z 15005KT 9999 FEW015 31/28 Q1009 NOSIG=
28/06/2022 04:00:00Z	 SAID34 WIJJ 280400	METAR WIJJ 280400Z 14005KT 9999 SCT015 31/25 Q1008 NOSIG=
28/06/2022 04:30:00Z	 SAID34 WIJJ 280430	METAR WIJJ 280430Z 12005KT 9999 SCT015 32/26 Q1008 NOSIG=
28/06/2022 05:00:00Z	 SAID34 WIJJ 280500	METAR WIJJ 280500Z 15003KT 9999 SCT015 32/25 Q1008 NOSIG=
28/06/2022 05:30:00Z	 SAID34 WIJJ 280530	METAR WIJJ 280530Z 19004KT 9999 SCT015 33/26 Q1007 NOSIG=
28/06/2022 06:00:00Z	 SAID34 WIJJ 280600	METAR WIJJ 280600Z 19006KT 9999 SCT015 32/24 Q1007 NOSIG=
28/06/2022 06:30:00Z	 SAID34 WIJJ 280630	METAR WIJJ 280630Z 18006KT 9999 SCT017 32/24 Q1006 NOSIG=
28/06/2022 07:00:00Z	 SAID34 WIJJ 280700	METAR WIJJ 280700Z 18005KT 9999 SCT017 32/24 Q1006 NOSIG=
28/06/2022 07:30:00Z	 SAID34 WIJJ 280730	METAR WIJJ 280730Z 23005KT 9999 VCTS FEW015CB SCT016 32/25 Q1005 NOSIG RMK CB TO N=
28/06/2022 08:00:00Z	 SAID34 WIJJ 280800	METAR WIJJ 280800Z 36007KT 9999 VCTS FEW015CB SCT016 31/25 Q1005 NOSIG RMK CB TO N=
28/06/2022 08:30:00Z	 SAID34 WIJJ 280830	METAR WIJJ 280830Z 34005KT 9999 FEW015CB SCT016 32/25 Q1004 NOSIG RMK CB TO SE=
28/06/2022 09:00:00Z	 SAID34 WIJJ 280900	METAR WIJJ 280900Z 09005KT 9999 FEW015CB SCT016 30/25 Q1005 NOSIG RMK CB TO E=
28/06/2022 09:30:00Z	 SAID34 WIJJ 280930	METAR WIJJ 280930Z 03004KT 9999 SCT016 31/25 Q1004 NOSIG=
28/06/2022 10:00:00Z	 SAID34 WIJJ 281000	METAR WIJJ 281000Z 05004KT 8000 FEW015CB SCT016 31/24 Q1004 NOSIG RMK CB TO NE=
28/06/2022 10:30:00Z	 SAID34 WIJJ 281030	METAR WIJJ 281030Z 03002KT 7000 FEW015CB SCT016 30/25 Q1004 NOSIG RMK CB TO NE=
28/06/2022 11:00:00Z	 SAID34 WIJJ 281100	METAR WIJJ 281100Z 03003KT 4000 HZ FEW015CB SCT016 30/25 Q1005 NOSIG RMK CB TO E=
28/06/2022 11:30:00Z	 SAID34 WIJJ 281130	METAR WIJJ 281130Z 02005KT 4000 HZ FEW015CB SCT016 30/25 Q1006 NOSIG RMK CB TO E AND W=
28/06/2022 12:00:00Z	 SAID34 WIJJ 281200	METAR WIJJ 281200Z 04008KT 3500 -TSRA FEW012CB BKN013 28/25 Q1006 NOSIG RMK CB OVER THE FIELD=
28/06/2022 12:30:00Z	 SAID34 WIJJ 281230	METAR WIJJ 281230Z 04005KT 7000 -RA FEW012CB BKN013 28/25 Q1007 NOSIG RMK CB TO E, W, AND NW=
28/06/2022 13:00:00Z	 SAID34 WIJJ 281300	METAR WIJJ 281300Z 28008KT 8000 -RA FEW012CB BKN013 26/23 Q1008 NOSIG RMK CB OVER THE FIELD=
28/06/2022 13:30:00Z	 SAID34 WIJJ 281330	METAR WIJJ 281330Z 32008KT 2000 TSRA FEW012CB BKN013 25/24 Q1009 NOSIG RMK CB OVER THE FIELD=
28/06/2022 14:00:00Z	 SAID34 WIJJ 281400	METAR WIJJ 281400Z 32006KT 4000 -TSRA FEW012CB BKN013 24/23 Q1009 NOSIG RMK CB OVER THE FIELD=
28/06/2022 14:30:00Z	 SAID34 WIJJ 281430	METAR WIJJ 281430Z 06003KT 2000 VCTS RA FEW012CB BKN013 24/23 Q1009 NOSIG RMK CB TO NE-SE=
