01/12/2020 00:00:00Z	 SAID32 WIOO 010000	METAR WIOO 010000Z 05003KT 9999 FEW012 25/24 Q1010 NOSIG=
01/12/2020 00:30:00Z	 SAID32 WIOO 010030	METAR WIOO 010030Z 07003KT 9999 FEW012 26/24 Q1010 NOSIG=
01/12/2020 01:00:00Z	 SAID32 WIOO 010100	METAR WIOO 010100Z 14003KT 9999 FEW012 28/24 Q1010 NOSIG=
01/12/2020 01:30:00Z	 SAID32 WIOO 010130	METAR WIOO 010130Z 15004KT 9999 FEW011 29/25 Q1010 NOSIG=
01/12/2020 02:00:00Z	 SAID32 WIOO 010200	METAR WIOO 010200Z 18003KT 9999 BKN011 29/25 Q1010 NOSIG=
01/12/2020 02:30:00Z	 SAID32 WIOO 010230	METAR WIOO 010230Z 21003KT 9999 BKN011 30/24 Q1010 NOSIG=
01/12/2020 03:00:00Z	 SAID32 WIOO 010300	METAR WIOO 010300Z 17003KT 9999 BKN011 31/24 Q1010 NOSIG=
01/12/2020 03:30:00Z	 SAID32 WIOO 010330	METAR WIOO 010330Z 05003KT 9999 BKN011 31/24 Q1010 NOSIG=
01/12/2020 04:00:00Z	 SAID32 WIOO 010400	METAR WIOO 010400Z 24005KT 9999 BKN011 32/24 Q1010 NOSIG=
01/12/2020 04:30:00Z	 SAID32 WIOO 010430	METAR WIOO 010430Z 26007KT 9999 FEW011CB BKN012 32/24 Q1009 NOSIG=
01/12/2020 05:00:00Z	 SAID32 WIOO 010500	METAR WIOO 010500Z 27003KT 9999 FEW011CB BKN012 32/24 Q1009 TEMPO FM0530 7000 TS=
01/12/2020 05:30:00Z	 SAID32 WIOO 010530	METAR WIOO 010530Z 27004KT 9999 FEW011CB BKN012 32/24 Q1009 TEMPO FM0630 3000 TSRA=
01/12/2020 06:00:00Z	 SAID32 WIOO 010600	METAR WIOO 010600Z 28008KT 9999 FEW011CB BKN012 33/25 Q1008 TEMPO FM0630 3000 TSRA=
01/12/2020 06:30:00Z	 SAID32 WIOO 010630	METAR WIOO 010630Z 22006KT 9999 FEW011CB BKN012 33/25 Q1007 NOSIG=
01/12/2020 07:00:00Z	 SAID32 WIOO 010700	METAR WIOO 010700Z 25008KT 9999 FEW011CB SCT012 32/24 Q1007 NOSIG=
01/12/2020 07:30:00Z	 SAID32 WIOO 010730	METAR WIOO 010730Z 26005KT 9999 SCT012 31/24 Q1007 NOSIG=
01/12/2020 08:00:00Z	 SAID32 WIOO 010800	METAR WIOO 010800Z 27006KT 9999 SCT012 30/24 Q1006 NOSIG=
01/12/2020 08:30:00Z	 SAID32 WIOO 010830	METAR WIOO 010830Z 26006KT 9999 SCT012 30/24 Q1006 NOSIG=
01/12/2020 09:00:00Z	 SAID32 WIOO 010900	METAR WIOO 010900Z 26004KT 9999 FEW012 29/24 Q1006 NOSIG=
01/12/2020 09:30:00Z	 SAID32 WIOO 010930	METAR WIOO 010930Z 26006KT 9999 FEW012 29/24 Q1006 NOSIG=
01/12/2020 10:00:00Z	 SAID32 WIOO 011000	METAR WIOO 011000Z 27003KT 9999 FEW012 29/24 Q1007 NOSIG=
01/12/2020 10:30:00Z	 SAID32 WIOO 011030	METAR WIOO 011030Z 27003KT 9999 FEW012 28/25 Q1007 NOSIG=
01/12/2020 11:00:00Z	 SAID32 WIOO 011100	METAR WIOO 011100Z 00000KT 8000 FEW012 28/25 Q1007 NOSIG=
01/12/2020 11:30:00Z	 SAID32 WIOO 011130	METAR WIOO 011130Z 00000KT 6000 FEW012 28/25 Q1008 NOSIG=
01/12/2020 12:00:00Z	 SAID32 WIOO 011200	METAR WIOO 011200Z 00000KT 6000 FEW012 28/25 Q1008 NOSIG=
01/12/2020 12:30:00Z	 SAID32 WIOO 011230	METAR WIOO 011230Z 00000KT 6000 FEW012 28/25 Q1008 NOSIG=
01/12/2020 13:00:00Z	 SAID32 WIOO 011300	METAR WIOO 011300Z 00000KT 6000 FEW012 27/25 Q1009 NOSIG=
01/12/2020 13:30:00Z	 SAID32 WIOO 011330	METAR WIOO 011330Z 07003KT 6000 FEW012 27/25 Q1009 NOSIG=
01/12/2020 14:00:00Z	 SAID32 WIOO 011400	METAR WIOO 011400Z 00000KT 6000 SCT012 27/25 Q1010 NOSIG=
01/12/2020 14:30:00Z	 SAID32 WIOO 011430	METAR WIOO 011430Z 00000KT 6000 SCT012 27/24 Q1010 NOSIG=
01/12/2020 15:00:00Z	 SAID32 WIOO 011500	METAR WIOO 011500Z 00000KT 6000 SCT012 27/25 Q1010 NOSIG=
01/12/2020 15:30:00Z	 SAID32 WIOO 011530	METAR WIOO 011530Z 00000KT 6000 SCT012 26/25 Q1010 NOSIG=
01/12/2020 16:00:00Z	 SAID32 WIOO 011600	METAR WIOO 011600Z 00000KT 6000 SCT012 26/25 Q1010 NOSIG=
01/12/2020 16:30:00Z	 SAID32 WIOO 011630	METAR WIOO 011630Z 00000KT 6000 SCT012 26/25 Q1010 NOSIG=
01/12/2020 17:00:00Z	 SAID32 WIOO 011700	METAR WIOO 011700Z 06003KT 6000 SCT012 26/24 Q1009 NOSIG=
01/12/2020 17:30:00Z	 SAID32 WIOO 011730	METAR WIOO 011730Z 00000KT 6000 SCT012 25/24 Q1009 NOSIG=
01/12/2020 18:00:00Z	 SAID32 WIOO 011800	METAR WIOO 011800Z 00000KT 6000 SCT012 25/24 Q1009 NOSIG=
01/12/2020 18:30:00Z	 SAID32 WIOO 011830	METAR WIOO 011830Z 00000KT 6000 SCT012 25/24 Q1009 NOSIG=
01/12/2020 19:00:00Z	 SAID32 WIOO 011900	METAR WIOO 011900Z 00000KT 6000 SCT012 25/24 Q1008 NOSIG=
01/12/2020 19:30:00Z	 SAID32 WIOO 011930	METAR WIOO 011930Z 00000KT 6000 SCT012 25/24 Q1008 NOSIG=
01/12/2020 20:00:00Z	 SAID32 WIOO 012000	METAR WIOO 012000Z 00000KT 6000 SCT012 25/24 Q1008 NOSIG=
01/12/2020 20:30:00Z	 SAID32 WIOO 012030	METAR WIOO 012030Z 00000KT 6000 SCT012 25/24 Q1008 NOSIG=
01/12/2020 21:00:00Z	 SAID32 WIOO 012100	METAR WIOO 012100Z 00000KT 6000 SCT012 25/24 Q1008 NOSIG=
01/12/2020 21:30:00Z	 SAID32 WIOO 012130	METAR WIOO 012130Z 00000KT 6000 SCT012 25/24 Q1008 NOSIG=
01/12/2020 22:00:00Z	 SAID32 WIOO 012200	METAR WIOO 012200Z 00000KT 6000 SCT012 25/24 Q1008 NOSIG=
01/12/2020 22:30:00Z	 SAID32 WIOO 012230	METAR WIOO 012230Z 00000KT 6000 SCT012 25/24 Q1008 NOSIG=
01/12/2020 23:00:00Z	 SAID32 WIOO 012300	METAR WIOO 012300Z 04003KT 7000 SCT012 25/24 Q1009 NOSIG=
01/12/2020 23:30:00Z	 SAID32 WIOO 012330	METAR WIOO 012330Z 04004KT 8000 FEW012 25/24 Q1009 NOSIG=
02/12/2020 00:00:00Z	 SAID32 WIOO 020000	METAR WIOO 020000Z 05004KT 7000 FEW012 25/24 Q1009 NOSIG=
02/12/2020 00:30:00Z	 SAID32 WIOO 020030	METAR WIOO 020030Z 06004KT 9999 FEW012 26/24 Q1010 NOSIG=
02/12/2020 01:00:00Z	 SAID32 WIOO 020100	METAR WIOO 020100Z 04004KT 9999 FEW012 27/25 Q1010 NOSIG=
02/12/2020 01:30:00Z	 SAID32 WIOO 020130	METAR WIOO 020130Z 02006KT 9999 FEW012 29/25 Q1010 NOSIG=
02/12/2020 02:00:00Z	 SAID32 WIOO 020200	METAR WIOO 020200Z 36007KT 9999 FEW012 30/25 Q1010 NOSIG=
02/12/2020 02:30:00Z	 SAID32 WIOO 020230	METAR WIOO 020230Z 02004KT 9999 FEW012 31/25 Q1010 NOSIG=
02/12/2020 03:00:00Z	 SAID32 WIOO 020300	METAR WIOO 020300Z 06006KT 9999 FEW012 31/24 Q1009 NOSIG=
02/12/2020 03:30:00Z	 SAID32 WIOO 020330	METAR WIOO 020330Z 04006KT 9999 SCT012 32/24 Q1009 NOSIG=
02/12/2020 04:00:00Z	 SAID32 WIOO 020400	METAR WIOO 020400Z 36004KT 9999 SCT012 32/24 Q1009 NOSIG=
02/12/2020 04:30:00Z	 SAID32 WIOO 020430	METAR WIOO 020430Z 33004KT 9999 SCT012 32/25 Q1009 NOSIG=
02/12/2020 05:00:00Z	 SAID32 WIOO 020500	METAR WIOO 020500Z 10003KT 9999 BKN012 32/24 Q1008 NOSIG=
02/12/2020 05:30:00Z	 SAID32 WIOO 020530	METAR WIOO 020530Z 04004KT 9999 BKN012 33/24 Q1008 NOSIG=
02/12/2020 06:00:00Z	 SAID32 WIOO 020600	METAR WIOO 020600Z 04004KT 9999 BKN012 33/24 Q1007 NOSIG=
02/12/2020 06:30:00Z	 SAID32 WIOO 020630	METAR WIOO 020630Z 26005KT 9999 BKN012 34/24 Q1006 NOSIG=
02/12/2020 07:00:00Z	 SAID32 WIOO 020700	METAR WIOO 020700Z 29005KT 9999 FEW011CB BKN012 34/26 Q1006 NOSIG=
02/12/2020 07:30:00Z	 SAID32 WIOO 020730	METAR WIOO 020730Z 25008KT 9999 FEW011CB BKN012 34/25 Q1006 NOSIG=
02/12/2020 08:00:00Z	 SAID32 WIOO 020800	METAR WIOO 020800Z 26010KT 9999 FEW011CB BKN012 34/23 Q1006 NOSIG=
02/12/2020 08:30:00Z	 SAID32 WIOO 020830	METAR WIOO 020830Z 27007KT 9999 FEW010CB SCT012 34/24 Q1005 NOSIG=
02/12/2020 09:00:00Z	 SAID32 WIOO 020900	METAR WIOO 020900Z 26010KT 9999 FEW010CB SCT012 33/23 Q1006 NOSIG=
02/12/2020 09:30:00Z	 SAID32 WIOO 020930	METAR WIOO 020930Z 26010KT 9999 FEW010CB SCT012 32/23 Q1006 NOSIG=
02/12/2020 10:00:00Z	 SAID32 WIOO 021000	METAR WIOO 021000Z 24005KT 9999 FEW010CB SCT012 32/23 Q1006 NOSIG=
02/12/2020 10:30:00Z	 SAID32 WIOO 021030	METAR WIOO 021030Z 25005KT 9999 SCT012 30/23 Q1007 NOSIG=
02/12/2020 11:00:00Z	 SAID32 WIOO 021100	METAR WIOO 021100Z 26003KT 8000 SCT012 30/24 Q1007 NOSIG=
02/12/2020 11:30:00Z	 SAID32 WIOO 021130	METAR WIOO 021130Z 00000KT 8000 SCT012 29/24 Q1007 NOSIG=
02/12/2020 12:00:00Z	 SAID32 WIOO 021200	METAR WIOO 021200Z 00000KT 8000 SCT012 29/24 Q1008 NOSIG=
02/12/2020 12:30:00Z	 SAID32 WIOO 021230	METAR WIOO 021230Z 00000KT 4000 HZ SCT012 28/24 Q1008 NOSIG=
02/12/2020 13:00:00Z	 SAID32 WIOO 021300	METAR WIOO 021300Z 03008KT 6000 SCT012 28/25 Q1009 NOSIG=
02/12/2020 13:30:00Z	 SAID32 WIOO 021330	METAR WIOO 021330Z 05004KT 6000 SCT012 28/25 Q1009 NOSIG=
02/12/2020 14:00:00Z	 SAID32 WIOO 021400	METAR WIOO 021400Z 05003KT 6000 SCT012 27/24 Q1009 NOSIG=
02/12/2020 14:30:00Z	 SAID32 WIOO 021430	METAR WIOO 021430Z 04003KT 6000 SCT012 27/24 Q1009 NOSIG=
02/12/2020 15:00:00Z	 SAID32 WIOO 021500	METAR WIOO 021500Z 00000KT 6000 SCT012 27/24 Q1009 NOSIG=
02/12/2020 15:30:00Z	 SAID32 WIOO 021530	METAR WIOO 021530Z 00000KT 6000 FEW012 27/24 Q1009 NOSIG=
02/12/2020 16:00:00Z	 SAID32 WIOO 021600	METAR WIOO 021600Z 00000KT 6000 FEW012 26/24 Q1009 NOSIG=
02/12/2020 16:30:00Z	 SAID32 WIOO 021630	METAR WIOO 021630Z 00000KT 6000 FEW012 26/24 Q1008 NOSIG=
02/12/2020 17:00:00Z	 SAID32 WIOO 021700	METAR WIOO 021700Z 09003KT 6000 FEW012 26/24 Q1008 NOSIG=
02/12/2020 17:30:00Z	 SAID32 WIOO 021730	METAR WIOO 021730Z 00000KT 6000 FEW012 25/24 Q1008 NOSIG=
02/12/2020 17:59:00Z	 SAID32 WIOO 021759	METAR WIOO 021800Z 06003KT 6000 FEW012 25/24 Q1008 NOSIG=
02/12/2020 18:30:00Z	 SAID32 WIOO 021830	METAR WIOO 021830Z 00000KT 6000 FEW012 25/24 Q1007 NOSIG=
02/12/2020 19:00:00Z	 SAID32 WIOO 021900	METAR WIOO 021900Z 00000KT 6000 FEW012 25/24 Q1007 NOSIG=
02/12/2020 19:30:00Z	 SAID32 WIOO 021930	METAR WIOO 021930Z 00000KT 6000 FEW012 25/24 Q1007 NOSIG=
02/12/2020 20:00:00Z	 SAID32 WIOO 022000	METAR WIOO 022000Z 00000KT 6000 FEW012 25/24 Q1007 NOSIG=
02/12/2020 20:30:00Z	 SAID32 WIOO 022030	METAR WIOO 022030Z 00000KT 6000 FEW012 25/24 Q1007 NOSIG=
02/12/2020 21:00:00Z	 SAID32 WIOO 022100	METAR WIOO 022100Z 00000KT 6000 FEW012 25/24 Q1007 NOSIG=
02/12/2020 21:30:00Z	 SAID32 WIOO 022130	METAR WIOO 022130Z 00000KT 6000 FEW012 25/24 Q1007 NOSIG=
02/12/2020 22:00:00Z	 SAID32 WIOO 022200	METAR WIOO 022200Z 00000KT 6000 SCT012 24/23 Q1008 NOSIG=
02/12/2020 22:30:00Z	 SAID32 WIOO 022230	METAR WIOO 022230Z 00000KT 6000 FEW012 24/23 Q1008 NOSIG=
02/12/2020 23:00:00Z	 SAID32 WIOO 022300	METAR WIOO 022300Z 00000KT 9000 FEW012 24/23 Q1008 NOSIG=
02/12/2020 23:25:00Z	 SAID32 WIOO 022325	METAR WIOO 022330Z 00000KT 7000 FEW012 24/23 Q1008 NOSIG=
03/12/2020 00:00:00Z	 SAID32 WIOO 030000	METAR WIOO 030000Z 00000KT 9999 FEW013 25/24 Q1009 NOSIG=
03/12/2020 00:30:00Z	 SAID32 WIOO 030030	METAR WIOO 030030Z 01004KT 9999 FEW013 26/24 Q1009 NOSIG=
03/12/2020 00:55:00Z	 SAID32 WIOO 030055	METAR WIOO 030100Z 01004KT 9999 FEW013 27/24 Q1009 NOSIG=
03/12/2020 01:30:00Z	 SAID32 WIOO 030130	METAR WIOO 030130Z 04003KT 9999 FEW013 29/24 Q1009 NOSIG=
03/12/2020 02:00:00Z	 SAID32 WIOO 030200	METAR WIOO 030200Z 04003KT 9999 FEW013 29/25 Q1009 NOSIG=
03/12/2020 02:30:00Z	 SAID32 WIOO 030230	METAR WIOO 030230Z 01004KT 9999 SCT012 30/25 Q1009 NOSIG=
03/12/2020 02:55:00Z	 SAID32 WIOO 030255	METAR WIOO 030300Z 29004KT 9999 SCT010 31/24 Q1009 NOSIG=
03/12/2020 03:30:00Z	 SAID32 WIOO 030330	METAR WIOO 030330Z 28005KT 9999 BKN011 32/23 Q1009 NOSIG=
03/12/2020 04:00:00Z	 SAID32 WIOO 030400	METAR WIOO 030400Z 33004KT 9999 BKN010 32/24 Q1009 NOSIG=
03/12/2020 04:30:00Z	 SAID32 WIOO 030430	METAR WIOO 030430Z 28006KT 9999 BKN010 33/24 Q1009 NOSIG=
03/12/2020 04:58:00Z	 SAID32 WIOO 030458	METAR WIOO 030500Z 27008KT 9999 BKN010 33/23 Q1008 NOSIG=
03/12/2020 05:25:00Z	 SAID32 WIOO 030525	METAR WIOO 030530Z 27007KT 9999 BKN011 33/23 Q1008 NOSIG=
03/12/2020 06:00:00Z	 SAID32 WIOO 030600	METAR WIOO 030600Z 27004KT 9999 SCT011 33/22 Q1007 NOSIG=
03/12/2020 06:30:00Z	 SAID32 WIOO 030630	METAR WIOO 030630Z 29008KT 9999 SCT011 33/22 Q1006 NOSIG=
03/12/2020 07:00:00Z	 SAID32 WIOO 030700	METAR WIOO 030700Z 21010KT 9999 FEW012 33/22 Q1006 NOSIG=
03/12/2020 07:30:00Z	 SAID32 WIOO 030730	METAR WIOO 030730Z 28009KT 9999 FEW012 32/22 Q1006 NOSIG=
03/12/2020 08:00:00Z	 SAID32 WIOO 030800	METAR WIOO 030800Z 25010KT 9999 FEW012 32/22 Q1005 NOSIG=
03/12/2020 08:30:00Z	 SAID32 WIOO 030830	METAR WIOO 030830Z 27008KT 9999 FEW012 32/22 Q1005 NOSIG=
03/12/2020 09:00:00Z	 SAID32 WIOO 030900	METAR WIOO 030900Z 26010KT 9999 FEW012 32/24 Q1006 NOSIG=
03/12/2020 09:30:00Z	 SAID32 WIOO 030930	METAR WIOO 030930Z 26010KT 9999 FEW012 31/24 Q1006 NOSIG=
03/12/2020 10:00:00Z	 SAID32 WIOO 031000	METAR WIOO 031000Z 26005KT 9999 FEW012 29/25 Q1007 NOSIG=
03/12/2020 10:30:00Z	 SAID32 WIOO 031030	METAR WIOO 031030Z 26005KT 9999 FEW012 29/25 Q1007 NOSIG=
03/12/2020 11:00:00Z	 SAID32 WIOO 031100	METAR WIOO 031100Z 25003KT 9999 FEW012 29/25 Q1007 NOSIG=
03/12/2020 11:30:00Z	 SAID32 WIOO 031130	METAR WIOO 031130Z 00000KT 9999 FEW012 28/25 Q1007 NOSIG=
03/12/2020 12:00:00Z	 SAID32 WIOO 031200	METAR WIOO 031200Z 00000KT 8000 FEW012 28/25 Q1008 NOSIG=
03/12/2020 12:30:00Z	 SAID32 WIOO 031230	METAR WIOO 031230Z 00000KT 8000 FEW012 28/25 Q1009 NOSIG=
03/12/2020 13:00:00Z	 SAID32 WIOO 031300	METAR WIOO 031300Z 00000KT 8000 FEW012 27/25 Q1009 NOSIG=
03/12/2020 13:30:00Z	 SAID32 WIOO 031330	METAR WIOO 031330Z 00000KT 7000 FEW012 27/25 Q1009 NOSIG=
03/12/2020 14:00:00Z	 SAID32 WIOO 031400	METAR WIOO 031400Z 00000KT 6000 FEW012 27/25 Q1009 NOSIG=
03/12/2020 14:30:00Z	 SAID32 WIOO 031430	METAR WIOO 031430Z 00000KT 6000 FEW012 27/25 Q1010 NOSIG=
03/12/2020 15:00:00Z	 SAID32 WIOO 031500	METAR WIOO 031500Z 00000KT 5000 HZ SCT012 26/24 Q1010 NOSIG=
03/12/2020 15:30:00Z	 SAID32 WIOO 031530	METAR WIOO 031530Z 00000KT 5000 HZ SCT012 26/24 Q1010 NOSIG=
03/12/2020 16:00:00Z	 SAID32 WIOO 031600	METAR WIOO 031600Z 00000KT 5000 HZ SCT012 26/24 Q1010 NOSIG=
03/12/2020 16:30:00Z	 SAID32 WIOO 031630	METAR WIOO 031630Z 00000KT 4000 HZ SCT012 26/24 Q1010 NOSIG=
03/12/2020 17:00:00Z	 SAID32 WIOO 031700	METAR WIOO 031700Z 05003KT 5000 HZ BKN011 26/25 Q1009 NOSIG=
03/12/2020 17:30:00Z	 SAID32 WIOO 031730	METAR WIOO 031730Z 00000KT 5000 HZ SCT012 26/25 Q1009 NOSIG=
03/12/2020 18:00:00Z	 SAID32 WIOO 031800	METAR WIOO 031800Z 00000KT 6000 SCT012 26/24 Q1009 NOSIG=
03/12/2020 18:30:00Z	 SAID32 WIOO 031830	METAR WIOO 031830Z 18003KT 4000 HZ SCT012 25/24 Q1008 NOSIG=
03/12/2020 19:00:00Z	 SAID32 WIOO 031900	METAR WIOO 031900Z 00000KT 6000 SCT012 25/24 Q1008 NOSIG=
03/12/2020 19:30:00Z	 SAID32 WIOO 031930	METAR WIOO 031930Z 00000KT 6000 SCT012 25/24 Q1008 NOSIG=
03/12/2020 20:00:00Z	 SAID32 WIOO 032000	METAR WIOO 032000Z 00000KT 6000 SCT012 25/24 Q1008 NOSIG=
03/12/2020 20:30:00Z	 SAID32 WIOO 032030	METAR WIOO 032030Z 00000KT 6000 SCT012 25/24 Q1007 NOSIG=
03/12/2020 21:00:00Z	 SAID32 WIOO 032100	METAR WIOO 032100Z 00000KT 6000 SCT011 25/24 Q1007 NOSIG=
03/12/2020 21:30:00Z	 SAID32 WIOO 032130	METAR WIOO 032130Z 00000KT 6000 SCT011 25/24 Q1007 NOSIG=
03/12/2020 22:00:00Z	 SAID32 WIOO 032200	METAR WIOO 032200Z 00000KT 6000 FEW011 24/23 Q1007 NOSIG=
03/12/2020 22:30:00Z	 SAID32 WIOO 032230	METAR WIOO 032230Z 00000KT 6000 FEW012 24/23 Q1008 NOSIG=
03/12/2020 23:00:00Z	 SAID32 WIOO 032300	METAR WIOO 032300Z 10003KT 6000 FEW012 25/24 Q1008 NOSIG=
03/12/2020 23:30:00Z	 SAID32 WIOO 032330	METAR WIOO 032330Z 06003KT 7000 FEW012 25/24 Q1008 NOSIG=
04/12/2020 00:00:00Z	 SAID32 WIOO 040000	METAR WIOO 040000Z 06003KT 9999 FEW012 25/24 Q1009 NOSIG=
04/12/2020 00:30:00Z	 SAID32 WIOO 040030	METAR WIOO 040030Z 10003KT 9999 FEW012 26/24 Q1009 NOSIG=
04/12/2020 01:00:00Z	 SAID32 WIOO 040100	METAR WIOO 040100Z 07003KT 9999 FEW012 27/25 Q1009 NOSIG=
04/12/2020 09:58:00Z	 SAID32 WIOO 040958	METAR WIOO 040100Z 26004KT 9999 BKN011 30/25 Q1006 NOSIG=
04/12/2020 01:30:00Z	 SAID32 WIOO 040130	METAR WIOO 040130Z 00000KT 9999 FEW012 28/25 Q1009 NOSIG=
04/12/2020 02:00:00Z	 SAID32 WIOO 040200	METAR WIOO 040200Z 00000KT 9999 SCT012 29/26 Q1010 NOSIG=
04/12/2020 02:30:00Z	 SAID32 WIOO 040230	METAR WIOO 040230Z 00000KT 9999 FEW011CB BKN012 30/25 Q1009 NOSIG=
04/12/2020 03:00:00Z	 SAID32 WIOO 040300	METAR WIOO 040300Z 32010KT 8000 FEW011CB BKN012 29/24 Q1009 TEMPO FM0315 3000 RA=
04/12/2020 03:30:00Z	 SAID32 WIOO 040330	METAR WIOO 040330Z 19005KT 8000 FEW011CB BKN012 29/24 Q1009 NOSIG=
04/12/2020 04:00:00Z	 SAID32 WIOO 040400	METAR WIOO 040400Z 13003KT 9999 FEW011CB BKN012 29/24 Q1008 NOSIG=
04/12/2020 04:30:00Z	 SAID32 WIOO 040430	METAR WIOO 040430Z 18004KT 9999 FEW011CB SCT012 30/24 Q1008 NOSIG=
04/12/2020 05:00:00Z	 SAID32 WIOO 040500	METAR WIOO 040500Z 25009KT 9999 FEW011CB SCT012 31/24 Q1007 NOSIG=
04/12/2020 05:30:00Z	 SAID32 WIOO 040530	METAR WIOO 040530Z 29012KT 9999 FEW011CB SCT012 31/24 Q1007 NOSIG=
04/12/2020 06:00:00Z	 SAID32 WIOO 040600	METAR WIOO 040600Z 28010KT 9999 FEW011CB SCT012 31/24 Q1007 NOSIG=
04/12/2020 06:27:00Z	 SAID32 WIOO 040627	METAR WIOO 040630Z 26005KT 9999 BKN012 31/24 Q1006 NOSIG=
04/12/2020 06:58:00Z	 SAID32 WIOO 040658	METAR WIOO 040700Z 25008KT 9999 BKN011 30/23 Q1006 NOSIG=
04/12/2020 07:30:00Z	 SAID32 WIOO 040730	METAR WIOO 040730Z 25009KT 9999 BKN011 31/24 Q1006 NOSIG=
04/12/2020 08:00:00Z	 SAID32 WIOO 040800	METAR WIOO 040800Z 27008KT 9999 BKN011 31/26 Q1006 NOSIG=
04/12/2020 08:28:00Z	 SAID32 WIOO 040828	METAR WIOO 040830Z 28005KT 9999 BKN011 31/25 Q1006 NOSIG=
04/12/2020 08:56:00Z	 SAID32 WIOO 040856	METAR WIOO 040900Z 27007KT 9999 BKN011 30/25 Q1006 NOSIG=
04/12/2020 09:28:00Z	 SAID32 WIOO 040928	METAR WIOO 040930Z 27006KT 9999 BKN011 30/25 Q1006 NOSIG=
04/12/2020 10:30:00Z	 SAID32 WIOO 041030	METAR WIOO 041030Z 00000KT 9999 BKN011 29/25 Q1007 NOSIG=
04/12/2020 11:00:00Z	 SAID32 WIOO 041100	METAR WIOO 041100Z 27003KT 7000 BKN012 29/25 Q1007 NOSIG=
04/12/2020 11:25:00Z	 SAID32 WIOO 041125	METAR WIOO 041130Z 00000KT 6000 SCT012 28/25 Q1007 NOSIG=
04/12/2020 12:00:00Z	 SAID32 WIOO 041200	METAR WIOO 041200Z 00000KT 6000 SCT012 28/25 Q1008 NOSIG=
04/12/2020 12:28:00Z	 SAID32 WIOO 041228	METAR WIOO 041230Z 00000KT 6000 SCT012 28/25 Q1009 NOSIG=
04/12/2020 12:59:00Z	 SAID32 WIOO 041259	METAR WIOO 041300Z 00000KT 6000 SCT012 27/24 Q1009 NOSIG=
04/12/2020 13:30:00Z	 SAID32 WIOO 041330	METAR WIOO 041330Z 00000KT 6000 SCT012 27/24 Q1009 NOSIG=
04/12/2020 14:00:00Z	 SAID32 WIOO 041400	METAR WIOO 041400Z 00000KT 6000 SCT012 27/25 Q1010 NOSIG=
04/12/2020 14:30:00Z	 SAID32 WIOO 041430	METAR WIOO 041430Z 00000KT 6000 FEW010CB SCT011 27/25 Q1010 NOSIG=
04/12/2020 15:00:00Z	 SAID32 WIOO 041500	METAR WIOO 041500Z 00000KT 6000 FEW010CB SCT011 26/24 Q1010 NOSIG=
04/12/2020 15:30:00Z	 SAID32 WIOO 041530	METAR WIOO 041530Z 25003KT 6000 SCT011 26/24 Q1009 NOSIG=
04/12/2020 16:00:00Z	 SAID32 WIOO 041600	METAR WIOO 041600Z 27003KT 6000 SCT011 26/24 Q1009 NOSIG=
04/12/2020 16:30:00Z	 SAID32 WIOO 041630	METAR WIOO 041630Z 35003KT 6000 SCT011 26/24 Q1009 NOSIG=
04/12/2020 17:00:00Z	 SAID32 WIOO 041700	METAR WIOO 041700Z 00000KT 6000 FEW012 26/24 Q1009 NOSIG=
04/12/2020 17:30:00Z	 SAID32 WIOO 041730	METAR WIOO 041730Z 00000KT 6000 FEW012 25/24 Q1008 NOSIG=
04/12/2020 18:00:00Z	 SAID32 WIOO 041800	METAR WIOO 041800Z 00000KT 6000 FEW012 25/24 Q1008 NOSIG=
04/12/2020 18:30:00Z	 SAID32 WIOO 041830	METAR WIOO 041830Z 00000KT 6000 FEW012 25/24 Q1008 NOSIG=
04/12/2020 19:00:00Z	 SAID32 WIOO 041900	METAR WIOO 041900Z 00000KT 4000 HZ FEW012 25/24 Q1008 NOSIG=
04/12/2020 19:30:00Z	 SAID32 WIOO 041930	METAR WIOO 041930Z 00000KT 4000 HZ FEW012 25/24 Q1007 NOSIG=
04/12/2020 20:00:00Z	 SAID32 WIOO 042000	METAR WIOO 042000Z 00000KT 4000 HZ FEW012 25/24 Q1007 NOSIG=
04/12/2020 20:30:00Z	 SAID32 WIOO 042030	METAR WIOO 042030Z 00000KT 4000 HZ FEW012 25/24 Q1007 NOSIG=
04/12/2020 21:00:00Z	 SAID32 WIOO 042100	METAR WIOO 042100Z 00000KT 4000 HZ FEW012 25/24 Q1007 NOSIG=
04/12/2020 21:30:00Z	 SAID32 WIOO 042130	METAR WIOO 042130Z 00000KT 4000 HZ FEW012 25/24 Q1007 NOSIG=
04/12/2020 22:00:00Z	 SAID32 WIOO 042200	METAR WIOO 042200Z 00000KT 6000 SCT012 25/24 Q1007 NOSIG=
04/12/2020 22:30:00Z	 SAID32 WIOO 042230	METAR WIOO 042230Z 34004KT 2000 BR BKN011 24/23 Q1008 NOSIG=
04/12/2020 23:00:00Z	 SAID32 WIOO 042300	METAR WIOO 042300Z 00000KT 6000 FEW011CB BKN012 24/24 Q1008 NOSIG=
04/12/2020 23:30:00Z	 SAID32 WIOO 042330	METAR WIOO 042330Z 00000KT 6000 FEW011CB SCT012 25/24 Q1008 NOSIG=
05/12/2020 00:00:00Z	 SAID32 WIOO 050000	METAR WIOO 050000Z 00000KT 8000 FEW012 26/25 Q1009 NOSIG=
05/12/2020 00:30:00Z	 SAID32 WIOO 050030	METAR WIOO 050030Z 29006KT 9999 FEW012 27/25 Q1009 NOSIG=
05/12/2020 01:00:00Z	 SAID32 WIOO 050100	METAR WIOO 050100Z 30007KT 9999 BKN011 29/26 Q1009 NOSIG=
05/12/2020 01:30:00Z	 SAID32 WIOO 050130	METAR WIOO 050130Z 30010KT 9999 BKN011 29/25 Q1009 NOSIG=
05/12/2020 02:00:00Z	 SAID32 WIOO 050200	METAR WIOO 050200Z 31012KT 9999 FEW010CB BKN011 30/24 Q1010 NOSIG=
05/12/2020 02:30:00Z	 SAID32 WIOO 050230	METAR WIOO 050230Z 31011KT 8000 FEW010CB BKN011 30/25 Q1010 RERA TEMPO FM0330 3000 RA=
05/12/2020 03:00:00Z	 SAID32 WIOO 050300	METAR WIOO 050300Z 29012KT 8000 FEW010CB BKN011 29/25 Q1009 RERA TEMPO FM0330 3000 RA=
05/12/2020 03:30:00Z	 SAID32 WIOO 050330	METAR WIOO 050330Z 31015KT 9999 FEW011CB BKN012 30/25 Q1009 TEMPO FM0430 3000 RA=
05/12/2020 04:00:00Z	 SAID32 WIOO 050400	METAR WIOO 050400Z 31015KT 9999 FEW011CB BKN012 31/24 Q1009 TEMPO FM0430 3000 RA=
05/12/2020 04:30:00Z	 SAID32 WIOO 050430	METAR WIOO 050430Z 30015KT 9999 BKN012 31/24 Q1009 NOSIG=
05/12/2020 05:00:00Z	 SAID32 WIOO 050500	METAR WIOO 050500Z 32016KT 9999 BKN012 32/24 Q1008 NOSIG=
05/12/2020 05:30:00Z	 SAID32 WIOO 050530	METAR WIOO 050530Z 33011KT 9999 SCT012 32/23 Q1008 NOSIG=
05/12/2020 06:00:00Z	 SAID32 WIOO 050600	METAR WIOO 050600Z 29012T 9999 SCT012 31/23 Q1007 NOSIG=
05/12/2020 06:00:00Z	 SAID32 WIOO 050600 CCA	METAR COR WIOO 050600Z 29012KT 9999 SCT012 31/23 Q1007 NOSIG=
05/12/2020 06:30:00Z	 SAID32 WIOO 050630	METAR WIOO 050630Z 29014T 9999 SCT012 32/23 Q1007 NOSIG=
05/12/2020 06:30:00Z	 SAID32 WIOO 050630 CCA	METAR COR WIOO 050630Z 29014KT 9999 SCT012 32/23 Q1007 NOSIG=
05/12/2020 07:00:00Z	 SAID32 WIOO 050700	METAR WIOO 050700Z 29015KT 9999 SCT012 31/24 Q1007 NOSIG=
05/12/2020 07:30:00Z	 SAID32 WIOO 050730	METAR WIOO 050730Z 30014KT 9999 SCT012 31/23 Q1006 NOSIG=
05/12/2020 08:00:00Z	 SAID32 WIOO 050800	METAR WIOO 050800Z 30014KT 9999 SCT012 31/22 Q1006 NOSIG=
05/12/2020 08:30:00Z	 SAID32 WIOO 050830	METAR WIOO 050830Z 29012KT 9999 FEW012 31/22 Q1007 NOSIG=
05/12/2020 09:00:00Z	 SAID32 WIOO 050900	METAR WIOO 050900Z 30014KT 9999 FEW012 30/24 Q1007 NOSIG=
05/12/2020 09:30:00Z	 SAID32 WIOO 050930	METAR WIOO 050930Z 28012KT 9999 FEW012 30/24 Q1007 NOSIG=
05/12/2020 10:00:00Z	 SAID32 WIOO 051000	METAR WIOO 051000Z 28010KT 9999 FEW012 30/24 Q1008 NOSIG=
05/12/2020 10:30:00Z	 SAID32 WIOO 051030	METAR WIOO 051030Z 29006KT 9999 FEW012 29/24 Q1008 NOSIG=
05/12/2020 11:00:00Z	 SAID32 WIOO 051100	METAR WIOO 051100Z 29006KT 7000 FEW012 28/24 Q1008 NOSIG=
05/12/2020 11:30:00Z	 SAID32 WIOO 051130	METAR WIOO 051130Z 30006KT 7000 SCT012 28/24 Q1009 NOSIG=
05/12/2020 12:00:00Z	 SAID32 WIOO 051200	METAR WIOO 051200Z 31006KT 6000 SCT012 27/24 Q1009 NOSIG=
05/12/2020 12:30:00Z	 SAID32 WIOO 051230	METAR WIOO 051230Z 30003KT 6000 SCT012 27/24 Q1009 NOSIG=
05/12/2020 13:00:00Z	 SAID32 WIOO 051300	METAR WIOO 051300Z 30003KT 6000 SCT012 27/24 Q1010 NOSIG=
05/12/2020 13:25:00Z	 SAID32 WIOO 051325	METAR WIOO 051330Z 32004KT 6000 SCT012 27/24 Q1009 NOSIG=
05/12/2020 13:55:00Z	 SAID32 WIOO 051355	METAR WIOO 051400Z 00000KT 6000 SCT012 27/24 Q1010 NOSIG=
05/12/2020 14:23:00Z	 SAID32 WIOO 051423	METAR WIOO 051430Z 00000KT 6000 SCT012 27/24 Q1010 NOSIG=
05/12/2020 14:30:00Z	 SAID32 WIOO 051430	METAR WIOO 051430Z 00000KT 6000 SCT012 27/24 Q1010 NOSIG=
05/12/2020 15:00:00Z	 SAID32 WIOO 051500	METAR WIOO 051500Z 00000KT 6000 SCT012 27/25 Q1010 NOSIG=
05/12/2020 15:23:00Z	 SAID32 WIOO 051523	METAR WIOO 051530Z 33003KT 6000 SCT012 27/25 Q1009 NOSIG=
05/12/2020 15:56:00Z	 SAID32 WIOO 051556	METAR WIOO 051600Z 00000KT 6000 SCT012 27/24 Q1009 NOSIG=
05/12/2020 16:30:00Z	 SAID32 WIOO 051630	METAR WIOO 051630Z 00000KT 6000 SCT012 27/24 Q1008 NOSIG=
05/12/2020 16:53:00Z	 SAID32 WIOO 051653	METAR WIOO 051700Z 00000KT 6000 SCT012 26/24 Q1008 NOSIG=
05/12/2020 17:30:00Z	 SAID32 WIOO 051730	METAR WIOO 051730Z 35005KT 6000 SCT012 26/24 Q1008 NOSIG=
05/12/2020 17:56:00Z	 SAID32 WIOO 051756	METAR WIOO 051800Z 30004KT 6000 SCT012 26/24 Q1007 NOSIG=
05/12/2020 18:30:00Z	 SAID32 WIOO 051830	METAR WIOO 051830Z 32004KT 6000 SCT012 26/24 Q1007 NOSIG=
05/12/2020 18:53:00Z	 SAID32 WIOO 051853	METAR WIOO 051900Z 00000KT 6000 SCT012 26/24 Q1007 NOSIG=
05/12/2020 19:30:00Z	 SAID32 WIOO 051930	METAR WIOO 051930Z 00000KT 6000 SCT012 26/24 Q1007 NOSIG=
05/12/2020 20:00:00Z	 SAID32 WIOO 052000	METAR WIOO 052000Z 00000KT 6000 SCT012 26/24 Q1007 NOSIG=
05/12/2020 20:30:00Z	 SAID32 WIOO 052030	METAR WIOO 052030Z 00000KT 6000 SCT012 26/24 Q1007 NOSIG=
05/12/2020 20:57:00Z	 SAID32 WIOO 052057	METAR WIOO 052100Z 00000KT 6000 SCT012 26/24 Q1007 NOSIG=
05/12/2020 21:30:00Z	 SAID32 WIOO 052130	METAR WIOO 052130Z 35004KT 6000 SCT012 26/24 Q1008 NOSIG=
05/12/2020 21:58:00Z	 SAID32 WIOO 052158	METAR WIOO 052200Z 33004KT 6000 SCT012 26/25 Q1008 NOSIG=
05/12/2020 22:26:00Z	 SAID32 WIOO 052226	METAR WIOO 052230Z 00000KT 6000 SCT012 26/25 Q1008 NOSIG=
05/12/2020 22:55:00Z	 SAID32 WIOO 052255	METAR WIOO 052300Z 00000KT 8000 SCT012 26/25 Q1008 NOSIG=
05/12/2020 23:30:00Z	 SAID32 WIOO 052330	METAR WIOO 052330Z 33003KT 8000 FEW011CB SCT012 26/25 Q1009 NOSIG=
06/12/2020 00:00:00Z	 SAID32 WIOO 060000	METAR WIOO 060000Z 33004KT 9999 FEW011CB SCT012 26/25 Q1009 NOSIG=
06/12/2020 00:30:00Z	 SAID32 WIOO 060030	METAR WIOO 060030Z 31006KT 9999 FEW011 27/25 Q1010 NOSIG=
06/12/2020 01:00:00Z	 SAID32 WIOO 060100	METAR WIOO 060100Z 33007KT 9999 FEW012 28/25 Q1010 NOSIG=
06/12/2020 01:30:00Z	 SAID32 WIOO 060130	METAR WIOO 060130Z 33011KT 9999 SCT012 29/25 Q1010 NOSIG=
06/12/2020 02:00:00Z	 SAID32 WIOO 060200	METAR WIOO 060200Z 34014KT 9999 BKN011 29/25 Q1010 NOSIG=
06/12/2020 02:30:00Z	 SAID32 WIOO 060230	METAR WIOO 060230Z 34010KT 9999 BKN011 30/25 Q1010 NOSIG=
06/12/2020 03:00:00Z	 SAID32 WIOO 060300	METAR WIOO 060300Z 3510KT 9999 BKN011 30/25 Q1010 NOSIG=
06/12/2020 03:05:00Z	 SAID32 WIOO 060305 CCA	METAR COR WIOO 060300Z 35010KT 9999 BKN011 30/25 Q1010 NOSIG=
06/12/2020 03:30:00Z	 SAID32 WIOO 060330	METAR WIOO 060330Z 34011KT 9999 BKN011 30/25 Q1009 NOSIG=
06/12/2020 04:00:00Z	 SAID32 WIOO 060400	METAR WIOO 060400Z 33011KT 5000 -RA FEW010CB BKN011 30/26 Q1009 NOSIG=
06/12/2020 04:30:00Z	 SAID32 WIOO 060430	METAR WIOO 060430Z 33008KT 8000 -RA FEW010CB BKN011 30/26 Q1009 NOSIG=
06/12/2020 05:00:00Z	 SAID32 WIOO 060500	METAR WIOO 060500Z 33011KT 9999 FEW011CB BKN012 31/25 Q1008 NOSIG=
06/12/2020 05:30:00Z	 SAID32 WIOO 060530	METAR WIOO 060530Z 33010KT 9999 FEW011CB BKN012 32/25 Q1008 NOSIG=
06/12/2020 06:00:00Z	 SAID32 WIOO 060600	METAR WIOO 060600Z 33009KT 8000 FEW010CB BKN011 30/26 Q1007 NOSIG=
06/12/2020 06:30:00Z	 SAID32 WIOO 060630	METAR WIOO 060630Z 35007KT 9000 FEW010CB BKN011 30/26 Q1007 NOSIG=
06/12/2020 07:00:00Z	 SAID32 WIOO 060700	METAR WIOO 060700Z 36012KT 9000 FEW010CB BKN011 29/24 Q1007 TEMPO FM0800 4000 RA=
06/12/2020 07:30:00Z	 SAID32 WIOO 060730	METAR WIOO 060730Z 35005KT 9000 FEW010CB BKN011 28/25 Q1007 TEMPO FM0830 4000 RA=
06/12/2020 08:00:00Z	 SAID32 WIOO 060800	METAR WIOO 060800Z 33009KT 9000 BKN011 29/25 Q1007 NOSIG=
06/12/2020 08:30:00Z	 SAID32 WIOO 060830	METAR WIOO 060830Z 31009KT 99999 SCT011 29/25 Q1007 NOSIG=
06/12/2020 08:30:00Z	 SAID32 WIOO 060830 CCA	METAR COR WIOO 060830Z 31009KT 9999 SCT011 29/25 Q1007 NOSIG=
06/12/2020 09:00:00Z	 SAID32 WIOO 060900	METAR WIOO 060900Z 34010KT 99999 SCT011 29/25 Q1007 NOSIG=
06/12/2020 09:00:00Z	 SAID32 WIOO 060900 CCA	METAR COR WIOO 060900Z 34010KT 9999 SCT011 29/25 Q1007 NOSIG=
06/12/2020 09:30:00Z	 SAID32 WIOO 060930	METAR WIOO 060930Z 35005KT 99999 SCT011 29/25 Q1007 NOSIG=
06/12/2020 09:30:00Z	 SAID32 WIOO 060930 CCA	METAR COR WIOO 060930Z 35005KT 9999 SCT011 29/25 Q1007 NOSIG=
06/12/2020 10:00:00Z	 SAID32 WIOO 061000	METAR WIOO 061000Z 34007KT 9999 SCT011 28/25 Q1008 NOSIG=
06/12/2020 10:30:00Z	 SAID32 WIOO 061030	METAR WIOO 061030Z 36007KT 8000 FEW011 28/25 Q1008 NOSIG=
06/12/2020 11:00:00Z	 SAID32 WIOO 061100	METAR WIOO 061100Z 33004KT 7000 FEW012 28/25 Q1008 NOSIG=
06/12/2020 11:30:00Z	 SAID32 WIOO 061130	METAR WIOO 061130Z 35003KT 6000 FEW012 28/25 Q1009 NOSIG=
06/12/2020 12:00:00Z	 SAID32 WIOO 061200	METAR WIOO 061200Z 32005KT 6000 FEW012 27/25 Q1009 NOSIG=
06/12/2020 12:30:00Z	 SAID32 WIOO 061230	METAR WIOO 061230Z 36003KT 6000 FEW012 27/25 Q1010 NOSIG=
06/12/2020 13:00:00Z	 SAID32 WIOO 061300	METAR WIOO 061300Z 33003KT 6000 FEW012 27/25 Q1010 NOSIG=
06/12/2020 13:30:00Z	 SAID32 WIOO 061330	METAR WIOO 061330Z 00000KT 6000 FEW012 27/25 Q1011 NOSIG=
06/12/2020 14:00:00Z	 SAID32 WIOO 061400	METAR WIOO 061400Z 01004KT 6000 FEW012 27/25 Q1010 NOSIG=
06/12/2020 14:30:00Z	 SAID32 WIOO 061430	METAR WIOO 061430Z 34003KT 6000 SCT012 27/25 Q1010 NOSIG=
06/12/2020 15:00:00Z	 SAID32 WIOO 061500	METAR WIOO 061500Z 36003KT 6000 SCT012 27/25 Q1010 NOSIG=
06/12/2020 15:30:00Z	 SAID32 WIOO 061530	METAR WIOO 061530Z 33004KT 6000 SCT012 26/25 Q1010 NOSIG=
06/12/2020 16:00:00Z	 SAID32 WIOO 061600	METAR WIOO 061600Z 34004KT 6000 SCT012 26/24 Q1010 NOSIG=
06/12/2020 16:30:00Z	 SAID32 WIOO 061630	METAR WIOO 061630Z 35003KT 6000 SCT012 26/24 Q1010 NOSIG=
06/12/2020 17:00:00Z	 SAID32 WIOO 061700	METAR WIOO 061700Z 00000KT 6000 SCT012 26/24 Q1010 NOSIG=
06/12/2020 17:30:00Z	 SAID32 WIOO 061730	METAR WIOO 061730Z 00000KT 6000 SCT012 26/24 Q1009 NOSIG=
06/12/2020 18:00:00Z	 SAID32 WIOO 061800	METAR WIOO 061800Z 32004KT 6000 SCT012 26/24 Q1009 NOSIG=
06/12/2020 18:30:00Z	 SAID32 WIOO 061830	METAR WIOO 061830Z 35006KT 6000 SCT012 26/24 Q1008 NOSIG=
06/12/2020 19:00:00Z	 SAID32 WIOO 061900	METAR WIOO 061900Z 35004KT 6000 SCT012 26/24 Q1008 NOSIG=
06/12/2020 19:30:00Z	 SAID32 WIOO 061930	METAR WIOO 061930Z 00000KT 6000 SCT012 25/24 Q1008 NOSIG=
06/12/2020 20:00:00Z	 SAID32 WIOO 062000	METAR WIOO 062000Z 02003KT 6000 SCT012 25/24 Q1008 NOSIG=
06/12/2020 20:30:00Z	 SAID32 WIOO 062030	METAR WIOO 062030Z 02003KT 6000 SCT012 25/24 Q1008 NOSIG=
06/12/2020 21:00:00Z	 SAID32 WIOO 062100	METAR WIOO 062100Z 35003KT 6000 SCT012 25/24 Q1008 NOSIG=
06/12/2020 21:30:00Z	 SAID32 WIOO 062130	METAR WIOO 062130Z 00000KT 6000 SCT012 25/24 Q1008 NOSIG=
06/12/2020 22:00:00Z	 SAID32 WIOO 062200	METAR WIOO 062200Z 00000KT 6000 SCT012 25/24 Q1008 NOSIG=
06/12/2020 22:30:00Z	 SAID32 WIOO 062230	METAR WIOO 062230Z 00000KT 6000 SCT012 25/24 Q1009 NOSIG=
06/12/2020 23:00:00Z	 SAID32 WIOO 062300	METAR WIOO 062300Z 00000KT 6000 SCT012 25/24 Q1009 NOSIG=
06/12/2020 23:30:00Z	 SAID32 WIOO 062330	METAR WIOO 062330Z 00000KT 5000 BR FEW012 25/24 Q1010 NOSIG=
07/12/2020 00:00:00Z	 SAID32 WIOO 070000	METAR WIOO 070000Z 00000KT 6000 FEW012 26/25 Q1010 NOSIG=
07/12/2020 00:30:00Z	 SAID32 WIOO 070030	METAR WIOO 070030Z 00000KT 9000 FEW012 26/24 Q1010 NOSIG=
07/12/2020 01:00:00Z	 SAID32 WIOO 070100	METAR WIOO 070100Z 00000KT 9000 FEW012 27/24 Q1010 NOSIG=
07/12/2020 01:30:00Z	 SAID32 WIOO 070130	METAR WIOO 070130Z 00000KT 9999 SCT011 27/25 Q1010 NOSIG=
07/12/2020 02:00:00Z	 SAID32 WIOO 070200	METAR WIOO 070200Z 26004KT 9999 SCT011 29/25 Q1010 NOSIG=
07/12/2020 02:30:00Z	 SAID32 WIOO 070230	METAR WIOO 070230Z 30007KT 9999 SCT011 29/24 Q1010 NOSIG=
07/12/2020 03:00:00Z	 SAID32 WIOO 070300	METAR WIOO 070300Z 32007KT 9999 BKN012 30/24 Q1010 NOSIG=
07/12/2020 03:30:00Z	 SAID32 WIOO 070330	METAR WIOO 070330Z 31005KT 9999 BKN012 31/24 Q1010 NOSIG=
07/12/2020 04:00:00Z	 SAID32 WIOO 070400	METAR WIOO 070400Z 22004KT 9999 BKN011 31/25 Q1010 NOSIG=
07/12/2020 04:30:00Z	 SAID32 WIOO 070430	METAR WIOO 070430Z 26010KT 9999 BKN011 31/25 Q1009 NOSIG=
07/12/2020 05:00:00Z	 SAID32 WIOO 070500	METAR WIOO 070500Z 26007KT 9999 BKN011 32/24 Q1008 NOSIG=
07/12/2020 05:30:00Z	 SAID32 WIOO 070530	METAR WIOO 070530Z 26008KT 9999 BKN011 32/24 Q1008 NOSIG=
07/12/2020 06:00:00Z	 SAID32 WIOO 070600	METAR WIOO 070600Z 27010KT 9999 BKN011 32/25 Q1008 NOSIG=
07/12/2020 06:30:00Z	 SAID32 WIOO 070630	METAR WIOO 070630Z 29012KT 9999 BKN011 32/25 Q1007 NOSIG=
07/12/2020 07:00:00Z	 SAID32 WIOO 070700	METAR WIOO 070700Z 29012KT 9999 SCT012 32/25 Q1007 NOSIG=
07/12/2020 07:30:00Z	 SAID32 WIOO 070730	METAR WIOO 070730Z 28012KT 9999 SCT012 32/25 Q1007 NOSIG=
07/12/2020 08:00:00Z	 SAID32 WIOO 070800	METAR WIOO 070800Z 28014KT 9999 SCT012 32/24 Q1007 NOSIG=
07/12/2020 08:30:00Z	 SAID32 WIOO 070830	METAR WIOO 070830Z 30014KT 9999 SCT012 31/25 Q1007 NOSIG=
07/12/2020 09:00:00Z	 SAID32 WIOO 070900	METAR WIOO 070900Z 29014KT 9999 FEW012 30/24 Q1007 NOSIG=
07/12/2020 09:30:00Z	 SAID32 WIOO 070930	METAR WIOO 070930Z 30012KT 9999 FEW012 29/25 Q1007 NOSIG=
07/12/2020 10:00:00Z	 SAID32 WIOO 071000	METAR WIOO 071000Z 31010KT 9999 FEW012 29/24 Q1008 NOSIG=
07/12/2020 10:30:00Z	 SAID32 WIOO 071030	METAR WIOO 071030Z 30008KT 8000 FEW012 28/24 Q1009 NOSIG=
07/12/2020 11:00:00Z	 SAID32 WIOO 071100	METAR WIOO 071100Z 31008KT 7000 FEW012 28/24 Q1009 NOSIG=
07/12/2020 11:30:00Z	 SAID32 WIOO 071130	METAR WIOO 071130Z 29006KT 7000 FEW012 28/25 Q1010 NOSIG=
07/12/2020 12:00:00Z	 SAID32 WIOO 071200	METAR WIOO 071200Z 30005KT 7000 SCT012 27/24 Q1010 NOSIG=
07/12/2020 12:30:00Z	 SAID32 WIOO 071230	METAR WIOO 071230Z 31003KT 7000 SCT012 27/25 Q1011 NOSIG=
07/12/2020 13:00:00Z	 SAID32 WIOO 071300	METAR WIOO 071300Z 00000KT 7000 SCT011 27/24 Q1011 NOSIG=
07/12/2020 13:30:00Z	 SAID32 WIOO 071330	METAR WIOO 071330Z 33004KT 6000 SCT011 27/24 Q1011 NOSIG=
07/12/2020 14:00:00Z	 SAID32 WIOO 071400	METAR WIOO 071400Z 29004KT 6000 SCT012 27/24 Q1011 NOSIG=
07/12/2020 14:30:00Z	 SAID32 WIOO 071430	METAR WIOO 071430Z 00000KT 6000 SCT012 27/24 Q1011 NOSIG=
07/12/2020 15:00:00Z	 SAID32 WIOO 071500	METAR WIOO 071500Z 00000KT 6000 FEW012 27/25 Q1011 NOSIG=
07/12/2020 15:30:00Z	 SAID32 WIOO 071530	METAR WIOO 071530Z 32003KT 6000 FEW012 26/24 Q1010 NOSIG=
07/12/2020 16:00:00Z	 SAID32 WIOO 071600	METAR WIOO 071600Z 33003KT 6000 FEW012 26/24 Q1010 NOSIG=
07/12/2020 16:30:00Z	 SAID32 WIOO 071630	METAR WIOO 071630Z 00000KT 6000 FEW012 26/24 Q1010 NOSIG=
07/12/2020 17:00:00Z	 SAID32 WIOO 071700	METAR WIOO 071700Z 00000KT 6000 FEW012 26/24 Q1010 NOSIG=
07/12/2020 17:30:00Z	 SAID32 WIOO 071730	METAR WIOO 071730Z 36003KT 6000 FEW012 26/24 Q1009 NOSIG=
07/12/2020 18:00:00Z	 SAID32 WIOO 071800	METAR WIOO 071800Z 00000KT 6000 FEW012 26/24 Q1009 NOSIG=
07/12/2020 18:30:00Z	 SAID32 WIOO 071830	METAR WIOO 071830Z 00000KT 6000 FEW012 26/24 Q1009 NOSIG=
07/12/2020 19:00:00Z	 SAID32 WIOO 071900	METAR WIOO 071900Z 00000KT 6000 FEW012 25/24 Q1009 NOSIG=
07/12/2020 19:30:00Z	 SAID32 WIOO 071930	METAR WIOO 071930Z 36003KT 6000 FEW012 25/24 Q1008 NOSIG=
07/12/2020 20:00:00Z	 SAID32 WIOO 072000	METAR WIOO 072000Z 00000KT 6000 FEW012 25/24 Q1009 NOSIG=
07/12/2020 20:30:00Z	 SAID32 WIOO 072030	METAR WIOO 072030Z 00000KT 6000 FEW012 25/24 Q1009 NOSIG=
07/12/2020 21:00:00Z	 SAID32 WIOO 072100	METAR WIOO 072100Z 05003KT 6000 FEW012 25/24 Q1009 NOSIG=
07/12/2020 21:30:00Z	 SAID32 WIOO 072130	METAR WIOO 072130Z 00000KT 6000 FEW012 25/24 Q1009 NOSIG=
07/12/2020 22:00:00Z	 SAID32 WIOO 072200	METAR WIOO 072200Z 00000KT 6000 FEW012 25/24 Q1009 NOSIG=
07/12/2020 22:30:00Z	 SAID32 WIOO 072230	METAR WIOO 072230Z 00000KT 6000 SCT011 25/24 Q1009 NOSIG=
07/12/2020 23:00:00Z	 SAID32 WIOO 072300	METAR WIOO 072300Z 00000KT 4000 BR SCT011 25/24 Q1009 NOSIG=
07/12/2020 23:24:00Z	 SAID32 WIOO 072324	METAR WIOO 072330Z 00000KT 2000 BR SCT011 25/24 Q1010 NOSIG=
08/12/2020 00:00:00Z	 SAID32 WIOO 080000	METAR WIOO 080000Z 00000KT 6000 SCT011 25/24 Q1010 NOSIG=
08/12/2020 00:30:00Z	 SAID32 WIOO 080030	METAR WIOO 080030Z 33004KT 9999 BKN011 27/25 Q1010 NOSIG=
08/12/2020 01:00:00Z	 SAID32 WIOO 080100	METAR WIOO 080100Z 33007KT 9999 BKN011 28/25 Q1010 NOSIG=
08/12/2020 01:30:00Z	 SAID32 WIOO 080130	METAR WIOO 080130Z 29008KT 9999 BKN011 29/25 Q1010 NOSIG=
08/12/2020 02:00:00Z	 SAID32 WIOO 080200	METAR WIOO 080200Z 32009KT 9999 BKN011 30/25 Q1011 NOSIG=
08/12/2020 02:25:00Z	 SAID32 WIOO 080225	METAR WIOO 080230Z 30011KT 9999 BKN010 30/25 Q1011 NOSIG=
08/12/2020 02:54:00Z	 SAID32 WIOO 080254	METAR WIOO 080300Z 32009KT 9999 BKN010 31/23 Q1010 NOSIG=
08/12/2020 03:30:00Z	 SAID32 WIOO 080330	METAR WIOO 080330Z 31010KT 9999 BKN010 31/23 Q1010 NOSIG=
08/12/2020 04:00:00Z	 SAID32 WIOO 080400	METAR WIOO 080400Z 27010KT 9999 BKN010 32/24 Q1009 NOSIG=
08/12/2020 04:30:00Z	 SAID32 WIOO 080430	METAR WIOO 080430Z 29010KT 9999 BKN010 32/25 Q1009 NOSIG=
08/12/2020 05:00:00Z	 SAID32 WIOO 080500	METAR WIOO 080500Z 30011KT 9999 BKN010 32/24 Q1009 NOSIG=
08/12/2020 05:30:00Z	 SAID32 WIOO 080530	METAR WIOO 080530Z 30010KT 9999 BKN010 32/25 Q1008 NOSIG=
08/12/2020 06:00:00Z	 SAID32 WIOO 080600	METAR WIOO 080600Z 26011KT 9999 BKN010 32/24 Q1008 NOSIG=
08/12/2020 06:30:00Z	 SAID32 WIOO 080630	METAR WIOO 080630Z 27007KT 9999 BKN010 32/24 Q1007 NOSIG=
08/12/2020 07:00:00Z	 SAID32 WIOO 080700	METAR WIOO 080700Z 26015KT 9999 BKN010 32/24 Q1007 NOSIG=
08/12/2020 07:30:00Z	 SAID32 WIOO 080730	METAR WIOO 080730Z 29015KT 9999 BKN010 31/24 Q1007 NOSIG=
08/12/2020 08:00:00Z	 SAID32 WIOO 080800	METAR WIOO 080800Z 27015KT 9999 BKN010 31/24 Q1007 NOSIG=
08/12/2020 08:30:00Z	 SAID32 WIOO 080830	METAR WIOO 080830Z 27015KT 9999 SCT010 31/24 Q1007 NOSIG=
08/12/2020 09:00:00Z	 SAID32 WIOO 080900	METAR WIOO 080900Z 28010KT 9999 SCT010 30/24 Q1006 NOSIG=
08/12/2020 09:30:00Z	 SAID32 WIOO 080930	METAR WIOO 080930Z 28013KT 9999 SCT010 30/24 Q1007 NOSIG=
08/12/2020 10:00:00Z	 SAID32 WIOO 081000	METAR WIOO 081000Z 27010KT 9999 SCT010 30/24 Q1007 NOSIG=
08/12/2020 10:30:00Z	 SAID32 WIOO 081030	METAR WIOO 081030Z 27010KT 8000 SCT010 28/24 Q1007 NOSIG=
08/12/2020 11:00:00Z	 SAID32 WIOO 081100	METAR WIOO 081100Z 28007KT 8000 SCT010 28/24 Q1008 NOSIG=
08/12/2020 11:30:00Z	 SAID32 WIOO 081130	METAR WIOO 081130Z 28007KT 8000 SCT010 28/24 Q1008 NOSIG=
08/12/2020 12:00:00Z	 SAID32 WIOO 081200	METAR WIOO 081200Z 28006KT 8000 SCT012 27/25 Q1009 NOSIG=
08/12/2020 12:25:00Z	 SAID32 WIOO 081225	METAR WIOO 081230Z 31006KT 8000 SCT012 27/25 Q1009 NOSIG=
08/12/2020 13:00:00Z	 SAID32 WIOO 081300	METAR WIOO 081300Z 33005KT 8000 SCT012 27/25 Q1009 NOSIG=
08/12/2020 13:30:00Z	 SAID32 WIOO 081330	METAR WIOO 081330Z 33008KT 8000 SCT012 27/25 Q1009 NOSIG=
08/12/2020 14:00:00Z	 SAID32 WIOO 081400	METAR WIOO 081400Z 33007KT 7000 SCT012 27/24 Q1009 NOSIG=
08/12/2020 14:30:00Z	 SAID32 WIOO 081430	METAR WIOO 081430Z 32004KT 7000 SCT012 26/24 Q1009 NOSIG=
08/12/2020 15:00:00Z	 SAID32 WIOO 081500	METAR WIOO 081500Z 32004KT 7000 SCT012 26/24 Q1009 NOSIG=
08/12/2020 15:30:00Z	 SAID32 WIOO 081530	METAR WIOO 081530Z 32004KT 7000 SCT012 26/24 Q1009 NOSIG=
08/12/2020 16:00:00Z	 SAID32 WIOO 081600	METAR WIOO 081600Z 32006KT 7000 FEW012 26/24 Q1009 NOSIG=
08/12/2020 16:30:00Z	 SAID32 WIOO 081630	METAR WIOO 081630Z 32006KT 7000 FEW012 26/24 Q1009 NOSIG=
08/12/2020 17:00:00Z	 SAID32 WIOO 081700	METAR WIOO 081700Z 35005KT 7000 FEW012 26/24 Q1009 NOSIG=
08/12/2020 17:30:00Z	 SAID32 WIOO 081730	METAR WIOO 081730Z 34004KT 7000 FEW012 26/24 Q1008 NOSIG=
08/12/2020 18:00:00Z	 SAID32 WIOO 081800	METAR WIOO 081800Z 34004KT 7000 SCT011 26/24 Q1008 NOSIG=
08/12/2020 18:30:00Z	 SAID32 WIOO 081830	METAR WIOO 081830Z 32004KT 7000 SCT011 25/24 Q1008 NOSIG=
08/12/2020 19:00:00Z	 SAID32 WIOO 081900	METAR WIOO 081900Z 34003KT 7000 SCT011 25/24 Q1008 NOSIG=
08/12/2020 19:30:00Z	 SAID32 WIOO 081930	METAR WIOO 081930Z 33004KT 7000 FEW011 25/24 Q1008 NOSIG=
08/12/2020 20:00:00Z	 SAID32 WIOO 082000	METAR WIOO 082000Z 33004KT 7000 FEW011 25/24 Q1008 NOSIG=
08/12/2020 20:30:00Z	 SAID32 WIOO 082030	METAR WIOO 082030Z 31004KT 7000 SCT011 25/24 Q1008 NOSIG=
08/12/2020 21:00:00Z	 SAID32 WIOO 082100	METAR WIOO 082100Z 31003KT 7000 SCT011 25/24 Q1008 NOSIG=
08/12/2020 21:30:00Z	 SAID32 WIOO 082130	METAR WIOO 082130Z 00000KT 7000 SCT011 25/24 Q1008 NOSIG=
08/12/2020 22:00:00Z	 SAID32 WIOO 082200	METAR WIOO 082200Z 34003KT 7000 SCT011 25/24 Q1008 NOSIG=
08/12/2020 22:30:00Z	 SAID32 WIOO 082230	METAR WIOO 082230Z 35004KT 7000 FEW012 25/24 Q1009 NOSIG=
08/12/2020 23:00:00Z	 SAID32 WIOO 082300	METAR WIOO 082300Z 36005KT 8000 FEW012 25/24 Q1009 NOSIG=
08/12/2020 23:30:00Z	 SAID32 WIOO 082330	METAR WIOO 082330Z 00000KT 9999 FEW012 26/24 Q1010 NOSIG=
09/12/2020 00:00:00Z	 SAID32 WIOO 090000	METAR WIOO 090000Z 36003KT 9999 FEW012 26/24 Q1010 NOSIG=
09/12/2020 00:30:00Z	 SAID32 WIOO 090030	METAR WIOO 090030Z 33003KT 9999 FEW012 27/24 Q1011 NOSIG=
09/12/2020 01:00:00Z	 SAID32 WIOO 090100	METAR WIOO 090100Z 35004KT 9999 SCT012 28/25 Q1010 NOSIG=
09/12/2020 01:30:00Z	 SAID32 WIOO 090130	METAR WIOO 090130Z 31006KT 9999 BKN012 29/25 Q1010 NOSIG=
09/12/2020 02:00:00Z	 SAID32 WIOO 090200	METAR WIOO 090200Z 29009KT 9999 BKN012 29/25 Q1011 NOSIG=
09/12/2020 02:30:00Z	 SAID32 WIOO 090230	METAR WIOO 090230Z 30006KT 9999 BKN012 30/24 Q1011 NOSIG=
09/12/2020 03:00:00Z	 SAID32 WIOO 090300	METAR WIOO 090300Z 30009KT 9999 BKN012 30/24 Q1010 NOSIG=
09/12/2020 03:30:00Z	 SAID32 WIOO 090330	METAR WIOO 090330Z 29010KT 9999 FEW011CB BKN012 31/24 Q1010 NOSIG=
09/12/2020 04:00:00Z	 SAID32 WIOO 090400	METAR WIOO 090400Z 29012KT 9999 BKN012 32/24 Q1009 NOSIG=
09/12/2020 04:30:00Z	 SAID32 WIOO 090430	METAR WIOO 090430Z 29011KT 9999 BKN012 32/24 Q1009 NOSIG=
09/12/2020 05:00:00Z	 SAID32 WIOO 090500	METAR WIOO 090500Z 29015KT 9999 BKN012 32/23 Q1008 NOSIG=
09/12/2020 05:30:00Z	 SAID32 WIOO 090530	METAR WIOO 090530Z 30014KT 9999 SCT012 32/23 Q1007 NOSIG=
09/12/2020 06:00:00Z	 SAID32 WIOO 090600	METAR WIOO 090600Z 29012KT 9999 SCT012 32/24 Q1007 NOSIG=
09/12/2020 06:24:00Z	 SAID32 WIOO 090624	METAR WIOO 090630Z 28011KT 9999 BKN011 32/24 Q1006 NOSIG=
09/12/2020 06:54:00Z	 SAID32 WIOO 090654	METAR WIOO 090700Z 26009KT 9999 BKN012 32/24 Q1006 NOSIG=
09/12/2020 07:30:00Z	 SAID32 WIOO 090730	METAR WIOO 090730Z 28013KT 9999 BKN012 31/24 Q1005 NOSIG=
09/12/2020 08:00:00Z	 SAID32 WIOO 090800	METAR WIOO 090800Z 28013KT 9999 BKN012 31/24 Q1005 NOSIG=
09/12/2020 08:27:00Z	 SAID32 WIOO 090827	METAR WIOO 090830Z 27014KT 9999 BKN012 31/25 Q1005 NOSIG=
09/12/2020 09:00:00Z	 SAID32 WIOO 090900	METAR WIOO 090900Z 25011KT 9999 SCT012 30/24 Q1005 NOSIG=
09/12/2020 09:30:00Z	 SAID32 WIOO 090930	METAR WIOO 090930Z 26008KT 9999 SCT012 29/24 Q1006 NOSIG=
09/12/2020 09:53:00Z	 SAID32 WIOO 090953	METAR WIOO 091000Z 28007KT 6000 SCT012 29/24 Q1006 NOSIG=
09/12/2020 10:30:00Z	 SAID32 WIOO 091030	METAR WIOO 091030Z 28007KT 6000 SCT012 28/24 Q1006 NOSIG=
09/12/2020 11:00:00Z	 SAID32 WIOO 091100	METAR WIOO 091100Z 27005KT 5000 FU SCT012 28/24 Q1006 NOSIG=
09/12/2020 11:25:00Z	 SAID32 WIOO 091125	METAR WIOO 091130Z 27004KT 5000 FU SCT012 28/25 Q1007 NOSIG=
09/12/2020 11:56:00Z	 SAID32 WIOO 091156	METAR WIOO 091200Z 28004KT 5000 FU SCT012 27/24 Q1007 NOSIG=
09/12/2020 12:30:00Z	 SAID32 WIOO 091230	METAR WIOO 091230Z 29005KT 9000 SCT012 27/24 Q1008 NOSIG=
09/12/2020 13:00:00Z	 SAID32 WIOO 091300	METAR WIOO 091300Z 28004KT 6000 SCT012 26/24 Q1008 NOSIG=
09/12/2020 13:25:00Z	 SAID32 WIOO 091325	METAR WIOO 091330Z 31004KT 6000 SCT012 26/24 Q1009 NOSIG=
09/12/2020 14:00:00Z	 SAID32 WIOO 091400	METAR WIOO 091400Z 31005KT 6000 SCT012 26/24 Q1009 NOSIG=
09/12/2020 14:30:00Z	 SAID32 WIOO 091430	METAR WIOO 091430Z 31005KT 6000 SCT012 26/24 Q1009 NOSIG=
09/12/2020 15:00:00Z	 SAID32 WIOO 091500	METAR WIOO 091500Z 32005KT 6000 SCT012 27/24 Q1009 NOSIG=
09/12/2020 15:30:00Z	 SAID32 WIOO 091530	METAR WIOO 091530Z 31005KT 6000 SCT012 26/24 Q1009 NOSIG=
09/12/2020 16:00:00Z	 SAID32 WIOO 091600	METAR WIOO 091600Z 00000KT 6000 SCT012 26/24 Q1009 NOSIG=
09/12/2020 16:30:00Z	 SAID32 WIOO 091630	METAR WIOO 091630Z 00000KT 6000 SCT012 26/24 Q1009 NOSIG=
09/12/2020 17:00:00Z	 SAID32 WIOO 091700	METAR WIOO 091700Z 00000KT 6000 SCT012 26/24 Q1009 NOSIG=
09/12/2020 17:30:00Z	 SAID32 WIOO 091730	METAR WIOO 091730Z 00000KT 6000 SCT012 26/24 Q1008 NOSIG=
09/12/2020 18:00:00Z	 SAID32 WIOO 091800	METAR WIOO 091800Z 00000KT 6000 SCT012 25/24 Q1008 NOSIG=
09/12/2020 18:30:00Z	 SAID32 WIOO 091830	METAR WIOO 091830Z 00000KT 6000 SCT012 25/24 Q1008 NOSIG=
09/12/2020 19:00:00Z	 SAID32 WIOO 091900	METAR WIOO 091900Z 31005KT 6000 SCT012 25/24 Q1007 NOSIG=
09/12/2020 19:30:00Z	 SAID32 WIOO 091930	METAR WIOO 091930Z 00000KT 6000 SCT012 25/24 Q1007 NOSIG=
09/12/2020 20:00:00Z	 SAID32 WIOO 092000	METAR WIOO 092000Z 18003KT 6000 SCT012 25/24 Q1007 NOSIG=
09/12/2020 20:30:00Z	 SAID32 WIOO 092030	METAR WIOO 092030Z 00000KT 6000 SCT012 25/24 Q1007 NOSIG=
09/12/2020 21:00:00Z	 SAID32 WIOO 092100	METAR WIOO 092100Z 00000KT 6000 SCT012 25/24 Q1008 NOSIG=
09/12/2020 21:30:00Z	 SAID32 WIOO 092130	METAR WIOO 092130Z 00000KT 6000 SCT012 25/24 Q1008 NOSIG=
09/12/2020 22:00:00Z	 SAID32 WIOO 092200	METAR WIOO 092200Z 00000KT 6000 SCT012 25/24 Q1008 NOSIG=
09/12/2020 22:30:00Z	 SAID32 WIOO 092230	METAR WIOO 092230Z 00000KT 6000 SCT012 25/24 Q1008 NOSIG=
09/12/2020 23:00:00Z	 SAID32 WIOO 092300	METAR WIOO 092300Z 00000KT 6000 SCT012 25/24 Q1008 NOSIG=
09/12/2020 23:30:00Z	 SAID32 WIOO 092330	METAR WIOO 092330Z 01003KT 8000 SCT012 25/24 Q1009 NOSIG=
10/12/2020 00:00:00Z	 SAID32 WIOO 100000	METAR WIOO 100000Z 02003KT 9000 FEW012 26/24 Q1009 NOSIG=
10/12/2020 00:30:00Z	 SAID32 WIOO 100030	METAR WIOO 100030Z 35007KT 9999 FEW012 27/24 Q1009 NOSIG=
10/12/2020 01:00:00Z	 SAID32 WIOO 100100	METAR WIOO 100100Z 33009KT 9999 FEW012 28/24 Q1009 NOSIG=
10/12/2020 01:30:00Z	 SAID32 WIOO 100130	METAR WIOO 100130Z 33010KT 9999 SCT012 29/24 Q1009 NOSIG=
10/12/2020 02:00:00Z	 SAID32 WIOO 100200	METAR WIOO 100200Z 34011KT 9999 BKN012 29/24 Q1009 NOSIG=
10/12/2020 02:30:00Z	 SAID32 WIOO 100230	METAR WIOO 100230Z 33009KT 9999 BKN012 30/24 Q1009 NOSIG=
10/12/2020 03:00:00Z	 SAID32 WIOO 100300	METAR WIOO 100300Z 34010KT 9999 BKN012 31/24 Q1009 NOSIG=
10/12/2020 03:30:00Z	 SAID32 WIOO 100330	METAR WIOO 100330Z 32009KT 9999 BKN012 31/24 Q1009 NOSIG=
10/12/2020 04:00:00Z	 SAID32 WIOO 100400	METAR WIOO 100400Z 35005KT 9999 BKN012 31/24 Q1009 NOSIG=
10/12/2020 04:30:00Z	 SAID32 WIOO 100430	METAR WIOO 100430Z 32007KT 9999 BKN012 32/24 Q1008 NOSIG=
10/12/2020 05:00:00Z	 SAID32 WIOO 100500	METAR WIOO 100500Z 32006KT 9999 BKN012 33/24 Q1008 NOSIG=
10/12/2020 05:30:00Z	 SAID32 WIOO 100530	METAR WIOO 100530Z 35008KT 9999 FEW011CB BKN012 31/24 Q1007 NOSIG=
10/12/2020 06:00:00Z	 SAID32 WIOO 100600	METAR WIOO 100600Z 01005KT 9999 BKN012 32/24 Q1007 NOSIG=
10/12/2020 06:30:00Z	 SAID32 WIOO 100630	METAR WIOO 100630Z 28012KT 9999 BKN012 33/24 Q1007 NOSIG=
10/12/2020 07:00:00Z	 SAID32 WIOO 100700	METAR WIOO 100700Z 29012KT 9999 FEW011CB SCT012 32/25 Q1006 NOSIG=
10/12/2020 07:30:00Z	 SAID32 WIOO 100730	METAR WIOO 100730Z 29013KT 9999 FEW011CB SCT012 32/24 Q1006 NOSIG=
10/12/2020 08:00:00Z	 SAID32 WIOO 100800	METAR WIOO 100800Z 29014KT 9999 SCT012 32/23 Q1006 NOSIG=
10/12/2020 08:30:00Z	 SAID32 WIOO 100830	METAR WIOO 100830Z 26015KT 9999 SCT012 31/24 Q1006 NOSIG=
10/12/2020 09:00:00Z	 SAID32 WIOO 100900	METAR WIOO 100900Z 27012KT 9999 SCT012 31/24 Q1006 NOSIG=
10/12/2020 09:30:00Z	 SAID32 WIOO 100930	METAR WIOO 100930Z 30008KT 9999 FEW012 31/24 Q1007 NOSIG=
10/12/2020 10:00:00Z	 SAID32 WIOO 101000	METAR WIOO 101000Z 31010KT 9999 FEW012 30/24 Q1007 NOSIG=
10/12/2020 10:30:00Z	 SAID32 WIOO 101030	METAR WIOO 101030Z 28008KT 9999 FEW012 29/23 Q1007 NOSIG=
10/12/2020 11:00:00Z	 SAID32 WIOO 101100	METAR WIOO 101100Z 28006KT 5000 FU SCT011 29/24 Q1007 NOSIG=
10/12/2020 11:30:00Z	 SAID32 WIOO 101130	METAR WIOO 101130Z 30006KT 5000 FU SCT011 28/24 Q1008 NOSIG=
10/12/2020 12:00:00Z	 SAID32 WIOO 101200	METAR WIOO 101200Z 31005KT 6000 SCT011 28/24 Q1009 NOSIG=
10/12/2020 12:30:00Z	 SAID32 WIOO 101230	METAR WIOO 101230Z 32007KT 6000 SCT011 27/24 Q1009 NOSIG=
10/12/2020 13:00:00Z	 SAID32 WIOO 101300	METAR WIOO 101300Z 33006KT 6000 SCT011 27/24 Q1010 NOSIG=
10/12/2020 13:24:00Z	 SAID32 WIOO 101324	METAR WIOO 101330Z 27004KT 6000 SCT011 27/24 Q1010 NOSIG=
10/12/2020 13:54:00Z	 SAID32 WIOO 101354	METAR WIOO 101400Z 29003KT 6000 SCT011 27/24 Q1010 NOSIG=
10/12/2020 14:30:00Z	 SAID32 WIOO 101430	METAR WIOO 101430Z 33004KT 6000 SCT011 27/24 Q1010 NOSIG=
10/12/2020 15:00:00Z	 SAID32 WIOO 101500	METAR WIOO 101500Z 29003KT 6000 SCT011 27/24 Q1010 NOSIG=
10/12/2020 15:30:00Z	 SAID32 WIOO 101530	METAR WIOO 101530Z 33004KT 6000 SCT011 26/24 Q1010 NOSIG=
10/12/2020 15:51:00Z	 SAID32 WIOO 101551	METAR WIOO 101600Z 27003KT 6000 SCT011 26/24 Q1010 NOSIG=
10/12/2020 16:30:00Z	 SAID32 WIOO 101630	METAR WIOO 101630Z 00000KT 6000 SCT011 26/24 Q1010 NOSIG=
10/12/2020 16:53:00Z	 SAID32 WIOO 101653	METAR WIOO 101700Z 00000KT 6000 SCT011 26/24 Q1010 NOSIG=
10/12/2020 17:30:00Z	 SAID32 WIOO 101730	METAR WIOO 101730Z 00000KT 6000 SCT011 26/24 Q1009 NOSIG=
10/12/2020 17:55:00Z	 SAID32 WIOO 101755	METAR WIOO 101800Z 00000KT 6000 SCT011 26/24 Q1009 NOSIG=
10/12/2020 18:30:00Z	 SAID32 WIOO 101830	METAR WIOO 101830Z 00000KT 6000 SCT012 26/24 Q1008 NOSIG=
10/12/2020 19:00:00Z	 SAID32 WIOO 101900	METAR WIOO 101900Z 00000KT 6000 SCT012 26/25 Q1008 NOSIG=
10/12/2020 19:30:00Z	 SAID32 WIOO 101930	METAR WIOO 101930Z 00000KT 6000 SCT012 26/25 Q1008 NOSIG=
10/12/2020 19:56:00Z	 SAID32 WIOO 101956	METAR WIOO 102000Z 05004KT 6000 SCT012 25/24 Q1008 NOSIG=
10/12/2020 20:30:00Z	 SAID32 WIOO 102030	METAR WIOO 102030Z 00000KT 6000 SCT012 25/24 Q1008 NOSIG=
10/12/2020 20:54:00Z	 SAID32 WIOO 102054	METAR WIOO 102100Z 00000KT 6000 SCT012 25/24 Q1008 NOSIG=
10/12/2020 21:30:00Z	 SAID32 WIOO 102130	METAR WIOO 102130Z 00000KT 6000 SCT012 25/23 Q1008 NOSIG=
10/12/2020 21:54:00Z	 SAID32 WIOO 102154	METAR WIOO 102200Z 00000KT 6000 SCT012 25/23 Q1008 NOSIG=
10/12/2020 22:28:00Z	 SAID32 WIOO 102228	METAR WIOO 102230Z 00000KT 6000 SCT012 25/24 Q1008 NOSIG=
10/12/2020 23:00:00Z	 SAID32 WIOO 102300	METAR WIOO 102300Z 00000KT 3000 BR SCT012 24/23 Q1008 NOSIG=
10/12/2020 23:30:00Z	 SAID32 WIOO 102330	METAR WIOO 102330Z 00000KT 2500 BR SCT012 25/24 Q1009 NOSIG=
11/12/2020 00:00:00Z	 SAID32 WIOO 110000	METAR WIOO 110000Z 00000KT 4000 FU FEW012 25/24 Q1010 NOSIG=
11/12/2020 00:30:00Z	 SAID32 WIOO 110030	METAR WIOO 110030Z 06003KT 6000 FEW012 26/24 Q1010 NOSIG=
11/12/2020 01:00:00Z	 SAID32 WIOO 110100	METAR WIOO 110100Z 00000KT 8000 FEW011 27/24 Q1010 NOSIG=
11/12/2020 01:30:00Z	 SAID32 WIOO 110130	METAR WIOO 110130Z 35003KT 8000 BKN011 28/25 Q1010 NOSIG=
11/12/2020 02:00:00Z	 SAID32 WIOO 110200	METAR WIOO 110200Z 33008KT 9999 BKN011 29/24 Q1010 NOSIG=
11/12/2020 02:30:00Z	 SAID32 WIOO 110230	METAR WIOO 110230Z 33007KT 9999 BKN011 30/24 Q1010 NOSIG=
11/12/2020 03:00:00Z	 SAID32 WIOO 110300	METAR WIOO 110300Z 31007KT 9999 BKN011 30/24 Q1010 NOSIG=
11/12/2020 03:30:00Z	 SAID32 WIOO 110330	METAR WIOO 110330Z 32008KT 9999 BKN011 31/25 Q1009 NOSIG=
11/12/2020 04:00:00Z	 SAID32 WIOO 110400	METAR WIOO 110400Z 30009KT 9999 BKN012 32/24 Q1009 NOSIG=
11/12/2020 04:30:00Z	 SAID32 WIOO 110430	METAR WIOO 110430Z 32010KT 9999 BKN012 32/24 Q1009 NOSIG=
11/12/2020 05:00:00Z	 SAID32 WIOO 110500	METAR WIOO 110500Z 25007KT 9999 BKN012 32/24 Q1008 NOSIG=
11/12/2020 05:30:00Z	 SAID32 WIOO 110530	METAR WIOO 110530Z 29011KT 9999 BKN012 32/24 Q1008 NOSIG=
11/12/2020 06:00:00Z	 SAID32 WIOO 110600	METAR WIOO 110600Z 29010KT 9999 SCT011 32/23 Q1007 NOSIG=
11/12/2020 06:30:00Z	 SAID32 WIOO 110630	METAR WIOO 110630Z 29010KT 9999 SCT012 32/23 Q1007 NOSIG=
11/12/2020 07:00:00Z	 SAID32 WIOO 110700	METAR WIOO 110700Z 29011KT 9999 SCT012 32/23 Q1006 NOSIG=
11/12/2020 07:30:00Z	 SAID32 WIOO 110730	METAR WIOO 110730Z 28018KT 9999 SCT012 32/23 Q1006 NOSIG=
11/12/2020 08:00:00Z	 SAID32 WIOO 110800	METAR WIOO 110800Z 27013KT 9999 SCT012 31/23 Q1006 NOSIG=
11/12/2020 08:30:00Z	 SAID32 WIOO 110830	METAR WIOO 110830Z 30012KT 9999 SCT012 30/25 Q1006 NOSIG=
11/12/2020 09:00:00Z	 SAID32 WIOO 110900	METAR WIOO 110900Z 28011KT 9999 FEW012 30/24 Q1006 NOSIG=
11/12/2020 09:30:00Z	 SAID32 WIOO 110930	METAR WIOO 110930Z 30010KT 9999 FEW012 29/24 Q1006 NOSIG=
11/12/2020 10:00:00Z	 SAID32 WIOO 111000	METAR WIOO 111000Z 28008KT 8000 FEW012 29/24 Q1007 NOSIG=
11/12/2020 10:30:00Z	 SAID32 WIOO 111030	METAR WIOO 111030Z 31004KT 5000 HZ FEW012 29/24 Q1007 NOSIG=
11/12/2020 11:00:00Z	 SAID32 WIOO 111100	METAR WIOO 111100Z 30005KT 4000 HZ FEW012 28/24 Q1007 NOSIG=
11/12/2020 11:30:00Z	 SAID32 WIOO 111130	METAR WIOO 111130Z 30004KT 5000 HZ FEW012 27/24 Q1008 NOSIG=
11/12/2020 12:00:00Z	 SAID32 WIOO 111200	METAR WIOO 111200Z 29003KT 4000 HZ FEW012 28/24 Q1008 NOSIG=
11/12/2020 12:30:00Z	 SAID32 WIOO 111230	METAR WIOO 111230Z 00000KT 3000 FU FEW012 27/24 Q1009 NOSIG=
11/12/2020 13:00:00Z	 SAID32 WIOO 111300	METAR WIOO 111300Z 00000KT 3000 FU FEW012 27/24 Q1009 NOSIG=
11/12/2020 13:30:00Z	 SAID32 WIOO 111330	METAR WIOO 111330Z 00000KT 3500 FU FEW011 27/24 Q1010 NOSIG=
11/12/2020 14:00:00Z	 SAID32 WIOO 111400	METAR WIOO 111400Z 00000KT 3000 FU SCT011 27/24 Q1010 NOSIG=
11/12/2020 14:30:00Z	 SAID32 WIOO 111430	METAR WIOO 111430Z 00000KT 3000 FU SCT011 27/24 Q1010 NOSIG=
11/12/2020 15:00:00Z	 SAID32 WIOO 111500	METAR WIOO 111500Z 00000KT 3000 FU SCT011 27/25 Q1010 NOSIG=
11/12/2020 15:30:00Z	 SAID32 WIOO 111530	METAR WIOO 111530Z 00000KT 3000 FU SCT011 27/25 Q1010 NOSIG=
11/12/2020 16:00:00Z	 SAID32 WIOO 111600	METAR WIOO 111600Z 00000KT 3000 FU SCT011 27/25 Q1010 NOSIG=
11/12/2020 16:30:00Z	 SAID32 WIOO 111630	METAR WIOO 111630Z 00000KT 3000 FU SCT011 26/24 Q1010 NOSIG=
11/12/2020 17:00:00Z	 SAID32 WIOO 111700	METAR WIOO 111700Z 00000KT 3000 FU SCT012 26/25 Q1010 RERA NOSIG=
11/12/2020 17:30:00Z	 SAID32 WIOO 111730	METAR WIOO 111730Z 00000KT 2500 FU SCT012 26/25 Q1009 NOSIG=
11/12/2020 18:00:00Z	 SAID32 WIOO 111800	METAR WIOO 111800Z 00000KT 2500 HZ SCT012 26/25 Q1009 NOSIG=
11/12/2020 18:30:00Z	 SAID32 WIOO 111830	METAR WIOO 111830Z 07003KT 2500 HZ SCT012 26/25 Q1008 NOSIG=
11/12/2020 19:00:00Z	 SAID32 WIOO 111900	METAR WIOO 111900Z 00000KT 4000 -RA SCT012 26/25 Q1008 NOSIG=
11/12/2020 19:30:00Z	 SAID32 WIOO 111930 CCA	METAR COR WIOO 111930Z 00000KT 4000 BR SCT012 26/25 Q1008 RERA NOSIG=
11/12/2020 19:30:00Z	 SAID32 WIOO 111930	METAR WIOO 111930Z 0000KT 4000 BR SCT012 26/25 Q1008 RERA NOSIG=
11/12/2020 20:00:00Z	 SAID32 WIOO 112000	METAR WIOO 112000Z 00000KT 5000 BR SCT012 26/25 Q1008 NOSIG=
11/12/2020 20:30:00Z	 SAID32 WIOO 112030	METAR WIOO 112030Z 00000KT 5000 BR SCT012 26/25 Q1008 NOSIG=
11/12/2020 21:00:00Z	 SAID32 WIOO 112100	METAR WIOO 112100Z 00000KT 6000 SCT012 26/24 Q1008 NOSIG=
11/12/2020 21:30:00Z	 SAID32 WIOO 112130	METAR WIOO 112130Z 00000KT 5000 -RA BKN012 25/24 Q1008 NOSIG=
11/12/2020 22:00:00Z	 SAID32 WIOO 112200	METAR WIOO 112200Z 00000KT 6000 SCT012 25/24 Q1008 RERA NOSIG=
11/12/2020 22:30:00Z	 SAID32 WIOO 112230	METAR WIOO 112230Z 00000KT 6000 SCT012 25/24 Q1008 NOSIG=
11/12/2020 23:00:00Z	 SAID32 WIOO 112300	METAR WIOO 112300Z 06003KT 4000 BR SCT012 25/24 Q1009 NOSIG=
11/12/2020 23:30:00Z	 SAID32 WIOO 112330	METAR WIOO 112330Z 00000KT 4000 BR FEW011CB SCT012 25/24 Q1009 TEMPO AT0000 6000=
12/12/2020 00:00:00Z	 SAID32 WIOO 120000	METAR WIOO 120000Z 03004KT 4000 -RA FEW010CB BKN011 26/24 Q1009 TEMPO FM0100 6000=
12/12/2020 00:30:00Z	 SAID32 WIOO 120030	METAR WIOO 120030Z 03004KT 6000 FEW010CB BKN011 26/24 Q1009 RERA NOSIG=
12/12/2020 01:00:00Z	 SAID32 WIOO 120100	METAR WIOO 120100Z 00000KT 6000 FEW010CB BKN011 26/24 Q1009 NOSIG=
12/12/2020 01:30:00Z	 SAID32 WIOO 120130	METAR WIOO 120130Z 03003KT 6000 FEW010CB BKN011 28/24 Q1009 NOSIG=
12/12/2020 02:00:00Z	 SAID32 WIOO 120200	METAR WIOO 120200Z 00000KT 6000 SCT011 28/25 Q1010 NOSIG=
12/12/2020 02:27:00Z	 SAID32 WIOO 120227	METAR WIOO 120230Z 31003KT 6000 SCT010 29/25 Q1010 NOSIG=
12/12/2020 03:00:00Z	 SAID32 WIOO 120300	METAR WIOO 120300Z 30004KT 6000 SCT010 30/24 Q1009 NOSIG=
12/12/2020 03:30:00Z	 SAID32 WIOO 120330	METAR WIOO 120330Z 26006KT 6000 SCT010 30/24 Q1009 NOSIG=
12/12/2020 04:00:00Z	 SAID32 WIOO 120400	METAR WIOO 120400Z 27010KT 6000 SCT010 31/25 Q1009 NOSIG=
12/12/2020 04:30:00Z	 SAID32 WIOO 120430	METAR WIOO 120430Z 29008KT 9999 SCT010 31/25 Q1009 NOSIG=
12/12/2020 05:00:00Z	 SAID32 WIOO 120500	METAR WIOO 120500Z 26008KT 9999 SCT010 32/24 Q1008 NOSIG=
12/12/2020 05:30:00Z	 SAID32 WIOO 120530	METAR WIOO 120530Z 25010KT 9999 SCT010 32/24 Q1007 NOSIG=
12/12/2020 06:00:00Z	 SAID32 WIOO 120600	METAR WIOO 120600Z 26010KT 9999 SCT012 32/24 Q1007 NOSIG=
12/12/2020 06:30:00Z	 SAID32 WIOO 120630	METAR WIOO 120630Z 30011KT 9999 SCT011 32/24 Q1006 NOSIG=
12/12/2020 07:00:00Z	 SAID32 WIOO 120700	METAR WIOO 120700Z 27011KT 9999 SCT011 32/23 Q1005 NOSIG=
12/12/2020 07:30:00Z	 SAID32 WIOO 120730	METAR WIOO 120730Z 27010KT 9999 SCT011 31/24 Q1005 NOSIG=
12/12/2020 08:00:00Z	 SAID32 WIOO 120800	METAR WIOO 120800Z 27009KT 9999 SCT011 31/24 Q1005 NOSIG=
12/12/2020 08:30:00Z	 SAID32 WIOO 120830	METAR WIOO 120830Z 29010KT 9999 SCT012 30/24 Q1005 NOSIG=
12/12/2020 09:00:00Z	 SAID32 WIOO 120900	METAR WIOO 120900Z 30010KT 9999 SCT011 30/24 Q1005 NOSIG=
12/12/2020 09:30:00Z	 SAID32 WIOO 120930	METAR WIOO 120930Z 30008KT 9999 FEW010CB SCT011 29/25 Q1006 NOSIG=
12/12/2020 10:00:00Z	 SAID32 WIOO 121000	METAR WIOO 121000Z 28010KT 8000 FEW010CB SCT011 29/25 Q1006 NOSIG=
12/12/2020 10:30:00Z	 SAID32 WIOO 121030	METAR WIOO 121030Z 31014KT 8000 FEW010CB BKN011 27/24 Q1007 TEMPO FM1045 3000 TSRA=
12/12/2020 11:00:00Z	 SAID32 WIOO 121100	METAR WIOO 121100Z 33010KT 7000 -RA FEW010CB BKN011 25/23 Q1008 TEMPO FM1115 3000 TSRA=
12/12/2020 11:30:00Z	 SAID32 WIOO 121130	METAR WIOO 121130Z 32011KT 6000 -RA FEW010CB BKN011 25/24 Q1008 TEMPO FM1200 TS=
12/12/2020 12:00:00Z	 SAID32 WIOO 121200	METAR WIOO 121200Z 33007KT 5000 -RA FEW010CB BKN011 25/24 Q1008 NOSIG=
12/12/2020 12:30:00Z	 SAID32 WIOO 121230	METAR WIOO 121230Z 30004KT 6000 -RA BKN011 24/23 Q1008 NOSIG=
12/12/2020 13:00:00Z	 SAID32 WIOO 121300	METAR WIOO 121300Z 34003KT 5000 -RA BKN010 24/23 Q1009 NOSIG=
12/12/2020 13:30:00Z	 SAID32 WIOO 121330	METAR WIOO 121330Z 00000KT 6000 -RA BKN010 24/23 Q1009 NOSIG=
12/12/2020 14:00:00Z	 SAID32 WIOO 121400	METAR WIOO 121400Z 30003KT 6000 -RA BKN010 25/24 Q1009 NOSIG=
12/12/2020 14:30:00Z	 SAID32 WIOO 121430	METAR WIOO 121430Z 00000KT 6000 BKN010 25/24 Q1009 RERA NOSIG=
12/12/2020 15:00:00Z	 SAID32 WIOO 121500	METAR WIOO 121500Z 31005KT 6000 BKN010 25/24 Q1009 NOSIG=
12/12/2020 15:30:00Z	 SAID32 WIOO 121530	METAR WIOO 121530Z 35003KT 6000 BKN010 25/24 Q1009 NOSIG=
12/12/2020 16:00:00Z	 SAID32 WIOO 121600	METAR WIOO 121600Z 03004KT 6000 -RA BKN010 25/24 Q1010 NOSIG=
12/12/2020 16:30:00Z	 SAID32 WIOO 121630	METAR WIOO 121630Z 36004KT 6000 -RA BKN010 25/24 Q1009 NOSIG=
12/12/2020 17:00:00Z	 SAID32 WIOO 121700	METAR WIOO 121700Z 01003KT 6000 -RA BKN010 24/23 Q1009 NOSIG=
12/12/2020 17:30:00Z	 SAID32 WIOO 121730	METAR WIOO 121730Z 00000KT 6000 -RA BKN010 24/23 Q1009 NOSIG=
12/12/2020 18:00:00Z	 SAID32 WIOO 121800	METAR WIOO 121800Z 36004KT 6000 -RA BKN010 24/23 Q1009 NOSIG=
12/12/2020 18:30:00Z	 SAID32 WIOO 121830	METAR WIOO 121830Z 00000KT 6000 BKN011 24/23 Q1008 RERA NOSIG=
12/12/2020 19:00:00Z	 SAID32 WIOO 121900	METAR WIOO 121900Z 00000KT 6000 BKN011 24/23 Q1008 NOSIG=
12/12/2020 19:30:00Z	 SAID32 WIOO 121930	METAR WIOO 121930Z 00000KT 6000 BKN011 24/23 Q1008 NOSIG=
12/12/2020 20:00:00Z	 SAID32 WIOO 122000	METAR WIOO 122000Z 00000KT 6000 SCT010 24/23 Q1008 NOSIG=
12/12/2020 20:30:00Z	 SAID32 WIOO 122030	METAR WIOO 122030Z 00000KT 6000 SCT010 24/23 Q1008 NOSIG=
12/12/2020 21:00:00Z	 SAID32 WIOO 122100	METAR WIOO 122100Z 09003KT 6000 SCT010 24/23 Q1008 NOSIG=
12/12/2020 21:30:00Z	 SAID32 WIOO 122130	METAR WIOO 122130Z 06003KT 6000 SCT010 24/23 Q1008 NOSIG=
12/12/2020 22:00:00Z	 SAID32 WIOO 122200	METAR WIOO 122200Z 00000KT 6000 SCT011 24/23 Q1008 NOSIG=
12/12/2020 22:30:00Z	 SAID32 WIOO 122230	METAR WIOO 122230Z 00000KT 7000 SCT011 24/23 Q1009 NOSIG=
12/12/2020 23:00:00Z	 SAID32 WIOO 122300	METAR WIOO 122300Z 05003KT 8000 SCT011 24/23 Q1009 NOSIG=
12/12/2020 23:25:00Z	 SAID32 WIOO 122325	METAR WIOO 122330Z 02003KT 7000 SCT011 24/23 Q1009 NOSIG=
13/12/2020 00:00:00Z	 SAID32 WIOO 130000	METAR WIOO 130000Z 03005KT 9999 SCT011 24/23 Q1010 NOSIG=
13/12/2020 00:30:00Z	 SAID32 WIOO 130030	METAR WIOO 130030Z 02003KT 9999 SCT012 25/24 Q1010 NOSIG=
13/12/2020 01:00:00Z	 SAID32 WIOO 130100	METAR WIOO 130100Z 01004KT 9999 SCT012 25/24 Q1010 NOSIG=
13/12/2020 01:30:00Z	 SAID32 WIOO 130130	METAR WIOO 130130Z 04003KT 9999 SCT012 27/24 Q1010 NOSIG=
13/12/2020 02:00:00Z	 SAID32 WIOO 130200	METAR WIOO 130200Z 01003KT 9999 SCT012 28/24 Q1010 NOSIG=
13/12/2020 02:30:00Z	 SAID32 WIOO 130230	METAR WIOO 130230Z 15003KT 9999 FEW010CB BKN011 28/24 Q1010 NOSIG=
13/12/2020 03:00:00Z	 SAID32 WIOO 130300	METAR WIOO 130300Z 22004KT 9999 FEW009CB BKN010 29/24 Q1010 TEMPO FM0330 2000 RA=
13/12/2020 03:30:00Z	 SAID32 WIOO 130330	METAR WIOO 130330Z 23010KT 6000 -RA FEW009CB BKN010 25/23 Q1011 TEMPO FM0400 2000 RA=
13/12/2020 04:00:00Z	 SAID32 WIOO 130400	METAR WIOO 130400Z 24005KT 8000 -RA FEW009CB BKN010 25/24 Q1011 TEMPO FM0430 3000 RA=
13/12/2020 04:30:00Z	 SAID32 WIOO 130430	METAR WIOO 130430Z 25009KT 8000 -RA FEW010CB BKN011 25/24 Q1009 NOSIG=
13/12/2020 05:00:00Z	 SAID32 WIOO 130500	METAR WIOO 130500Z 26009KT 8000 -RA FEW010CB BKN011 25/23 Q1009 NOSIG=
13/12/2020 05:30:00Z	 SAID32 WIOO 130530	METAR WIOO 130530Z 24011KT 9999 SCT012 26/24 Q1008 RERA NOSIG=
13/12/2020 06:00:00Z	 SAID32 WIOO 130600	METAR WIOO 130600Z 24006KT 9999 BKN012 27/25 Q1008 NOSIG=
13/12/2020 06:30:00Z	 SAID32 WIOO 130630	METAR WIOO 130630Z 24010KT 9999 BKN011 28/25 Q1007 NOSIG=
13/12/2020 07:00:00Z	 SAID32 WIOO 130700	METAR WIOO 130700Z 25010KT 9999 BKN011 28/24 Q1007 NOSIG=
13/12/2020 07:30:00Z	 SAID32 WIOO 130730	METAR WIOO 130730Z 22007KT 9999 BKN011 28/24 Q1007 NOSIG=
13/12/2020 08:00:00Z	 SAID32 WIOO 130800	METAR WIOO 130800Z 26008KT 9999 BKN011 29/24 Q1007 NOSIG=
13/12/2020 08:30:00Z	 SAID32 WIOO 130830	METAR WIOO 130830Z 22008KT 9999 BKN011 28/24 Q1006 NOSIG=
13/12/2020 09:00:00Z	 SAID32 WIOO 130900	METAR WIOO 130900Z 19005KT 9999 SCT011 28/24 Q1006 NOSIG=
13/12/2020 09:30:00Z	 SAID32 WIOO 130930	METAR WIOO 130930Z 22005KT 9999 SCT011 28/24 Q1007 NOSIG=
13/12/2020 10:00:00Z	 SAID32 WIOO 131000	METAR WIOO 131000Z 23005KT 9999 SCT011 28/24 Q1007 NOSIG=
13/12/2020 10:30:00Z	 SAID32 WIOO 131030	METAR WIOO 131030Z 19005KT 9999 SCT011 27/24 Q1007 NOSIG=
13/12/2020 11:00:00Z	 SAID32 WIOO 131100	METAR WIOO 131100Z 19004KT 9999 SCT011 27/24 Q1007 NOSIG=
13/12/2020 11:30:00Z	 SAID32 WIOO 131130	METAR WIOO 131130Z 00000KT 8000 SCT011 26/24 Q1007 NOSIG=
13/12/2020 12:00:00Z	 SAID32 WIOO 131200	METAR WIOO 131200Z 16003KT 8000 SCT011 27/24 Q1008 NOSIG=
13/12/2020 12:30:00Z	 SAID32 WIOO 131230	METAR WIOO 131230Z 00000KT 8000 SCT011 27/24 Q1008 NOSIG=
13/12/2020 13:00:00Z	 SAID32 WIOO 131300	METAR WIOO 131300Z 00000KT 7000 SCT011 26/24 Q1009 NOSIG=
13/12/2020 13:30:00Z	 SAID32 WIOO 131330	METAR WIOO 131330Z 02003KT 6000 SCT011 26/24 Q1009 NOSIG=
13/12/2020 14:00:00Z	 SAID32 WIOO 131400	METAR WIOO 131400Z 05004KT 6000 SCT011 26/24 Q1009 NOSIG=
13/12/2020 14:30:00Z	 SAID32 WIOO 131430	METAR WIOO 131430Z 00000KT 6000 SCT011 25/24 Q1009 NOSIG=
13/12/2020 15:00:00Z	 SAID32 WIOO 131500	METAR WIOO 131500Z 00000KT 6000 SCT012 25/23 Q1009 NOSIG=
13/12/2020 15:30:00Z	 SAID32 WIOO 131530	METAR WIOO 131530Z 29006KT 6000 -RA BKN011 24/24 Q1009 NOSIG=
13/12/2020 16:00:00Z	 SAID32 WIOO 131600	METAR WIOO 131600Z 00000KT 6000 -RA BKN011 24/23 Q1009 NOSIG=
13/12/2020 16:30:00Z	 SAID32 WIOO 131630	METAR WIOO 131630Z 00000KT 6000 BKN011 24/23 Q1009 RERA NOSIG=
13/12/2020 17:00:00Z	 SAID32 WIOO 131700	METAR WIOO 131700Z 00000KT 6000 SCT011 24/23 Q1008 NOSIG=
13/12/2020 17:30:00Z	 SAID32 WIOO 131730	METAR WIOO 131730Z 00000KT 6000 SCT011 24/23 Q1008 NOSIG=
13/12/2020 18:00:00Z	 SAID32 WIOO 131800	METAR WIOO 131800Z 00000KT 6000 SCT011 24/23 Q1008 NOSIG=
13/12/2020 18:30:00Z	 SAID32 WIOO 131830	METAR WIOO 131830Z 00000KT 6000 SCT011 24/23 Q1008 NOSIG=
13/12/2020 19:00:00Z	 SAID32 WIOO 131900	METAR WIOO 131900Z 00000KT 6000 SCT011 24/23 Q1008 NOSIG=
13/12/2020 19:30:00Z	 SAID32 WIOO 131930	METAR WIOO 131930Z 00000KT 6000 SCT011 24/23 Q1008 NOSIG=
13/12/2020 20:00:00Z	 SAID32 WIOO 132000	METAR WIOO 132000Z 00000KT 6000 SCT011 24/23 Q1008 NOSIG=
13/12/2020 20:30:00Z	 SAID32 WIOO 132030	METAR WIOO 132030Z 00000KT 6000 BKN011 24/23 Q1008 NOSIG=
13/12/2020 21:00:00Z	 SAID32 WIOO 132100	METAR WIOO 132100Z 00000KT 6000 BKN011 24/23 Q1008 NOSIG=
13/12/2020 21:30:00Z	 SAID32 WIOO 132130	METAR WIOO 132130Z 00000KT 6000 SCT011 24/23 Q1007 NOSIG=
13/12/2020 22:00:00Z	 SAID32 WIOO 132200	METAR WIOO 132200Z 00000KT 6000 SCT011 24/23 Q1008 NOSIG=
13/12/2020 22:30:00Z	 SAID32 WIOO 132230	METAR WIOO 132230Z 07003KT 6000 SCT011 24/23 Q1008 NOSIG=
13/12/2020 23:00:00Z	 SAID32 WIOO 132300	METAR WIOO 132300Z 00000KT 7000 FEW011CB SCT011 24/23 Q1008 NOSIG=
13/12/2020 23:30:00Z	 SAID32 WIOO 132330	METAR WIOO 132330Z 00000KT 9999 SCT012 24/23 Q1009 NOSIG=
14/12/2020 00:00:00Z	 SAID32 WIOO 140000	METAR WIOO 140000Z 00000KT 9999 SCT012 24/23 Q1009 NOSIG=
14/12/2020 00:30:00Z	 SAID32 WIOO 140030	METAR WIOO 140030Z 00000KT 9999 SCT012 25/23 Q1009 NOSIG=
14/12/2020 01:00:00Z	 SAID32 WIOO 140100	METAR WIOO 140100Z 08003KT 9999 SCT012 26/24 Q1009 NOSIG=
14/12/2020 01:30:00Z	 SAID32 WIOO 140130	METAR WIOO 140130Z 07004KT 9999 FEW012 27/24 Q1010 NOSIG=
14/12/2020 02:00:00Z	 SAID32 WIOO 140200	METAR WIOO 140200Z 06003KT 9999 FEW012 28/24 Q1010 NOSIG=
14/12/2020 02:30:00Z	 SAID32 WIOO 140230	METAR WIOO 140230Z 00000KT 9999 SCT012 29/24 Q1010 NOSIG=
14/12/2020 03:00:00Z	 SAID32 WIOO 140300	METAR WIOO 140300Z 35004KT 9999 SCT012 29/24 Q1010 NOSIG=
14/12/2020 03:30:00Z	 SAID32 WIOO 140330	METAR WIOO 140330Z 35003KT 9999 BKN012 30/24 Q1009 NOSIG=
14/12/2020 04:00:00Z	 SAID32 WIOO 140400	METAR WIOO 140400Z 00000KT 9999 BKN012 30/24 Q1009 NOSIG=
14/12/2020 04:30:00Z	 SAID32 WIOO 140430	METAR WIOO 140430Z 19003KT 9999 BKN012 31/24 Q1009 NOSIG=
14/12/2020 05:00:00Z	 SAID32 WIOO 140500	METAR WIOO 140430Z 00000KT 9999 BKN012 32/24 Q1008 NOSIG=
14/12/2020 05:00:00Z	 SAID32 WIOO 140500 CCA	METAR WIOO 140500Z 00000KT 9999 BKN012 32/24 Q1008 NOSIG=
14/12/2020 05:30:00Z	 SAID32 WIOO 140530	METAR WIOO 140530Z 23004KT 9999 BKN012 32/24 Q1007 NOSIG=
14/12/2020 06:00:00Z	 SAID32 WIOO 140600	METAR WIOO 140600Z 26006KT 9999 FEW011CB BKN012 32/24 Q1007 NOSIG=
14/12/2020 06:25:00Z	 SAID32 WIOO 140625	METAR WIOO 140630Z 23009KT 9999 BKN012 33/24 Q1006 NOSIG=
14/12/2020 07:00:00Z	 SAID32 WIOO 140700	METAR WIOO 140700Z 23005KT 9999 BKN012 32/23 Q1006 NOSIG=
14/12/2020 07:25:00Z	 SAID32 WIOO 140725	METAR WIOO 140730Z 24007KT 9999 BKN012 32/23 Q1006 NOSIG=
14/12/2020 07:58:00Z	 SAID32 WIOO 140758	METAR WIOO 140800Z 24007KT 9999 BKN012 32/23 Q1005 NOSIG=
14/12/2020 08:24:00Z	 SAID32 WIOO 140824	METAR WIOO 140830Z 26012KT 9999 FEW011CB BKN012 31/24 Q1006 NOSIG=
14/12/2020 08:54:00Z	 SAID32 WIOO 140854	METAR WIOO 140900Z 27005KT 9999 FEW011CB BKN012 31/24 Q1006 NOSIG=
14/12/2020 09:30:00Z	 SAID32 WIOO 140930	METAR WIOO 140930Z 27005KT 9999 BKN011 30/24 Q1007 NOSIG=
14/12/2020 09:58:00Z	 SAID32 WIOO 140958	METAR WIOO 141000Z 31003KT 9999 BKN011 29/24 Q1007 NOSIG=
14/12/2020 10:30:00Z	 SAID32 WIOO 141030	METAR WIOO 141030Z 02004KT 7000 -RA FEW010CB BKN011 27/24 Q1008 TEMPO FM1045 3000 RA=
14/12/2020 10:56:00Z	 SAID32 WIOO 141056	METAR WIOO 141100Z 01003KT 6000 -RA FEW009CB BKN010 27/24 Q1008 TEMPO FM1045 3000 RA=
14/12/2020 11:22:00Z	 SAID32 WIOO 141122	METAR WIOO 141130Z 01003KT 6000 -RA FEW009CB BKN010 26/24 Q1008 NOSIG=
14/12/2020 11:56:00Z	 SAID32 WIOO 141156	METAR WIOO 141200Z 01003KT 6000 -RA FEW009CB BKN010 26/24 Q1009 NOSIG=
14/12/2020 12:27:00Z	 SAID32 WIOO 141227	METAR WIOO 141230Z 01004KT 5000 -RA FEW010CB BKN011 25/24 Q1009 NOSIG=
14/12/2020 12:55:00Z	 SAID32 WIOO 141255	METAR WIOO 141300Z 31005KT 3000 RA FEW010CB BKN011 25/24 Q1010 NOSIG=
14/12/2020 13:27:00Z	 SAID32 WIOO 141327	METAR WIOO 141330Z 01004KT 3000 -RA FEW010CB BKN011 25/24 Q1011 NOSIG=
14/12/2020 14:00:00Z	 SAID32 WIOO 141400	METAR WIOO 141400Z 03005KT 3000 -RA FEW010CB BKN011 24/23 Q1011 TEMPO FM1430 4000 BR=
14/12/2020 14:30:00Z	 SAID32 WIOO 141430	METAR WIOO 141430Z 01005KT 4000 -RA FEW010CB BKN011 24/23 Q1011 NOSIG=
14/12/2020 15:00:00Z	 SAID32 WIOO 141500	METAR WIOO 141500Z 05003KT 4000 -RA FEW010CB BKN011 24/23 Q1010 NOSIG=
14/12/2020 15:30:00Z	 SAID32 WIOO 141530	METAR WIOO 141530Z 00000KT 5000 -RA FEW010CB BKN011 24/23 Q1010 NOSIG=
14/12/2020 16:00:00Z	 SAID32 WIOO 141600	METAR WIOO 141600Z 00000KT 5000 -RA FEW010CB BKN011 24/23 Q1010 NOSIG=
14/12/2020 16:30:00Z	 SAID32 WIOO 141630	METAR WIOO 141630Z 00000KT 5000 -RA FEW010CB BKN011 24/23 Q1010 NOSIG=
14/12/2020 17:00:00Z	 SAID32 WIOO 141700	METAR WIOO 141700Z 00000KT 6000 FEW010CB BKN011 24/23 Q1010 RERA NOSIG=
14/12/2020 17:30:00Z	 SAID32 WIOO 141730	METAR WIOO 141730Z 00000KT 6000 FEW010CB BKN011 24/23 Q1010 NOSIG=
14/12/2020 18:00:00Z	 SAID32 WIOO 141800	METAR WIOO 141800Z 00000KT 6000 FEW010CB BKN011 24/23 Q1010 NOSIG=
14/12/2020 18:30:00Z	 SAID32 WIOO 141830	METAR WIOO 141830Z 00000KT 6000 FEW010CB BKN011 24/23 Q1010 NOSIG=
14/12/2020 19:00:00Z	 SAID32 WIOO 141900	METAR WIOO 141900Z 00000KT 6000 BKN011 24/23 Q1009 NOSIG=
14/12/2020 19:30:00Z	 SAID32 WIOO 141930	METAR WIOO 141930Z 00000KT 6000 SCT011 24/23 Q1009 NOSIG=
14/12/2020 20:00:00Z	 SAID32 WIOO 142000	METAR WIOO 142000Z 00000KT 6000 SCT011 24/23 Q1009 NOSIG=
14/12/2020 20:30:00Z	 SAID32 WIOO 142030	METAR WIOO 142030Z 00000KT 6000 SCT011 24/23 Q1009 NOSIG=
14/12/2020 21:00:00Z	 SAID32 WIOO 142100	METAR WIOO 142100Z 03003KT 6000 SCT011 24/23 Q1009 NOSIG=
14/12/2020 21:30:00Z	 SAID32 WIOO 142130	METAR WIOO 142130Z 00000KT 6000 SCT011 24/23 Q1009 NOSIG=
14/12/2020 22:00:00Z	 SAID32 WIOO 142200	METAR WIOO 142200Z 05003KT 6000 SCT011 24/23 Q1009 NOSIG=
14/12/2020 22:30:00Z	 SAID32 WIOO 142230	METAR WIOO 142230Z 03003KT 6000 SCT011 24/23 Q1009 NOSIG=
14/12/2020 23:00:00Z	 SAID32 WIOO 142300	METAR WIOO 142300Z 04003KT 6000 FEW012 24/23 Q1009 NOSIG=
14/12/2020 23:30:00Z	 SAID32 WIOO 142330	METAR WIOO 142330Z 05005KT 9000 SCT011 24/23 Q1010 NOSIG=
15/12/2020 00:00:00Z	 SAID32 WIOO 150000	METAR WIOO 150000Z 05005KT 9999 SCT011 24/23 Q1010 NOSIG=
15/12/2020 00:30:00Z	 SAID32 WIOO 150030	METAR WIOO 150030Z 04003KT 9999 SCT011 25/24 Q1010 NOSIG=
15/12/2020 01:00:00Z	 SAID32 WIOO 150100	METAR WIOO 150100Z 05004KT 9999 SCT011 25/24 Q1010 NOSIG=
15/12/2020 01:30:00Z	 SAID32 WIOO 150130	METAR WIOO 150130Z 00000KT 9999 SCT011 26/24 Q1011 NOSIG=
15/12/2020 02:00:00Z	 SAID32 WIOO 150200	METAR WIOO 150200Z 00000KT 9999 FEW011 27/24 Q1011 NOSIG=
15/12/2020 02:30:00Z	 SAID32 WIOO 150230	METAR WIOO 150230Z 00000KT 9999 FEW011 28/24 Q1010 NOSIG=
15/12/2020 03:00:00Z	 SAID32 WIOO 150300	METAR WIOO 150300Z 00000KT 9999 SCT012 29/24 Q1010 NOSIG=
15/12/2020 03:30:00Z	 SAID32 WIOO 150330	METAR WIOO 150330Z 00000KT 9999 SCT012 29/24 Q1010 NOSIG=
15/12/2020 04:00:00Z	 SAID32 WIOO 150400	METAR WIOO 150400Z 34004KT 9999 BKN012 30/24 Q1010 NOSIG=
15/12/2020 04:30:00Z	 SAID32 WIOO 150430	METAR WIOO 150430Z 33003KT 9999 BKN012 30/24 Q1009 NOSIG=
15/12/2020 05:00:00Z	 SAID32 WIOO 150500	METAR WIOO 150500Z 31004KT 9999 FEW011TCU BKN012 30/24 Q1009 NOSIG=
15/12/2020 05:30:00Z	 SAID32 WIOO 150530	METAR WIOO 150530Z 00000KT 9999 FEW011CB BKN012 31/24 Q1008 NOSIG=
15/12/2020 06:00:00Z	 SAID32 WIOO 150600	METAR WIOO 150600Z 23003KT 9000 FEW011CB BKN012 31/24 Q1008 TEMPO FM0630 3000 RA=
15/12/2020 06:30:00Z	 SAID32 WIOO 150630	METAR WIOO 150630Z 22004KT 9999 FEW011CB BKN012 31/24 Q1007 NOSIG=
15/12/2020 07:00:00Z	 SAID32 WIOO 150700	METAR WIOO 150700Z 23005KT 9999 FEW011CB BKN012 31/25 Q1007 NOSIG=
15/12/2020 07:30:00Z	 SAID32 WIOO 150730	METAR WIOO 150730Z 25008KT 9999 FEW011CB BKN012 31/24 Q1006 NOSIG=
15/12/2020 08:00:00Z	 SAID32 WIOO 150800	METAR WIOO 150800Z 28007KT 9999 FEW011CB BKN012 31/24 Q1006 NOSIG=
15/12/2020 08:30:00Z	 SAID32 WIOO 150830	METAR WIOO 150830Z 27009KT 9999 FEW011CB BKN012 31/23 Q1006 NOSIG=
15/12/2020 09:00:00Z	 SAID32 WIOO 150900	METAR WIOO 150900Z 27008KT 9999 FEW011CB BKN012 30/24 Q1007 NOSIG=
15/12/2020 09:30:00Z	 SAID32 WIOO 150930	METAR WIOO 150930Z 02010KT 8000 FEW011CB BKN012 29/23 Q1007 TEMPO FM1005 3000 RA=
15/12/2020 10:00:00Z	 SAID32 WIOO 151000	METAR WIOO 151000Z 03006KT 6000 -RA FEW010CB BKN011 26/23 Q1008 TEMPO FM1005 3000 RA=
15/12/2020 10:30:00Z	 SAID32 WIOO 151030	METAR WIOO 151030Z 04004KT 6000 -RA BKN011 26/23 Q1008 NOSIG=
15/12/2020 11:00:00Z	 SAID32 WIOO 151100	METAR WIOO 151100Z 04005KT 6000 -RA BKN011 25/23 Q1008 NOSIG=
15/12/2020 11:30:00Z	 SAID32 WIOO 151130	METAR WIOO 151130Z 02004KT 6000 -RA BKN011 25/23 Q1009 NOSIG=
15/12/2020 12:00:00Z	 SAID32 WIOO 151200	METAR WIOO 151200Z 02003KT 6000 -RA BKN011 25/23 Q1009 NOSIG=
15/12/2020 12:30:00Z	 SAID32 WIOO 151230	METAR WIOO 151230Z 07003KT 6000 -RA BKN011 25/23 Q1009 NOSIG=
15/12/2020 13:00:00Z	 SAID32 WIOO 151300	METAR WIOO 151300Z 05003KT 6000 -RA BKN011 25/23 Q1009 NOSIG=
15/12/2020 13:27:00Z	 SAID32 WIOO 151327	METAR WIOO 151330Z 00000KT 6000 -RA BKN011 25/23 Q1010 NOSIG=
15/12/2020 13:56:00Z	 SAID32 WIOO 151356	METAR WIOO 151400Z 04003KT 6000 -RA BKN011 24/23 Q1010 NOSIG=
15/12/2020 14:30:00Z	 SAID32 WIOO 151430	METAR WIOO 151430Z 00000KT 6000 -RA BKN011 24/23 Q1010 NOSIG=
15/12/2020 15:00:00Z	 SAID32 WIOO 151500	METAR WIOO 151500Z 00000KT 6000 -RA BKN011 24/23 Q1010 NOSIG=
15/12/2020 15:30:00Z	 SAID32 WIOO 151530	METAR WIOO 151530Z 00000KT 6000 BKN011 24/23 Q1011 RERA NOSIG=
15/12/2020 15:54:00Z	 SAID32 WIOO 151554	METAR WIOO 151600Z 00000KT 6000 BKN011 24/23 Q1010 NOSIG=
15/12/2020 16:30:00Z	 SAID32 WIOO 151630	METAR WIOO 151630Z 00000KT 6000 BKN011 24/23 Q1010 NOSIG=
15/12/2020 16:55:00Z	 SAID32 WIOO 151655	METAR WIOO 151700Z 00000KT 6000 TS FEW010CB BKN011 24/23 Q1010 NOSIG=
15/12/2020 17:30:00Z	 SAID32 WIOO 151730	METAR WIOO 151730Z 00000KT 6000 FEW010CB BKN011 24/23 Q1010 RETS NOSIG=
15/12/2020 18:00:00Z	 SAID32 WIOO 151800	METAR WIOO 151800Z 00000KT 6000 BKN012 24/23 Q1010 NOSIG=
15/12/2020 18:30:00Z	 SAID32 WIOO 151830	METAR WIOO 151830Z 00000KT 6000 BKN012 24/23 Q1009 NOSIG=
15/12/2020 18:55:00Z	 SAID32 WIOO 151855	METAR WIOO 151900Z 00000KT 4000 BR BKN012 24/23 Q1009 NOSIG=
15/12/2020 19:30:00Z	 SAID32 WIOO 151930	METAR WIOO 151930Z 00000KT 6000 BKN012 24/23 Q1009 NOSIG=
15/12/2020 20:00:00Z	 SAID32 WIOO 152000	METAR WIOO 152000Z 00000KT 6000 BKN012 24/23 Q1009 NOSIG=
15/12/2020 20:30:00Z	 SAID32 WIOO 152030	METAR WIOO 152030Z 00000KT 6000 BKN012 24/23 Q1009 NOSIG=
15/12/2020 21:00:00Z	 SAID32 WIOO 152100	METAR WIOO 152100Z 00000KT 6000 BKN012 24/23 Q1009 NOSIG=
15/12/2020 21:30:00Z	 SAID32 WIOO 152130	METAR WIOO 152130Z 00000KT 6000 SCT012 24/23 Q1009 NOSIG=
15/12/2020 21:56:00Z	 SAID32 WIOO 152156	METAR WIOO 152200Z 00000KT 6000 SCT012 24/23 Q1009 NOSIG=
15/12/2020 22:24:00Z	 SAID32 WIOO 152224	METAR WIOO 152230Z 00000KT 4000 BR SCT012 24/23 Q1009 NOSIG=
15/12/2020 22:57:00Z	 SAID32 WIOO 152257	METAR WIOO 152300Z 00000KT 5000 BR SCT012 23/23 Q1010 NOSIG=
15/12/2020 23:30:00Z	 SAID32 WIOO 152330	METAR WIOO 152330Z 07003KT 9999 SCT012 24/23 Q1010 NOSIG=
16/12/2020 00:00:00Z	 SAID32 WIOO 160000	METAR WIOO 160000Z 09003KT 9999 SCT012 24/23 Q1010 NOSIG=
16/12/2020 00:30:00Z	 SAID32 WIOO 160030	METAR WIOO 160030Z 06004KT 9999 SCT012 25/23 Q1011 NOSIG=
16/12/2020 01:00:00Z	 SAID32 WIOO 160100	METAR WIOO 160100Z 08004KT 9999 SCT012 26/24 Q1011 NOSIG=
16/12/2020 01:30:00Z	 SAID32 WIOO 160130	METAR WIOO 160130Z 06004KT 9999 FEW011CB BKN012 27/24 Q1011 NOSIG=
16/12/2020 02:00:00Z	 SAID32 WIOO 160200	METAR WIOO 160200Z 02004KT 8000 FEW010CB BKN011 27/24 Q1011 TEMPO FM0230 3000 RA=
16/12/2020 02:30:00Z	 SAID32 WIOO 160230	METAR WIOO 160230Z 27005KT 0750 RA FEW010CB BKN011 25/24 Q1011 TEMPO FM0300 3000 RA=
16/12/2020 03:00:00Z	 SAID32 WIOO 160300	METAR WIOO 160300Z 31003KT 7000 -RA FEW011CB BKN012 25/24 Q1011 NOSIG=
16/12/2020 03:30:00Z	 SAID32 WIOO 160330	METAR WIOO 160330Z 28004KT 9000 -RA FEW011CB BKN012 26/24 Q1011 NOSIG=
16/12/2020 04:00:00Z	 SAID32 WIOO 160400	METAR WIOO 160400Z 24011KT 8000 FEW010CB BKN011 28/25 Q1010 TEMPO FM0415 3000 RA=
16/12/2020 04:30:00Z	 SAID32 WIOO 160430	METAR WIOO 160430Z 24012KT 5000 -RA FEW010CB BKN011 25/24 Q1010 TEMPO FM0500 3000 RA=
16/12/2020 05:00:00Z	 SAID32 WIOO 160500	METAR WIOO 160500Z 24005KT 5000 -RA FEW010CB BKN011 25/24 Q1009 NOSIG=
16/12/2020 05:30:00Z	 SAID32 WIOO 160530	METAR WIOO 160530Z 24009KT 8000 -RA FEW011CB BKN012 26/24 Q1009 NOSIG=
16/12/2020 06:00:00Z	 SAID32 WIOO 160600	METAR WIOO 160600Z 26007KT 9999 BKN012 26/24 Q1009 NOSIG=
16/12/2020 06:30:00Z	 SAID32 WIOO 160630	METAR WIOO 160630Z 25006KT 9999 BKN012 27/24 Q1008 NOSIG=
16/12/2020 07:00:00Z	 SAID32 WIOO 160700	METAR WIOO 160700Z 25010KT 9999 BKN012 27/25 Q1008 NOSIG=
16/12/2020 07:30:00Z	 SAID32 WIOO 160730	METAR WIOO 160730Z 26011KT 9999 BKN012 27/25 Q1008 NOSIG=
16/12/2020 08:00:00Z	 SAID32 WIOO 160800	METAR WIOO 160800Z 22012KT 8000 -RA FEW011CB BKN012 27/24 Q1007 NOSIG=
16/12/2020 08:30:00Z	 SAID32 WIOO 160830	METAR WIOO 160830Z 24008G18KT 9000 FEW011CB BKN012 27/24 Q1007 RERA NOSIG=
16/12/2020 09:00:00Z	 SAID32 WIOO 160900	METAR WIOO 160900Z 23013KT 9000 FEW010CB BKN011 26/24 Q1008 NOSIG=
16/12/2020 09:30:00Z	 SAID32 WIOO 160930	METAR WIOO 160930Z 26009KT 9000 FEW010CB BKN011 26/24 Q1007 NOSIG=
16/12/2020 10:00:00Z	 SAID32 WIOO 161000	METAR WIOO 161000Z 25006KT 9000 BKN011 25/24 Q1008 NOSIG=
16/12/2020 10:30:00Z	 SAID32 WIOO 161030	METAR WIOO 161030Z 26003KT 8000 BKN011 25/24 Q1008 NOSIG=
16/12/2020 11:00:00Z	 SAID32 WIOO 161100	METAR WIOO 161100Z 00000KT 6000 BKN011 25/24 Q1008 NOSIG=
16/12/2020 11:30:00Z	 SAID32 WIOO 161130	METAR WIOO 161130Z 33003KT 6000 BKN011 25/24 Q1008 NOSIG=
16/12/2020 12:00:00Z	 SAID32 WIOO 161200	METAR WIOO 161200Z 34003KT 6000 BKN011 25/23 Q1008 NOSIG=
16/12/2020 12:30:00Z	 SAID32 WIOO 161230	METAR WIOO 161230Z 00000KT 6000 BKN012 25/23 Q1009 NOSIG=
16/12/2020 13:00:00Z	 SAID32 WIOO 161300	METAR WIOO 161300Z 03003KT 6000 BKN011 25/23 Q1009 NOSIG=
16/12/2020 13:30:00Z	 SAID32 WIOO 161330	METAR WIOO 161330Z 05003KT 6000 BKN011 25/23 Q1009 NOSIG=
16/12/2020 14:00:00Z	 SAID32 WIOO 161400	METAR WIOO 161400Z 00000KT 6000 BKN011 25/23 Q1009 NOSIG=
16/12/2020 14:30:00Z	 SAID32 WIOO 161430	METAR WIOO 161430Z 00000KT 6000 BKN011 25/23 Q1009 NOSIG=
16/12/2020 15:00:00Z	 SAID32 WIOO 161500	METAR WIOO 161500Z 00000KT 6000 BKN011 25/24 Q1009 NOSIG=
16/12/2020 15:30:00Z	 SAID32 WIOO 161530	METAR WIOO 161530Z 00000KT 6000 BKN012 24/24 Q1009 NOSIG=
16/12/2020 16:00:00Z	 SAID32 WIOO 161600	METAR WIOO 161600Z 00000KT 6000 BKN012 24/24 Q1009 NOSIG=
16/12/2020 16:30:00Z	 SAID32 WIOO 161630	METAR WIOO 161630Z 00000KT 6000 BKN012 24/24 Q1009 NOSIG=
16/12/2020 17:00:00Z	 SAID32 WIOO 161700	METAR WIOO 161700Z 00000KT 6000 SCT012 24/23 Q1009 NOSIG=
16/12/2020 17:30:00Z	 SAID32 WIOO 161730	METAR WIOO 161730Z 00000KT 6000 SCT012 24/23 Q1009 NOSIG=
16/12/2020 18:00:00Z	 SAID32 WIOO 161800	METAR WIOO 161800Z 00000KT 6000 SCT012 24/23 Q1009 NOSIG=
16/12/2020 18:30:00Z	 SAID32 WIOO 161830	METAR WIOO 161830Z 00000KT 6000 SCT011 24/23 Q1008 NOSIG=
16/12/2020 19:00:00Z	 SAID32 WIOO 161900	METAR WIOO 161900Z 00000KT 6000 SCT011 24/23 Q1008 NOSIG=
16/12/2020 19:30:00Z	 SAID32 WIOO 161930	METAR WIOO 161930Z 00000KT 6000 SCT011 24/23 Q1008 NOSIG=
16/12/2020 20:00:00Z	 SAID32 WIOO 162000	METAR WIOO 162000Z 00000KT 6000 SCT011 24/23 Q1008 NOSIG=
16/12/2020 20:30:00Z	 SAID32 WIOO 162030	METAR WIOO 162030Z 00000KT 6000 SCT011 24/23 Q1008 NOSIG=
16/12/2020 21:00:00Z	 SAID32 WIOO 162100	METAR WIOO 162100Z 05004KT 6000 SCT011 24/23 Q1008 NOSIG=
16/12/2020 21:30:00Z	 SAID32 WIOO 162130	METAR WIOO 162130Z 04004KT 6000 SCT011 24/23 Q1008 NOSIG=
16/12/2020 22:00:00Z	 SAID32 WIOO 162200	METAR WIOO 162200Z 05003KT 6000 SCT011 24/23 Q1008 NOSIG=
16/12/2020 22:30:00Z	 SAID32 WIOO 162230	METAR WIOO 162230Z 00000KT 6000 BKN009 24/23 Q1008 NOSIG=
16/12/2020 23:00:00Z	 SAID32 WIOO 162300	METAR WIOO 162300Z 00000KT 5000 BR OVC006 24/23 Q1008 NOSIG=
16/12/2020 23:30:00Z	 SAID32 WIOO 162330	METAR WIOO 162330Z 00000KT 2000 BR OVC006 24/23 Q1008 TEMPO AT2345 0800 FG=
17/12/2020 00:00:00Z	 SAID32 WIOO 170000	METAR WIOO 170000Z 01003KT 3000 BR BKN006 24/24 Q1009 BECMG FM0100 8000 NSW=
17/12/2020 00:23:00Z	 SAID32 WIOO 170023	METAR WIOO 170030Z 06003KT 7000 BKN006 25/24 Q1009 NOSIG=
17/12/2020 01:00:00Z	 SAID32 WIOO 170100	METAR WIOO 170100Z 03003KT 8000 BKN007 25/23 Q1009 NOSIG=
17/12/2020 01:30:00Z	 SAID32 WIOO 170130	METAR WIOO 170130Z 00000KT 8000 BKN008 25/23 Q1009 NOSIG=
17/12/2020 02:00:00Z	 SAID32 WIOO 170200	METAR WIOO 170200Z 00000KT 9999 BKN010 27/24 Q1009 NOSIG=
17/12/2020 02:30:00Z	 SAID32 WIOO 170230	METAR WIOO 170230Z 27005KT 9999 BKN010 28/24 Q1010 NOSIG=
17/12/2020 03:00:00Z	 SAID32 WIOO 170300	METAR WIOO 170300Z 00000KT 9999 BKN010 28/24 Q1010 NOSIG=
17/12/2020 03:30:00Z	 SAID32 WIOO 170330	METAR WIOO 170330Z 26003KT 9999 BKN010 29/24 Q1009 NOSIG=
17/12/2020 04:00:00Z	 SAID32 WIOO 170400	METAR WIOO 170400Z 17005KT 9999 FEW010CB BKN011 29/24 Q1009 NOSIG=
17/12/2020 04:30:00Z	 SAID32 WIOO 170430	METAR WIOO 170430Z 28010KT 6000 -RA FEW010CB BKN011 29/24 Q1008 TEMPO FM0530 4000 RA=
17/12/2020 04:58:00Z	 SAID32 WIOO 170458	METAR WIOO 170500Z 01003KT 8000 -RA FEW010CB BKN011 27/24 NOSIG=
17/12/2020 05:30:00Z	 SAID32 WIOO 170530	METAR WIOO 170530Z 00000KT 8000 FEW010CB BKN011 28/24 Q1007 RERA NOSIG=
17/12/2020 06:00:00Z	 SAID32 WIOO 170600	METAR WIOO 170600Z 24005KT 9999 FEW010CB SCT011 29/25 Q1006 NOSIG=
17/12/2020 06:30:00Z	 SAID32 WIOO 170630	METAR WIOO 170630Z 28005KT 9999 FEW011TCU SCT012 30/24 Q1006 NOSIG=
17/12/2020 07:00:00Z	 SAID32 WIOO 170700	METAR WIOO 170700Z 26007KT 9999 SCT012TCU 31/24 Q1006 NOSIG=
17/12/2020 07:30:00Z	 SAID32 WIOO 170730	METAR WIOO 170730Z 26005KT 9999 FEW011CB SCT012 31/24 Q1005 NOSIG=
17/12/2020 08:00:00Z	 SAID32 WIOO 170800	METAR WIOO 170800Z 23011KT 9999 FEW011CB SCT012 31/24 Q1005 NOSIG=
17/12/2020 08:30:00Z	 SAID32 WIOO 170830	METAR WIOO 170830Z 25011KT 9999 FEW011CB SCT012 31/24 Q1005 NOSIG=
17/12/2020 09:00:00Z	 SAID32 WIOO 170900	METAR WIOO 170900Z 26010KT 9999 BKN012 31/24 Q1006 NOSIG=
17/12/2020 09:30:00Z	 SAID32 WIOO 170930	METAR WIOO 170930Z 26007KT 9999 FEW011CB BKN012 30/24 Q1006 NOSIG=
17/12/2020 10:00:00Z	 SAID32 WIOO 171000	METAR WIOO 171000Z 27009KT 9999 FEW011CB BKN012 29/24 Q1006 NOSIG=
17/12/2020 10:30:00Z	 SAID32 WIOO 171030	METAR WIOO 171030Z 34004KT 8000 FEW011CB BKN012 28/24 Q1006 NOSIG=
17/12/2020 11:00:00Z	 SAID32 WIOO 171100	METAR WIOO 171100Z 27009KT 2000 -RA FEW011CB BKN012 28/25 Q1007 NOSIG=
17/12/2020 11:30:00Z	 SAID32 WIOO 171130	METAR WIOO 171130Z 00000KT 6000 -RA FEW011CB BKN012 26/24 Q1007 NOSIG=
17/12/2020 12:00:00Z	 SAID32 WIOO 171200	METAR WIOO 171200Z 04004KT 6000 -RA FEW011CB BKN012 26/25 Q1008 NOSIG=
17/12/2020 12:30:00Z	 SAID32 WIOO 171230	METAR WIOO 171230Z 00000KT 3000 -RA FEW011CB BKN012 26/25 Q1008 NOSIG=
17/12/2020 13:00:00Z	 SAID32 WIOO 171300	METAR WIOO 171300Z 00000KT 6000 -RA FEW011CB BKN012 26/25 Q1008 NOSIG=
17/12/2020 13:30:00Z	 SAID32 WIOO 171330	METAR WIOO 171330Z 00000KT 6000 -RA FEW011CB BKN012 26/25 Q1009 NOSIG=
17/12/2020 14:00:00Z	 SAID32 WIOO 171400	METAR WIOO 171400Z 00000KT 6000 -RA FEW011CB BKN012 26/24 Q1009 NOSIG=
17/12/2020 14:30:00Z	 SAID32 WIOO 171430	METAR WIOO 171430Z 00000KT 6000 -RA FEW011CB BKN012 26/24 Q1009 NOSIG=
17/12/2020 15:00:00Z	 SAID32 WIOO 171500	METAR WIOO 171500Z 32003KT 2000 -TSRA FEW011CB BKN012 25/25 Q1009 NOSIG=
17/12/2020 15:30:00Z	 SAID32 WIOO 171530	METAR WIOO 171530Z 00000KT 6000 -RA FEW011CB BKN012 25/24 Q1009 RETS NOSIG=
17/12/2020 16:00:00Z	 SAID32 WIOO 171600	METAR WIOO 171600Z 32003KT 3000 -RA FEW009CB BKN010 25/24 Q1009 NOSIG=
17/12/2020 16:30:00Z	 SAID32 WIOO 171630	METAR WIOO 171630Z 00000KT 6000 -RA FEW009CB BKN010 25/24 Q1009 NOSIG=
17/12/2020 17:00:00Z	 SAID32 WIOO 171700	METAR WIOO 171700Z 00000KT 5000 -RA FEW009CB BKN010 25/24 Q1008 NOSIG=
17/12/2020 17:30:00Z	 SAID32 WIOO 171730	METAR WIOO 171730Z 00000KT 4000 -RA FEW009CB BKN010 25/24 Q1008 NOSIG=
17/12/2020 18:00:00Z	 SAID32 WIOO 171800	METAR WIOO 171800Z 00000KT 6000 -RA FEW010CB BKN011 25/24 Q1008 NOSIG=
17/12/2020 18:30:00Z	 SAID32 WIOO 171830	METAR WIOO 171830Z 00000KT 6000 -RA BKN010 25/24 Q1007 NOSIG=
17/12/2020 19:00:00Z	 SAID32 WIOO 171900	METAR WIOO 171900Z 00000KT 6000 -RA BKN010 25/24 Q1007 NOSIG=
17/12/2020 19:30:00Z	 SAID32 WIOO 171930	METAR WIOO 171930Z 00000KT 6000 -RA BKN010 25/24 Q1007 NOSIG=
17/12/2020 20:00:00Z	 SAID32 WIOO 172000	METAR WIOO 172000Z 19003KT 6000 -RA BKN010 25/24 Q1007 NOSIG=
17/12/2020 20:30:00Z	 SAID32 WIOO 172030	METAR WIOO 172030Z 17003KT 6000 BKN008 24/24 Q1007 RERA NOSIG=
17/12/2020 21:00:00Z	 SAID32 WIOO 172100	METAR WIOO 172100Z 00000KT 6000 BKN009 24/24 Q1007 NOSIG=
17/12/2020 21:30:00Z	 SAID32 WIOO 172130	METAR WIOO 172130Z 00000KT 6000 BKN009 24/24 Q1007 NOSIG=
17/12/2020 22:00:00Z	 SAID32 WIOO 172200	METAR WIOO 172200Z 20003KT 6000 BKN009 24/24 Q1007 NOSIG=
17/12/2020 22:30:00Z	 SAID32 WIOO 172230	METAR WIOO 172230Z 17004KT 2000 BR BKN010 24/24 Q1007 NOSIG=
17/12/2020 23:00:00Z	 SAID32 WIOO 172300	METAR WIOO 172300Z 18005KT 3000 BR FEW010CB BKN011 24/24 Q1008 NOSIG=
17/12/2020 23:27:00Z	 SAID32 WIOO 172327	METAR WIOO 172330Z 22004KT 3000 -RA FEW007CB BKN008 24/24 Q1009 NOSIG=
18/12/2020 00:00:00Z	 SAID32 WIOO 180000	METAR WIOO 180000Z 19010KT 3000 -RA FEW007CB BKN008 24/23 Q1009 TEMPO FM0010 1000 RA=
18/12/2020 00:30:00Z	 SAID32 WIOO 180030	METAR WIOO 180030Z 19004KT 5000 -RA FEW009CB BKN010 24/23 Q1009 NOSIG=
18/12/2020 01:00:00Z	 SAID32 WIOO 180100	METAR WIOO 180100Z 21005KT 9999 FEW010CB BKN011 24/23 Q1010 RERA NOSIG=
18/12/2020 01:26:00Z	 SAID32 WIOO 180126	METAR WIOO 180130Z 17004KT 9999 FEW010CB BKN011 24/23 Q1010 =
18/12/2020 02:00:00Z	 SAID32 WIOO 180200	METAR WIOO 180200Z 21003KT 8000 -RA FEW010CB BKN011 24/23 Q1010 NOSIG=
18/12/2020 02:30:00Z	 SAID32 WIOO 180230	METAR WIOO 180230Z 00000KT 8000 -RA BKN011 25/24 Q1010 NOSIG=
18/12/2020 03:00:00Z	 SAID32 WIOO 180300	METAR WIOO 180300Z 21004KT 9999 BKN011 25/24 Q1010 RERA NOSIG=
18/12/2020 03:30:00Z	 SAID32 WIOO 180330	METAR WIOO 180330Z 29006KT 9999 BKN011 27/25 Q1009 NOSIG=
18/12/2020 04:00:00Z	 SAID32 WIOO 180400	METAR WIOO 180400Z 24009KT 2000 -RA FEW009CB BKN010 28/25 Q1009 TEMPO FM0415 1000 RA=
18/12/2020 04:30:00Z	 SAID32 WIOO 180430	METAR WIOO 180430Z 24004KT 8000 -RA FEW010CB BKN011 25/24 Q1009 NOSIG=
18/12/2020 04:57:00Z	 SAID32 WIOO 180457	METAR WIOO 180500Z 28007KT 9999 FEW011CB BKN012 26/23 Q1008 RERA NOSIG=
18/12/2020 05:28:00Z	 SAID32 WIOO 180528	METAR WIOO 180530Z 24007KT 9999 BKN012 26/23 Q1008 NOSIG=
18/12/2020 06:00:00Z	 SAID32 WIOO 180600	METAR WIOO 180600Z 21007KT 9999 SCT012 27/23 Q1007 NOSIG=
18/12/2020 06:30:00Z	 SAID32 WIOO 180630	METAR WIOO 180630Z 25007KT 9999 SCT012 28/23 Q1007 NOSIG=
18/12/2020 07:00:00Z	 SAID32 WIOO 180700	METAR WIOO 180700Z 26009KT 9999 SCT012 29/23 Q1006 NOSIG=
18/12/2020 07:30:00Z	 SAID32 WIOO 180730	METAR WIOO 180730Z 24007KT 9999 SCT012 29/23 Q1006 NOSIG=
18/12/2020 08:00:00Z	 SAID32 WIOO 180800	METAR WIOO 180800Z 23007KT 9999 SCT012 29/23 Q1006 NOSIG=
18/12/2020 08:30:00Z	 SAID32 WIOO 180830	METAR WIOO 180830Z 23005KT 9999 BKN012 28/23 Q1006 NOSIG=
18/12/2020 09:00:00Z	 SAID32 WIOO 180900	METAR WIOO 180900Z 26006KT 9999 SCT012 28/23 Q1006 NOSIG=
18/12/2020 09:30:00Z	 SAID32 WIOO 180930	METAR WIOO 180930Z 26005KT 9999 SCT012 27/23 Q1006 NOSIG=
18/12/2020 10:00:00Z	 SAID32 WIOO 181000	METAR WIOO 181000Z 27003KT 9999 SCT012 27/23 Q1007 NOSIG=
18/12/2020 10:30:00Z	 SAID32 WIOO 181030	METAR WIOO 181030Z 29003KT 9999 SCT012 27/23 Q1007 NOSIG=
18/12/2020 11:00:00Z	 SAID32 WIOO 181100	METAR WIOO 181100Z 0000KT 9000 SCT012 27/24 Q1007 NOSIG=
18/12/2020 11:30:00Z	 SAID32 WIOO 181130	METAR WIOO 181130Z 00000KT 8000 SCT012 26/24 Q1008 NOSIG=
18/12/2020 12:00:00Z	 SAID32 WIOO 181200	METAR WIOO 181200Z 00000KT 8000 SCT012 26/24 Q1008 NOSIG=
18/12/2020 12:30:00Z	 SAID32 WIOO 181230	METAR WIOO 181230Z 00000KT 8000 SCT012 26/24 Q1009 NOSIG=
18/12/2020 13:00:00Z	 SAID32 WIOO 181300	METAR WIOO 181300Z 00000KT 6000 SCT012 26/24 Q1009 RERA NOSIG=
18/12/2020 13:30:00Z	 SAID32 WIOO 181330	METAR WIOO 181330Z 00000KT 6000 SCT012 26/24 Q1009 NOSIG=
18/12/2020 14:00:00Z	 SAID32 WIOO 181400	METAR WIOO 181400Z 00000KT 6000 SCT012 26/24 Q1009 NOSIG=
18/12/2020 14:30:00Z	 SAID32 WIOO 181430	METAR WIOO 181430Z 00000KT 6000 SCT012 26/24 Q1009 NOSIG=
18/12/2020 15:00:00Z	 SAID32 WIOO 181500	METAR WIOO 181500Z 00000KT 6000 SCT012 26/24 Q1009 NOSIG=
18/12/2020 15:30:00Z	 SAID32 WIOO 181530	METAR WIOO 181530Z 00000KT 6000 SCT012 26/24 Q1009 NOSIG=
18/12/2020 16:00:00Z	 SAID32 WIOO 181600	METAR WIOO 181600Z 00000KT 6000 BKN012 26/25 Q1009 NOSIG=
18/12/2020 16:30:00Z	 SAID32 WIOO 181630	METAR WIOO 181630Z 00000KT 6000 BKN012 26/25 Q1009 NOSIG=
18/12/2020 17:00:00Z	 SAID32 WIOO 181700	METAR WIOO 181700Z 00000KT 5000 -RA FEW011CB BKN012 26/24 Q1009 NOSIG=
18/12/2020 17:30:00Z	 SAID32 WIOO 181730	METAR WIOO 181730Z 00000KT 6000 -RA FEW011CB BKN012 25/24 Q1009 NOSIG=
18/12/2020 18:00:00Z	 SAID32 WIOO 181800	METAR WIOO 181800Z 01005KT 6000 -RA FEW011CB BKN012 25/24 Q1009 NOSIG=
18/12/2020 18:30:00Z	 SAID32 WIOO 181830	METAR WIOO 181830Z 34005KT 6000 -RA FEW011CB BKN012 25/24 Q1008 NOSIG=
18/12/2020 19:00:00Z	 SAID32 WIOO 181900	METAR WIOO 181900Z 36004KT 6000 -RA FEW011CB BKN012 25/24 Q1008 NOSIG=
18/12/2020 19:30:00Z	 SAID32 WIOO 181930	METAR WIOO 181930Z 33004KT 6000 -RA FEW011CB BKN012 25/24 Q1008 NOSIG=
18/12/2020 20:00:00Z	 SAID32 WIOO 182000	METAR WIOO 182000Z 01004KT 6000 -RA FEW011CB BKN012 25/24 Q1008 NOSIG=
18/12/2020 20:30:00Z	 SAID32 WIOO 182030	METAR WIOO 182030Z 03003KT 6000 -RA FEW011CB BKN012 25/24 Q1008 NOSIG=
18/12/2020 21:00:00Z	 SAID32 WIOO 182100	METAR WIOO 182100Z 00000KT 6000 BKN012 24/24 Q1007 RERA NOSIG=
18/12/2020 21:30:00Z	 SAID32 WIOO 182130	METAR WIOO 182130Z 00000KT 6000 BKN012 24/24 Q1007 NOSIG=
18/12/2020 22:00:00Z	 SAID32 WIOO 182200	METAR WIOO 182200Z 00000KT 6000 BKN012 24/24 Q1007 NOSIG=
18/12/2020 22:30:00Z	 SAID32 WIOO 182230	METAR WIOO 182230Z 00000KT 6000 BKN012 24/23 Q1008 NOSIG=
18/12/2020 23:00:00Z	 SAID32 WIOO 182300	METAR WIOO 182300Z 00000KT 8000 BKN012 24/23 Q1008 NOSIG=
18/12/2020 23:30:00Z	 SAID32 WIOO 182330	METAR WIOO 182330Z 00000KT 7000 BKN011 24/23 Q1009 NOSIG=
19/12/2020 00:00:00Z	 SAID32 WIOO 190000	METAR WIOO 190000Z 00000KT 8000 BKN011 24/24 Q1009 NOSIG=
19/12/2020 00:30:00Z	 SAID32 WIOO 190030	METAR WIOO 190030Z 01003KT 9999 BKN011 25/24 Q1010 NOSIG=
19/12/2020 01:00:00Z	 SAID32 WIOO 190100	METAR WIOO 190100Z 00000KT 9999 SCT011 26/24 Q1010 NOSIG=
19/12/2020 01:30:00Z	 SAID32 WIOO 190130	METAR WIOO 190130Z 33003KT 9999 BKN011 27/25 Q1010 NOSIG=
19/12/2020 02:00:00Z	 SAID32 WIOO 190200	METAR WIOO 190200Z 32005KT 9999 BKN011 28/25 Q1010 NOSIG=
19/12/2020 02:30:00Z	 SAID32 WIOO 190230	METAR WIOO 190230Z 32008KT 8000 FEW011CB BKN012 28/25 Q1010 NOSIG=
19/12/2020 03:00:00Z	 SAID32 WIOO 190300	METAR WIOO 190300Z 31009KT 9999 FEW011CB BKN012 29/25 Q1010 NOSIG=
19/12/2020 03:30:00Z	 SAID32 WIOO 190330	METAR WIOO 190330Z 30004KT 9999 BKN012 29/25 Q1009 NOSIG=
19/12/2020 04:00:00Z	 SAID32 WIOO 190400	METAR WIOO 190400Z 30010KT 9999 FEW011CB BKN012 30/24 Q1009 NOSIG=
19/12/2020 04:30:00Z	 SAID32 WIOO 190430	METAR WIOO 190430Z 29011KT 9999 BKN011 30/25 Q1009 NOSIG=
19/12/2020 05:00:00Z	 SAID32 WIOO 190500	METAR WIOO 190500Z 28012KT 9999 BKN011 30/25 Q1008 NOSIG=
19/12/2020 05:30:00Z	 SAID32 WIOO 190530	METAR WIOO 190530Z 29010KT 8000 FEW011CB BKN012 30/24 Q1008 NOSIG=
19/12/2020 06:00:00Z	 SAID32 WIOO 190600	METAR WIOO 190600Z 24007KT 5000 -RA BKN011 28/25 Q1007 NOSIG=
19/12/2020 06:28:00Z	 SAID32 WIOO 190628	METAR WIOO 190630Z 25003KT 9999 BKN011 28/25 Q1007 NOSIG=
19/12/2020 07:00:00Z	 SAID32 WIOO 190700	METAR WIOO 190700Z 26005KT 9999 BKN011 28/24 Q1007 NOSIG=
19/12/2020 07:30:00Z	 SAID32 WIOO 190730	METAR WIOO 190730Z 25008KT 9999 BKN011 28/25 Q1006 NOSIG=
19/12/2020 07:53:00Z	 SAID32 WIOO 190753	METAR WIOO 190800Z 25005KT 9999 BKN011 28/24 Q1007 NOSIG=
19/12/2020 09:00:00Z	 SAID32 WIOO 190900	METAR WIOO 190900Z 24004KT 9999 BKN011 28/25 Q1007 NOSIG=
19/12/2020 09:30:00Z	 SAID32 WIOO 190930	METAR WIOO 190930Z 21004KT 9999 BKN011 28/25 Q1007 NOSIG=
19/12/2020 10:00:00Z	 SAID32 WIOO 191000	METAR WIOO 191000Z 00000KT 9999 BKN011 28/25 Q1007 NOSIG=
19/12/2020 10:30:00Z	 SAID32 WIOO 191030 CCA	METAR WIOO 191030Z 22003KT 9999 BKN012 27/24 Q1007 NOSIG=
19/12/2020 11:00:00Z	 SAID32 WIOO 191100 CCA	METAR WIOO 191100Z 22003KT 7000 SCT012 27/25 Q1007 NOSIG=
19/12/2020 11:30:00Z	 SAID32 WIOO 191130 CCA	METAR WIOO 191130Z 00000KT 6000 SCT012 27/25 Q1008 NOSIG=
19/12/2020 12:00:00Z	 SAID32 WIOO 191200	METAR WIOO 191200Z 00000KT 6000 SCT012 26/24 Q1008 NOSIG=
19/12/2020 12:27:00Z	 SAID32 WIOO 191227	METAR WIOO 191230Z 00000KT 9999 SCT012 26/24 Q1009 NOSIG=
19/12/2020 13:00:00Z	 SAID32 WIOO 191300	METAR WIOO 191300Z 00000KT 9999 SCT012 26/24 Q1009 NOSIG=
19/12/2020 13:30:00Z	 SAID32 WIOO 191330	METAR WIOO 191330Z 00000KT 6000 SCT012 26/24 Q1009 NOSIG=
19/12/2020 14:00:00Z	 SAID32 WIOO 191400	METAR WIOO 191400Z 00000KT 6000 SCT012 26/25 Q1010 NOSIG=
19/12/2020 14:30:00Z	 SAID32 WIOO 191430	METAR WIOO 191430Z 00000KT 6000 SCT012 26/25 Q1010 NOSIG=
19/12/2020 15:00:00Z	 SAID32 WIOO 191500	METAR WIOO 191500Z 00000KT 6000 -RA FEW011CB BKN012 26/25 Q1010 NOSIG=
19/12/2020 15:30:00Z	 SAID32 WIOO 191530	METAR WIOO 191530Z 00000KT 1000 +RA FEW011CB BKN012 26/25 Q1010 NOSIG=
19/12/2020 16:00:00Z	 SAID32 WIOO 191600	METAR WIOO 191600Z 00000KT 6000 -RA FEW011CB BKN012 26/25 Q1010 NOSIG=
19/12/2020 16:30:00Z	 SAID32 WIOO 191630	METAR WIOO 191630Z 00000KT 6000 -RA FEW011CB BKN012 26/25 Q1010 NOSIG=
19/12/2020 17:00:00Z	 SAID32 WIOO 191700	METAR WIOO 191700Z 00000KT 6000 FEW011CB BKN012 26/25 Q1010 RERA NOSIG=
19/12/2020 17:30:00Z	 SAID32 WIOO 191730	METAR WIOO 191730Z 00000KT 6000 FEW011CB BKN012 25/24 Q1009 NOSIG=
19/12/2020 18:00:00Z	 SAID32 WIOO 191800	METAR WIOO 191800Z 00000KT 6000 FEW011CB BKN012 24/24 Q1009 NOSIG=
19/12/2020 18:01:00Z	 SAID32 WIOO 191801 CCA	METAR COR WIOO 191800Z 00000KT 6000 FEW011CB SCT012 24/24 Q1009 NOSIG=
19/12/2020 18:30:00Z	 SAID32 WIOO 191830	METAR WIOO 191830Z 00000KT 0400 FG FEW011CB SCT012 24/24 Q1009 NOSIG=
19/12/2020 19:00:00Z	 SAID32 WIOO 191900	METAR WIOO 191900Z 00000KT 0400 FG SCT012 24/24 Q1008 NOSIG=
19/12/2020 19:30:00Z	 SAID32 WIOO 191930	METAR WIOO 191930Z 00000KT 0400 FG SCT012 24/24 Q1008 NOSIG=
19/12/2020 20:00:00Z	 SAID32 WIOO 192000	METAR WIOO 192000Z 00000KT 0400 FG SCT012 24/24 Q1008 NOSIG=
19/12/2020 20:30:00Z	 SAID32 WIOO 192030	METAR WIOO 192030Z 00000KT 0400 FG SCT012 24/24 Q1008 NOSIG=
19/12/2020 21:00:00Z	 SAID32 WIOO 192100	METAR WIOO 192100Z 00000KT 0400 FG SCT012 24/24 Q1008 NOSIG=
19/12/2020 21:01:00Z	 SAID32 WIOO 192101 CCA	METAR COR WIOO 192100Z 00000KT 0400 FG SCT011 24/24 Q1008 NOSIG=
19/12/2020 21:30:00Z	 SAID32 WIOO 192130	METAR WIOO 192130Z 00000KT 0700 FG SCT010 24/24 Q1008 BECMG FM2230 1000 BR=
19/12/2020 22:00:00Z	 SAID32 WIOO 192200	METAR WIOO 192200Z 00000KT 0300 FG SCT010 23/23 Q1008 BECMG FM2230 1000 BR=
19/12/2020 22:30:00Z	 SAID32 WIOO 192230	METAR WIOO 192230Z 00000KT 0200 FG SCT004 23/23 Q1009 BECMG FM2230 1000 BR=
19/12/2020 22:41:00Z	 SAID32 WIOO 192241	METAR COR WIOO 192230Z 00000KT 0200 FG SCT004 23/23 Q1009 BECMG FM2330 1000 BR=
19/12/2020 23:00:00Z	 SAID32 WIOO 192300	METAR WIOO 192300Z 00000KT 0100 FG SCT004 23/23 Q1009 BECMG FM2330 1000 BR=
19/12/2020 23:30:00Z	 SAID32 WIOO 192330	METAR WIOO 192330Z 00000KT 0100 FG VV002 23/23 Q1009 BECMG FM0000 1000 BR=
20/12/2020 00:00:00Z	 SAID32 WIOO 200000	METAR WIOO 200000Z 00000KT 1500 BR BKN005 24/23 Q1010 NOSIG=
20/12/2020 00:30:00Z	 SAID32 WIOO 200030	METAR WIOO 200030Z 00000KT 8000 BKN006 24/24 Q1010 NOSIG=
20/12/2020 01:00:00Z	 SAID32 WIOO 200100	METAR WIOO 200100Z 00000KT 9999 BKN009 25/24 Q1010 NOSIG=
20/12/2020 01:30:00Z	 SAID32 WIOO 200130	METAR WIOO 200130Z 00000KT 9999 SCT010 26/24 Q1010 NOSIG=
20/12/2020 02:00:00Z	 SAID32 WIOO 200200	METAR WIOO 200200Z 00000KT 9999 BKN010 27/25 Q1010 NOSIG=
20/12/2020 02:30:00Z	 SAID32 WIOO 200230	METAR WIOO 200230Z 35004KT 9999 BKN010 28/25 Q1010 NOSIG=
20/12/2020 03:00:00Z	 SAID32 WIOO 200300	METAR WIOO 200300Z 33006KT 9999 FEW010CB SCT011 29/25 Q1010 NOSIG=
20/12/2020 03:30:00Z	 SAID32 WIOO 200330	METAR WIOO 200330Z 32009KT 9999 SCT011 30/25 Q1009 NOSIG=
20/12/2020 04:00:00Z	 SAID32 WIOO 200400	METAR WIOO 200400Z 30008KT 9999 SCT012 30/24 Q1009 NOSIG=
20/12/2020 04:30:00Z	 SAID32 WIOO 200430	METAR WIOO 200430Z 26006KT 9999 SCT012 31/24 Q1008 NOSIG=
20/12/2020 05:00:00Z	 SAID32 WIOO 200500	METAR WIOO 200500Z 28008KT 9999 SCT012 30/24 Q1008 NOSIG=
20/12/2020 05:30:00Z	 SAID32 WIOO 200530	METAR WIOO 200530Z 27008KT 9999 SCT012 30/24 Q1008 NOSIG=
20/12/2020 06:00:00Z	 SAID32 WIOO 200600	METAR WIOO 200600Z 27008KT 9999 FEW012 30/24 Q1008 NOSIG=
20/12/2020 06:30:00Z	 SAID32 WIOO 200630	METAR WIOO 200630Z 27009KT 9999 SCT012 30/24 Q1007 NOSIG=
20/12/2020 07:00:00Z	 SAID32 WIOO 200700	METAR WIOO 200700Z 29009KT 9999 SCT012 30/25 Q1007 NOSIG=
20/12/2020 07:30:00Z	 SAID32 WIOO 200730	METAR WIOO 200730Z 28011KT 9999 SCT012 29/24 Q1006 NOSIG=
20/12/2020 08:00:00Z	 SAID32 WIOO 200800	METAR WIOO 200800Z 27009KT 9999 SCT012 29/24 Q1006 NOSIG=
20/12/2020 08:30:00Z	 SAID32 WIOO 200830	METAR WIOO 200830Z 26007KT 9999 SCT012 29/24 Q1006 NOSIG=
20/12/2020 09:00:00Z	 SAID32 WIOO 200900	METAR WIOO 200900Z 27007KT 9999 SCT012 29/25 Q1006 NOSIG=
20/12/2020 09:30:00Z	 SAID32 WIOO 200930	METAR WIOO 200930Z 27005KT 9999 SCT012 28/25 Q1007 NOSIG=
20/12/2020 10:00:00Z	 SAID32 WIOO 201000	METAR WIOO 201000Z 26005KT 9999 SCT012 28/24 Q1007 NOSIG=
20/12/2020 10:30:00Z	 SAID32 WIOO 201030	METAR WIOO 201030Z 26003KT 9999 SCT012 28/24 Q1008 NOSIG=
20/12/2020 11:00:00Z	 SAID32 WIOO 201100	METAR WIOO 201100Z 26003KT 7000 SCT012 27/25 Q1008 NOSIG=
20/12/2020 11:30:00Z	 SAID32 WIOO 201130	METAR WIOO 201130Z 23003KT 6000 BKN012 27/25 Q1008 NOSIG=
20/12/2020 12:00:00Z	 SAID32 WIOO 201200	METAR WIOO 201200Z 00000KT 6000 BKN012 27/25 Q1008 NOSIG=
20/12/2020 12:30:00Z	 SAID32 WIOO 201230	METAR WIOO 201230Z 00000KT 6000 BKN012 27/25 Q1009 NOSIG=
20/12/2020 13:00:00Z	 SAID32 WIOO 201300	METAR WIOO 201300Z 00000KT 6000 BKN012 26/25 Q1009 NOSIG=
20/12/2020 13:30:00Z	 SAID32 WIOO 201330	METAR WIOO 201330Z 00000KT 6000 SCT012 26/25 Q1009 NOSIG=
20/12/2020 13:54:00Z	 SAID32 WIOO 201354	METAR WIOO 201400Z 00000KT 6000 BKN012 26/24 Q1009 NOSIG=
20/12/2020 14:21:00Z	 SAID32 WIOO 201421	METAR WIOO 201430Z 00000KT 6000 SCT012 26/24 Q1009 NOSIG=
20/12/2020 14:54:00Z	 SAID32 WIOO 201454	METAR WIOO 201500Z 00000KT 6000 SCT012 26/25 Q1009 NOSIG=
20/12/2020 15:30:00Z	 SAID32 WIOO 201530	METAR WIOO 201530Z 00000KT 6000 SCT012 26/25 Q1009 NOSIG=
20/12/2020 16:00:00Z	 SAID32 WIOO 201600	METAR WIOO 201600Z 00000KT 6000 SCT012 26/25 Q1009 NOSIG=
20/12/2020 16:30:00Z	 SAID32 WIOO 201630	METAR WIOO 201630Z 00000KT 6000 SCT012 26/25 Q1009 NOSIG=
20/12/2020 16:56:00Z	 SAID32 WIOO 201656	METAR WIOO 201700Z 00000KT 6000 SCT012 26/25 Q1009 NOSIG=
20/12/2020 17:27:00Z	 SAID32 WIOO 201727	METAR WIOO 201730Z 00000KT 6000 SCT012 26/25 Q1009 NOSIG=
20/12/2020 17:53:00Z	 SAID32 WIOO 201753	METAR WIOO 201800Z 00000KT 6000 SCT012 26/25 Q1008 NOSIG=
20/12/2020 18:30:00Z	 SAID32 WIOO 201830	METAR WIOO 201830Z 05003KT 6000 SCT012 25/24 Q1008 NOSIG=
20/12/2020 19:00:00Z	 SAID32 WIOO 201900	METAR WIOO 201900Z 00000KT 6000 SCT012 25/24 Q1008 NOSIG=
20/12/2020 19:30:00Z	 SAID32 WIOO 201930	METAR WIOO 201930Z 00000KT 6000 SCT012 25/24 Q1007 NOSIG=
20/12/2020 20:00:00Z	 SAID32 WIOO 202000	METAR WIOO 202000Z 00000KT 6000 SCT012 25/24 Q1007 NOSIG=
20/12/2020 20:25:00Z	 SAID32 WIOO 202025	METAR WIOO 202030Z 00000KT 6000 -RA BKN012 25/24 Q1007 NOSIG=
20/12/2020 20:55:00Z	 SAID32 WIOO 202055	METAR WIOO 202100Z 31003KT 6000 BKN012 25/24 Q1007 RERA NOSIG=
20/12/2020 21:23:00Z	 SAID32 WIOO 202123	METAR WIOO 202130Z 27004KT 6000 -RA BKN012 25/24 Q1008 NOSIG=
20/12/2020 22:00:00Z	 SAID32 WIOO 202200	METAR WIOO 202200Z 28003KT 6000 BKN012 25/24 Q1008 RERA NOSIG=
20/12/2020 22:27:00Z	 SAID32 WIOO 202227	METAR WIOO 202230Z 28003KT 6000 BKN012 25/24 Q1009 NOSIG=
20/12/2020 23:00:00Z	 SAID32 WIOO 202300	METAR WIOO 202300Z 28006KT 7000 FEW010CB BKN011 25/24 Q1009 NOSIG=
20/12/2020 23:30:00Z	 SAID32 WIOO 202330	METAR WIOO 202330Z 32008KT 9999 FEW010CB BKN011 25/24 Q1009 NOSIG=
21/12/2020 00:00:00Z	 SAID32 WIOO 210000	METAR WIOO 210000Z 30007KT 6000 -RA FEW010CB BKN011 25/23 Q1009 TEMPO FM0020 3000 RA=
21/12/2020 00:30:00Z	 SAID32 WIOO 210030	METAR WIOO 210030Z 32003KT 9999 BKN011 25/23 Q1009 RERA NOSIG=
21/12/2020 01:00:00Z	 SAID32 WIOO 210100	METAR WIOO 210100Z 32012KT 9999 SCT012 26/23 Q1009 NOSIG=
21/12/2020 01:30:00Z	 SAID32 WIOO 210130	METAR WIOO 210130Z 32007KT 9999 FEW012 26/23 Q1009 NOSIG=
21/12/2020 02:00:00Z	 SAID32 WIOO 210200	METAR WIOO 210200Z 32005KT 9999 FEW012 27/23 Q1009 NOSIG=
21/12/2020 02:30:00Z	 SAID32 WIOO 210230	METAR WIOO 210230Z 31005KT 9999 FEW012 27/22 Q1009 NOSIG=
21/12/2020 03:00:00Z	 SAID32 WIOO 210300	METAR WIOO 210300Z 30005KT 9999 FEW012 28/23 Q1009 NOSIG=
21/12/2020 03:30:00Z	 SAID32 WIOO 210330	METAR WIOO 210330Z 31005KT 9999 FEW012 29/23 Q1009 NOSIG=
21/12/2020 04:00:00Z	 SAID32 WIOO 210400	METAR WIOO 210400Z 27009KT 9999 SCT012 29/23 Q1009 NOSIG=
21/12/2020 04:30:00Z	 SAID32 WIOO 210430	METAR WIOO 210430Z 28010KT 9999 SCT012 30/23 Q1008 NOSIG=
21/12/2020 05:00:00Z	 SAID32 WIOO 210500	METAR WIOO 210500Z 28007KT 9999 BKN012 30/22 Q1008 NOSIG=
21/12/2020 05:30:00Z	 SAID32 WIOO 210530	METAR WIOO 210530Z 28006KT 9999 BKN012 29/22 Q1008 NOSIG=
21/12/2020 06:00:00Z	 SAID32 WIOO 210600	METAR WIOO 210600Z 28007KT 9999 SCT012 30/23 Q1007 NOSIG=
21/12/2020 06:30:00Z	 SAID32 WIOO 210630	METAR WIOO 210630Z 25005KT 9999 SCT012 31/24 Q1007 NOSIG=
21/12/2020 07:00:00Z	 SAID32 WIOO 210700	METAR WIOO 210700Z 28006KT 9999 SCT012 31/23 Q1006 NOSIG=
21/12/2020 07:30:00Z	 SAID32 WIOO 210730	METAR WIOO 210730Z 28006KT 9999 SCT012 31/23 Q1005 NOSIG=
21/12/2020 08:00:00Z	 SAID32 WIOO 210800	METAR WIOO 210800Z 27004KT 9999 SCT012 31/23 Q1005 NOSIG=
21/12/2020 08:30:00Z	 SAID32 WIOO 210830	METAR WIOO 210830Z 35006KT 9999 BKN012 30/23 Q1005 NOSIG=
21/12/2020 09:00:00Z	 SAID32 WIOO 210900	METAR WIOO 210900Z 30005KT 9999 BKN012 30/24 Q1005 NOSIG=
21/12/2020 09:30:00Z	 SAID32 WIOO 210930	METAR WIOO 210930Z 29006KT 9999 FEW011CB BKN012 29/24 Q1006 NOSIG=
21/12/2020 10:00:00Z	 SAID32 WIOO 211000	METAR WIOO 211000Z 34012KT 9000 FEW011CB BKN012 27/24 Q1006 NOSIG=
21/12/2020 10:30:00Z	 SAID32 WIOO 211030	METAR WIOO 211030Z 33006KT 8000 FEW011CB BKN012 26/24 Q1007 NOSIG=
21/12/2020 11:00:00Z	 SAID32 WIOO 211100	METAR WIOO 211100Z 30007KT 3000 -RA FEW010CB BKN011 26/24 Q1007 BECMG FM1120 2000 TSRA=
21/12/2020 11:30:00Z	 SAID32 WIOO 211130	METAR WIOO 211130Z 33003KT 3000 -RA FEW010CB BKN011 26/24 Q1008 BECMG FM1200 2000 TSRA=
21/12/2020 12:00:00Z	 SAID32 WIOO 211200	METAR WIOO 211200Z 33005KT 5000 -RA FEW010CB BKN011 25/24 Q1008 TEMPO TL1220 6000 NSW=
21/12/2020 12:30:00Z	 SAID32 WIOO 211230	METAR WIOO 211230Z 33004KT 4000 -RA FEW010CB BKN011 25/24 Q1009 NOSIG=
21/12/2020 13:00:00Z	 SAID32 WIOO 211300	METAR WIOO 211300Z 02005KT 6000 -RA FEW010CB BKN011 25/24 Q1009 NOSIG=
