01/09/2020 03:30:00Z	 SAID34 WIJJ 010330	METAR WIJJ 010330Z 16008KT 9999 SCT018 30/24 Q1010 NOSIG=
01/09/2020 04:00:00Z	 SAID34 WIJJ 010400	METAR WIJJ 010400Z 14007KT 9999 SCT018 31/23 Q1009 NOSIG=
01/09/2020 04:30:00Z	 SAID34 WIJJ 010430	METAR WIJJ 010430Z 12011KT 9999 SCT018 31/22 Q1009 NOSIG=
01/09/2020 05:00:00Z	 SAID34 WIJJ 010500	METAR WIJJ 010500Z 13012KT 9999 SCT018 32/22 Q1009 NOSIG=
01/09/2020 05:30:00Z	 SAID34 WIJJ 010530	METAR WIJJ 010530Z 11006KT 9999 SCT018 32/22 Q1008 NOSIG=
01/09/2020 06:00:00Z	 SAID34 WIJJ 010600	METAR WIJJ 010600Z 13009KT 9999 FEW018 32/22 Q1008 NOSIG=
01/09/2020 06:30:00Z	 SAID34 WIJJ 010630	METAR WIJJ 010630Z 14007KT 9999 SCT017 32/24 Q1007 NOSIG=
01/09/2020 07:00:00Z	 SAID34 WIJJ 010700	METAR WIJJ 010700Z 15008KT 9999 SCT017 33/24 Q1007 NOSIG=
01/09/2020 07:30:00Z	 SAID34 WIJJ 010730	METAR WIJJ 010730Z 14007KT 9999 SCT016 33/23 Q1006 NOSIG=
01/09/2020 08:00:00Z	 SAID34 WIJJ 010800	METAR WIJJ 010800Z 14008KT 9999 SCT016 33/23 Q1006 NOSIG=
01/09/2020 08:30:00Z	 SAID34 WIJJ 010830	METAR WIJJ 010830Z 15006KT 9999 SCT016 32/23 Q1005 NOSIG=
01/09/2020 09:00:00Z	 SAID34 WIJJ 010900	METAR WIJJ 010900Z 17007KT 9999 -RA BKN015 32/24 Q1005 NOSIG=
01/09/2020 09:30:00Z	 SAID34 WIJJ 010930	METAR WIJJ 010930Z 13008KT 9999 BKN015 32/24 Q1005 RERA NOSIG=
01/09/2020 10:00:00Z	 SAID34 WIJJ 011000	METAR WIJJ 011000Z 14006KT 9999 BKN015 32/24 Q1005 NOSIG=
01/09/2020 10:30:00Z	 SAID34 WIJJ 011030	METAR WIJJ 011030Z 15003KT 9999 SCT015 31/24 Q1005 NOSIG=
01/09/2020 11:00:00Z	 SAID34 WIJJ 011100	METAR WIJJ 011100Z 14004KT 9000 SCT015 31/24 Q1005 NOSIG=
01/09/2020 11:30:00Z	 SAID34 WIJJ 011130	METAR WIJJ 011130Z 06005KT 9999 SCT015 30/24 Q1006 NOSIG=
01/09/2020 12:00:00Z	 SAID34 WIJJ 011200	METAR WIJJ 011200Z 05004KT 9999 SCT015 30/24 Q1007 NOSIG=
01/09/2020 12:30:00Z	 SAID34 WIJJ 011230	METAR WIJJ 011230Z 07002KT 9999 BKN015 29/24 Q1007 NOSIG=
01/09/2020 13:00:00Z	 SAID34 WIJJ 011300	METAR WIJJ 011300Z 11002KT 8000 BKN015 28/25 Q1008 NOSIG=
01/09/2020 13:30:00Z	 SAID34 WIJJ 011330	METAR WIJJ 011330Z 08003KT 8000 BKN015 28/24 Q1008 NOSIG=
01/09/2020 14:00:00Z	 SAID34 WIJJ 011400	METAR WIJJ 011400Z 09004KT 7000 BKN015 28/24 Q1009 NOSIG=
01/09/2020 14:30:00Z	 SAID34 WIJJ 011430	METAR WIJJ 011430Z 09003KT 8000 SCT015 27/24 Q1009 NOSIG=
01/09/2020 15:00:00Z	 SAID34 WIJJ 011500	METAR WIJJ 011500Z 12004KT 8000 FEW015 26/24 Q1009 NOSIG=
01/09/2020 15:30:00Z	 SAID34 WIJJ 011530	METAR WIJJ 011530Z 12004KT 8000 FEW015 26/24 Q1010 NOSIG=
01/09/2020 16:00:00Z	 SAID34 WIJJ 011600	METAR WIJJ 011600Z 12007KT 8000 FEW015CB FEW015 26/24 Q1010 NOSIG RMK CB TO N-NE=
01/09/2020 16:30:00Z	 SAID34 WIJJ 011630	METAR WIJJ 011630Z 12008KT 9999 FEW015CB SCT015 26/24 Q1010 NOSIG RMK CB TO N-NE=
01/09/2020 17:00:00Z	 SAID34 WIJJ 011700	METAR WIJJ 011700Z 13006KT 9999 FEW015CB FEW015 26/23 Q1010 NOSIG RMK CB TO N-NE=
01/09/2020 17:30:00Z	 SAID34 WIJJ 011730	METAR WIJJ 011730Z 12004KT 9999 FEW015CB FEW015 26/24 Q1010 NOSIG RMK CB TO NE=
01/09/2020 18:00:00Z	 SAID34 WIJJ 011800	METAR WIJJ 011800Z 13004KT 9999 FEW015 26/24 Q1009 NOSIG=
01/09/2020 19:00:00Z	 SAID34 WIJJ 011900	METAR WIJJ 011900Z 14003KT 9999 FEW015 25/23 Q1008 NOSIG=
01/09/2020 21:00:00Z	 SAID34 WIJJ 012100	METAR WIJJ 012100Z 12004KT 8000 SCT050 24/23 Q1008 NOSIG=
01/09/2020 22:00:00Z	 SAID34 WIJJ 012200	METAR WIJJ 012200Z 14003KT 8000 FEW015 24/23 Q1008 NOSIG=
01/09/2020 22:30:00Z	 SAID34 WIJJ 012230	METAR WIJJ 012230Z 16003KT 8000 FEW015 24/23 Q1008 NOSIG=
01/09/2020 23:00:00Z	 SAID34 WIJJ 012300	METAR WIJJ 012300Z 15003KT 6000 FEW230 24/23 Q1009 NOSIG=
02/09/2020 00:00:00Z	 SAID34 WIJJ 020000	METAR WIJJ 020000Z 15003KT 5000 HZ FEW015 24/23 Q1009 NOSIG=
02/09/2020 00:30:00Z	 SAID34 WIJJ 020030	METAR WIJJ 020030Z 18002KT 4000 HZ FEW015 24/23 Q1009 NOSIG=
02/09/2020 01:00:00Z	 SAID34 WIJJ 020100	METAR WIJJ 020100Z 18004KT 150V230 8000 SCT015 25/24 Q1010 NOSIG=
02/09/2020 01:30:00Z	 SAID34 WIJJ 020130	METAR WIJJ 020130Z 17004KT 140V210 8000 SCT015 26/24 Q1010 NOSIG=
02/09/2020 02:00:00Z	 SAID34 WIJJ 020200	METAR WIJJ 020200Z 16005KT 120V190 8000 SCT015 28/25 Q1010 NOSIG=
02/09/2020 02:30:00Z	 SAID34 WIJJ 020230	METAR WIJJ 020230Z 16008KT 140V200 9999 SCT015 28/25 Q1010 NOSIG=
02/09/2020 03:00:00Z	 SAID34 WIJJ 020300	METAR WIJJ 020300Z 16008KT 120V200 9999 SCT015 29/25 Q1010 NOSIG=
02/09/2020 03:30:00Z	 SAID34 WIJJ 020330	METAR WIJJ 020330Z 14007KT 100V180 9999 SCT015 30/25 Q1010 NOSIG=
02/09/2020 04:00:00Z	 SAID34 WIJJ 020400	METAR WIJJ 020400Z 11006KT 050V160 9999 BKN015 32/24 Q1010 NOSIG=
02/09/2020 04:30:00Z	 SAID34 WIJJ 020430	METAR WIJJ 020430Z 13006KT 050V160 9999 BKN015 31/24 Q1009 NOSIG=
02/09/2020 05:00:00Z	 SAID34 WIJJ 020500	METAR WIJJ 020500Z 14007KT 070V170 9999 BKN015 32/23 Q1009 NOSIG=
02/09/2020 05:30:00Z	 SAID34 WIJJ 020530	METAR WIJJ 020530Z 14007KT 120V190 9999 BKN015 32/23 Q1008 NOSIG=
02/09/2020 06:00:00Z	 SAID34 WIJJ 020600	METAR WIJJ 020600Z 15006KT 120V210 9999 VCTS FEW014CB BKN015 32/23 Q1007 NOSIG RMK CB TO N AND E=
02/09/2020 06:30:00Z	 SAID34 WIJJ 020630	METAR WIJJ 020630Z 13009KT 9999 FEW015CB SCT016 31/23 Q1007 RMK CB TO N=
02/09/2020 07:00:00Z	 SAID34 WIJJ 020700	METAR WIJJ 020700Z 11007KT 9999 FEW015CB SCT016 31/23 Q1007 RMK CB TO N=
02/09/2020 07:30:00Z	 SAID34 WIJJ 020730	METAR WIJJ 020730Z 06004KT 9000 FEW015CB SCT016 29/23 Q1007 RMK CB TO N=
02/09/2020 08:00:00Z	 SAID34 WIJJ 020800	METAR WIJJ 020800Z 04004KT 9999 -RA FEW015 SCT016 29/24 Q1006 RMK CB TO N=
02/09/2020 08:30:00Z	 SAID34 WIJJ 020830	METAR WIJJ 020830Z 03003KT 9999 FEW015CB SCT016 28/24 Q1006 RMK CB TO N=
02/09/2020 09:00:00Z	 SAID34 WIJJ 020900	METAR WIJJ 020900Z 32004KT 9000 -RA FEW015CB SCT016 29/25 Q1007 RMK CB TO N=
02/09/2020 10:00:00Z	 SAID34 WIJJ 021000	METAR WIJJ 021000Z 36004KT 7000 HZ FEW015CB FEW016 27/24 Q1007 RMK CB TO S=
02/09/2020 10:30:00Z	 SAID34 WIJJ 021030	METAR WIJJ 021030Z 07003KT 9999 FEW015CB FEW016 27/24 Q1007 RMK CB TO S=
02/09/2020 11:00:00Z	 SAID34 WIJJ 021100	METAR WIJJ 021100Z 13004KT 9000 -RA FEW015CB FEW016 26/24 Q1007 RMK CB TO SE=
02/09/2020 11:30:00Z	 SAID34 WIJJ 021130	METAR WIJJ 021130Z 22002KT 9000 -RA SCT016 26/24 Q1008=
02/09/2020 12:00:00Z	 SAID34 WIJJ 021200	METAR WIJJ 021200Z 12002KT 8000 -RA SCT015 26/24 Q1008=
02/09/2020 12:30:00Z	 SAID34 WIJJ 021230	METAR WIJJ 021230Z 19001KT 9000 -RA SCT015 26/24 Q1009 NOSIG=
02/09/2020 13:00:00Z	 SAID34 WIJJ 021300	METAR WIJJ 021300Z 17002KT 9999 SCT015 26/24 Q1009 NOSIG=
02/09/2020 13:30:00Z	 SAID34 WIJJ 021330	METAR WIJJ 021330Z 22002KT 9999 SCT015 25/24 Q1009 NOSIG=
02/09/2020 14:00:00Z	 SAID34 WIJJ 021400	METAR WIJJ 021400Z 16001KT 9000 FEW015 26/24 Q1010 NOSIG=
02/09/2020 14:30:00Z	 SAID34 WIJJ 021430	METAR WIJJ 021430Z 07001KT 9000 FEW015 26/24 Q1010 NOSIG=
02/09/2020 15:00:00Z	 SAID34 WIJJ 021500	METAR WIJJ 021500Z 34001KT 8000 FEW015 26/24 Q1010 NOSIG=
02/09/2020 15:30:00Z	 SAID34 WIJJ 021530	METAR WIJJ 021530Z 11001KT 8000 FEW015 25/24 Q1010 NOSIG=
02/09/2020 16:00:00Z	 SAID34 WIJJ 021600	METAR WIJJ 021600Z 13001KT 5000 HZ FEW015 25/24 Q1010 NOSIG=
02/09/2020 16:30:00Z	 SAID34 WIJJ 021630	METAR WIJJ 021630Z 11002KT 3700 HZ FEW014 25/24 Q1010 NOSIG=
02/09/2020 17:00:00Z	 SAID34 WIJJ 021700	METAR WIJJ 021700Z 10002KT 2700 BR FEW015 25/24 Q1010 NOSIG=
02/09/2020 17:30:00Z	 SAID34 WIJJ 021730	METAR WIJJ 021730Z 14002KT 2000 BR FEW015 25/24 Q1010 NOSIG=
02/09/2020 18:00:00Z	 SAID34 WIJJ 021800	METAR WIJJ 021800Z 25002KT 2000 BR FEW014 25/24 Q1010 NOSIG=
02/09/2020 18:30:00Z	 SAID34 WIJJ 021830	METAR WIJJ 021830Z 18001KT 3100 HZ SCT014 25/24 Q1009 NOSIG=
02/09/2020 19:00:00Z	 SAID34 WIJJ 021900	METAR WIJJ 021900Z 19002KT 6000 FEW014 25/24 Q1009 NOSIG=
02/09/2020 19:30:00Z	 SAID34 WIJJ 021930	METAR WIJJ 021930Z 16001KT 8000 FEW014 25/24 Q1008 NOSIG=
02/09/2020 20:00:00Z	 SAID34 WIJJ 022000	METAR WIJJ 022000Z 20002KT 9000 FEW014 24/23 Q1008 NOSIG=
02/09/2020 20:30:00Z	 SAID34 WIJJ 022030	METAR WIJJ 022030Z 18001KT 9999 FEW014 24/23 Q1008 NOSIG=
02/09/2020 21:00:00Z	 SAID34 WIJJ 022100	METAR WIJJ 022100Z 20002KT 9999 FEW013 24/23 Q1008 NOSIG=
02/09/2020 21:30:00Z	 SAID34 WIJJ 022130	METAR WIJJ 022130Z 20001KT 9999 FEW013 24/23 Q1008 NOSIG=
02/09/2020 22:00:00Z	 SAID34 WIJJ 022200	METAR WIJJ 022200Z 27001KT 8000 FEW013 24/23 Q1008 NOSIG=
02/09/2020 22:30:00Z	 SAID34 WIJJ 022230	METAR WIJJ 022230Z 20002KT 7000 FEW013 24/23 Q1008 NOSIG=
02/09/2020 23:00:00Z	 SAID34 WIJJ 022300	METAR WIJJ 022300Z 19003KT 5000 SCT012 25/24 Q1009 NOSIG=
02/09/2020 23:30:00Z	 SAID34 WIJJ 022330	METAR WIJJ 022330Z 19002KT 5000 HZ SCT012 25/24 Q1009 NOSIG=
03/09/2020 00:00:00Z	 SAID34 WIJJ 030000	METAR WIJJ 030000Z 17002KT 5000 HZ SCT013 25/23 Q1010 NOSIG=
03/09/2020 00:30:00Z	 SAID34 WIJJ 030030	METAR WIJJ 030030Z 15002KT 6000 NSC 25/24 Q1010 NOSIG=
03/09/2020 01:00:00Z	 SAID34 WIJJ 030100	METAR WIJJ 030100Z 16003KT 130V240 8000 NSC 26/24 Q1010 NOSIG=
03/09/2020 01:30:00Z	 SAID34 WIJJ 030130	METAR WIJJ 030130Z 18004KT 150V220 9000 NSC 26/24 Q1010 NOSIG=
03/09/2020 02:00:00Z	 SAID34 WIJJ 030200	METAR WIJJ 030200Z 19004KT 150V220 9999 FEW012 27/25 Q1011 NOSIG=
03/09/2020 02:30:00Z	 SAID34 WIJJ 030230	METAR WIJJ 030230Z 15003KT 110V200 9999 FEW014 28/25 Q1011 NOSIG=
03/09/2020 03:00:00Z	 SAID34 WIJJ 030300	METAR WIJJ 030300Z 17003KT 110V250 9999 SCT012 29/26 Q1011 NOSIG=
03/09/2020 03:30:00Z	 SAID34 WIJJ 030330	METAR WIJJ 030330Z 14004KT 100V180 9999 SCT015 30/25 Q1011 NOSIG=
03/09/2020 04:00:00Z	 SAID34 WIJJ 030400	METAR WIJJ 030400Z 15005KT 100V200 9999 BKN015 30/25 Q1011 NOSIG=
03/09/2020 04:30:00Z	 SAID34 WIJJ 030430	METAR WIJJ 030430Z 15006KT 120V180 9999 BKN015 30/25 Q1010 NOSIG=
03/09/2020 05:00:00Z	 SAID34 WIJJ 030500	METAR WIJJ 030500Z 15003KT 060V190 9999 BKN015 29/25 Q1010 NOSIG=
03/09/2020 05:30:00Z	 SAID34 WIJJ 030530	METAR WIJJ 030530Z 17003KT 120V230 9999 SCT016 30/25 Q1009 NOSIG=
03/09/2020 06:00:00Z	 SAID34 WIJJ 030600	METAR WIJJ 030600Z 15006KT 120V180 9999 SCT016 30/25 Q1008 NOSIG=
03/09/2020 06:30:00Z	 SAID34 WIJJ 030630	METAR WIJJ 030630Z 13005KT 9999 -RA BKN015 29/25 Q1008 NOSIG=
03/09/2020 07:00:00Z	 SAID34 WIJJ 030700	METAR WIJJ 030700Z 14006KT 9999 FEW014CB BKN015 30/24 Q1007 NOSIG RMK CB TO N=
03/09/2020 07:30:00Z	 SAID34 WIJJ 030730	METAR WIJJ 030730Z 13004KT 080V150 9999 FEW014CB BKN015 31/26 Q1007 NOSIG RMK CB TO N=
03/09/2020 08:00:00Z	 SAID34 WIJJ 030800	METAR WIJJ 030800Z 03008KT 360V070 9999 TS FEW014CB BKN015 30/26 Q1007 NOSIG RMK CB TO SE AND NW=
03/09/2020 08:30:00Z	 SAID34 WIJJ 030830	METAR WIJJ 030830Z 04010KT 360V060 9999 VCTS FEW014CB BKN015 28/24 Q1007 NOSIG RMK CB TO SE AND SW=
03/09/2020 09:00:00Z	 SAID34 WIJJ 030900	METAR WIJJ 030900Z 03008KT 360V070 9999 FEW014CB BKN015 26/24 Q1007 NOSIG RMK CB TO NE AND SE-S=
03/09/2020 09:30:00Z	 SAID34 WIJJ 030930	METAR WIJJ 030930Z 07008KT 9999 -RA BKN013 25/24 Q1008 NOSIG=
03/09/2020 10:00:00Z	 SAID34 WIJJ 031000	METAR WIJJ 031000Z 11011KT 9999 FEW012CB SCT013 26/23 Q1008 NOSIG RMK CB TO E AND S=
03/09/2020 10:30:00Z	 SAID34 WIJJ 031030	METAR WIJJ 031030Z 15005KT 120V180 9999 VCTS FEW012CB BKN013 25/24 Q1008 NOSIG RMK CB ALQDS=
03/09/2020 11:00:00Z	 SAID34 WIJJ 031100	METAR WIJJ 031100Z 12005KT 8000 -RA FEW012CB BKN013 25/24 Q1009 NOSIG=
03/09/2020 11:30:00Z	 SAID34 WIJJ 031130	METAR WIJJ 031130Z 10004KT 7000 -RA BKN012 25/24 Q1010 NOSIG=
03/09/2020 12:00:00Z	 SAID34 WIJJ 031200	METAR WIJJ 031200Z 11006KT 5000 -RA BKN012 24/24 Q1010 NOSIG=
03/09/2020 12:30:00Z	 SAID34 WIJJ 031230	METAR WIJJ 031230Z 10003KT 7000 -RA SCT018 25/24 Q1010=
03/09/2020 13:00:00Z	 SAID34 WIJJ 031300	METAR WIJJ 031300Z 00000KT 9000 FEW010 25/24 Q1011=
03/09/2020 13:30:00Z	 SAID34 WIJJ 031330	METAR WIJJ 031330Z 11003KT 4600 -RA SCT010 25/24 Q1011=
03/09/2020 14:00:00Z	 SAID34 WIJJ 031400	METAR WIJJ 031400Z 09002KT 3500 -RA SCT016 25/24 Q1011=
03/09/2020 14:30:00Z	 SAID34 WIJJ 031430	METAR WIJJ 031430Z 13002KT 3900 -RA SCT010 25/24 Q1011=
03/09/2020 15:00:00Z	 SAID34 WIJJ 031500	METAR WIJJ 031500Z 13002KT 5000 BR FEW016 25/24 Q1011=
03/09/2020 16:00:00Z	 SAID34 WIJJ 031600	METAR WIJJ 031600Z 00000KT 6000 -RA SCT014 25/24 Q1011=
03/09/2020 17:00:00Z	 SAID34 WIJJ 031700	METAR WIJJ 031700Z 13003KT 3600 -BR SCT010 25/24 Q1011=
03/09/2020 18:00:00Z	 SAID34 WIJJ 031800	METAR WIJJ 031800Z 16003KT 5000 -RA BKN010 25/24 Q1011=
03/09/2020 18:30:00Z	 SAID34 WIJJ 031830	METAR WIJJ 031830Z 18003KT 4500 BR BKN010 25/24 Q1009=
03/09/2020 22:00:00Z	 SAID34 WIJJ 032200	METAR WIJJ 032200Z 16003KT 5000 BR SCT010 25/24 Q1009=
03/09/2020 22:01:00Z	 SAID34 WIJJ 032201	METAR WIJJ 032201Z 16004KT 5000 BR BKN007 25/24 Q1009=
03/09/2020 22:30:00Z	 SAID34 WIJJ 032230	METAR WIJJ 032230Z 17004KT 5000 BR BKN007 25/24 Q1009=
03/09/2020 23:00:00Z	 SAID34 WIJJ 032300	METAR WIJJ 032300Z 17004KT 5000 BR BKN009 24/24 Q1010=
04/09/2020 00:00:00Z	 SAID34 WIJJ 040000	METAR WIJJ 040000Z 18004KT 4800 BR BKN005 24/24 Q1010=
04/09/2020 00:30:00Z	 SAID34 WIJJ 040030	METAR WIJJ 040030Z 18005KT 7000 BKN007 25/24 Q1010 NOSIG=
04/09/2020 01:00:00Z	 SAID34 WIJJ 040100	METAR WIJJ 040100Z 15005KT 9999 OVC016 25/24 Q1011 NOSIG=
04/09/2020 01:30:00Z	 SAID34 WIJJ 040130	METAR WIJJ 040130Z 16004KT 9999 OVC015 25/24 Q1012 NOSIG=
04/09/2020 02:00:00Z	 SAID34 WIJJ 040200	METAR WIJJ 040200Z 14005KT 9999 OVC015 26/24 Q1012 NOSIG=
04/09/2020 02:30:00Z	 SAID34 WIJJ 040230	METAR WIJJ 040230Z 18005KT 9999 BKN015 27/24 Q1012 NOSIG=
04/09/2020 03:00:00Z	 SAID34 WIJJ 040300	METAR WIJJ 040300Z 14006KT 9999 OVC015 28/24 Q1011 NOSIG=
04/09/2020 03:30:00Z	 SAID34 WIJJ 040330	METAR WIJJ 040330Z 15007KT 9999 OVC016 28/25 Q1011 NOSIG=
04/09/2020 04:00:00Z	 SAID34 WIJJ 040400	METAR WIJJ 040400Z 14006KT 9999 BKN016 29/24 Q1011 NOSIG=
04/09/2020 04:30:00Z	 SAID34 WIJJ 040430	METAR WIJJ 040430Z 15007KT 9999 SCT016 29/25 Q1010 NOSIG=
04/09/2020 05:00:00Z	 SAID34 WIJJ 040500	METAR WIJJ 040500Z 16004KT 9999 SCT016 31/25 Q1010 NOSIG=
04/09/2020 05:30:00Z	 SAID34 WIJJ 040530	METAR WIJJ 040530Z 14004KT 9999 SCT016 31/24 Q1009 NOSIG=
04/09/2020 06:00:00Z	 SAID34 WIJJ 040600	METAR WIJJ 040600Z 15004KT 9999 BKN016 32/25 Q1008 NOSIG=
04/09/2020 06:30:00Z	 SAID34 WIJJ 040630	METAR WIJJ 040630Z 17005KT 120V210 9999 SCT017 31/25 Q1008 NOSIG=
04/09/2020 07:00:00Z	 SAID34 WIJJ 040700	METAR WIJJ 040700Z 14005KT 9999 SCT017 32/24 Q1007 NOSIG=
04/09/2020 07:30:00Z	 SAID34 WIJJ 040730	METAR WIJJ 040730Z 16005KT 120V200 9999 BKN016 33/24 Q1006 NOSIG=
04/09/2020 08:00:00Z	 SAID34 WIJJ 040800	METAR WIJJ 040800Z 21004KT 160V250 9999 BKN016 33/24 Q1005 NOSIG=
04/09/2020 08:30:00Z	 SAID34 WIJJ 040830	METAR WIJJ 040830Z 18003KT 120V250 9999 SCT017 33/23 Q1005 NOSIG=
04/09/2020 09:00:00Z	 SAID34 WIJJ 040900	METAR WIJJ 040900Z 15004KT 9999 BKN016 32/23 Q1005 NOSIG=
04/09/2020 09:30:00Z	 SAID34 WIJJ 040930	METAR WIJJ 040930Z 19005KT 140V230 9999 FEW015CB BKN016 31/24 Q1005 NOSIG RMK CB TO N AND NE=
04/09/2020 10:00:00Z	 SAID34 WIJJ 041000	METAR WIJJ 041000Z 09004KT 050V130 9999 VCTS FEW014CB BKN015 28/25 Q1006 NOSIG RMK CB TO SW-N=
04/09/2020 10:30:00Z	 SAID34 WIJJ 041030	METAR WIJJ 041030Z 07004KT 0650 R13/P2000 R31/1100 TSRA SCT005CB BKN006 25/24 Q1008 TEMPO 0500 TSRA SCT005 OVC005 RMK CB TO ALL RWY=
04/09/2020 11:00:00Z	 SAID34 WIJJ 041100	METAR WIJJ 041100Z 31004KT 9999 -TSRA FEW005CB BKN006 24/23 Q1007 RMK CB TO SW-NW=
04/09/2020 11:30:00Z	 SAID34 WIJJ 041130	METAR WIJJ 041130Z 32004KT 9999 SCT012 25/24 Q1008 NOSIG RMK RETS=
04/09/2020 12:00:00Z	 SAID34 WIJJ 041200	METAR WIJJ 041200Z 27002KT 9999 SCT012 25/23 Q1008 NOSIG=
04/09/2020 12:30:00Z	 SAID34 WIJJ 041230	METAR WIJJ 041230Z 26002KT 9999 SCT012 25/23 Q1008 NOSIG=
04/09/2020 13:00:00Z	 SAID34 WIJJ 041300	METAR WIJJ 041300Z 26002KT 9999 SCT015 25/23 Q1009 NOSIG=
04/09/2020 13:30:00Z	 SAID34 WIJJ 041330	METAR WIJJ 041330Z 19002KT 9999 SCT015 25/23 Q1009 NOSIG=
04/09/2020 14:00:00Z	 SAID34 WIJJ 041400	METAR WIJJ 041400Z 20002KT 9999 SCT015 24/23 Q1009 NOSIG=
04/09/2020 14:30:00Z	 SAID34 WIJJ 041430	METAR WIJJ 041430Z 17002KT 9999 SCT015 24/23 Q1009 NOSIG=
04/09/2020 15:00:00Z	 SAID34 WIJJ 041500	METAR WIJJ 041500Z 00000KT 9999 SCT015 24/23 Q1010 NOSIG=
04/09/2020 21:00:00Z	 SAID34 WIJJ 042100	METAR WIJJ 042100Z 00000KT 9999 FEW015 24/22 Q1008 NOSIG=
04/09/2020 21:30:00Z	 SAID34 WIJJ 042130	METAR WIJJ 042130Z 21002KT 9999 SCT015 24/22 Q1008 NOSIG=
04/09/2020 22:00:00Z	 SAID34 WIJJ 042200	METAR WIJJ 042200Z 21003KT 180V260 9999 FEW015 24/22 Q1008 NOSIG=
04/09/2020 22:30:00Z	 SAID34 WIJJ 042230	METAR WIJJ 042230Z 24003KT 9999 FEW015 24/22 Q1008 NOSIG=
04/09/2020 23:00:00Z	 SAID34 WIJJ 042300	METAR WIJJ 042300Z 24003KT 9999 SCT015 24/22 Q1008 NOSIG=
04/09/2020 23:30:00Z	 SAID34 WIJJ 042330	METAR WIJJ 042330Z 27002KT 7000 SCT015 24/22 Q1008 NOSIG=
05/09/2020 00:00:00Z	 SAID34 WIJJ 050000	METAR WIJJ 050000Z 25002KT 6000 SCT015 24/23 Q1009 NOSIG=
05/09/2020 00:30:00Z	 SAID34 WIJJ 050030	METAR WIJJ 050030Z 21002KT 7000 FEW015 26/24 Q1009 NOSIG=
05/09/2020 01:00:00Z	 SAID34 WIJJ 050100	METAR WIJJ 050100Z 18006KT 9000 FEW015 26/24 Q1009 NOSIG=
05/09/2020 01:30:00Z	 SAID34 WIJJ 050130	METAR WIJJ 050130Z 18005KT 9999 FEW015 27/25 Q1010 NOSIG=
05/09/2020 02:00:00Z	 SAID34 WIJJ 050200	METAR WIJJ 050200Z 17008KT 9999 FEW015 28/26 Q1010 NOSIG=
05/09/2020 02:30:00Z	 SAID34 WIJJ 050230	METAR WIJJ 050230Z 16008KT 9999 SCT015 28/25 Q1010 NOSIG=
05/09/2020 03:00:00Z	 SAID34 WIJJ 050300	METAR WIJJ 050300Z 16009KT 9999 BKN015 30/24 Q1010 NOSIG=
05/09/2020 03:30:00Z	 SAID34 WIJJ 050330	METAR WIJJ 050330Z 16009KT 9999 BKN015 30/24 Q1009 NOSIG=
05/09/2020 04:00:00Z	 SAID34 WIJJ 050400	METAR WIJJ 050400Z 17006KT 9999 BKN015 30/24 Q1009 NOSIG=
05/09/2020 04:30:00Z	 SAID34 WIJJ 050430	METAR WIJJ 050430Z 16006KT 9999 BKN015 30/25 Q1009 NOSIG=
05/09/2020 05:00:00Z	 SAID34 WIJJ 050500	METAR WIJJ 050500Z 15005KT 9999 SCT015 30/24 Q1008 NOSIG=
05/09/2020 05:30:00Z	 SAID34 WIJJ 050530	METAR WIJJ 050530Z 15004KT 9999 SCT015 29/23 Q1008 NOSIG=
05/09/2020 06:00:00Z	 SAID34 WIJJ 050600	METAR WIJJ 050600Z 15004KT 9999 SCT015 30/24 Q1008 NOSIG=
05/09/2020 06:30:00Z	 SAID34 WIJJ 050630	METAR WIJJ 050630Z 22003KT 9999 SCT015 30/24 Q1007 NOSIG=
05/09/2020 07:00:00Z	 SAID34 WIJJ 050700	METAR WIJJ 050700Z 19002KT 9999 SCT016 30/24 Q1007 NOSIG=
05/09/2020 07:30:00Z	 SAID34 WIJJ 050730	METAR WIJJ 050730Z 00000KT 9999 FEW015CB SCT015 30/24 Q1007 NOSIG RMK CB TO E, S=
05/09/2020 07:40:00Z	 SAID34 WIJJ 050740	METAR COR WIJJ 050740Z 13011G16KT 9999 VCTS RA SCT015CB BKN015 25/23 Q1007 NOSIG RMK CB TO NE-E, SW=
05/09/2020 08:00:00Z	 SAID34 WIJJ 050800	METAR WIJJ 050800Z 18006KT 5000 VCTS RA FEW015CB BKN015 25/23 Q1007 TEMPO TL0830 4000 TSRA=
05/09/2020 08:30:00Z	 SAID34 WIJJ 050830	METAR WIJJ 050830Z 35004KT 8000 VCTS SCT015CB SCT015 24/24 Q1007 NOSIG RMK RERA CB TO SE, W, N=
05/09/2020 09:00:00Z	 SAID34 WIJJ 050900	METAR WIJJ 050900Z 35002KT 9999 FEW015CB SCT015 26/24 Q1006 NOSIG RMK RETS CB TO N, E=
05/09/2020 09:30:00Z	 SAID34 WIJJ 050930	METAR WIJJ 050930Z 02003KT 9999 SCT015 25/24 Q1008 NOSIG RMK CB TO N, SE=
05/09/2020 10:00:00Z	 SAID34 WIJJ 051000	METAR WIJJ 051000Z 09008KT 3500 -TSRA SCT012CB BKN012 25/24 Q1008 NOSIG RMK CB IN APPROACH=
05/09/2020 10:30:00Z	 SAID34 WIJJ 051030	METAR WIJJ 051030Z 06006KT 5000 -RA FEW012CB BKN012 24/23 Q1008 NOSIG RMK RETS CB TO NE, S=
05/09/2020 11:00:00Z	 SAID34 WIJJ 051100	METAR WIJJ 051100Z 00000KT 8000 BKN015 24/23 Q1009 NOSIG RMK RETS=
05/09/2020 11:30:00Z	 SAID34 WIJJ 051130	METAR WIJJ 051130Z 00000KT 9999 BKN015 24/23 Q1009 NOSIG=
05/09/2020 12:00:00Z	 SAID34 WIJJ 051200	METAR WIJJ 051200Z 36003KT 9999 FEW015CB BKN015 24/23 Q1009 NOSIG RMK RETS CB TO E=
05/09/2020 12:30:00Z	 SAID34 WIJJ 051230	METAR WIJJ 051230Z 04005KT 9999 FEW008 24/23 Q1009 NOSIG=
05/09/2020 13:00:00Z	 SAID34 WIJJ 051300	METAR WIJJ 051300Z 06003KT 9999 SCT015 23/23 Q1009 NOSIG=
05/09/2020 13:30:00Z	 SAID34 WIJJ 051330	METAR WIJJ 051330Z 08002KT 9999 SCT015 23/22 Q1009 NOSIG=
05/09/2020 14:00:00Z	 SAID34 WIJJ 051400	METAR WIJJ 051400Z 08002KT 8000 -RA SCT015 23/22 Q1009 NOSIG=
05/09/2020 14:30:00Z	 SAID34 WIJJ 051430	METAR WIJJ 051430Z 10002KT 9999 SCT015 23/22 Q1009 NOSIG=
05/09/2020 15:00:00Z	 SAID34 WIJJ 051500	METAR WIJJ 051500Z 20002KT 8000 FEW016 23/22 Q1009 NOSIG=
05/09/2020 15:30:00Z	 SAID34 WIJJ 051530	METAR WIJJ 051530Z 17002KT 9999 FEW016 23/22 Q1009 NOSIG=
05/09/2020 16:00:00Z	 SAID34 WIJJ 051600	METAR WIJJ 051600Z 21002KT 6000 NSC 23/22 Q1009 NOSIG=
05/09/2020 16:30:00Z	 SAID34 WIJJ 051630	METAR WIJJ 051630Z 20003KT 8000 NSC 23/22 Q1009 NOSIG=
05/09/2020 17:00:00Z	 SAID34 WIJJ 051700	METAR WIJJ 051700Z 21003KT 8000 NSC 23/22 Q1009 NOSIG=
05/09/2020 17:30:00Z	 SAID34 WIJJ 051730	METAR WIJJ 051730Z 24001KT 8000 NSC 23/22 Q1009 RMK NOSIG=
05/09/2020 18:00:00Z	 SAID34 WIJJ 051800	METAR WIJJ 051800Z 26001KT 9000 NSC 23/22 Q1008 NOSIG=
05/09/2020 18:30:00Z	 SAID34 WIJJ 051830	METAR WIJJ 051830Z 29002KT 9999 NCD 23/22 Q1008 NOSIG=
05/09/2020 19:00:00Z	 SAID34 WIJJ 051900	METAR WIJJ 051900Z 22003KT 9000 NSC 23/22 Q1008 NOSIG=
05/09/2020 19:30:00Z	 SAID34 WIJJ 051930	METAR WIJJ 051930Z 23003KT 8000 NSC 23/22 Q1008 NOSIG=
05/09/2020 20:00:00Z	 SAID34 WIJJ 052000	METAR WIJJ 052000Z 23003KT 5000 BR NSC 23/22 Q1007 NOSIG=
05/09/2020 20:30:00Z	 SAID34 WIJJ 052030	METAR WIJJ 052030Z 22004KT 4900 BR NSC 23/22 Q1007 NOSIG=
05/09/2020 21:00:00Z	 SAID34 WIJJ 052100	METAR WIJJ 052100Z 22004KT 1900 BR OVC002 23/22 Q1007 NOSIG=
05/09/2020 21:30:00Z	 SAID34 WIJJ 052130	METAR WIJJ 052130Z 22004KT 190V250 1100 R13/P2000 R31/P2000 BR OVC001 23/22 Q1007 NOSIG=
05/09/2020 22:00:00Z	 SAID34 WIJJ 052200	METAR WIJJ 052200Z 21004KT 160V250 3500 BR OVC004 23/22 Q1008 NOSIG=
05/09/2020 22:30:00Z	 SAID34 WIJJ 052230	METAR WIJJ 052230Z 18003KT 140V250 4400 BR BKN004 23/22 Q1008 NOSIG=
05/09/2020 23:00:00Z	 SAID34 WIJJ 052300	METAR WIJJ 052300Z 15003KT 140V200 4200 BR BKN005 23/22 Q1008 NOSIG=
05/09/2020 23:30:00Z	 SAID34 WIJJ 052330	METAR WIJJ 052330Z 15003KT 2500 BR SCT004 23/22 Q1008 NOSIG=
06/09/2020 00:00:00Z	 SAID34 WIJJ 060000	METAR WIJJ 060000Z 15002KT 1400 R13/1400 R31/1600 BR FEW004 23/23 Q1009 NOSIG=
06/09/2020 00:30:00Z	 SAID34 WIJJ 060030	METAR WIJJ 060030Z 16002KT 5000 HZ FEW014 24/24 Q1009 NOSIG=
06/09/2020 01:00:00Z	 SAID34 WIJJ 060100	METAR WIJJ 060100Z 19003KT 140V240 9999 SCT015 27/27 Q1009 NOSIG=
06/09/2020 01:30:00Z	 SAID34 WIJJ 060130	METAR WIJJ 060130Z 20003KT 170V230 9999 SCT015 27/26 Q1009 NOSIG=
06/09/2020 02:00:00Z	 SAID34 WIJJ 060200	METAR WIJJ 060200Z 18004KT 130V220 9999 SCT015 28/26 Q1009 NOSIG=
06/09/2020 02:30:00Z	 SAID34 WIJJ 060230	METAR WIJJ 060230Z 18004KT 130V220 9999 SCT015 27/25 Q1009 NOSIG=
06/09/2020 03:00:00Z	 SAID34 WIJJ 060300	METAR WIJJ 060300Z 19005KT 130V230 9999 SCT015 27/24 Q1009 NOSIG=
06/09/2020 03:30:00Z	 SAID34 WIJJ 060330	METAR WIJJ 060330Z 14008KT 9999 SCT016 29/24 Q1009 NOSIG=
06/09/2020 04:00:00Z	 SAID34 WIJJ 060400	METAR WIJJ 060400Z 13006KT 9999 SCT016 30/24 Q1009 NOSIG=
06/09/2020 04:30:00Z	 SAID34 WIJJ 060430	METAR WIJJ 060430Z 15005KT 080V230 9999 SCT016 30/24 Q1009 NOSIG=
06/09/2020 05:00:00Z	 SAID34 WIJJ 060500	METAR WIJJ 060500Z 12006KT 090V200 9999 SCT016 32/25 Q1008 NOSIG=
06/09/2020 05:30:00Z	 SAID34 WIJJ 060530	METAR WIJJ 060530Z 13008KT 090V180 9999 BKN016 33/24 Q1008 NOSIG=
06/09/2020 06:00:00Z	 SAID34 WIJJ 060600	METAR WIJJ 060600Z 12011KT 080V150 9999 BKN016 33/22 Q1007 NOSIG=
06/09/2020 06:30:00Z	 SAID34 WIJJ 060630	METAR WIJJ 060630Z 15009KT 9999 SCT016 32/23 Q1007 NOSIG=
06/09/2020 07:00:00Z	 SAID34 WIJJ 060700	METAR WIJJ 060700Z 13007KT 9999 SCT015 32/24 Q1007 NOSIG=
06/09/2020 07:30:00Z	 SAID34 WIJJ 060730	METAR WIJJ 060730Z 15009KT 9999 SCT015 33/24 Q1006 NOSIG=
06/09/2020 08:00:00Z	 SAID34 WIJJ 060800	METAR WIJJ 060800Z 11008KT 9999 SCT015 33/23 Q1006 NOSIG=
06/09/2020 08:30:00Z	 SAID34 WIJJ 060830	METAR WIJJ 060830Z 11007KT 9999 SCT015 33/23 Q1006 NOSIG=
06/09/2020 09:00:00Z	 SAID34 WIJJ 060900	METAR WIJJ 060900Z 11007KT 9999 SCT015 33/23 Q1006 NOSIG=
06/09/2020 09:30:00Z	 SAID34 WIJJ 060930	METAR WIJJ 060930Z 12006KT 9999 SCT015 32/23 Q1006 NOSIG=
06/09/2020 10:00:00Z	 SAID34 WIJJ 061000	METAR WIJJ 061000Z 12005KT 9999 SCT015 32/23 Q1006 NOSIG=
06/09/2020 10:30:00Z	 SAID34 WIJJ 061030	METAR WIJJ 061030Z 11006KT 9999 SCT015 31/23 Q1006 NOSIG=
06/09/2020 11:00:00Z	 SAID34 WIJJ 061100	METAR WIJJ 061100Z 12003KT 9999 FEW015CB FEW016 31/23 Q1007 NOSIG=
06/09/2020 12:00:00Z	 SAID34 WIJJ 061200	METAR WIJJ 061200Z 11002KT 9000 FEW015 30/22 Q1008 NOSIG=
06/09/2020 12:30:00Z	 SAID34 WIJJ 061230	METAR WIJJ 061230Z 11003KT 8000 FEW015 29/24 Q1008 NOSIG=
06/09/2020 13:00:00Z	 SAID34 WIJJ 061300	METAR WIJJ 061300Z 09004KT 9000 FEW015 28/24 Q1009 NOSIG=
06/09/2020 13:30:00Z	 SAID34 WIJJ 061330	METAR WIJJ 061330Z 10004KT 9000 FEW015 28/23 Q1009 NOSIG=
06/09/2020 14:00:00Z	 SAID34 WIJJ 061400	METAR WIJJ 061400Z 10003KT 9000 FEW015 27/23 Q1009 NOSIG=
06/09/2020 15:00:00Z	 SAID34 WIJJ 061500	METAR WIJJ 061500Z 08002KT 8000 FEW015 27/24 Q1010 NOSIG=
06/09/2020 15:30:00Z	 SAID34 WIJJ 061530	METAR WIJJ 061530Z 13002KT 8000 FEW015 26/24 Q1009 NOSIG=
06/09/2020 16:00:00Z	 SAID34 WIJJ 061600	METAR WIJJ 061600Z 12002KT 8000 FEW015 25/24 Q1009 NOSIG=
06/09/2020 16:30:00Z	 SAID34 WIJJ 061630	METAR WIJJ 061630Z 00000KT 8000 FEW015 25/24 Q1009 NOSIG=
06/09/2020 17:00:00Z	 SAID34 WIJJ 061700	METAR WIJJ 061700Z 14002KT 7000 FEW016 25/24 Q1009 NOSIG=
06/09/2020 18:00:00Z	 SAID34 WIJJ 061800	METAR WIJJ 061800Z 00000KT 7000 FEW015 25/24 Q1008 NOSIG=
06/09/2020 21:00:00Z	 SAID34 WIJJ 062100	METAR WIJJ 062100Z 00000KT 3700 HZ FEW015 24/24 Q1008 NOSIG=
06/09/2020 21:30:00Z	 SAID34 WIJJ 062130	METAR WIJJ 062130Z ///01KT 5000 HZ FEW015 24/24 Q1008 NOSIG=
06/09/2020 22:00:00Z	 SAID34 WIJJ 062200	METAR WIJJ 062200Z 15003KT 5000 HZ FEW015 24/23 Q1008 NOSIG=
06/09/2020 22:30:00Z	 SAID34 WIJJ 062230	METAR WIJJ 062230Z 00000KT 5000 HZ FEW015 24/23 Q0109 NOSIG=
06/09/2020 23:00:00Z	 SAID34 WIJJ 062300	METAR WIJJ 062300Z 16002KT 3800 HZ FEW015 24/23 Q1009 NOSIG=
06/09/2020 23:30:00Z	 SAID34 WIJJ 062330	METAR WIJJ 062330Z 15002KT 3900 HZ FEW016 24/23 Q1009 NOSIG=
07/09/2020 00:00:00Z	 SAID34 WIJJ 070000	METAR COR WIJJ 070000Z 15004KT 4000 HZ FEW015 25/23 Q1010 NOSIG=
07/09/2020 00:30:00Z	 SAID34 WIJJ 070030	METAR WIJJ 070030Z 12007KT 6000 FEW015 26/23 Q1010 NOSIG=
07/09/2020 01:00:00Z	 SAID34 WIJJ 070100	METAR WIJJ 070100Z 12004KT 9999 FEW016 27/23 Q1010 NOSIG=
07/09/2020 01:30:00Z	 SAID34 WIJJ 070130	METAR WIJJ 070130Z 13005KT 090V150 9999 FEW016 28/24 Q1010 NOSIG=
07/09/2020 02:00:00Z	 SAID34 WIJJ 070200	METAR WIJJ 070200Z 13006KT 070V170 9999 FEW016 29/24 Q1011 NOSIG=
07/09/2020 02:30:00Z	 SAID34 WIJJ 070230	METAR WIJJ 070230Z 10006KT 050V140 9999 FEW016 30/23 Q1011 NOSIG=
07/09/2020 03:00:00Z	 SAID34 WIJJ 070300	METAR WIJJ 070300Z 14007KT 110V170 9999 SCT016 30/23 Q1011 NOSIG=
07/09/2020 03:30:00Z	 SAID34 WIJJ 070330	METAR WIJJ 070330Z 14006KT 080V180 9999 SCT016 31/23 Q1010 NOSIG=
07/09/2020 04:00:00Z	 SAID34 WIJJ 070400	METAR WIJJ 070400Z 12008KT 060V160 9999 BKN016 32/24 Q1010 NOSIG=
07/09/2020 04:30:00Z	 SAID34 WIJJ 070430	METAR WIJJ 070430Z 14009KT 110V170 9999 BKN016 31/24 Q1009 NOSIG=
07/09/2020 05:00:00Z	 SAID34 WIJJ 070500	METAR WIJJ 070500Z 14009KT 100V180 9999 SCT016 32/22 Q1009 NOSIG=
07/09/2020 05:30:00Z	 SAID34 WIJJ 070530	METAR WIJJ 070530Z 11008KT 9999 SCT016 33/22 Q1009 NOSIG=
07/09/2020 06:00:00Z	 SAID34 WIJJ 070600	METAR WIJJ 070600Z 11008KT 070V160 9999 SCT016 33/22 Q1008 NOSIG=
07/09/2020 06:30:00Z	 SAID34 WIJJ 070630	METAR WIJJ 070630Z 16008KT 140V210 9999 SCT016 32/23 Q1008 NOSIG=
07/09/2020 07:00:00Z	 SAID34 WIJJ 070700	METAR WIJJ 070700Z 14007KT 120V180 9999 BKN016 33/23 Q1007 NOSIG=
07/09/2020 07:30:00Z	 SAID34 WIJJ 070730	METAR WIJJ 070730Z 13009KT 9999 SCT016 33/22 Q1007 NOSIG=
07/09/2020 08:00:00Z	 SAID34 WIJJ 070800	METAR WIJJ 070800Z 12011KT 9999 -RA BKN014 32/23 Q1007 NOSIG=
07/09/2020 08:30:00Z	 SAID34 WIJJ 070830	METAR WIJJ 070830Z 07011KT 9999 -RA BKN014 27/22 Q1007 NOSIG=
07/09/2020 09:00:00Z	 SAID34 WIJJ 070900	METAR WIJJ 070900Z 05004KT 010V080 9999 -RA SCT015 26/23 Q1007 NOSIG=
07/09/2020 09:30:00Z	 SAID34 WIJJ 070930	METAR COR WIJJ 070930Z 00000KT 9999 SCT015 28/23 Q1007 NOSIG RMK RERA=
07/09/2020 10:00:00Z	 SAID34 WIJJ 071000	METAR WIJJ 071000Z 00000KT 9999 SCT015 28/24 Q1007 NOSIG=
07/09/2020 10:30:00Z	 SAID34 WIJJ 071030	METAR WIJJ 071030Z 00000KT 9000 SCT015 29/23 Q1007 NOSIG=
07/09/2020 11:00:00Z	 SAID34 WIJJ 071100	METAR WIJJ 071100Z 08002KT 5000 HZ FEW016 29/23 Q1008 NOSIG=
07/09/2020 11:30:00Z	 SAID34 WIJJ 071130	METAR WIJJ 071130Z 11005KT 7000 SCT016 28/24 Q1008 NOSIG=
07/09/2020 12:00:00Z	 SAID34 WIJJ 071200	METAR WIJJ 071200Z 12004KT 9999 FEW016 27/23 Q1008 NOSIG=
07/09/2020 12:30:00Z	 SAID34 WIJJ 071230	METAR WIJJ 071230Z 14002KT 9999 FEW016 27/24 Q1008 NOSIG=
07/09/2020 13:00:00Z	 SAID34 WIJJ 071300	METAR WIJJ 071300Z 04002KT 9999 FEW015 28/24 Q1009 NOSIG=
07/09/2020 13:30:00Z	 SAID34 WIJJ 071330	METAR WIJJ 071330Z 02002KT 8000 FEW015 27/23 Q1009 NOSIG=
07/09/2020 14:00:00Z	 SAID34 WIJJ 071400	METAR WIJJ 071400Z 04003KT 7000 FEW015 27/24 Q1009 NOSIG=
07/09/2020 14:30:00Z	 SAID34 WIJJ 071430	METAR WIJJ 071430Z 02002KT 7000 FEW015 27/24 Q1010 NOSIG=
07/09/2020 15:00:00Z	 SAID34 WIJJ 071500	METAR WIJJ 071500Z 01001KT 6000 FEW015 27/24 Q1010 NOSIG=
07/09/2020 15:30:00Z	 SAID34 WIJJ 071530	METAR WIJJ 071530Z 12001KT 7000 FEW015 26/24 Q1010 NOSIG=
07/09/2020 16:00:00Z	 SAID34 WIJJ 071600	METAR WIJJ 071600Z 11002KT 5000 HZ FEW014 26/24 Q1010 NOSIG=
07/09/2020 16:04:00Z	 SAID34 WIJJ 071604	METAR WIJJ 071604Z 12001KT 4000 HZ FEW014 26/24 Q1010 NOSIG=
07/09/2020 16:30:00Z	 SAID34 WIJJ 071630	METAR COR WIJJ 071630Z 12001KT 4000 HZ FEW014 26/24 Q1010 NOSIG=
07/09/2020 17:00:00Z	 SAID34 WIJJ 071700	METAR WIJJ 071700Z 13001KT 4000 HZ FEW014 26/24 Q1010 NOSIG=
07/09/2020 17:30:00Z	 SAID34 WIJJ 071730	METAR WIJJ 071730Z 14001KT 3500 HZ FEW014 26/24 Q1010 NOSIG=
07/09/2020 18:00:00Z	 SAID34 WIJJ 071800	METAR WIJJ 071800Z 14001KT 3500 HZ FEW014 26/24 Q1010 NOSIG=
07/09/2020 18:30:00Z	 SAID34 WIJJ 071830	METAR WIJJ 071830Z 17002KT 4200 HZ FEW014 25/24 Q1010 NOSIG=
07/09/2020 19:00:00Z	 SAID34 WIJJ 071900	METAR WIJJ 071900Z 19002KT 4800 HZ FEW014 25/24 Q1010 NOSIG=
07/09/2020 19:30:00Z	 SAID34 WIJJ 071930	METAR WIJJ 071930Z 18002KT 5000 FEW013 25/24 Q1009 NOSIG=
07/09/2020 20:00:00Z	 SAID34 WIJJ 072000	METAR WIJJ 072000Z 00000KT 7000 FEW013 25/24 Q1009 NOSIG=
07/09/2020 20:30:00Z	 SAID34 WIJJ 072030	METAR WIJJ 072030Z 19001KT 7000 FEW013 25/24 Q1009 NOSIG=
07/09/2020 21:00:00Z	 SAID34 WIJJ 072100	METAR WIJJ 072100Z 13002KT 7000 FEW013 25/24 Q1009 NOSIG=
07/09/2020 21:30:00Z	 SAID34 WIJJ 072130	METAR WIJJ 072130Z 15001KT 5000 HZ SCT013 25/23 Q1009 NOSIG=
07/09/2020 22:00:00Z	 SAID34 WIJJ 072200	METAR WIJJ 072200Z 14002KT 7000 FEW013 25/23 Q1010 NOSIG=
07/09/2020 22:30:00Z	 SAID34 WIJJ 072230	METAR WIJJ 072230Z 13002KT 9000 FEW013 25/24 Q1010 NOSIG=
07/09/2020 23:00:00Z	 SAID34 WIJJ 072300	METAR WIJJ 072300Z 14002KT 7000 SCT013 25/23 Q1010 NOSIG=
07/09/2020 23:30:00Z	 SAID34 WIJJ 072330	METAR WIJJ 072330Z 18002KT 6000 SCT013 25/23 Q1010 NOSIG=
08/09/2020 00:00:00Z	 SAID34 WIJJ 080000	METAR WIJJ 080000Z 17002KT 7000 FEW013 25/23 Q1010 NOSIG=
08/09/2020 00:30:00Z	 SAID34 WIJJ 080030	METAR WIJJ 080030Z 19003KT 160V220 7000 NSC 25/24 Q1011 NOSIG=
08/09/2020 01:00:00Z	 SAID34 WIJJ 080100	METAR WIJJ 080100Z 21003KT 180V240 9000 NSC 26/24 Q1011 NOSIG=
08/09/2020 01:30:00Z	 SAID34 WIJJ 080130	METAR WIJJ 080130Z 21003KT 150V250 9999 FEW015 28/24 Q1011 NOSIG=
08/09/2020 02:00:00Z	 SAID34 WIJJ 080200	METAR WIJJ 080200Z 14004KT 100V220 9999 FEW015 29/24 Q1012 NOSIG=
08/09/2020 02:30:00Z	 SAID34 WIJJ 080230	METAR WIJJ 080230Z 13007KT 100V170 9999 SCT015 30/24 Q1011 NOSIG=
08/09/2020 03:00:00Z	 SAID34 WIJJ 080300	METAR WIJJ 080300Z 15009KT 120V190 9999 BKN015 29/24 Q1011 NOSIG=
08/09/2020 03:30:00Z	 SAID34 WIJJ 080330	METAR WIJJ 080330Z 13008KT 090V190 9999 BKN016 30/25 Q1011 NOSIG=
08/09/2020 04:00:00Z	 SAID34 WIJJ 080400	METAR WIJJ 080400Z 14009KT 100V160 9999 BKN016 30/24 Q1011 NOSIG=
08/09/2020 04:30:00Z	 SAID34 WIJJ 080430	METAR WIJJ 080430Z 14010KT 100V170 9999 BKN016 31/23 Q1011 NOSIG=
08/09/2020 05:00:00Z	 SAID34 WIJJ 080500	METAR WIJJ 080500Z 12009KT 100V160 9999 BKN016 33/24 Q1010 NOSIG=
08/09/2020 05:30:00Z	 SAID34 WIJJ 080530	METAR WIJJ 080530Z 13009KT 9999 BKN016 32/23 Q1010 NOSIG=
08/09/2020 06:00:00Z	 SAID34 WIJJ 080600	METAR WIJJ 080600Z 15007KT 090V180 9999 SCT016 32/23 Q1009 NOSIG=
08/09/2020 06:30:00Z	 SAID34 WIJJ 080630	METAR WIJJ 080630Z 16007KT 130V200 9999 SCT016 32/24 Q1009 NOSIG=
08/09/2020 07:00:00Z	 SAID34 WIJJ 080700	METAR WIJJ 080700Z 13008KT 9999 BKN015 32/23 Q1008 NOSIG=
08/09/2020 07:30:00Z	 SAID34 WIJJ 080730	METAR WIJJ 080730Z 11009KT 070V140 9999 BKN014 32/24 Q1008 NOSIG=
08/09/2020 08:00:00Z	 SAID34 WIJJ 080800	METAR WIJJ 080800Z 12014KT 9999 -RA BKN014 28/24 Q1008 NOSIG=
08/09/2020 08:30:00Z	 SAID34 WIJJ 080830	METAR WIJJ 080830Z 21004KT 9999 BKN014 27/24 Q1007 RERA=
08/09/2020 09:00:00Z	 SAID34 WIJJ 080900	METAR WIJJ 080900Z 00000KT 9999 SCT015 29/25 Q1007 NOSIG=
08/09/2020 09:30:00Z	 SAID34 WIJJ 080930	METAR WIJJ 080930Z 11006KT 9999 SCT016 29/26 Q1007 NOSIG=
08/09/2020 10:00:00Z	 SAID34 WIJJ 081000	METAR WIJJ 081000Z 10005KT 9999 FEW016 30/24 Q1007 NOSIG=
08/09/2020 10:30:00Z	 SAID34 WIJJ 081030	METAR WIJJ 081030Z 11005KT 9999 FEW016 29/24 Q1008 NOSIG=
08/09/2020 11:00:00Z	 SAID34 WIJJ 081100	METAR WIJJ 081100Z 10008KT 9999 SCT015 28/23 Q1008 NOSIG=
08/09/2020 11:30:00Z	 SAID34 WIJJ 081130	METAR WIJJ 081130Z 11004KT 9999 SCT015 27/24 Q1008 NOSIG=
08/09/2020 12:00:00Z	 SAID34 WIJJ 081200	METAR WIJJ 081200Z 12004KT 9999 SCT015 27/24 Q1009 NOSIG=
08/09/2020 12:30:00Z	 SAID34 WIJJ 081230	METAR WIJJ 081230Z 12004KT 9999 FEW016 28/24 Q1009 NOSIG=
08/09/2020 13:00:00Z	 SAID34 WIJJ 081300	METAR WIJJ 081300Z 12004KT 9999 FEW016 27/24 Q1010 NOSIG=
08/09/2020 13:30:00Z	 SAID34 WIJJ 081330	METAR WIJJ 081330Z 13003KT 9999 FEW016 27/24 Q1010 NOSIG=
08/09/2020 14:00:00Z	 SAID34 WIJJ 081400	METAR WIJJ 081400Z 13003KT 9999 FEW016 26/24 Q1010 NOSIG=
08/09/2020 14:30:00Z	 SAID34 WIJJ 081430	METAR WIJJ 081430Z 15003KT 9999 FEW016 26/24 Q1010 NOSIG=
08/09/2020 15:00:00Z	 SAID34 WIJJ 081500	METAR WIJJ 081500Z 13004KT 9999 FEW015 26/23 Q1011 NOSIG=
08/09/2020 16:00:00Z	 SAID34 WIJJ 081600	METAR WIJJ 081600Z 13002KT 9999 FEW018 26/23 Q1011 NOSIG=
08/09/2020 17:00:00Z	 SAID34 WIJJ 081700	METAR WIJJ 081700Z 13002KT 9999 FEW018 25/23 Q1010 NOSIG=
08/09/2020 18:00:00Z	 SAID34 WIJJ 081800	METAR WIJJ 081800Z 19002KT 9999 FEW018 25/24 Q1010 NOSIG=
08/09/2020 21:00:00Z	 SAID34 WIJJ 082100	METAR WIJJ 082100Z 00000KT 8000 FEW016 24/23 Q1009=
08/09/2020 21:30:00Z	 SAID34 WIJJ 082130	METAR WIJJ 082130Z 00000KT 8000 FEW016 24/23 Q1009=
08/09/2020 22:00:00Z	 SAID34 WIJJ 082200	METAR WIJJ 082200Z 25001KT 8000 FEW016 24/23 Q1009=
08/09/2020 22:30:00Z	 SAID34 WIJJ 082230	METAR WIJJ 082230Z 21002KT 3300 HZ FEW016 24/23 Q1009=
08/09/2020 23:00:00Z	 SAID34 WIJJ 082300	METAR WIJJ 082300Z 18003KT 3000 BR FEW016 24/23 Q1009=
08/09/2020 23:30:00Z	 SAID34 WIJJ 082330	METAR WIJJ 082330Z 15003KT 5000 BR FEW016 24/23 Q1009=
09/09/2020 00:00:00Z	 SAID34 WIJJ 090000	METAR WIJJ 090000Z 17003KT 8000 FEW016 25/23 Q1010=
09/09/2020 00:30:00Z	 SAID34 WIJJ 090030	METAR WIJJ 090030Z 19002KT 9000 FEW016 26/24 Q1010 NOSIG=
09/09/2020 01:00:00Z	 SAID34 WIJJ 090100	METAR WIJJ 090100Z 16004KT 9000 FEW016 28/24 Q1010 NOSIG=
09/09/2020 01:30:00Z	 SAID34 WIJJ 090130	METAR WIJJ 090130Z 15004KT 9999 FEW016 29/25 Q1010 NOSIG=
09/09/2020 02:00:00Z	 SAID34 WIJJ 090200	METAR WIJJ 090200Z 13006KT 9999 SCT016 30/25 Q1011 NOSIG=
09/09/2020 02:30:00Z	 SAID34 WIJJ 090230	METAR WIJJ 090230Z 15006KT 9999 SCT010 29/25 Q1010 NOSIG=
09/09/2020 03:00:00Z	 SAID34 WIJJ 090300	METAR WIJJ 090300Z 16006KT 9999 SCT016 30/25 Q1010 NOSIG=
09/09/2020 03:30:00Z	 SAID34 WIJJ 090330	METAR WIJJ 090330Z 15006KT 9999 BKN016 30/24 Q1010 NOSIG=
09/09/2020 04:00:00Z	 SAID34 WIJJ 090400	METAR WIJJ 090400Z 13006KT 9999 BKN016 31/24 Q1010 NOSIG=
09/09/2020 04:30:00Z	 SAID34 WIJJ 090430	METAR WIJJ 090430Z 17006KT 9999 SCT016 32/25 Q1009 NOSIG=
09/09/2020 05:00:00Z	 SAID34 WIJJ 090500	METAR WIJJ 090500Z 13004KT 9999 SCT014 31/23 Q1009 NOSIG=
09/09/2020 05:30:00Z	 SAID34 WIJJ 090530	METAR COR WIJJ 090530Z 11004KT 9999 BKN013 31/25 Q1008 NOSIG=
09/09/2020 06:30:00Z	 SAID34 WIJJ 090630	METAR WIJJ 090630Z 06004KT 9999 SCT017 31/24 Q1007 NOSIG=
09/09/2020 07:00:00Z	 SAID34 WIJJ 090700	METAR WIJJ 090700Z 05004KT 9999 SCT017 32/24 Q1006 NOSIG=
09/09/2020 07:30:00Z	 SAID34 WIJJ 090730	METAR WIJJ 090730Z 13005KT 9999 SCT017 33/25 Q1005 NOSIG=
09/09/2020 08:00:00Z	 SAID34 WIJJ 090800	METAR WIJJ 090800Z 13005KT 9999 SCT017 33/25 Q1005 NOSIG=
09/09/2020 08:30:00Z	 SAID34 WIJJ 090830	METAR WIJJ 090830Z 14005KT 120V180 9999 SCT017 34/25 Q1005 NOSIG=
09/09/2020 09:00:00Z	 SAID34 WIJJ 090900	METAR WIJJ 090900Z 14005KT 100V190 9999 SCT017 34/24 Q1005 NOSIG=
09/09/2020 09:30:00Z	 SAID34 WIJJ 090930	METAR WIJJ 090930Z 08002KT 9999 FEW015CB SCT016 33/24 Q1005 NOSIG RMK CB TO NE=
09/09/2020 10:00:00Z	 SAID34 WIJJ 091000	METAR WIJJ 091000Z 31007KT 9999 VCTS FEW015CB SCT016 31/24 Q1005 NOSIG RMK CB TO NE=
09/09/2020 10:30:00Z	 SAID34 WIJJ 091030	METAR WIJJ 091030Z 29004KT 250V310 9999 VCTS FEW015CB SCT016 30/24 Q1005 NOSIG RMK CB TO NE=
09/09/2020 11:00:00Z	 SAID34 WIJJ 091100	METAR WIJJ 091100Z 19005KT 120V270 8000 FEW005CB BKN006 28/24 Q1006 NOSIG RMK CB TO NE AND SW AND W=
09/09/2020 11:30:00Z	 SAID34 WIJJ 091130	METAR WIJJ 091130Z 22007KT 150V240 0500 R13/1200 R31/1100 -TSRA FEW005CB BKN006 24/23 Q1006 NOSIG=
09/09/2020 12:00:00Z	 SAID34 WIJJ 091200	METAR WIJJ 091200Z 05004KT 350V090 3000 -TSRA FEW012CB BKN014 25/24 Q1007 NOSIG RMK CB TO ALQDS=
09/09/2020 21:00:00Z	 SAID34 WIJJ 092100	METAR WIJJ 092100Z 22002KT 6000 SCT015 24/24 Q1007 NOSIG=
09/09/2020 21:30:00Z	 SAID34 WIJJ 092130	METAR WIJJ 092130Z 00000KT 8000 SCT015 24/24 Q1007 NOSIG=
09/09/2020 22:00:00Z	 SAID34 WIJJ 092200	METAR WIJJ 092200Z 00000KT 8000 SCT015 24/24 Q1007 NOSIG=
09/09/2020 22:30:00Z	 SAID34 WIJJ 092230	METAR WIJJ 092230Z 00000KT 9999 SCT015 24/24 Q1007 NOSIG=
09/09/2020 23:00:00Z	 SAID34 WIJJ 092300	METAR WIJJ 092300Z 27002KT 9999 SCT015 24/24 Q1007 NOSIG=
09/09/2020 23:30:00Z	 SAID34 WIJJ 092330	METAR WIJJ 092330Z 00000KT 9000 BKN015 24/24 Q1008 NOSIG=
10/09/2020 00:00:00Z	 SAID34 WIJJ 100000	METAR WIJJ 100000Z 00000KT 7000 SCT015 25/24 Q1008 NOSIG=
10/09/2020 00:30:00Z	 SAID34 WIJJ 100030	METAR WIJJ 100030Z 23003KT 3000 HZ SCT015 25/24 Q1009 NOSIG=
10/09/2020 01:00:00Z	 SAID34 WIJJ 100100	METAR WIJJ 100100Z 24003KT 4000 HZ SCT015 25/24 Q1009 NOSIG=
10/09/2020 01:30:00Z	 SAID34 WIJJ 100130	METAR WIJJ 100130Z 22002KT 5000 HZ SCT015 26/24 Q1009 NOSIG=
10/09/2020 02:00:00Z	 SAID34 WIJJ 100200	METAR WIJJ 100200Z 21003KT 6000 SCT013 26/24 Q1009 NOSIG=
10/09/2020 02:30:00Z	 SAID34 WIJJ 100230	METAR WIJJ 100230Z 22002KT 9999 BKN012 27/25 Q1009 NOSIG=
10/09/2020 03:00:00Z	 SAID34 WIJJ 100300	METAR WIJJ 100300Z 13001KT 9999 BKN014 27/24 Q1009 NOSIG=
10/09/2020 03:30:00Z	 SAID34 WIJJ 100330	METAR WIJJ 100330Z 35002KT 9999 BKN014 28/25 Q1009 NOSIG=
10/09/2020 04:00:00Z	 SAID34 WIJJ 100400	METAR WIJJ 100400Z 19001KT 9999 BKN015 28/24 Q1009 NOSIG=
10/09/2020 04:30:00Z	 SAID34 WIJJ 100430	METAR WIJJ 100430Z 21002KT 9999 BKN016 29/24 Q1008 NOSIG=
10/09/2020 05:00:00Z	 SAID34 WIJJ 100500	METAR WIJJ 100500Z 20003KT 9999 BKN016 30/24 Q1008 NOSIG=
10/09/2020 05:30:00Z	 SAID34 WIJJ 100530	METAR WIJJ 100530Z 34005KT 9999 BKN016 30/24 Q1007 NOSIG=
10/09/2020 06:00:00Z	 SAID34 WIJJ 100600	METAR WIJJ 100600Z 35006KT 9999 BKN016 29/24 Q1007 NOSIG=
10/09/2020 06:30:00Z	 SAID34 WIJJ 100630	METAR WIJJ 100630Z 33005KT 9999 BKN016 31/24 Q1006 NOSIG=
10/09/2020 07:00:00Z	 SAID34 WIJJ 100700	METAR WIJJ 100700Z 36006KT 9999 VCTS BKN016CB FEW016 31/24 Q1006 NOSIG RMK CB TO N-SE, W=
10/09/2020 07:30:00Z	 SAID34 WIJJ 100730	METAR WIJJ 100730Z 34003KT 9999 SCT015CB BKN015 29/23 Q1006 NOSIG RMK CB TO NE-SE=
10/09/2020 08:00:00Z	 SAID34 WIJJ 100800	METAR WIJJ 100800Z 01003KT 9999 VCTS BKN015CB SCT015 29/23 Q1005 NOSIG RMK CB TO E-W=
10/09/2020 08:30:00Z	 SAID34 WIJJ 100830	METAR WIJJ 100830Z 12004KT 2200 -TSRA BKN016CB SCT016 26/25 Q1006 NOSIG RMK CB TO E, S-SW, NW-N=
10/09/2020 09:00:00Z	 SAID34 WIJJ 100900	METAR WIJJ 100900Z 11004KT 4000 -RA BKN015 27/25 Q1006 NOSIG RMK RETS=
10/09/2020 09:30:00Z	 SAID34 WIJJ 100930	METAR WIJJ 100930Z 06002KT 4900 -RA FEW016 SCT016CB 26/25 Q1006 NOSIG RMK CB TO S=
10/09/2020 10:00:00Z	 SAID34 WIJJ 101000	METAR WIJJ 101000Z 27003KT 9999 FEW012CB BKN012 26/25 Q1007 NOSIG RMK RERA CB TO SE, SW=
10/09/2020 11:00:00Z	 SAID34 WIJJ 101100	METAR WIJJ 101100Z 17006KT 9999 BKN015 26/25 Q1008 NOSIG=
10/09/2020 11:30:00Z	 SAID34 WIJJ 101130	METAR WIJJ 101130Z 18007KT 9999 BKN012 25/24 Q1008 NOSIG=
10/09/2020 12:00:00Z	 SAID34 WIJJ 101200	METAR WIJJ 101200Z 17009KT 9999 BKN012 25/23 Q1008 NOSIG=
10/09/2020 12:30:00Z	 SAID34 WIJJ 101230	METAR WIJJ 101230Z 20004KT 160V240 8000 FEW012 24/23 Q1008 NOSIG=
10/09/2020 13:00:00Z	 SAID34 WIJJ 101300	METAR WIJJ 101300Z 21003KT 160V240 4000 HZ FEW012 24/23 Q1008 NOSIG=
10/09/2020 13:30:00Z	 SAID34 WIJJ 101330	METAR WIJJ 101330Z 22005KT 9999 FEW005 24/23 Q1009 NOSIG=
10/09/2020 14:00:00Z	 SAID34 WIJJ 101400	METAR WIJJ 101400Z 21004KT 170V240 5000 HZ FEW012 24/23 Q1009 NOSIG=
10/09/2020 14:30:00Z	 SAID34 WIJJ 101430	METAR WIJJ 101430Z 22006KT 190V250 9999 SCT006 24/23 Q1010 NOSIG=
10/09/2020 15:00:00Z	 SAID34 WIJJ 101500	METAR WIJJ 101500Z 23004KT 9999 BKN007 24/23 Q1010 NOSIG=
10/09/2020 15:30:00Z	 SAID34 WIJJ 101530	METAR WIJJ 101530Z 23004KT 190V290 9999 BKN007 24/23 Q1010 NOSIG=
10/09/2020 16:00:00Z	 SAID34 WIJJ 101600	METAR WIJJ 101600Z 19002KT 8000 FEW006 24/23 Q1010 NOSIG=
10/09/2020 16:30:00Z	 SAID34 WIJJ 101630	METAR WIJJ 101630Z 20002KT 8000 FEW006 24/23 Q1009 NOSIG=
10/09/2020 17:00:00Z	 SAID34 WIJJ 101700	METAR WIJJ 101700Z 17001KT 7000 FEW015 23/23 Q1009 NOSIG=
10/09/2020 17:30:00Z	 SAID34 WIJJ 101730	METAR WIJJ 101730Z 19001KT 9999 FEW015 23/23 Q1009 NOSIG=
10/09/2020 18:00:00Z	 SAID34 WIJJ 101800	METAR WIJJ 101800Z 21001KT 9999 FEW016 24/23 Q1009 NOSIG=
10/09/2020 18:30:00Z	 SAID34 WIJJ 101830	METAR WIJJ 101830Z 20001KT 9999 FEW015 23/23 Q1008 NOSIG=
10/09/2020 19:00:00Z	 SAID34 WIJJ 101900	METAR WIJJ 101900Z 18002KT 9000 FEW015 23/23 Q1008 NOSIG=
10/09/2020 19:30:00Z	 SAID34 WIJJ 101930	METAR WIJJ 101930Z VRB02KT 9999 FEW007 23/23 Q1008 NOSIG=
10/09/2020 20:00:00Z	 SAID34 WIJJ 102000	METAR WIJJ 102000Z 21002KT 7000 FEW007 23/23 Q1008 NOSIG=
10/09/2020 20:30:00Z	 SAID34 WIJJ 102030	METAR WIJJ 102030Z 21001KT 8000 FEW013 23/23 Q1008 NOSIG=
10/09/2020 21:00:00Z	 SAID34 WIJJ 102100	METAR WIJJ 102100Z 17002KT 9000 FEW015 23/23 Q1008 NOSIG=
10/09/2020 21:30:00Z	 SAID34 WIJJ 102130	METAR WIJJ 102130Z 17002KT 6000 FEW015 23/23 Q1007 NOSIG=
10/09/2020 22:00:00Z	 SAID34 WIJJ 102200	METAR WIJJ 102200Z 16002KT 4900 BR SCT005 23/23 Q1008 NOSIG=
10/09/2020 22:30:00Z	 SAID34 WIJJ 102230	METAR WIJJ 102230Z 15002KT 3100 BR BKN005 23/23 Q1008 NOSIG=
10/09/2020 23:00:00Z	 SAID34 WIJJ 102300	METAR WIJJ 102300Z 13003KT 100V160 0800 R13/P2000 R31/1700 FG BKN005 23/23 Q1008 NOSIG=
10/09/2020 23:30:00Z	 SAID34 WIJJ 102330	METAR WIJJ 102330Z 15002KT 0250 R13/P2000 R31/0550 FG OVC005 23/23 Q1008 NOSIG=
11/09/2020 00:00:00Z	 SAID34 WIJJ 110000	METAR WIJJ 110000Z 18002KT 2500 BR OVC005 23/23 Q1009 NOSIG=
11/09/2020 00:30:00Z	 SAID34 WIJJ 110030	METAR WIJJ 110030Z 14005KT 7000 SCT010 23/23 Q1009=
11/09/2020 01:00:00Z	 SAID34 WIJJ 110100	METAR WIJJ 110100Z 14008KT 9999 SCT010 24/23 Q1009 NOSIG=
11/09/2020 01:30:00Z	 SAID34 WIJJ 110130	METAR WIJJ 110130Z 14005KT 9999 FEW012 25/23 Q1010 NOSIG=
11/09/2020 02:00:00Z	 SAID34 WIJJ 110200	METAR WIJJ 110200Z 18006KT 9999 FEW012 26/23 Q1010 NOSIG=
11/09/2020 02:30:00Z	 SAID34 WIJJ 110230	METAR WIJJ 110230Z 16005KT 9999 FEW014 28/24 Q1010 NOSIG=
11/09/2020 03:00:00Z	 SAID34 WIJJ 110300	METAR WIJJ 110300Z 14004KT 9999 SCT018 28/24 Q1010 NOSIG=
11/09/2020 03:30:00Z	 SAID34 WIJJ 110330	METAR WIJJ 110330Z 14005KT 9999 SCT018 29/23 Q1010 NOSIG=
11/09/2020 04:00:00Z	 SAID34 WIJJ 110400	METAR WIJJ 110400Z 14005KT 9999 FEW018 30/24 Q1009 NOSIG=
11/09/2020 04:30:00Z	 SAID34 WIJJ 110430	METAR WIJJ 110430Z 15006KT 9999 SCT018 30/24 Q1009 NOSIG=
11/09/2020 05:00:00Z	 SAID34 WIJJ 110500	METAR WIJJ 110500Z 13005KT 9999 SCT018 31/23 Q1008 NOSIG=
11/09/2020 05:30:00Z	 SAID34 WIJJ 110530	METAR WIJJ 110530Z 12009KT 9999 BKN015 33/24 Q1008 NOSIG=
11/09/2020 06:00:00Z	 SAID34 WIJJ 110600	METAR WIJJ 110600Z 13004KT 9999 SCT018 32/23 Q1007 NOSIG=
11/09/2020 06:30:00Z	 SAID34 WIJJ 110630	METAR WIJJ 110630Z 16004KT 9999 SCT018 33/24 Q1007 NOSIG=
11/09/2020 07:00:00Z	 SAID34 WIJJ 110700	METAR WIJJ 110700Z 14005KT 9999 SCT017 33/23 Q1006 NOSIG=
11/09/2020 07:30:00Z	 SAID34 WIJJ 110730	METAR WIJJ 110730Z 12003KT 9999 SCT017 33/24 Q1006 NOSIG=
11/09/2020 08:00:00Z	 SAID34 WIJJ 110800	METAR WIJJ 110800Z 09015KT 9999 -RA SCT016CB SCT017 31/24 Q1006 TEMPO 3000 RA FEW012CB RMK CB TO NE - S=
11/09/2020 08:30:00Z	 SAID34 WIJJ 110830	METAR WIJJ 110830Z 07007KT 7000 -TSRA FEW016CB SCT017 28/24 Q1007 NOSIG RMK CB TO N=
11/09/2020 09:00:00Z	 SAID34 WIJJ 110900	METAR WIJJ 110900Z 05005KT 9999 -TSRA FEW015CB SCT016 26/24 Q1007 NOSIG RMK CB TO SW=
11/09/2020 09:30:00Z	 SAID34 WIJJ 110930	METAR WIJJ 110930Z 06002KT 9999 FEW015CB SCT016 26/24 Q1007 NOSIG RMK CB TO SW=
11/09/2020 10:00:00Z	 SAID34 WIJJ 111000	METAR WIJJ 111000Z 22002KT 9999 FEW015CB SCT016 27/24 Q1006 NOSIG RMK CB TO SE=
11/09/2020 10:30:00Z	 SAID34 WIJJ 111030	METAR WIJJ 111030Z 22002KT 9999 FEW015CB SCT016 26/24 Q1007 NOSIG RMK CB TO W=
11/09/2020 11:00:00Z	 SAID34 WIJJ 111100	METAR WIJJ 111100Z 24002KT 9999 SCT015 27/24 Q1008 NOSIG=
11/09/2020 11:30:00Z	 SAID34 WIJJ 111130	METAR WIJJ 111130Z 31002KT 9999 SCT015 26/24 Q1008 NOSIG=
11/09/2020 12:00:00Z	 SAID34 WIJJ 111200	METAR WIJJ 111200Z 30001KT 9999 FEW015 27/26 Q1009 NOSIG=
11/09/2020 12:30:00Z	 SAID34 WIJJ 111230	METAR WIJJ 111230Z 35002KT 9999 FEW015 26/25 Q1008 NOSIG=
11/09/2020 13:00:00Z	 SAID34 WIJJ 111300	METAR WIJJ 111300Z 36003KT 8000 SCT015 26/24 Q1009 NOSIG=
11/09/2020 13:30:00Z	 SAID34 WIJJ 111330	METAR WIJJ 111330Z 01002KT 8000 BKN015 26/24 Q1009 NOSIG=
11/09/2020 14:00:00Z	 SAID34 WIJJ 111400	METAR WIJJ 111400Z 35003KT 6000 SCT015 26/25 Q1009 NOSIG=
11/09/2020 14:30:00Z	 SAID34 WIJJ 111430	METAR WIJJ 111430Z 34003KT 8000 SCT015 26/25 Q1009 NOSIG=
11/09/2020 15:00:00Z	 SAID34 WIJJ 111500	METAR WIJJ 111500Z 34002KT 8000 FEW015 26/25 Q1010 NOSIG=
11/09/2020 15:30:00Z	 SAID34 WIJJ 111530	METAR WIJJ 111530Z 00000KT 8000 SCT015 25/24 Q1010 NOSIG=
11/09/2020 16:00:00Z	 SAID34 WIJJ 111600	METAR WIJJ 111600Z 00000KT 7000 FEW015 25/24 Q1010 NOSIG=
11/09/2020 16:30:00Z	 SAID34 WIJJ 111630	METAR WIJJ 111630Z 00000KT 8000 FEW015 25/24 Q1010 NOSIG=
11/09/2020 17:30:00Z	 SAID34 WIJJ 111730	METAR WIJJ 111730Z 00000KT 5000 HZ FEW015 25/24 Q1009 NOSIG=
11/09/2020 21:00:00Z	 SAID34 WIJJ 112100	METAR WIJJ 112100Z 22003KT 7000 SCT015 24/23 Q1008 NOSIG=
11/09/2020 21:30:00Z	 SAID34 WIJJ 112130	METAR WIJJ 112130Z 22003KT 7000 FEW016 24/23 Q1009 NOSIG=
11/09/2020 22:00:00Z	 SAID34 WIJJ 112200	METAR WIJJ 112200Z 24003KT 7000 BR FEW015 24/23 Q1009 NOSIG=
11/09/2020 22:30:00Z	 SAID34 WIJJ 112230	METAR WIJJ 112230Z 24004KT 7000 SCT015 24/23 Q1009 NOSIG=
11/09/2020 23:00:00Z	 SAID34 WIJJ 112300	METAR WIJJ 112300Z 25003KT 4800 HZ FEW015 24/23 Q1010 NOSIG=
11/09/2020 23:30:00Z	 SAID34 WIJJ 112330	METAR WIJJ 112330Z 24002KT 4500 HZ SCT016 24/23 Q1010 NOSIG=
12/09/2020 00:00:00Z	 SAID34 WIJJ 120000	METAR WIJJ 120000Z 24003KT 6000 SCT015 24/23 Q1010 NOSIG=
12/09/2020 00:30:00Z	 SAID34 WIJJ 120030	METAR WIJJ 120030Z 22005KT 9000 FEW016 25/23 Q1010 NOSIG=
12/09/2020 01:00:00Z	 SAID34 WIJJ 120100	METAR WIJJ 120100Z 23004KT 9999 FEW016 26/24 Q1012 NOSIG=
12/09/2020 01:30:00Z	 SAID34 WIJJ 120130	METAR WIJJ 120130Z 23005KT 9999 FEW017 28/24 Q1012 NOSIG=
12/09/2020 02:00:00Z	 SAID34 WIJJ 120200	METAR WIJJ 120200Z 20006KT 9999 SCT016 28/24 Q1013 NOSIG=
12/09/2020 02:30:00Z	 SAID34 WIJJ 120230	METAR WIJJ 120230Z 17006KT 9999 SCT016 28/24 Q1013 NOSIG=
12/09/2020 03:00:00Z	 SAID34 WIJJ 120300	METAR WIJJ 120300Z 16005KT 9999 FEW016 29/24 Q1012 NOSIG=
12/09/2020 03:30:00Z	 SAID34 WIJJ 120330	METAR WIJJ 120330Z 15008KT 9999 FEW018 31/23 Q1012 NOSIG=
12/09/2020 04:00:00Z	 SAID34 WIJJ 120400	METAR WIJJ 120400Z 14007KT 9999 FEW018 31/22 Q1011 NOSIG=
12/09/2020 04:30:00Z	 SAID34 WIJJ 120430	METAR WIJJ 120430Z 12005KT 9999 FEW018 31/22 Q1011 NOSIG=
12/09/2020 05:00:00Z	 SAID34 WIJJ 120500	METAR WIJJ 120500Z 14006KT 9999 SCT018 32/22 Q1011 NOSIG=
12/09/2020 05:30:00Z	 SAID34 WIJJ 120530	METAR WIJJ 120530Z 14008KT 9999 SCT018 32/22 Q1010 NOSIG=
12/09/2020 06:00:00Z	 SAID34 WIJJ 120600	METAR WIJJ 120600Z 15007KT 9999 FEW018 32/22 Q1010 NOSIG=
12/09/2020 06:30:00Z	 SAID34 WIJJ 120630	METAR WIJJ 120630Z 11007KT 080V220 9999 FEW018 33/22 Q1009 NOSIG=
12/09/2020 07:00:00Z	 SAID34 WIJJ 120700	METAR WIJJ 120700Z 12005KT 9999 SCT018 33/22 Q1009 NOSIG=
12/09/2020 07:30:00Z	 SAID34 WIJJ 120730	METAR WIJJ 120730Z 14009KT 9999 SCT018 32/22 Q1008 NOSIG=
12/09/2020 08:00:00Z	 SAID34 WIJJ 120800	METAR WIJJ 120800Z 14006KT 9999 FEW018 32/21 Q1008 NOSIG=
12/09/2020 08:30:00Z	 SAID34 WIJJ 120830	METAR WIJJ 120830Z 12006KT 9999 FEW018 32/21 Q1008 NOSIG=
12/09/2020 09:00:00Z	 SAID34 WIJJ 120900	METAR WIJJ 120900Z 11005KT 9999 FEW018 32/21 Q1007 NOSIG=
12/09/2020 09:30:00Z	 SAID34 WIJJ 120930	METAR WIJJ 120930Z 10004KT 9999 FEW018 31/22 Q1008 NOSIG=
12/09/2020 10:00:00Z	 SAID34 WIJJ 121000	METAR WIJJ 121000Z 12003KT 9999 FEW018 31/22 Q1008 NOSIG=
12/09/2020 10:30:00Z	 SAID34 WIJJ 121030	METAR WIJJ 121030Z 15002KT 9000 SCT016 30/23 Q1008=
12/09/2020 11:00:00Z	 SAID34 WIJJ 121100	METAR WIJJ 121100Z 15004KT 9000 FEW018 30/23 Q1008=
12/09/2020 11:30:00Z	 SAID34 WIJJ 121130	METAR WIJJ 121130Z 13002KT 9000 FEW018 29/23 Q1009=
12/09/2020 12:00:00Z	 SAID34 WIJJ 121200	METAR WIJJ 121200Z 00000KT 9999 FEW018 29/23 Q1009 NOSIG=
12/09/2020 12:30:00Z	 SAID34 WIJJ 121230	METAR WIJJ 121230Z 22002KT 7000 FEW017 29/23 Q1010 NOSIG=
12/09/2020 13:00:00Z	 SAID34 WIJJ 121300	METAR WIJJ 121300Z 12002KT 9000 FEW017 29/23 Q1010 NOSIG=
12/09/2020 13:30:00Z	 SAID34 WIJJ 121330	METAR WIJJ 121330Z 07001KT 8000 FEW017 28/24 Q1011 NOSIG=
12/09/2020 14:00:00Z	 SAID34 WIJJ 121400	METAR WIJJ 121400Z 08004KT 6000 FEW017 28/24 Q1011 NOSIG=
12/09/2020 14:30:00Z	 SAID34 WIJJ 121430	METAR WIJJ 121430Z 10004KT 9999 SCT016 28/24 Q1012 NOSIG=
12/09/2020 15:00:00Z	 SAID34 WIJJ 121500	METAR WIJJ 121500Z 09005KT 9999 FEW016 28/24 Q1012 NOSIG=
12/09/2020 15:30:00Z	 SAID34 WIJJ 121530	METAR WIJJ 121530Z 09003KT 9000 FEW015 28/24 Q1012 NOSIG=
12/09/2020 16:00:00Z	 SAID34 WIJJ 121600	METAR WIJJ 121600Z 09003KT 9999 FEW015 28/24 Q1011 NOSIG=
12/09/2020 16:30:00Z	 SAID34 WIJJ 121630	METAR WIJJ 121630Z 07003KT 9999 FEW015 28/24 Q1011 NOSIG=
12/09/2020 17:00:00Z	 SAID34 WIJJ 121700	METAR WIJJ 121700Z 07002KT 9999 FEW015 28/24 Q1011 NOSIG=
12/09/2020 17:30:00Z	 SAID34 WIJJ 121730	METAR WIJJ 121730Z 05002KT 9999 FEW015 27/24 Q1011 NOSIG=
12/09/2020 18:00:00Z	 SAID34 WIJJ 121800	METAR WIJJ 121800Z 11002KT 9999 FEW015 27/25 Q1010 NOSIG=
12/09/2020 18:30:00Z	 SAID34 WIJJ 121830	METAR WIJJ 121830Z 13001KT 9999 FEW015 27/25 Q1010 NOSIG=
12/09/2020 19:00:00Z	 SAID34 WIJJ 121900	METAR WIJJ 121900Z 21001KT 9000 FEW014 27/25 Q1010 NOSIG=
12/09/2020 19:30:00Z	 SAID34 WIJJ 121930	METAR WIJJ 121930Z 15001KT 8000 FEW014 27/25 Q1010 NOSIG=
12/09/2020 20:00:00Z	 SAID34 WIJJ 122000	METAR WIJJ 122000Z 13002KT 7000 FEW014 26/25 Q1010 NOSIG=
12/09/2020 20:30:00Z	 SAID34 WIJJ 122030	METAR WIJJ 122030Z 17001KT 8000 FEW014 26/25 Q1010 NOSIG=
12/09/2020 21:00:00Z	 SAID34 WIJJ 122100	METAR WIJJ 122100Z 21001KT 6000 FEW014 26/25 Q1010 NOSIG=
12/09/2020 21:30:00Z	 SAID34 WIJJ 122130	METAR WIJJ 122130Z 22001KT 6000 FEW013 26/25 Q1010 NOSIG=
12/09/2020 22:00:00Z	 SAID34 WIJJ 122200	METAR WIJJ 122200Z 25002KT 9000 SCT013 26/24 Q1010 NOSIG=
12/09/2020 23:00:00Z	 SAID34 WIJJ 122300	METAR WIJJ 122300Z 23004KT 9000 FEW013 26/25 Q1010 NOSIG=
12/09/2020 23:30:00Z	 SAID34 WIJJ 122330	METAR WIJJ 122330Z 24003KT 7000 SCT013 25/24 Q1011 NOSIG=
13/09/2020 00:00:00Z	 SAID34 WIJJ 130000	METAR WIJJ 130000Z 23003KT 6000 SCT013 25/24 Q1011 NOSIG=
13/09/2020 00:30:00Z	 SAID34 WIJJ 130030	METAR WIJJ 130030Z 21004KT 6000 SCT015 26/24 Q1012=
13/09/2020 01:00:00Z	 SAID34 WIJJ 130100	METAR WIJJ 130100Z 21005KT 6000 SCT015 27/24 Q1012 NOSIG=
13/09/2020 01:30:00Z	 SAID34 WIJJ 130130	METAR WIJJ 130130Z 19004KT 7000 FEW016 28/24 Q1012=
13/09/2020 02:00:00Z	 SAID34 WIJJ 130200	METAR WIJJ 130200Z 21005KT 9999 SCT016 28/24 Q1013 NOSIG=
13/09/2020 02:30:00Z	 SAID34 WIJJ 130230	METAR WIJJ 130230Z 18006KT 9999 SCT016 30/25 Q1012 NOSIG=
13/09/2020 03:00:00Z	 SAID34 WIJJ 130300	METAR WIJJ 130300Z 17010KT 9999 FEW016 30/24 Q1012 NOSIG=
13/09/2020 03:30:00Z	 SAID34 WIJJ 130330	METAR WIJJ 130330Z 20008KT 9999 FEW016 31/24 Q1011 NOSIG=
13/09/2020 04:00:00Z	 SAID34 WIJJ 130400	METAR WIJJ 130400Z 14007KT 9999 SCT016 31/22 Q1011 NOSIG=
13/09/2020 04:30:00Z	 SAID34 WIJJ 130430	METAR WIJJ 130430Z 14009KT 9999 FEW016 32/22 Q1010 NOSIG=
13/09/2020 05:00:00Z	 SAID34 WIJJ 130500	METAR WIJJ 130500Z 13007KT 9999 FEW016 32/22 Q1010 NOSIG=
13/09/2020 05:30:00Z	 SAID34 WIJJ 130530	METAR WIJJ 130530Z 13007KT 9999 FEW018 32/22 Q1009 NOSIG=
13/09/2020 06:00:00Z	 SAID34 WIJJ 130600	METAR WIJJ 130600Z 15006KT 9999 FEW018 33/23 Q1009 NOSIG=
13/09/2020 06:30:00Z	 SAID34 WIJJ 130630	METAR WIJJ 130630Z 14005KT 9999 SCT017 32/24 Q1007 NOSIG=
13/09/2020 07:00:00Z	 SAID34 WIJJ 130700	METAR WIJJ 130700Z 14006KT 090V180 9999 BKN017 34/24 Q1007 NOSIG=
13/09/2020 07:30:00Z	 SAID34 WIJJ 130730	METAR WIJJ 130730Z 16005KT 110V210 9999 BKN017 34/24 Q1006 NOSIG=
13/09/2020 08:00:00Z	 SAID34 WIJJ 130800	METAR WIJJ 130800Z 14005KT 100V180 9999 SCT017 33/24 Q1006 NOSIG=
13/09/2020 08:30:00Z	 SAID34 WIJJ 130830	METAR WIJJ 130830Z 16004KT 110V220 9999 -RA SCT016 34/24 Q1006 NOSIG=
13/09/2020 09:00:00Z	 SAID34 WIJJ 130900	METAR WIJJ 130900Z 12008KT 9999 -RA SCT017 32/25 Q1006 NOSIG=
13/09/2020 09:30:00Z	 SAID34 WIJJ 130930	METAR WIJJ 130930Z 08005KT 050V110 9999 SCT017 32/24 Q1006 NOSIG=
13/09/2020 10:00:00Z	 SAID34 WIJJ 131000	METAR WIJJ 131000Z 10004KT 9999 FEW017 32/23 Q1006 NOSIG=
13/09/2020 10:30:00Z	 SAID34 WIJJ 131030	METAR WIJJ 131030Z 08003KT 9999 FEW017 32/24 Q1007 NOSIG=
13/09/2020 11:00:00Z	 SAID34 WIJJ 131100	METAR WIJJ 131100Z 05004KT 9999 FEW017 31/24 Q1007 NOSIG=
13/09/2020 11:30:00Z	 SAID34 WIJJ 131130	METAR WIJJ 131130Z 02007KT 340V040 9999 FEW016 31/25 Q1008 NOSIG=
13/09/2020 12:00:00Z	 SAID34 WIJJ 131200	METAR WIJJ 131200Z 01008KT 9999 FEW016 29/25 Q1008 NOSIG=
13/09/2020 12:30:00Z	 SAID34 WIJJ 131230	METAR WIJJ 131230Z 36005KT 9999 FEW016 28/24 Q1010 NOSIG=
13/09/2020 13:00:00Z	 SAID34 WIJJ 131300	METAR WIJJ 131300Z 35004KT 9999 FEW016 28/24 Q1010 NOSIG=
13/09/2020 13:30:00Z	 SAID34 WIJJ 131330	METAR WIJJ 131330Z 35003KT 9999 FEW016 28/24 Q1010 NOSIG=
13/09/2020 14:00:00Z	 SAID34 WIJJ 131400	METAR WIJJ 131400Z 36003KT 9999 VCTS FEW015CB 28/24 Q1010 RMK CB TO W=
13/09/2020 14:30:00Z	 SAID34 WIJJ 131430	METAR WIJJ 131430Z 36003KT 9999 VCTS FEW015CB 27/24 Q1010 RMK CB TO W=
13/09/2020 15:00:00Z	 SAID34 WIJJ 131500	METAR WIJJ 131500Z 34003KT 9999 FEW016 27/24 Q1011=
13/09/2020 16:00:00Z	 SAID34 WIJJ 131600	METAR WIJJ 131600Z 34002KT 9999 FEW016 27/24 Q1011=
13/09/2020 18:00:00Z	 SAID34 WIJJ 131800	METAR WIJJ 131800Z 30004KT 9999 FEW015CB SCT016 27/23 Q1010 RMK CB TO SW=
13/09/2020 18:30:00Z	 SAID34 WIJJ 131830	METAR WIJJ 131830Z 15013G23KT 6000 -RA FEW012CB SCT013 24/23 Q1010 RMK CB ALL RWY=
13/09/2020 19:00:00Z	 SAID34 WIJJ 131900	METAR WIJJ 131900Z 18016KT 1300 RA FEW010CB SCT011 24/23 Q1011 TEMPO TL2100 1000 TSRA RMK CB ALL RWY=
13/09/2020 19:30:00Z	 SAID34 WIJJ 131930	METAR WIJJ 131930Z 19010KT 1500 -TSRA FEW010CB SCT011 23/23 Q1010 RMK CB ALL RWY=
13/09/2020 20:00:00Z	 SAID34 WIJJ 132000	METAR WIJJ 132000Z 34007KT 5000 -TSRA FEW010CB FEW011 22/22 Q1010 RMK CB ALL RWY=
13/09/2020 21:00:00Z	 SAID34 WIJJ 132100	METAR WIJJ 132100Z 00000KT 8000 -RA FEW010CB FEW011 22/22 Q1010 RMK CB TO NE=
13/09/2020 21:30:00Z	 SAID34 WIJJ 132130	METAR WIJJ 132130Z 15002KT 6000 -RA FEW010CB FEW011 22/22 Q1010 RMK CB TO NE=
13/09/2020 22:00:00Z	 SAID34 WIJJ 132200	METAR WIJJ 132200Z 12004KT 6000 -RA FEW010CB FEW011 22/22 Q1010 RMK CB TO E=
13/09/2020 22:30:00Z	 SAID34 WIJJ 132230	METAR WIJJ 132230Z 09002KT 6000 -RA FEW010CB FEW011 22/22 Q1010 RMK CB TO N=
13/09/2020 23:00:00Z	 SAID34 WIJJ 132300	METAR WIJJ 132300Z 35002KT 4200 -RA SCT010 23/22 Q1010=
13/09/2020 23:30:00Z	 SAID34 WIJJ 132330	METAR WIJJ 132330Z 00000KT 6000 -RA SCT012 23/22 Q1011=
14/09/2020 00:00:00Z	 SAID34 WIJJ 140000	METAR WIJJ 140000Z 22002KT 7000 -RA FEW014 23/22 Q1011=
14/09/2020 00:30:00Z	 SAID34 WIJJ 140030	METAR WIJJ 140030Z 22003KT 9999 -RA SCT012 24/23 Q1011 NOSIG=
14/09/2020 01:00:00Z	 SAID34 WIJJ 140100	METAR WIJJ 140100Z 22005KT 9999 -RA SCT012 24/23 Q1011 NOSIG=
14/09/2020 01:30:00Z	 SAID34 WIJJ 140130	METAR WIJJ 140130Z 23003KT 9999 SCT015 24/23 Q1012 NOSIG RMK RERA=
14/09/2020 02:00:00Z	 SAID34 WIJJ 140200	METAR WIJJ 140200Z 23004KT 9999 BKN015 25/23 Q1012 NOSIG RMK RERA=
14/09/2020 02:30:00Z	 SAID34 WIJJ 140230	METAR WIJJ 140230Z 24003KT 9999 BKN015 25/23 Q1011 NOSIG=
14/09/2020 03:00:00Z	 SAID34 WIJJ 140300	METAR WIJJ 140300Z 24003KT 9999 SCT015 26/23 Q1012 NOSIG=
14/09/2020 03:30:00Z	 SAID34 WIJJ 140330	METAR WIJJ 140330Z 23004KT 9999 SCT015 26/23 Q1011 NOSIG=
14/09/2020 04:00:00Z	 SAID34 WIJJ 140400	METAR WIJJ 140400Z 21004KT 9999 SCT015 27/23 Q1011 NOSIG=
14/09/2020 04:30:00Z	 SAID34 WIJJ 140430	METAR WIJJ 140430Z 00000KT 9999 FEW015 28/24 Q1011 NOSIG=
14/09/2020 05:00:00Z	 SAID34 WIJJ 140500	METAR WIJJ 140500Z 17003KT 9999 FEW015 28/24 Q1010 NOSIG=
14/09/2020 05:30:00Z	 SAID34 WIJJ 140530	METAR WIJJ 140530Z 15002KT 9999 FEW015 28/23 Q1010 NOSIG=
14/09/2020 06:00:00Z	 SAID34 WIJJ 140600	METAR WIJJ 140600Z 10003KT 9999 FEW015 29/24 Q1010 NOSIG=
14/09/2020 06:30:00Z	 SAID34 WIJJ 140630	METAR WIJJ 140630Z 13002KT 9999 SCT015 29/24 Q1008 NOSIG=
14/09/2020 07:00:00Z	 SAID34 WIJJ 140700	METAR WIJJ 140700Z 02003KT 330V060 9999 SCT015 29/24 Q1008 NOSIG=
14/09/2020 07:30:00Z	 SAID34 WIJJ 140730	METAR WIJJ 140730Z 36005KT 320V050 9999 SCT016 29/24 Q1007 NOSIG=
14/09/2020 08:00:00Z	 SAID34 WIJJ 140800	METAR WIJJ 140800Z 35005KT 320V030 9999 SCT015 29/24 Q1007 NOSIG=
14/09/2020 08:30:00Z	 SAID34 WIJJ 140830	METAR WIJJ 140830Z 03006KT 360V060 9999 SCT016 28/24 Q1007 NOSIG=
14/09/2020 09:00:00Z	 SAID34 WIJJ 140900	METAR WIJJ 140900Z 04005KT 010V070 9999 SCT016 28/25 Q1007 NOSIG=
14/09/2020 09:30:00Z	 SAID34 WIJJ 140930	METAR WIJJ 140930Z 06008KT 9999 SCT016 29/25 Q1007 NOSIG=
14/09/2020 10:00:00Z	 SAID34 WIJJ 141000	METAR WIJJ 141000Z 05007KT 030V090 9999 FEW014CB SCT015 29/24 Q1006 NOSIG RMK CB TO SE=
14/09/2020 10:30:00Z	 SAID34 WIJJ 141030	METAR WIJJ 141030Z 06007KT 9999 FEW015 28/25 Q1007 NOSIG=
14/09/2020 11:30:00Z	 SAID34 WIJJ 141130	METAR WIJJ 141130Z 07004KT 9999 FEW016 27/24 Q1007=
14/09/2020 12:00:00Z	 SAID34 WIJJ 141200	METAR WIJJ 141200Z 05003KT 020V080 9999 FEW016 27/25 Q1008 NOSIG=
14/09/2020 12:30:00Z	 SAID34 WIJJ 141230	METAR WIJJ 141230Z 03002KT 9999 FEW016 27/25 Q1008 NOSIG=
14/09/2020 13:00:00Z	 SAID34 WIJJ 141300	METAR WIJJ 141300Z 36002KT 9999 FEW016 26/25 Q1010 NOSIG=
14/09/2020 13:30:00Z	 SAID34 WIJJ 141330	METAR WIJJ 141330Z 03003KT 9999 FEW016 27/25 Q1009 NOSIG=
14/09/2020 14:00:00Z	 SAID34 WIJJ 141400	METAR WIJJ 141400Z 33002KT 9999 FEW016 26/25 Q1009 NOSIG=
14/09/2020 14:30:00Z	 SAID34 WIJJ 141430	METAR WIJJ 141430Z 00000KT 9999 FEW016 26/25 Q1010 NOSIG=
14/09/2020 15:00:00Z	 SAID34 WIJJ 141500	METAR WIJJ 141500Z 13002KT 5000 HZ SCT015 25/25 Q1011 NOSIG=
14/09/2020 21:00:00Z	 SAID34 WIJJ 142100	METAR WIJJ 142100Z 00000KT 5000 HZ BKN014 25/24 Q1009 NOSIG=
14/09/2020 21:30:00Z	 SAID34 WIJJ 142130	METAR WIJJ 142130Z 00000KT 5000 HZ BKN014 25/24 Q1009 NOSIG=
14/09/2020 22:00:00Z	 SAID34 WIJJ 142200	METAR WIJJ 142200Z 24002KT 4000 HZ BKN015 25/24 Q1009 NOSIG=
14/09/2020 22:30:00Z	 SAID34 WIJJ 142230	METAR WIJJ 142230Z 25002KT 4000 HZ BKN014 25/24 Q1009 NOSIG=
14/09/2020 23:00:00Z	 SAID34 WIJJ 142300	METAR WIJJ 142300Z 19003KT 4000 HZ SCT014 25/24 Q1010 NOSIG=
14/09/2020 23:30:00Z	 SAID34 WIJJ 142330	METAR WIJJ 142330Z 20003KT 170V230 5000 HZ SCT014 25/24 Q1010 NOSIG=
15/09/2020 00:00:00Z	 SAID34 WIJJ 150000	METAR WIJJ 150000Z 23003KT 190V270 9999 SCT015 25/24 Q1010 NOSIG=
15/09/2020 00:30:00Z	 SAID34 WIJJ 150030	METAR WIJJ 150030Z 20005KT 9999 FEW015 26/23 Q1011 NOSIG=
15/09/2020 01:00:00Z	 SAID34 WIJJ 150100	METAR WIJJ 150100Z 20006KT 9999 FEW015 27/24 Q1012 NOSIG=
15/09/2020 01:30:00Z	 SAID34 WIJJ 150130	METAR WIJJ 150130Z 20004KT 9999 FEW015 27/24 Q1012 NOSIG=
15/09/2020 02:00:00Z	 SAID34 WIJJ 150200	METAR WIJJ 150200Z 21003KT 9999 FEW015 28/24 Q1013 NOSIG=
15/09/2020 02:30:00Z	 SAID34 WIJJ 150230	METAR WIJJ 150230Z 17005KT 9999 FEW015 29/24 Q1012 NOSIG=
15/09/2020 03:00:00Z	 SAID34 WIJJ 150300	METAR WIJJ 150300Z 22003KT 9999 SCT015 30/24 Q1012 NOSIG=
15/09/2020 03:30:00Z	 SAID34 WIJJ 150330	METAR WIJJ 150330Z 13005KT 9999 SCT015 30/24 Q1012 NOSIG=
15/09/2020 04:00:00Z	 SAID34 WIJJ 150400	METAR WIJJ 150400Z 19006KT 9999 SCT015 30/24 Q1011 NOSIG=
15/09/2020 04:30:00Z	 SAID34 WIJJ 150430	METAR WIJJ 150430Z 16005KT 9999 SCT015 31/24 Q1011 NOSIG=
15/09/2020 05:00:00Z	 SAID34 WIJJ 150500	METAR WIJJ 150500Z 14006KT 9999 BKN015 31/24 Q1010 NOSIG=
15/09/2020 05:30:00Z	 SAID34 WIJJ 150530	METAR WIJJ 150530Z 15005KT 9999 BKN015 31/24 Q1009 NOSIG=
15/09/2020 06:00:00Z	 SAID34 WIJJ 150600	METAR WIJJ 150600Z 17006KT 9999 BKN015 31/23 Q1009 NOSIG=
15/09/2020 06:30:00Z	 SAID34 WIJJ 150630	METAR WIJJ 150630Z 13006KT 9999 SCT015 32/24 Q1008 NOSIG=
15/09/2020 07:00:00Z	 SAID34 WIJJ 150700	METAR WIJJ 150700Z 16006KT 9999 SCT015 32/24 Q1008 NOSIG=
15/09/2020 07:30:00Z	 SAID34 WIJJ 150730	METAR WIJJ 150730Z 13004KT 9999 SCT015 33/24 Q1007 NOSIG=
15/09/2020 08:00:00Z	 SAID34 WIJJ 150800	METAR WIJJ 150800Z 22005KT 9999 FEW016 33/23 Q1007 NOSIG=
15/09/2020 08:30:00Z	 SAID34 WIJJ 150830	METAR WIJJ 150830Z 19004KT 9999 FEW016 34/24 Q1006 NOSIG=
15/09/2020 09:00:00Z	 SAID34 WIJJ 150900	METAR WIJJ 150900Z 20003KT 9999 FEW016 34/24 Q1006 NOSIG=
15/09/2020 09:30:00Z	 SAID34 WIJJ 150930	METAR WIJJ 150930Z 13004KT 9999 FEW016 33/24 Q1007 NOSIG=
15/09/2020 10:00:00Z	 SAID34 WIJJ 151000	METAR WIJJ 151000Z 16003KT 9999 FEW016 33/24 Q1007 NOSIG=
15/09/2020 11:00:00Z	 SAID34 WIJJ 151100	METAR WIJJ 151100Z 08006KT 9999 SCT016 31/24 Q1007 NOSIG=
15/09/2020 11:30:00Z	 SAID34 WIJJ 151130	METAR WIJJ 151130Z 07004KT 9999 BKN015 30/25 Q1008 NOSIG=
15/09/2020 12:00:00Z	 SAID34 WIJJ 151200	METAR WIJJ 151200Z 05006KT 8000 -RA BKN012 30/25 Q1008 NOSIG=
15/09/2020 12:30:00Z	 SAID34 WIJJ 151230	METAR WIJJ 151230Z 11006KT 050V140 9999 BKN015 27/25 Q1007 NOSIG=
15/09/2020 13:00:00Z	 SAID34 WIJJ 151300	METAR WIJJ 151300Z 25006KT 200V300 9999 BKN015 27/24 Q1009 NOSIG=
15/09/2020 13:30:00Z	 SAID34 WIJJ 151330	METAR WIJJ 151330Z 20008KT 140V240 0700 R13/1700 R31/1600 RA BKN010 25/24 Q1010 NOSIG=
15/09/2020 14:00:00Z	 SAID34 WIJJ 151400	METAR WIJJ 151400Z 11006KT 5000 -TSRA FEW012CB BKN013 24/24 Q1009 NOSIG RMK CB TO NW=
15/09/2020 14:30:00Z	 SAID34 WIJJ 151430	METAR WIJJ 151430Z 36004KT 8000 -RA FEW012CB BKN013 25/24 Q1010 NOSIG RMK CB TO N AND NW=
15/09/2020 15:00:00Z	 SAID34 WIJJ 151500	METAR WIJJ 151500Z 03002KT 9999 BKN013 25/24 Q1010 NOSIG=
15/09/2020 15:30:00Z	 SAID34 WIJJ 151530	METAR WIJJ 151530Z 15002KT 9000 BKN015 24/24 Q1011 NOSIG=
15/09/2020 16:00:00Z	 SAID34 WIJJ 151600	METAR WIJJ 151600Z 31002KT 9000 FEW015 24/24 Q1011 NOSIG=
15/09/2020 16:30:00Z	 SAID34 WIJJ 151630	METAR WIJJ 151630Z 10003KT 6000 FEW015 25/24 Q1011 NOSIG=
15/09/2020 17:00:00Z	 SAID34 WIJJ 151700	METAR WIJJ 151700Z 13003KT 090V170 6000 FEW015 24/24 Q1011 NOSIG=
15/09/2020 17:30:00Z	 SAID34 WIJJ 151730	METAR WIJJ 151730Z 21003KT 170V250 6000 SCT012 24/24 Q1011 NOSIG=
15/09/2020 18:00:00Z	 SAID34 WIJJ 151800	METAR WIJJ 151800Z 21002KT 9999 FEW012 24/24 Q1010 NOSIG=
15/09/2020 18:30:00Z	 SAID34 WIJJ 151830	METAR WIJJ 151830Z 22002KT 9999 FEW012 24/24 Q1010 NOSIG=
15/09/2020 19:00:00Z	 SAID34 WIJJ 151900	METAR WIJJ 151900Z 32005KT 9999 FEW015 25/24 Q1010 NOSIG=
15/09/2020 19:30:00Z	 SAID34 WIJJ 151930	METAR WIJJ 151930Z 33004KT 9999 FEW015 25/24 Q1010=
15/09/2020 20:00:00Z	 SAID34 WIJJ 152000	METAR WIJJ 152000Z 35002KT 9000 FEW015 25/24 Q1009 NOSIG=
15/09/2020 20:30:00Z	 SAID34 WIJJ 152030	METAR WIJJ 152030Z 02002KT 9999 FEW015 25/24 Q1009 NOSIG=
15/09/2020 21:00:00Z	 SAID34 WIJJ 152100	METAR WIJJ 152100Z 35003KT 9000 SCT012 25/24 Q1009 NOSIG=
15/09/2020 21:30:00Z	 SAID34 WIJJ 152130	METAR WIJJ 152130Z 34003KT 8000 SCT012 25/24 Q1009 NOSIG=
15/09/2020 22:00:00Z	 SAID34 WIJJ 152200	METAR WIJJ 152200Z 36003KT 9999 SCT012 25/24 Q1009 NOSIG=
15/09/2020 22:30:00Z	 SAID34 WIJJ 152230	METAR WIJJ 152230Z 01001KT 7000 SCT012 24/24 Q1010 NOSIG=
15/09/2020 23:00:00Z	 SAID34 WIJJ 152300	METAR WIJJ 152300Z 33003KT 3700 BR SCT010 24/24 Q1010 NOSIG=
15/09/2020 23:30:00Z	 SAID34 WIJJ 152330	METAR WIJJ 152330Z 34004KT 3400 BR FEW012 24/24 Q1010 NOSIG=
16/09/2020 00:00:00Z	 SAID34 WIJJ 160000	METAR WIJJ 160000Z 35004KT 6000 FEW012 25/24 Q1011 NOSIG=
16/09/2020 00:30:00Z	 SAID34 WIJJ 160030	METAR WIJJ 160030Z 34002KT 9000 FEW014 25/23 Q1012=
16/09/2020 01:00:00Z	 SAID34 WIJJ 160100	METAR WIJJ 160100Z 30003KT 9000 FEW014 26/23 Q1012=
16/09/2020 01:30:00Z	 SAID34 WIJJ 160130	METAR WIJJ 160130Z 33003KT 9999 FEW015 27/23 Q1012 NOSIG=
16/09/2020 02:00:00Z	 SAID34 WIJJ 160200	METAR WIJJ 160200Z 07002KT 9999 FEW015 27/23 Q1013 NOSIG=
16/09/2020 02:30:00Z	 SAID34 WIJJ 160230	METAR WIJJ 160230Z 13004KT 9999 FEW015 27/23 Q1013 NOSIG=
16/09/2020 03:00:00Z	 SAID34 WIJJ 160300	METAR WIJJ 160300Z 12005KT 9999 FEW016 28/23 Q1012 NOSIG=
16/09/2020 03:30:00Z	 SAID34 WIJJ 160330	METAR WIJJ 160330Z 15008KT 9999 FEW016 29/23 Q1012 NOSIG=
16/09/2020 04:00:00Z	 SAID34 WIJJ 160400	METAR WIJJ 160400Z 17006KT 9999 SCT016 30/23 Q1012 NOSIG=
16/09/2020 04:30:00Z	 SAID34 WIJJ 160430	METAR WIJJ 160430Z 16006KT 9999 SCT016 30/23 Q1011 NOSIG=
16/09/2020 05:00:00Z	 SAID34 WIJJ 160500	METAR WIJJ 160500Z 18007KT 9999 FEW018 30/23 Q1010 NOSIG=
16/09/2020 05:30:00Z	 SAID34 WIJJ 160530	METAR WIJJ 160530Z 16008KT 9999 SCT018 30/23 Q1009 NOSIG=
16/09/2020 06:00:00Z	 SAID34 WIJJ 160600	METAR WIJJ 160600Z 16008KT 9999 FEW018 31/24 Q1009 NOSIG=
16/09/2020 06:30:00Z	 SAID34 WIJJ 160630	METAR WIJJ 160630Z 16006KT 9999 FEW017 31/24 Q1008 NOSIG=
16/09/2020 07:00:00Z	 SAID34 WIJJ 160700	METAR WIJJ 160700Z 15005KT 9999 SCT017 31/24 Q1008 NOSIG=
16/09/2020 07:30:00Z	 SAID34 WIJJ 160730	METAR WIJJ 160730Z 19004KT 9999 FEW016 32/24 Q1008 NOSIG=
16/09/2020 08:00:00Z	 SAID34 WIJJ 160800	METAR WIJJ 160800Z 20004KT 9999 SCT016 32/24 Q1007 NOSIG=
16/09/2020 08:30:00Z	 SAID34 WIJJ 160830	METAR WIJJ 160830Z 23005KT 9999 SCT015 32/24 Q1007 NOSIG=
16/09/2020 09:00:00Z	 SAID34 WIJJ 160900	METAR WIJJ 160900Z 17005KT 9999 SCT015 32/24 Q1007 NOSIG=
16/09/2020 09:30:00Z	 SAID34 WIJJ 160930	METAR WIJJ 160930Z 13005KT 9999 FEW015 31/24 Q1007 NOSIG=
16/09/2020 10:00:00Z	 SAID34 WIJJ 161000	METAR WIJJ 161000Z 19002KT 9999 FEW015 31/24 Q1007 NOSIG=
16/09/2020 10:30:00Z	 SAID34 WIJJ 161030	METAR WIJJ 161030Z 12005KT 9999 FEW015 30/24 Q1007 NOSIG=
16/09/2020 11:00:00Z	 SAID34 WIJJ 161100	METAR WIJJ 161100Z 15004KT 9999 FEW015 30/24 Q1007 NOSIG=
16/09/2020 11:30:00Z	 SAID34 WIJJ 161130	METAR WIJJ 161130Z 10003KT 9999 FEW015 30/24 Q1008 NOSIG=
16/09/2020 12:00:00Z	 SAID34 WIJJ 161200	METAR WIJJ 161200Z 12003KT 9999 FEW015 30/24 Q1009 NOSIG=
16/09/2020 12:30:00Z	 SAID34 WIJJ 161230	METAR WIJJ 161230Z 12004KT 9999 FEW015 29/24 Q1009 NOSIG=
16/09/2020 13:00:00Z	 SAID34 WIJJ 161300	METAR WIJJ 161300Z 10002KT 9999 FEW015 29/24 Q1010 NOSIG=
16/09/2020 13:30:00Z	 SAID34 WIJJ 161330	METAR WIJJ 161330Z 11003KT 9999 FEW015 28/24 Q1010 NOSIG=
16/09/2020 14:00:00Z	 SAID34 WIJJ 161400	METAR WIJJ 161400Z 05002KT 8000 FEW015 28/23 Q1010 NOSIG=
16/09/2020 14:30:00Z	 SAID34 WIJJ 161430	METAR WIJJ 161430Z 10002KT 8000 FEW015 28/24 Q1010 NOSIG=
16/09/2020 15:30:00Z	 SAID34 WIJJ 161530	METAR WIJJ 161530Z 06004KT 8000 FEW015 27/24 Q1011 NOSIGF=
16/09/2020 16:00:00Z	 SAID34 WIJJ 161600	METAR WIJJ 161600Z 00000KT 8000 FEW015 26/24 Q1011 NOSIG=
16/09/2020 16:30:00Z	 SAID34 WIJJ 161630	METAR WIJJ 161630Z 02002KT 8000 FEW015 26/24 Q1010 NOSIG=
16/09/2020 17:00:00Z	 SAID34 WIJJ 161700	METAR WIJJ 161700Z 34002KT 8000 SCT015 26/24 Q1010 NOSIG=
16/09/2020 17:30:00Z	 SAID34 WIJJ 161730	METAR WIJJ 161730Z 00000KT 9999 SCT015 26/24 Q1010 NOSIG=
16/09/2020 18:00:00Z	 SAID34 WIJJ 161800	METAR WIJJ 161800Z 19003KT 9999 FEW015 25/24 Q1009 NOSIG=
16/09/2020 18:30:00Z	 SAID34 WIJJ 161830	METAR WIJJ 161830Z 20003KT 8000 FEW015 25/24 Q1009 NOSIG=
16/09/2020 21:00:00Z	 SAID34 WIJJ 162100	METAR WIJJ 162100Z 20003KT 8000 SCT015 26/24 Q1008 NOSIG=
16/09/2020 21:30:00Z	 SAID34 WIJJ 162130	METAR WIJJ 162130Z 19004KT 8000 BKN015 25/24 Q1008 NOSIG=
16/09/2020 22:00:00Z	 SAID34 WIJJ 162200	METAR WIJJ 162200Z 19004KT 8000 -RA BKN015 25/24 Q1008 NOSIG=
16/09/2020 22:30:00Z	 SAID34 WIJJ 162230	METAR WIJJ 162230Z 15003KT 9000 SCT015 25/24 Q1009 NOSIG=
16/09/2020 23:00:00Z	 SAID34 WIJJ 162300	METAR WIJJ 162300Z 19003KT 8000 SCT015 25/24 Q1008 NOSIG=
16/09/2020 23:30:00Z	 SAID34 WIJJ 162330	METAR WIJJ 162330Z 12003KT 7000 SCT015 25/24 Q1009 NOSIG=
17/09/2020 00:00:00Z	 SAID34 WIJJ 170000	METAR WIJJ 170000Z 10003KT 6000 BR BKN015 25/24 Q1010 NOSIG=
17/09/2020 00:30:00Z	 SAID34 WIJJ 170030	METAR WIJJ 170030Z 15004KT 6000 BKN014 25/25 Q1010 NOSIG=
17/09/2020 01:00:00Z	 SAID34 WIJJ 170100	METAR WIJJ 170100Z 15007KT 7000 BKN013 25/25 Q1010 NOSIG=
17/09/2020 01:30:00Z	 SAID34 WIJJ 170130	METAR WIJJ 170130Z 15007KT 7000 BKN014 27/25 Q1010 NOSIG=
17/09/2020 02:00:00Z	 SAID34 WIJJ 170200	METAR WIJJ 170200Z 16007KT 120V200 9999 BKN012 27/25 Q1011 NOSIG=
17/09/2020 02:30:00Z	 SAID34 WIJJ 170230	METAR WIJJ 170230Z 17009KT 9999 BKN013 28/25 Q1011 NOSIG=
17/09/2020 03:00:00Z	 SAID34 WIJJ 170300	METAR WIJJ 170300Z 16009KT 130V200 9999 BKN013 29/24 Q1011 NOSIG=
17/09/2020 03:30:00Z	 SAID34 WIJJ 170330	METAR WIJJ 170330Z 16010KT 120V200 9999 BKN014 29/24 Q1011 NOSIG=
17/09/2020 04:00:00Z	 SAID34 WIJJ 170400	METAR WIJJ 170400Z 15008KT 120V180 9999 SCT015 30/24 Q1010 NOSIG=
