01/08/2020 00:00:00Z	 SAID34 WAGG 010000	METAR WAGG 010000Z 10003KT 8000 BKN013 26/24 Q1012=
01/08/2020 00:30:00Z	 SAID34 WAGG 010030	METAR WAGG 010030Z 14003KT 9000 BKN013 27/23 Q1013=
01/08/2020 01:00:00Z	 SAID34 WAGG 010100	METAR WAGG 010100Z 17003KT 9000 BKN012 27/23 Q1013=
01/08/2020 01:30:00Z	 SAID34 WAGG 010130	METAR WAGG 010130Z 12004KT 9000 BKN012 28/23 Q1013=
01/08/2020 02:00:00Z	 SAID34 WAGG 010200	METAR WAGG 010200Z 17004KT 9999 BKN012 29/23 Q1013=
01/08/2020 02:30:00Z	 SAID34 WAGG 010230	METAR WAGG 010230Z 14005KT 9999 BKN012 30/23 Q1012=
01/08/2020 03:00:00Z	 SAID34 WAGG 010300	METAR WAGG 010300Z 14005KT 9999 BKN012 30/23 Q1012=
01/08/2020 03:30:00Z	 SAID34 WAGG 010330	METAR WAGG 010330Z 15005KT 9999 BKN012 29/23 Q1012=
01/08/2020 04:00:00Z	 SAID34 WAGG 010400	METAR WAGG 010400Z 16006KT 9999 BKN012 29/23 Q1011=
01/08/2020 04:30:00Z	 SAID34 WAGG 010430	METAR WAGG 010430Z 17007KT 9999 BKN012 30/23 Q1011=
01/08/2020 05:00:00Z	 SAID34 WAGG 010500	METAR WAGG 010500Z 15005KT 9999 BKN011 30/23 Q1011=
01/08/2020 05:30:00Z	 SAID34 WAGG 010530	METAR WAGG 010530Z 15004KT 9999 BKN011 30/23 Q1010=
01/08/2020 06:00:00Z	 SAID34 WAGG 010600	METAR WAGG 010600Z 19005KT 9999 BKN011 30/23 Q1010=
01/08/2020 06:30:00Z	 SAID34 WAGG 010630	METAR WAGG 010630Z 17005KT 9999 BKN011 30/23 Q1009=
01/08/2020 07:00:00Z	 SAID34 WAGG 010700	METAR WAGG 010700Z 16004KT 9999 SCT011 30/23 Q1009=
01/08/2020 07:30:00Z	 SAID34 WAGG 010730	METAR WAGG 010730Z 18004KT 9999 SCT011 31/23 Q1008=
01/08/2020 08:00:00Z	 SAID34 WAGG 010800	METAR WAGG 010800Z 14005KT 9999 BKN011 31/23 Q1008=
01/08/2020 08:30:00Z	 SAID34 WAGG 010830	METAR WAGG 010830Z 20004KT 9999 FEW011TCU BKN012 30/23 Q1008=
01/08/2020 09:00:00Z	 SAID34 WAGG 010900	METAR WAGG 010900Z 20006KT 9999 FEW011TCU BKN012 30/23 Q1009=
01/08/2020 09:30:00Z	 SAID34 WAGG 010930	METAR WAGG 010930Z 20009KT 9999 FEW011TCU BKN012 27/24 Q1009=
01/08/2020 10:00:00Z	 SAID34 WAGG 011000	METAR WAGG 011000Z 20006KT 9999 FEW011TCU SCT012 27/24 Q1009=
01/08/2020 10:30:00Z	 SAID34 WAGG 011030	METAR WAGG 011030Z 21005KT 9999 FEW011TCU SCT012 27/24 Q1009=
01/08/2020 11:00:00Z	 SAID34 WAGG 011100	METAR WAGG 011100Z 20004KT 9999 FEW011TCU SCT012 27/24 Q1010=
01/08/2020 11:30:00Z	 SAID34 WAGG 011130	METAR WAGG 011130Z 17005KT 8000 VCSH FEW011TCU SCT012 26/24 Q1011=
01/08/2020 12:00:00Z	 SAID34 WAGG 011200	METAR WAGG 011200Z 13005KT 8000 VCSH FEW012CB SCT012 25/23 Q1011=
01/08/2020 12:30:00Z	 SAID34 WAGG 011230	METAR WAGG 011230Z 14006KT 6000 RA FEW012CB SCT012 25/23 Q1011=
01/08/2020 15:00:00Z	 SAID34 WAGG 011500	METAR WAGG 011500Z 16004KT 8000 VCSH SCT012 24/23 Q1012=
01/08/2020 18:00:00Z	 SAID34 WAGG 011800	METAR WAGG 011800Z 19003KT 7000 SCT012 24/23 Q1012=
01/08/2020 21:30:00Z	 SAID34 WAGG 012130	METAR WAGG 012130Z 07003KT 8000 SCT012 24/23 Q1011=
01/08/2020 22:00:00Z	 SAID34 WAGG 012200	METAR WAGG 012200Z 02002KT 8000 SCT012 24/23 Q1011=
01/08/2020 22:30:00Z	 SAID34 WAGG 012230	METAR WAGG 012230Z 03003KT 8000 SCT012 24/23 Q1011=
01/08/2020 23:00:00Z	 SAID34 WAGG 012300	METAR WAGG 012300Z 04003KT 8000 SCT012 24/23 Q1011=
02/08/2020 00:00:00Z	 SAID34 WAGG 020000	METAR WAGG 020000Z 04002KT 8000 SCT012 26/23 Q1011=
02/08/2020 00:30:00Z	 SAID34 WAGG 020030	METAR WAGG 020030Z 02002KT 9000 SCT012 26/23 Q1011=
02/08/2020 01:00:00Z	 SAID34 WAGG 020100	METAR WAGG 020100Z 09002KT 9000 SCT012 26/23 Q1011=
02/08/2020 01:30:00Z	 SAID34 WAGG 020130	METAR WAGG 020130Z 09001KT 9000 SCT012 27/23 Q1012=
02/08/2020 02:00:00Z	 SAID34 WAGG 020200	METAR WAGG 020200Z 10002KT 9000 SCT012 28/23 Q1012=
02/08/2020 02:30:00Z	 SAID34 WAGG 020230	METAR WAGG 020230Z 10003KT 9000 SCT012 28/23 Q1012=
02/08/2020 03:00:00Z	 SAID34 WAGG 020300	METAR WAGG 020300Z 12004KT 9000 SCT012 30/23 Q1011=
02/08/2020 03:30:00Z	 SAID34 WAGG 020330	METAR WAGG 020330Z 16005KT 9000 SCT012 30/24 Q1011=
02/08/2020 04:00:00Z	 SAID34 WAGG 020400	METAR WAGG 020400Z 10006KT 9000 SCT012 31/23 Q1011=
02/08/2020 04:30:00Z	 SAID34 WAGG 020430	METAR WAGG 020430Z 10006KT 9000 SCT012 31/22 Q1011=
02/08/2020 05:00:00Z	 SAID34 WAGG 020500	METAR WAGG 020500Z 09005KT 9000 SCT012 32/22 Q1010=
02/08/2020 05:30:00Z	 SAID34 WAGG 020530	METAR WAGG 020530Z 13005KT 9000 BKN012 31/22 Q1010=
02/08/2020 06:00:00Z	 SAID34 WAGG 020600	METAR WAGG 020600Z 14004KT 9999 BKN012 31/23 Q1010=
02/08/2020 06:30:00Z	 SAID34 WAGG 020630	METAR WAGG 020630Z 10004KT 9999 BKN012 31/23 Q1009=
02/08/2020 07:00:00Z	 SAID34 WAGG 020700	METAR WAGG 020700Z 13009KT 9999 BKN012 31/23 Q1008=
02/08/2020 07:30:00Z	 SAID34 WAGG 020730	METAR WAGG 020730Z 13006KT 9999 SCT012 32/23 Q1008=
02/08/2020 08:00:00Z	 SAID34 WAGG 020800	METAR WAGG 020800Z 13009KT 9999 SCT012 32/23 Q1008=
02/08/2020 08:30:00Z	 SAID34 WAGG 020830	METAR WAGG 020830Z 15004KT 9999 SCT012 31/23 Q1008=
02/08/2020 09:00:00Z	 SAID34 WAGG 020900	METAR WAGG 020900Z 12006KT 9999 FEW012TCU SCT012 30/23 Q1008=
02/08/2020 09:30:00Z	 SAID34 WAGG 020930	METAR WAGG 020930Z 10002KT 9999 FEW012TCU SCT012 29/24 Q1008=
02/08/2020 10:00:00Z	 SAID34 WAGG 021000	METAR WAGG 021000Z 11002KT 9000 FEW012TCU SCT012 29/24 Q1009=
02/08/2020 10:30:00Z	 SAID34 WAGG 021030	METAR WAGG 021030Z 35003KT 9000 FEW012TCU SCT012 28/24 Q1009=
02/08/2020 11:00:00Z	 SAID34 WAGG 021100	METAR WAGG 021100Z 01004KT 7000 -RA FEW012TCU SCT012 26/24 Q1010=
02/08/2020 11:30:00Z	 SAID34 WAGG 021130	METAR WAGG 021130Z 35003KT 7000 -RA FEW012TCU SCT012 26/24 Q1010=
02/08/2020 12:00:00Z	 SAID34 WAGG 021200	METAR WAGG 021200Z 05005KT 8000 FEW012TCU SCT012 25/23 Q1011 RERA=
02/08/2020 21:00:00Z	 SAID34 WAGG 022100	METAR WAGG 022100Z 19003KT 8000 BKN010 25/24 Q1010=
02/08/2020 21:30:00Z	 SAID34 WAGG 022130	METAR WAGG 022130Z 36001KT 8000 BKN010 25/24 Q1010=
02/08/2020 22:00:00Z	 SAID34 WAGG 022200	METAR WAGG 022200Z 31002KT 8000 BKN010 25/24 Q1011=
02/08/2020 22:30:00Z	 SAID34 WAGG 022230	METAR WAGG 022230Z 28002KT 8000 BKN010 25/24 Q1011=
02/08/2020 23:00:00Z	 SAID34 WAGG 022300	METAR WAGG 022300Z 30003KT 8000 BKN010 25/24 Q1011=
02/08/2020 23:30:00Z	 SAID34 WAGG 022330	METAR WAGG 022330Z 32004KT 8000 BKN010 25/24 Q1012=
03/08/2020 00:00:00Z	 SAID34 WAGG 030000	METAR WAGG 030000Z 34003KT 700 -RA FEW009CB BKN009 24/24 Q1013=
03/08/2020 00:30:00Z	 SAID34 WAGG 030030	METAR WAGG 030030Z 34003KT 500 +RA FEW010CB BKN010 24/24 Q1013=
03/08/2020 01:00:00Z	 SAID34 WAGG 030100	METAR WAGG 030100Z 02003KT 2000 -RA FEW010CB BKN010 24/24 Q1013=
03/08/2020 01:30:00Z	 SAID34 WAGG 030130	METAR WAGG 030130Z 36003KT 3000 -RA FEW011CB BKN011 24/24 Q1013=
03/08/2020 02:00:00Z	 SAID34 WAGG 030200	METAR WAGG 030200Z 01003KT 4000 -RA FEW011CB BKN011 25/24 Q1013=
03/08/2020 02:30:00Z	 SAID34 WAGG 030230	METAR WAGG 030230Z 01003KT 8000 -RA FEW011CB BKN011 25/24 Q1013=
03/08/2020 03:00:00Z	 SAID34 WAGG 030300	METAR WAGG 030300Z 02002KT 9000 -RA FEW011TCU BKN011 26/24 Q1013 RETS=
03/08/2020 03:30:00Z	 SAID34 WAGG 030330	METAR WAGG 030330Z 01001KT 9000 -RA FEW011TCU BKN011 28/24 Q1012=
03/08/2020 04:00:00Z	 SAID34 WAGG 030400	METAR WAGG 030400Z 04001KT 9999 BKN011 28/24 Q1011 RERA=
03/08/2020 04:30:00Z	 SAID34 WAGG 030430	METAR WAGG 030430Z 35003KT 9999 BKN010 29/24 Q1011=
03/08/2020 05:00:00Z	 SAID34 WAGG 030500	METAR WAGG 030500Z 33005KT 9999 BKN010 29/24 Q1010=
03/08/2020 05:30:00Z	 SAID34 WAGG 030530	METAR WAGG 030530Z 32008KT 9999 BKN011 29/23 Q1010=
03/08/2020 06:00:00Z	 SAID34 WAGG 030600	METAR WAGG 030600Z 35005KT 9999 BKN011 31/24 Q1009=
03/08/2020 06:30:00Z	 SAID34 WAGG 030630	METAR WAGG 030630Z 36003KT 9999 BKN011 30/24 Q1009=
03/08/2020 07:00:00Z	 SAID34 WAGG 030700	METAR WAGG 030700Z 31004KT 9999 BKN011 31/23 Q1008=
03/08/2020 07:30:00Z	 SAID34 WAGG 030730	METAR WAGG 030730Z 05004KT 9999 BKN011 31/23 Q1008=
03/08/2020 08:00:00Z	 SAID34 WAGG 030800	METAR WAGG 030800Z 04005KT 9999 BKN011 31/23 Q1008=
03/08/2020 08:30:00Z	 SAID34 WAGG 030830	METAR WAGG 030830Z 03003KT 9999 SCT011 31/23 Q1007=
03/08/2020 09:00:00Z	 SAID34 WAGG 030900	METAR WAGG 030900Z 06004KT 9999 SCT012 31/23 Q1008=
03/08/2020 09:30:00Z	 SAID34 WAGG 030930	METAR WAGG 030930Z 04003KT 9999 SCT012 30/22 Q1008=
03/08/2020 10:00:00Z	 SAID34 WAGG 031000	METAR WAGG 031000Z 06003KT 9999 FEW012 30/23 Q1008=
03/08/2020 10:30:00Z	 SAID34 WAGG 031030	METAR WAGG 031030Z 07001KT 9999 FEW012 29/23 Q1008=
03/08/2020 11:00:00Z	 SAID34 WAGG 031100	METAR WAGG 031100Z 13001KT 9999 FEW012 29/24 Q1008=
03/08/2020 11:30:00Z	 SAID34 WAGG 031130	METAR WAGG 031130Z 18002KT 9999 SCT012 28/24 Q1009=
03/08/2020 12:00:00Z	 SAID34 WAGG 031200	METAR WAGG 031200Z 23004KT 8000 SCT012 28/24 Q1009=
03/08/2020 12:30:00Z	 SAID34 WAGG 031230	METAR WAGG 031230Z 18004KT 8000 SCT012 28/25 Q1009=
03/08/2020 13:00:00Z	 SAID34 WAGG 031300	METAR WAGG 031300Z AUTO 16004KT 9999 FEW060 OVC130 27/26 Q1010=
03/08/2020 13:30:00Z	 SAID34 WAGG 031330	METAR WAGG 031330Z AUTO 17004KT 9999 OVC140 27/26 Q1010=
03/08/2020 14:00:00Z	 SAID34 WAGG 031400	METAR WAGG 031400Z AUTO 18006KT 9999 FEW140 BKN200 BKN240 27/25 Q1010=
03/08/2020 14:30:00Z	 SAID34 WAGG 031430	METAR WAGG 031430Z AUTO 18006KT 9999 BKN200 26/26 Q1010=
03/08/2020 15:00:00Z	 SAID34 WAGG 031500	METAR WAGG 031500Z AUTO 15005KT 9999 SCT160 BKN200 26/25 Q1011=
03/08/2020 15:30:00Z	 SAID34 WAGG 031530	METAR WAGG 031530Z AUTO 14003KT 110V180 9999 BKN008 BKN160 OVC210 26/26 Q1011=
03/08/2020 16:00:00Z	 SAID34 WAGG 031600	METAR WAGG 031600Z AUTO 12003KT 9999 OVC009 26/25 Q1011=
03/08/2020 16:30:00Z	 SAID34 WAGG 031630	METAR WAGG 031630Z AUTO 20001KT 9999 FEW010 FEW110 OVC210 25/25 Q1011=
03/08/2020 17:00:00Z	 SAID34 WAGG 031700	METAR WAGG 031700Z AUTO 11003KT 9999 OVC200 25/25 Q1010=
03/08/2020 17:30:00Z	 SAID34 WAGG 031730	METAR WAGG 031730Z AUTO 20001KT 9999 FEW007 SCT180 OVC200 25/25 Q1010=
03/08/2020 18:00:00Z	 SAID34 WAGG 031800	METAR WAGG 031800Z AUTO 15002KT 9999 FEW006 OVC160 25/25 Q1010=
03/08/2020 18:30:00Z	 SAID34 WAGG 031830	METAR WAGG 031830Z AUTO 16002KT 9999 OVC005 25/25 Q1010=
03/08/2020 19:00:00Z	 SAID34 WAGG 031900	METAR WAGG 031900Z AUTO VRB02KT 9999 BKN005 BKN140 OVC230 25/25 Q1009=
03/08/2020 19:30:00Z	 SAID34 WAGG 031930	METAR WAGG 031930Z AUTO 21002KT 9999 FEW006 OVC140 25/25 Q1009=
03/08/2020 20:00:00Z	 SAID34 WAGG 032000	METAR WAGG 032000Z AUTO 21003KT 9999 SCT140 OVC160 25/25 Q1009=
03/08/2020 20:30:00Z	 SAID34 WAGG 032030	METAR WAGG 032030Z AUTO 19003KT 9999 OVC160 25/25 Q1009=
03/08/2020 21:00:00Z	 SAID34 WAGG 032100	METAR WAGG 032100Z AUTO 17002KT 9999 OVC170 25/25 Q1009=
03/08/2020 21:30:00Z	 SAID34 WAGG 032130	METAR WAGG 032130Z 34001KT 8000 SCT012 25/23 Q1009=
03/08/2020 22:00:00Z	 SAID34 WAGG 032200	METAR WAGG 032200Z 05001KT 8000 SCT012 24/23 Q1010=
03/08/2020 22:30:00Z	 SAID34 WAGG 032230	METAR WAGG 032230Z 05002KT 8000 SCT012 24/24 Q1010=
03/08/2020 23:00:00Z	 SAID34 WAGG 032300	METAR WAGG 032300Z 04001KT 8000 BKN012 25/24 Q1010=
03/08/2020 23:30:00Z	 SAID34 WAGG 032330	METAR WAGG 032330Z 34002KT 9000 SCT012 25/24 Q1011=
04/08/2020 00:00:00Z	 SAID34 WAGG 040000	METAR WAGG 040000Z 36002KT 9000 SCT012 26/24 Q1011=
04/08/2020 00:30:00Z	 SAID34 WAGG 040030	METAR WAGG 040030Z 03002KT 9000 SCT012 26/24 Q1011=
04/08/2020 01:00:00Z	 SAID34 WAGG 040100	METAR WAGG 040100Z 09001KT 9000 SCT012 27/24 Q1011=
04/08/2020 01:30:00Z	 SAID34 WAGG 040130	METAR WAGG 040130Z 03002KT 9000 SCT012 27/24 Q1011=
04/08/2020 02:00:00Z	 SAID34 WAGG 040200	METAR WAGG 040200Z 06002KT 9000 SCT012 28/24 Q1011=
04/08/2020 02:30:00Z	 SAID34 WAGG 040230	METAR WAGG 040230Z 12002KT 9999 SCT012 29/24 Q1011=
04/08/2020 03:00:00Z	 SAID34 WAGG 040300	METAR WAGG 040300Z 17003KT 9999 SCT012 29/24 Q1011=
04/08/2020 03:30:00Z	 SAID34 WAGG 040330	METAR WAGG 040330Z 07003KT 9999 SCT012 30/24 Q1010=
04/08/2020 04:00:00Z	 SAID34 WAGG 040400	METAR WAGG 040400Z 08003KT 9999 BKN012 31/24 Q1010=
04/08/2020 04:30:00Z	 SAID34 WAGG 040430	METAR WAGG 040430Z 06004KT 9999 BKN012 31/24 Q1010=
04/08/2020 05:00:00Z	 SAID34 WAGG 040500	METAR WAGG 040500Z 07003KT 9999 BKN012 31/24 Q1009=
04/08/2020 05:30:00Z	 SAID34 WAGG 040530	METAR WAGG 040530Z 16003KT 9999 BKN012 31/24 Q1009=
04/08/2020 06:00:00Z	 SAID34 WAGG 040600	METAR WAGG 040600Z 15002KT 9999 BKN012 31/24 Q1009=
04/08/2020 06:30:00Z	 SAID34 WAGG 040630	METAR WAGG 040630Z 21003KT 9999 BKN012 31/24 Q1008=
04/08/2020 07:00:00Z	 SAID34 WAGG 040700	METAR WAGG 040700Z 09002KT 9999 BKN011 31/24 Q1008=
04/08/2020 07:30:00Z	 SAID34 WAGG 040730	METAR WAGG 040730Z 14003KT 9999 BKN011 31/24 Q1008=
04/08/2020 08:00:00Z	 SAID34 WAGG 040800	METAR WAGG 040800Z 14003KT 9000 FEW011TCU BKN011 30/24 Q1008=
04/08/2020 08:30:00Z	 SAID34 WAGG 040830	METAR WAGG 040830Z 18005KT 9000 -RA FEW011TCU BKN011 29/25 Q1008=
04/08/2020 09:00:00Z	 SAID34 WAGG 040900	METAR WAGG 040900Z 18004KT 9000 -RA FEW011TCU BKN011 29/24 Q1008=
04/08/2020 09:30:00Z	 SAID34 WAGG 040930	METAR WAGG 040930Z 18003KT 9000 BKN011 29/24 Q1008 RERA=
04/08/2020 10:00:00Z	 SAID34 WAGG 041000	METAR WAGG 041000Z 18002KT 9000 BKN012 30/24 Q1008=
04/08/2020 10:30:00Z	 SAID34 WAGG 041030	METAR WAGG 041030Z 20002KT 9000 BKN012 29/24 Q1008=
04/08/2020 11:00:00Z	 SAID34 WAGG 041100	METAR WAGG 041100Z 24001KT 9000 BKN012 29/24 Q1008=
04/08/2020 11:30:00Z	 SAID34 WAGG 041130	METAR WAGG 041130Z 18003KT 9000 SCT013 28/25 Q1009=
04/08/2020 12:00:00Z	 SAID34 WAGG 041200	METAR WAGG 041200Z 02003KT 8000 SCT013 28/25 Q1009=
04/08/2020 12:30:00Z	 SAID34 WAGG 041230	METAR WAGG 041230Z 02002KT 8000 SCT013 28/26 Q1009=
04/08/2020 21:00:00Z	 SAID34 WAGG 042100	METAR WAGG 042100Z 20001KT 8000 SCT013 26/25 Q1009=
04/08/2020 21:30:00Z	 SAID34 WAGG 042130	METAR WAGG 042130Z 13002KT 8000 SCT013 26/25 Q1009=
04/08/2020 22:00:00Z	 SAID34 WAGG 042200	METAR WAGG 042200Z 14001KT 8000 SCT013 26/25 Q1010=
04/08/2020 22:30:00Z	 SAID34 WAGG 042230	METAR WAGG 042230Z 16001KT 8000 BKN013 26/25 Q1010=
04/08/2020 23:00:00Z	 SAID34 WAGG 042300	METAR WAGG 042300Z 16001KT 8000 BKN013 26/25 Q1010=
04/08/2020 23:30:00Z	 SAID34 WAGG 042330	METAR WAGG 042330Z 19001KT 8000 BKN013 26/25 Q1010=
05/08/2020 00:00:00Z	 SAID34 WAGG 050000	METAR WAGG 050000Z 21002KT 9000 BKN013 27/25 Q1011=
05/08/2020 00:30:00Z	 SAID34 WAGG 050030	METAR WAGG 050030Z 14002KT 9000 BKN013 27/25 Q1011=
05/08/2020 01:00:00Z	 SAID34 WAGG 050100	METAR WAGG 050100Z 17003KT 9000 BKN013 28/26 Q1011=
05/08/2020 01:30:00Z	 SAID34 WAGG 050130	METAR WAGG 050130Z 11002KT 9999 BKN013 29/25 Q1011=
05/08/2020 02:00:00Z	 SAID34 WAGG 050200	METAR WAGG 050200Z 07002KT 9999 BKN012 29/25 Q1011=
05/08/2020 02:30:00Z	 SAID34 WAGG 050230	METAR WAGG 050230Z 13002KT 9999 BKN012 30/25 Q1011=
05/08/2020 03:00:00Z	 SAID34 WAGG 050300	METAR WAGG 050300Z 17004KT 9999 BKN012 30/26 Q1011=
05/08/2020 03:30:00Z	 SAID34 WAGG 050330	METAR WAGG 050330Z 22004KT 9999 BKN012 29/25 Q1011=
05/08/2020 04:00:00Z	 SAID34 WAGG 050400	METAR WAGG 050400Z 24002KT 9999 VCSH FEW012CB BKN012 30/26 Q1010=
05/08/2020 04:30:00Z	 SAID34 WAGG 050430	METAR WAGG 050430Z 22003KT 9999 FEW012CB BKN012 32/25 Q1010=
05/08/2020 05:00:00Z	 SAID34 WAGG 050500	METAR WAGG 050500Z 14002KT 9999 BKN012 32/24 Q1009=
05/08/2020 05:30:00Z	 SAID34 WAGG 050530	METAR WAGG 050530Z 19004KT 9999 FEW012TCU BKN012 32/24 Q1008=
05/08/2020 06:00:00Z	 SAID34 WAGG 050600	METAR WAGG 050600Z 16005KT 6000 VCSH FEW012CB BKN012 32/24 Q1008=
05/08/2020 06:30:00Z	 SAID34 WAGG 050630	METAR WAGG 050630Z 32008KT 5000 -RA FEW012CB BKN012 26/23 Q1008=
05/08/2020 07:00:00Z	 SAID34 WAGG 050700	METAR WAGG 050700Z 03004KT 5000 TSRA FEW012CB BKN012 26/23 Q1008=
05/08/2020 07:30:00Z	 SAID34 WAGG 050730	METAR WAGG 050730Z 01004KT 5000 -TSRA FEW012CB BKN012 25/24 Q1008=
05/08/2020 08:00:00Z	 SAID34 WAGG 050800	METAR WAGG 050800Z 01003KT 8000 -TS FEW012CB BKN012 25/24 Q1008 RERA=
05/08/2020 08:30:00Z	 SAID34 WAGG 050830	METAR WAGG 050830Z 22004KT 8000 TS FEW012CB BKN012 27/25 Q1008=
05/08/2020 09:00:00Z	 SAID34 WAGG 050900	METAR WAGG 050900Z 23007KT 8000 TS FEW012CB BKN012 26/25 Q1008=
05/08/2020 09:30:00Z	 SAID34 WAGG 050930	METAR WAGG 050930Z 21005KT 8000 TS FEW012CB BKN012 26/23 Q1009=
05/08/2020 10:00:00Z	 SAID34 WAGG 051000	METAR WAGG 051000Z 19005KT 5000 -RA FEW012CB BKN012 25/24 Q1010=
05/08/2020 10:30:00Z	 SAID34 WAGG 051030	METAR WAGG 051030Z 18003KT 8000 FEW012CB BKN012 25/24 Q1010 RERA=
05/08/2020 11:00:00Z	 SAID34 WAGG 051100	METAR WAGG 051100Z 17003KT 8000 FEW012CB BKN012 25/24 Q1011=
05/08/2020 12:00:00Z	 SAID34 WAGG 051200	METAR WAGG 051200Z 33005KT 7000 RA FEW012CB BKN012 22/24 Q1013=
05/08/2020 15:00:00Z	 SAID34 WAGG 051500	METAR WAGG 051500Z 24002KT 8000 BKN012 22/21 Q1013=
05/08/2020 18:00:00Z	 SAID34 WAGG 051800	METAR WAGG 051800Z 29002KT 8000 BKN012 22/21 Q1013=
05/08/2020 21:00:00Z	 SAID34 WAGG 052100	METAR WAGG 052100Z 00000KT 7000 BKN012 22/21 Q1012=
05/08/2020 21:30:00Z	 SAID34 WAGG 052130	METAR WAGG 052130Z 10003KT 8000 BKN012 22/21 Q1011=
05/08/2020 22:00:00Z	 SAID34 WAGG 052200	METAR WAGG 052200Z 11002KT 8000 BKN012 22/22 Q1011=
05/08/2020 22:30:00Z	 SAID34 WAGG 052230	METAR WAGG 052230Z 13002KT 8000 BKN010 22/21 Q1012=
05/08/2020 23:00:00Z	 SAID34 WAGG 052300	METAR WAGG 052300Z 10003KT 9000 BKN010 22/21 Q1012=
05/08/2020 23:30:00Z	 SAID34 WAGG 052330	METAR WAGG 052330Z 06002KT 9000 BKN011 23/23 Q1012=
06/08/2020 00:00:00Z	 SAID34 WAGG 060000	METAR WAGG 060000Z 07003KT 9000 BKN011 23/22 Q1012=
06/08/2020 00:30:00Z	 SAID34 WAGG 060030	METAR WAGG 060030Z 06002KT 9000 BKN011 23/22 Q1012=
06/08/2020 01:00:00Z	 SAID34 WAGG 060100	METAR WAGG 060100Z 11003KT 9000 BKN011 24/22 Q1012=
06/08/2020 01:30:00Z	 SAID34 WAGG 060130	METAR WAGG 060130Z 10004KT 9000 BKN012 24/23 Q1012=
06/08/2020 02:00:00Z	 SAID34 WAGG 060200	METAR WAGG 060200Z 09005KT 9000 BKN012 25/23 Q1013=
06/08/2020 02:30:00Z	 SAID34 WAGG 060230	METAR WAGG 060230Z 09003KT 9000 BKN010 26/23 Q1013=
06/08/2020 03:00:00Z	 SAID34 WAGG 060300	METAR WAGG 060300Z 08004KT 9000 BKN010 26/23 Q1012=
06/08/2020 03:30:00Z	 SAID34 WAGG 060330	METAR WAGG 060330Z 14003KT 9999 BKN010 27/23 Q1012=
06/08/2020 04:00:00Z	 SAID34 WAGG 060400	METAR WAGG 060400Z 08003KT 9999 BKN010 28/23 Q1012=
06/08/2020 04:30:00Z	 SAID34 WAGG 060430	METAR WAGG 060430Z 09003KT 9999 BKN010 29/23 Q1011=
06/08/2020 05:00:00Z	 SAID34 WAGG 060500	METAR WAGG 060500Z 08003KT 9999 BKN010 29/23 Q1011=
06/08/2020 05:30:00Z	 SAID34 WAGG 060530	METAR WAGG 060530Z 36002KT 9999 BKN011 30/23 Q1010=
06/08/2020 06:00:00Z	 SAID34 WAGG 060600	METAR WAGG 060600Z 28004KT 9999 SCT011 31/23 Q1010=
06/08/2020 06:30:00Z	 SAID34 WAGG 060630	METAR WAGG 060630Z 25004KT 9999 SCT011 31/23 Q1009=
06/08/2020 07:00:00Z	 SAID34 WAGG 060700	METAR WAGG 060700Z 23005KT 9999 BKN010 31/22 Q1009=
06/08/2020 07:30:00Z	 SAID34 WAGG 060730	METAR WAGG 060730Z 20007KT 9999 BKN010 31/23 Q1009=
06/08/2020 08:00:00Z	 SAID34 WAGG 060800	METAR WAGG 060800Z 19005KT 9999 BKN010 31/23 Q1009=
06/08/2020 08:30:00Z	 SAID34 WAGG 060830	METAR WAGG 060830Z 19005KT 9999 SCT011 31/22 Q1009=
06/08/2020 09:00:00Z	 SAID34 WAGG 060900	METAR WAGG 060900Z 15004KT 9999 SCT011 31/23 Q1009=
06/08/2020 09:30:00Z	 SAID34 WAGG 060930	METAR WAGG 060930Z 20003KT 9999 SCT011 30/23 Q1009=
06/08/2020 10:00:00Z	 SAID34 WAGG 061000	METAR WAGG 061000Z 22004KT 9999 SCT011 30/23 Q1009=
06/08/2020 10:30:00Z	 SAID34 WAGG 061030	METAR WAGG 061030Z 22003KT 9999 SCT011 29/23 Q1009=
06/08/2020 11:00:00Z	 SAID34 WAGG 061100	METAR WAGG 061100Z 21002KT 9999 SCT011 29/23 Q1009=
06/08/2020 11:30:00Z	 SAID34 WAGG 061130	METAR WAGG 061130Z 24002KT 9999 SCT011 28/24 Q1010=
06/08/2020 12:00:00Z	 SAID34 WAGG 061200	METAR WAGG 061200Z 27002KT 9000 SCT012 28/24 Q1010=
06/08/2020 12:30:00Z	 SAID34 WAGG 061230	METAR WAGG 061230Z 26002KT 9000 SCT012 28/24 Q1011=
06/08/2020 21:00:00Z	 SAID34 WAGG 062100	METAR WAGG 062100Z 23001KT 9000 SCT012 25/24 Q1010=
06/08/2020 21:30:00Z	 SAID34 WAGG 062130	METAR WAGG 062100Z 29001KT 9000 SCT012 25/24 Q1010=
06/08/2020 22:00:00Z	 SAID34 WAGG 062200	METAR WAGG 062200Z 28001KT 9000 SCT012 25/24 Q1011=
06/08/2020 22:30:00Z	 SAID34 WAGG 062230	METAR WAGG 062230Z 30001KT 9000 SCT012 25/24 Q1011=
06/08/2020 23:00:00Z	 SAID34 WAGG 062300	METAR WAGG 062300Z 07001KT 9000 SCT012 25/24 Q1011=
06/08/2020 23:30:00Z	 SAID34 WAGG 062330	METAR WAGG 062330Z 21003KT 9000 SCT011 26/24 Q1011=
07/08/2020 00:00:00Z	 SAID34 WAGG 070000	METAR WAGG 070000Z 22003KT 9999 BKN013 26/25 Q1012=
07/08/2020 00:30:00Z	 SAID34 WAGG 070030	METAR WAGG 070030Z 25003KT 9999 BKN011 27/25 Q1012=
07/08/2020 01:00:00Z	 SAID34 WAGG 070100	METAR WAGG 070100Z 17003KT 9999 BKN011 27/24 Q1012=
07/08/2020 01:30:00Z	 SAID34 WAGG 070130	METAR WAGG 070130Z 17003KT 9999 BKN011 29/24 Q1012=
07/08/2020 02:00:00Z	 SAID34 WAGG 070200	METAR WAGG 070200Z 18005KT 9999 BKN011 29/24 Q1012=
07/08/2020 02:30:00Z	 SAID34 WAGG 070230	METAR WAGG 070230Z 20005KT 9999 BKN011 30/24 Q1012=
07/08/2020 03:00:00Z	 SAID34 WAGG 070300	METAR WAGG 070300Z 23005KT 9999 BKN010 30/24 Q1012=
07/08/2020 03:30:00Z	 SAID34 WAGG 070330	METAR WAGG 070330Z 17006KT 9999 BKN010 30/24 Q1012=
07/08/2020 04:00:00Z	 SAID34 WAGG 070400	METAR WAGG 070400Z 16004KT 9999 BKN010 31/23 Q1011=
07/08/2020 05:00:00Z	 SAID34 WAGG 070500	METAR WAGG 070500Z 36004KT 9999 BKN010 32/24 Q1010=
07/08/2020 05:30:00Z	 SAID34 WAGG 070530	METAR WAGG 070530Z 14002KT 9999 BKN010 31/24 Q1010=
07/08/2020 06:00:00Z	 SAID34 WAGG 070600	METAR WAGG 070600Z 10003KT 9999 BKN011 32/23 Q1010=
07/08/2020 06:30:00Z	 SAID34 WAGG 070630	METAR WAGG 070630Z 09002KT 9999 BKN011 32/23 Q1009=
07/08/2020 07:00:00Z	 SAID34 WAGG 070700	METAR WAGG 070700Z 10005KT 9999 BKN011 32/24 Q1009=
07/08/2020 07:30:00Z	 SAID34 WAGG 070730	METAR WAGG 070730Z 08002KT 9999 BKN012 32/23 Q1008=
07/08/2020 08:00:00Z	 SAID34 WAGG 070800	METAR WAGG 070800Z 08003KT 9999 BKN012 32/23 Q1008=
07/08/2020 08:30:00Z	 SAID34 WAGG 070830	METAR WAGG 070830Z 05003KT 9999 BKN012 32/24 Q1008=
07/08/2020 09:00:00Z	 SAID34 WAGG 070900	METAR WAGG 070900Z 04003KT 9999 SCT012 32/23 Q1008=
07/08/2020 09:30:00Z	 SAID34 WAGG 070930	METAR WAGG 070930Z 07002KT 9999 SCT012 32/24 Q1008=
07/08/2020 10:00:00Z	 SAID34 WAGG 071000	METAR WAGG 071000Z 23003KT 9999 SCT012 31/24 Q1008=
07/08/2020 10:30:00Z	 SAID34 WAGG 071030	METAR WAGG 071030Z 19005KT 9999 SCT012 30/24 Q1009=
07/08/2020 11:00:00Z	 SAID34 WAGG 071100	METAR WAGG 071100Z 17004KT 9999 SCT012 29/25 Q1009=
07/08/2020 11:30:00Z	 SAID34 WAGG 071130	METAR WAGG 071130Z 19006KT 9000 SCT012 28/24 Q1010=
07/08/2020 12:00:00Z	 SAID34 WAGG 071200	METAR WAGG 071200Z 18007KT 9000 SCT012 27/24 Q1010=
07/08/2020 15:00:00Z	 SAID34 WAGG 071500	METAR WAGG 071500Z 19003KT 9000 SCT012 26/24 Q1012=
07/08/2020 18:00:00Z	 SAID34 WAGG 071800	METAR WAGG 071800Z 20003KT 8000 SCT012 25/24 Q1012=
07/08/2020 21:00:00Z	 SAID34 WAGG 072100	METAR WAGG 072100Z 00000KT 7000 SCT012 24/24 Q1011=
07/08/2020 21:30:00Z	 SAID34 WAGG 072130	METAR WAGG 072130Z 20003KT 7000 SCT012 24/23 Q1011=
07/08/2020 22:00:00Z	 SAID34 WAGG 072200	METAR WAGG 072200Z 20002KT 8000 SCT012 23/23 Q1010=
07/08/2020 22:30:00Z	 SAID34 WAGG 072230	METAR WAGG 072230Z 17004KT 7000 SCT012 24/24 Q1011=
07/08/2020 23:00:00Z	 SAID34 WAGG 072300	METAR WAGG 072300Z 15004KT 8000 FEW013 24/23 Q1011=
07/08/2020 23:30:00Z	 SAID34 WAGG 072330	METAR WAGG 072330Z 16003KT 8000 FEW013 25/24 Q1011=
08/08/2020 00:00:00Z	 SAID34 WAGG 080000	METAR WAGG 080000Z 15004KT 8000 FEW013 26/23 Q1011=
08/08/2020 00:30:00Z	 SAID34 WAGG 080030	METAR WAGG 080030Z 15005KT 8000 FEW013 27/23 Q1011=
08/08/2020 01:00:00Z	 SAID34 WAGG 080100	METAR WAGG 080100Z 15005KT 8000 FEW013 28/23 Q1011=
08/08/2020 01:30:00Z	 SAID34 WAGG 080130	METAR WAGG 080130Z 13006KT 9000 FEW013 29/23 Q1012=
08/08/2020 02:00:00Z	 SAID34 WAGG 080200	METAR WAGG 080200Z 15005KT 9999 FEW012 30/23 Q1012=
08/08/2020 02:30:00Z	 SAID34 WAGG 080230	METAR WAGG 080230Z 15005KT 9999 SCT012 30/24 Q1011=
08/08/2020 03:00:00Z	 SAID34 WAGG 080300	METAR WAGG 080300Z 13003KT 9999 SCT012 31/24 Q1011=
08/08/2020 03:30:00Z	 SAID34 WAGG 080330	METAR WAGG 080330Z 15003KT 9999 SCT012 32/24 Q1011=
08/08/2020 04:00:00Z	 SAID34 WAGG 080400	METAR WAGG 080400Z 17003KT 9999 SCT012 31/24 Q1010=
08/08/2020 04:30:00Z	 SAID34 WAGG 080430	METAR WAGG 080430Z 13003KT 9999 BKN012 32/24 Q1010=
08/08/2020 05:00:00Z	 SAID34 WAGG 080500	METAR WAGG 080500Z 20004KT 9999 SCT012 32/25 Q1009=
08/08/2020 05:30:00Z	 SAID34 WAGG 080530	METAR WAGG 080530Z 21003KT 9999 BKN012 32/24 Q1009=
08/08/2020 06:00:00Z	 SAID34 WAGG 080600	METAR WAGG 080600Z 27003KT 9999 BKN012 34/24 Q1008=
08/08/2020 06:30:00Z	 SAID34 WAGG 080630	METAR WAGG 080630Z 18005KT 9999 BKN012 32/23 Q1008=
08/08/2020 07:00:00Z	 SAID34 WAGG 080700	METAR WAGG 080700Z 25003KT 9999 SCT012 33/22 Q1007=
08/08/2020 07:30:00Z	 SAID34 WAGG 080730	METAR WAGG 080730Z 34001KT 9999 SCT012 34/23 Q1007=
08/08/2020 08:00:00Z	 SAID34 WAGG 080800	METAR WAGG 080800Z 07003KT 9999 SCT012 33/23 Q1007=
08/08/2020 08:30:00Z	 SAID34 WAGG 080830	METAR WAGG 080830Z 06003KT 9999 SCT012 33/23 Q1007=
08/08/2020 09:00:00Z	 SAID34 WAGG 080900	METAR WAGG 080900Z 05002KT 9999 SCT012 33/23 Q1007=
08/08/2020 09:30:00Z	 SAID34 WAGG 080930	METAR WAGG 080930Z 22004KT 9999 SCT012 32/24 Q1007=
08/08/2020 10:00:00Z	 SAID34 WAGG 081000	METAR WAGG 081000Z 24004KT 9999 SCT012 32/23 Q1007=
08/08/2020 10:30:00Z	 SAID34 WAGG 081030	METAR WAGG 081030Z 17004KT 9999 SCT012 31/24 Q1008=
08/08/2020 11:00:00Z	 SAID34 WAGG 081100	METAR WAGG 081100Z 20003KT 9999 SCT012 30/25 Q1008=
08/08/2020 11:30:00Z	 SAID34 WAGG 081130	METAR WAGG 081130Z 22003KT 9999 SCT012 29/24 Q1009=
08/08/2020 12:00:00Z	 SAID34 WAGG 081200	METAR WAGG 081200Z 29010KT 9000 FEW011 29/25 Q1009=
08/08/2020 21:00:00Z	 SAID34 WAGG 082100	METAR WAGG 082100Z 19002KT 8000 BKN012 25/24 Q1011=
08/08/2020 21:30:00Z	 SAID34 WAGG 082130	METAR WAGG 082130Z 19005KT 8000 BKN012 25/24 Q1011=
08/08/2020 22:00:00Z	 SAID34 WAGG 082200	METAR WAGG 082200Z 20003KT 8000 BKN012 25/24 Q1011=
08/08/2020 22:30:00Z	 SAID34 WAGG 082230	METAR WAGG 082230Z 07001KT 8000 BKN012 25/24 Q1011=
08/08/2020 23:00:00Z	 SAID34 WAGG 082300	METAR WAGG 082300Z 15002KT 8000 BKN012 25/24 Q1011=
08/08/2020 23:30:00Z	 SAID34 WAGG 082330	METAR WAGG 082330Z 21001KT 9000 BKN012 26/24 Q1012=
09/08/2020 00:00:00Z	 SAID34 WAGG 090000	METAR WAGG 090000Z 24003KT 9000 BKN012 26/24 Q1012=
09/08/2020 00:30:00Z	 SAID34 WAGG 090030	METAR WAGG 090030Z 23004KT 9000 BKN012 27/24 Q1013 RERA=
09/08/2020 01:00:00Z	 SAID34 WAGG 090100	METAR WAGG 090100Z 23005KT 9999 BKN012 27/25 Q1013=
09/08/2020 01:30:00Z	 SAID34 WAGG 090130	METAR WAGG 090130Z 23005KT 9999 BKN012 28/24 Q1013=
09/08/2020 02:00:00Z	 SAID34 WAGG 090200	METAR WAGG 090200Z 19004KT 9999 BKN012 28/24 Q1013=
09/08/2020 02:30:00Z	 SAID34 WAGG 090230	METAR WAGG 090230Z 17005KT 9999 BKN012 29/24 Q1013=
09/08/2020 03:00:00Z	 SAID34 WAGG 090300	METAR WAGG 090300Z 18003KT 9999 BKN012 30/25 Q1012=
09/08/2020 03:30:00Z	 SAID34 WAGG 090330	METAR WAGG 090330Z 18005KT 9999 BKN012 30/24 Q1012=
09/08/2020 04:00:00Z	 SAID34 WAGG 090400	METAR WAGG 090400Z 19004KT 9999 BKN012 30/24 Q1012=
09/08/2020 04:30:00Z	 SAID34 WAGG 090430	METAR WAGG 090430Z 14003KT 9999 BKN012 30/24 Q1011=
09/08/2020 05:00:00Z	 SAID34 WAGG 090500	METAR WAGG 090500Z 13002KT 9999 FEW012CB BKN012 30/25 Q1011=
09/08/2020 05:30:00Z	 SAID34 WAGG 090530	METAR WAGG 090530Z 08002KT 9999 FEW012CB BKN012 29/25 Q1010=
09/08/2020 06:00:00Z	 SAID34 WAGG 090600	METAR WAGG 090600Z 02003KT 9999 FEW012CB BKN012 28/26 Q1010=
09/08/2020 06:30:00Z	 SAID34 WAGG 090630	METAR WAGG 090630Z 05004KT 9999 FEW012CB BKN012 28/26 Q1010=
09/08/2020 07:00:00Z	 SAID34 WAGG 090700	METAR WAGG 090700Z 06003KT 9999 FEW012CB BKN012 28/26 Q1010=
09/08/2020 07:30:00Z	 SAID34 WAGG 090730	METAR WAGG 090730Z 04003KT 9999 BKN012 27/25 Q1009=
09/08/2020 08:00:00Z	 SAID34 WAGG 090800	METAR WAGG 090800Z 04003KT 9999 -RA BKN012 27/25 Q1009=
09/08/2020 08:30:00Z	 SAID34 WAGG 090830	METAR WAGG 090830Z 06002KT 9999 BKN012 27/25 Q1009 RERA=
09/08/2020 09:00:00Z	 SAID34 WAGG 090900	METAR WAGG 090900Z 02002KT 9999 BKN012 27/25 Q1009=
09/08/2020 09:30:00Z	 SAID34 WAGG 090930	METAR WAGG 090930Z 10003KT 9999 BKN012 27/25 Q1010=
09/08/2020 10:00:00Z	 SAID34 WAGG 091000	METAR WAGG 091000Z 12003KT 9000 BKN012 27/25 Q1010=
09/08/2020 10:30:00Z	 SAID34 WAGG 091030	METAR WAGG 091030Z 11002KT 9000 BKN012 26/24 Q1010=
09/08/2020 11:00:00Z	 SAID34 WAGG 091100	METAR WAGG 091100Z 05003KT 9000 BKN012 26/25 Q1010=
09/08/2020 11:30:00Z	 SAID34 WAGG 091130	METAR WAGG 091130Z 08003KT 8000 BKN012 26/25 Q1010=
09/08/2020 12:00:00Z	 SAID34 WAGG 091200	METAR WAGG 091200Z 13004KT 8000 BKN012 26/24 Q1011=
09/08/2020 21:00:00Z	 SAID34 WAGG 092100	METAR WAGG 092100Z 17001KT 8000 BKN012 24/23 Q1013=
09/08/2020 21:30:00Z	 SAID34 WAGG 092130	METAR WAGG 092130Z 16003KT 8000 BKN010 24/23 Q1013=
09/08/2020 22:00:00Z	 SAID34 WAGG 092200	METAR WAGG 092200Z 16004KT 8000 BKN011 24/23 Q1013=
09/08/2020 22:30:00Z	 SAID34 WAGG 092230	METAR WAGG 092230Z 16004KT 5000 -RA BKN010 24/23 Q1014=
09/08/2020 23:00:00Z	 SAID34 WAGG 092300	METAR WAGG 092300Z 17003KT 8000 BKN011 24/23 Q1013 RERA=
09/08/2020 23:30:00Z	 SAID34 WAGG 092330	METAR WAGG 092330Z 15001KT 8000 BKN010 24/23 Q1013=
10/08/2020 00:00:00Z	 SAID34 WAGG 100000	METAR WAGG 100000Z 13002KT 8000 BKN010 24/23 Q1014=
10/08/2020 00:30:00Z	 SAID34 WAGG 100030	METAR WAGG 100030Z 09002KT 8000 BKN010 25/24 Q1014=
10/08/2020 01:00:00Z	 SAID34 WAGG 100100	METAR WAGG 100100Z 09002KT 9000 -RA BKN010 25/24 Q1014=
10/08/2020 01:30:00Z	 SAID34 WAGG 100130	METAR WAGG 100130Z 31001KT 9000 -RA BKN011 26/24 Q1014=
10/08/2020 02:00:00Z	 SAID34 WAGG 100200	METAR WAGG 100200Z 06003KT 9999 BKN012 26/24 Q1014 RERA=
10/08/2020 02:30:00Z	 SAID34 WAGG 100230	METAR WAGG 100230Z 11002KT 9999 BKN012 27/24 Q1014=
10/08/2020 03:00:00Z	 SAID34 WAGG 100300	METAR WAGG 100300Z 11002KT 9999 BKN012 28/24 Q1014=
10/08/2020 03:30:00Z	 SAID34 WAGG 100330	METAR WAGG 100330Z 05002KT 9999 BKN011 29/24 Q1013=
10/08/2020 04:00:00Z	 SAID34 WAGG 100400	METAR WAGG 100400Z 06002KT 9999 BKN011 30/24 Q1013=
10/08/2020 04:30:00Z	 SAID34 WAGG 100430	METAR WAGG 100430Z 04004KT 9999 BKN011 30/24 Q1012=
10/08/2020 05:00:00Z	 SAID34 WAGG 100500	METAR WAGG 100500Z 11003KT 9999 BKN011 31/24 Q1012=
10/08/2020 05:30:00Z	 SAID34 WAGG 100530	METAR WAGG 100530Z 09003KT 9999 BKN011 31/24 Q1011=
10/08/2020 06:00:00Z	 SAID34 WAGG 100600	METAR WAGG 100600Z 06004KT 9999 BKN011 32/24 Q1011=
10/08/2020 06:30:00Z	 SAID34 WAGG 100630	METAR WAGG 100630Z 03003KT 9999 BKN011 33/24 Q1011=
10/08/2020 07:00:00Z	 SAID34 WAGG 100700	METAR WAGG 100700Z 05004KT 9999 BKN011 32/24 Q1010=
10/08/2020 07:30:00Z	 SAID34 WAGG 100730	METAR WAGG 100730Z 04005KT 9999 BKN011 32/24 Q1010=
10/08/2020 08:00:00Z	 SAID34 WAGG 100800	METAR WAGG 100800Z 04004KT 9999 BKN011 33/24 Q1009=
10/08/2020 08:30:00Z	 SAID34 WAGG 100830	METAR WAGG 100830Z 05004KT 9999 BKN011 32/24 Q1009=
10/08/2020 09:00:00Z	 SAID34 WAGG 100900	METAR WAGG 100900Z 04004KT 9999 SCT012 32/24 Q1009=
10/08/2020 09:30:00Z	 SAID34 WAGG 100930	METAR WAGG 100930Z 05003KT 9999 SCT012 31/24 Q1010=
10/08/2020 10:00:00Z	 SAID34 WAGG 101000	METAR WAGG 101000Z 06002KT 9999 SCT012 31/25 Q1010=
10/08/2020 10:30:00Z	 SAID34 WAGG 101030	METAR WAGG 101030Z 08001KT 9999 SCT012 30/25 Q1010=
10/08/2020 11:00:00Z	 SAID34 WAGG 101100	METAR WAGG 101100Z 09002KT 9999 SCT012 30/25 Q1011=
10/08/2020 12:00:00Z	 SAID34 WAGG 101200	METAR WAGG 101200Z 19002KT 9000 SCT012 28/24 Q1011=
10/08/2020 15:00:00Z	 SAID34 WAGG 101500	METAR WAGG 101500Z 20004KT 9000 SCT012 26/24 Q1013=
10/08/2020 18:00:00Z	 SAID34 WAGG 101800	METAR WAGG 101800Z 20006KT 8000 SCT012 25/23 Q1013=
10/08/2020 21:00:00Z	 SAID34 WAGG 102100	METAR WAGG 102100Z 22003KT 7000 SCT012 24/23 Q1011=
10/08/2020 21:30:00Z	 SAID34 WAGG 102130	METAR WAGG 102130Z 23003KT 8000 SCT012 24/23 Q1012=
10/08/2020 22:00:00Z	 SAID34 WAGG 102200	METAR WAGG 102200Z 35007KT 8000 VCSH FEW010TCU BKN011 24/24 Q1013=
10/08/2020 22:30:00Z	 SAID34 WAGG 102230	METAR WAGG 102230Z 34009KT 4000 RA FEW008CB BKN009 23/22 Q1013=
10/08/2020 23:00:00Z	 SAID34 WAGG 102300	METAR WAGG 102300Z 03009KT 1500 RA FEW008CB BKN009 23/22 Q1014=
10/08/2020 23:00:00Z	 SAID34 WAGG 102300 CCA	METAR WAGG 102300Z 03009KT 1500 RA FEW008CB BKN009 23/22 Q1014 TREND TEMPO FM2350Z TL0100Z 01008KT 5000 -RA=
10/08/2020 23:30:00Z	 SAID34 WAGG 102330	METAR WAGG 102330Z 02009KT 3000 RA BKN008 22/21 Q1015 TREND TEMPO FM2350Z TL0100Z 01008KT 5000 -RA=
11/08/2020 00:00:00Z	 SAID34 WAGG 110000	METAR WAGG 110000Z 36013KT 1000 RA BKN007 22/21 Q1015 TREND TEMPO FM2350Z TL0100Z 01008KT 5000 -RA=
11/08/2020 00:30:00Z	 SAID34 WAGG 110030	METAR WAGG 110030Z 02005KT 2000 RA BKN007 22/21 Q1016 TREND TEMPO FM2350Z TL0100Z 01008KT 5000 -RA=
11/08/2020 01:00:00Z	 SAID34 WAGG 110100	METAR WAGG 110100Z 20003KT 4000 RA BKN008 22/21 Q1015=
11/08/2020 01:30:00Z	 SAID34 WAGG 110130	METAR WAGG 110130Z 20003KT 5000 -RA BKN009 23/22 Q1015=
11/08/2020 02:00:00Z	 SAID34 WAGG 110200	METAR WAGG 110200Z 31001KT 8000 -RA BKN010 25/23 Q1015=
11/08/2020 02:30:00Z	 SAID34 WAGG 110230	METAR WAGG 110230Z 29001KT 9000 BKN010 26/23 Q1015 RERA=
11/08/2020 03:00:00Z	 SAID34 WAGG 110300	METAR WAGG 110300Z 30005KT 9000 BKN011 28/23 Q1015=
11/08/2020 03:30:00Z	 SAID34 WAGG 110330	METAR WAGG 110330Z 29004KT 9999 SCT013 29/22 Q1014=
11/08/2020 04:00:00Z	 SAID34 WAGG 110400	METAR WAGG 110400Z 26006KT 9999 SCT013 28/22 Q1014=
11/08/2020 04:30:00Z	 SAID34 WAGG 110430	METAR WAGG 110430Z 29004KT 9999 FEW013 30/23 Q1013=
11/08/2020 05:00:00Z	 SAID34 WAGG 110500	METAR WAGG 110500Z 30004KT 9999 FEW013 30/22 Q1013=
11/08/2020 05:30:00Z	 SAID34 WAGG 110530	METAR WAGG 110530Z 32005KT 9999 FEW013 30/22 Q1012=
11/08/2020 06:00:00Z	 SAID34 WAGG 110600	METAR WAGG 110600Z 31005KT 9999 FEW012 30/22 Q1012=
11/08/2020 06:30:00Z	 SAID34 WAGG 110630	METAR WAGG 110630Z 35004KT 9999 SCT012 31/23 Q1011=
11/08/2020 07:00:00Z	 SAID34 WAGG 110700	METAR WAGG 110700Z 01005KT 9999 SCT012 31/23 Q1011=
11/08/2020 07:30:00Z	 SAID34 WAGG 110730	METAR WAGG 110730Z 01003KT 9999 SCT011 32/24 Q1010=
11/08/2020 08:00:00Z	 SAID34 WAGG 110800	METAR WAGG 110800Z 36003KT 9999 BKN010 32/23 Q1010=
11/08/2020 08:30:00Z	 SAID34 WAGG 110830	METAR WAGG 110830Z 31004KT 9999 BKN011 32/23 Q1010=
11/08/2020 09:00:00Z	 SAID34 WAGG 110900	METAR WAGG 110900Z 36002KT 9999 BKN011 31/23 Q1010=
11/08/2020 09:30:00Z	 SAID34 WAGG 110930	METAR WAGG 110930Z 02002KT 9999 SCT011 31/24 Q1010=
11/08/2020 10:00:00Z	 SAID34 WAGG 111000	METAR WAGG 111000Z 04001KT 9999 SCT011 30/24 Q1011=
11/08/2020 10:30:00Z	 SAID34 WAGG 111030	METAR WAGG 111030Z 05001KT 9999 SCT011 30/24 Q1011=
11/08/2020 11:00:00Z	 SAID34 WAGG 111100	METAR WAGG 111100Z 12001KT 9999 SCT011 29/25 Q1011=
11/08/2020 11:30:00Z	 SAID34 WAGG 111130	METAR WAGG 111130Z 12002KT 9000 SCT012 28/25 Q1012=
11/08/2020 12:00:00Z	 SAID34 WAGG 111200	METAR WAGG 111200Z 21004KT 9000 SCT012 28/24 Q1012=
11/08/2020 15:00:00Z	 SAID34 WAGG 111500	METAR WAGG 111500Z 22004KT 9000 SCT012 26/24 Q1014=
11/08/2020 18:00:00Z	 SAID34 WAGG 111800	METAR WAGG 111800Z 20003KT 8000 SCT012 25/24 Q1013=
11/08/2020 21:00:00Z	 SAID34 WAGG 112100	METAR WAGG 112100Z 21002KT 4000 RA BKN010 24/24 Q1012=
11/08/2020 21:30:00Z	 SAID34 WAGG 112130	METAR WAGG 112130Z 20011KT 1000 TSRA FEW009CB BKN010 23/23 Q1014=
11/08/2020 22:00:00Z	 SAID34 WAGG 112200	METAR WAGG 112200Z 17007KT 7000 TSRA FEW009CB BKN010 22/21 Q1014=
11/08/2020 22:30:00Z	 SAID34 WAGG 112230	METAR WAGG 112230Z 18007KT 8000 RA FEW008CB BKN008 22/21 Q1014 RETS=
11/08/2020 23:00:00Z	 SAID34 WAGG 112300	METAR WAGG 112300Z 10004KT 8000 RA FEW008CB BKN008 22/21 Q1015=
11/08/2020 23:30:00Z	 SAID34 WAGG 112330	METAR WAGG 112330Z 10005KT 8000 RA FEW008CB BKN008 22/22 Q1015=
12/08/2020 00:00:00Z	 SAID34 WAGG 120000	METAR WAGG 112330Z 10005KT 8000 RA BKN010 23/22 Q1016=
12/08/2020 00:30:00Z	 SAID34 WAGG 120030	METAR WAGG 120030Z 36018KT 2000 RA SCT008CB BKN008 23/21 Q1018 TREND TEMPO TL0130 35010G20KT 2000 TSRA=
12/08/2020 01:00:00Z	 SAID34 WAGG 120100	METAR WAGG 120100Z 20005KT 2000 RA FEW008CB BKN008 22/21 Q1018 TREND TEMPO TL0130 35010G20KT 2000 TSRA=
12/08/2020 01:30:00Z	 SAID34 WAGG 120130	METAR WAGG 120130Z 36004KT 5000 -RA FEW008CB BKN009 22/21 Q1018=
12/08/2020 02:00:00Z	 SAID34 WAGG 120200	METAR WAGG 120200Z 33004KT 5000 -RA BKN009 22/21 Q1018=
12/08/2020 02:30:00Z	 SAID34 WAGG 120230	METAR WAGG 120230Z 32004KT 7000 -RA BKN010 22/21 Q1017=
12/08/2020 03:00:00Z	 SAID34 WAGG 120300	METAR WAGG 120300Z 36002KT 7000 -RA BKN010 23/22 Q1017=
12/08/2020 03:30:00Z	 SAID34 WAGG 120330	METAR WAGG 120330Z 02002KT 7000 -RA BKN010 24/22 Q1016=
12/08/2020 04:00:00Z	 SAID34 WAGG 120400	METAR WAGG 120400Z 32006KT 7000 -RA BKN010 24/22 Q1016=
12/08/2020 04:30:00Z	 SAID34 WAGG 120430	METAR WAGG 120430Z 36003KT 8000 BKN010 26/22 Q1014=
12/08/2020 04:30:00Z	 SAID34 WAGG 120430 CCA	METAR WAGG 120430Z 36003KT 8000 BKN010 26/22 Q1014 RERA=
12/08/2020 05:00:00Z	 SAID34 WAGG 120500	METAR WAGG 120500Z 32002KT 8000 BKN010 27/23 Q1013=
12/08/2020 05:30:00Z	 SAID34 WAGG 120530	METAR WAGG 120530Z 01002KT 9000 BKN011 29/22 Q1013=
12/08/2020 06:00:00Z	 SAID34 WAGG 120600	METAR WAGG 120600Z 11004KT 9000 BKN012 29/23 Q1012=
12/08/2020 06:30:00Z	 SAID34 WAGG 120630	METAR WAGG 120630Z 07003KT 9000 SCT012 30/22 Q1011=
12/08/2020 07:00:00Z	 SAID34 WAGG 120700	METAR WAGG 120700Z 03003KT 9000 SCT012 30/22 Q1011=
12/08/2020 07:30:00Z	 SAID34 WAGG 120730	METAR WAGG 120730Z 06004KT 9000 BKN012 30/23 Q1010=
12/08/2020 08:00:00Z	 SAID34 WAGG 120800	METAR WAGG 120800Z 07003KT 9000 BKN012 30/23 Q1010=
12/08/2020 08:30:00Z	 SAID34 WAGG 120830	METAR WAGG 120830Z 05004KT 9000 BKN013 30/23 Q1010=
12/08/2020 09:00:00Z	 SAID34 WAGG 120900	METAR WAGG 120900Z 07002KT 9000 BKN013 29/24 Q1010=
12/08/2020 09:30:00Z	 SAID34 WAGG 120930	METAR WAGG 120930Z 10002KT 9000 BKN013 28/24 Q1010=
12/08/2020 10:00:00Z	 SAID34 WAGG 121000	METAR WAGG 121000Z 11004KT 9000 BKN012 28/24 Q1011=
12/08/2020 10:30:00Z	 SAID34 WAGG 121030	METAR WAGG 121030Z 11002KT 9000 BKN012 27/24 Q1011=
12/08/2020 11:00:00Z	 SAID34 WAGG 121100	METAR WAGG 121100Z 12002KT 9000 BKN012 27/24 Q1011=
12/08/2020 11:30:00Z	 SAID34 WAGG 121130	METAR WAGG 121130Z 06002KT 9000 BKN012 26/24 Q1011=
12/08/2020 12:00:00Z	 SAID34 WAGG 121200	METAR WAGG 121200Z 10001KT 9000 BKN012 26/24 Q1011=
12/08/2020 21:00:00Z	 SAID34 WAGG 122100	METAR WAGG 122100Z 19002KT 9000 BKN012 24/23 Q1009=
12/08/2020 21:30:00Z	 SAID34 WAGG 122130	METAR WAGG 122130Z 25001KT 9000 BKN012 24/23 Q1012=
12/08/2020 22:00:00Z	 SAID34 WAGG 122200	METAR WAGG 122200Z 34001KT 9000 SCT012 24/23 Q1013=
12/08/2020 22:30:00Z	 SAID34 WAGG 122230	METAR WAGG 122230Z 28001KT 9000 FEW012 24/23 Q1013=
12/08/2020 23:00:00Z	 SAID34 WAGG 122300	METAR WAGG 122300Z 21001KT 9000 FEW012 24/23 Q1013=
12/08/2020 23:30:00Z	 SAID34 WAGG 122330	METAR WAGG 122330Z 31001KT 5000 FEW012 24/24 Q1013=
13/08/2020 00:00:00Z	 SAID34 WAGG 130000	METAR WAGG 130000Z 26001KT 9000 FEW012 26/24 Q1013=
13/08/2020 00:30:00Z	 SAID34 WAGG 130030	METAR WAGG 130030Z 26001KT 9000 NSC 28/23 Q1014=
13/08/2020 01:00:00Z	 SAID34 WAGG 130100	METAR WAGG 130100Z 17001KT 9000 FEW012 29/23 Q1014=
13/08/2020 01:30:00Z	 SAID34 WAGG 130130	METAR WAGG 130130Z 02003KT 9000 FEW012 29/23 Q1014=
13/08/2020 02:00:00Z	 SAID34 WAGG 130200	METAR WAGG 130200Z 01003KT 9999 FEW012 30/23 Q1014=
13/08/2020 02:30:00Z	 SAID34 WAGG 130230	METAR WAGG 130230Z 03003KT 9999 FEW012 30/24 Q1014=
13/08/2020 03:00:00Z	 SAID34 WAGG 130300	METAR WAGG 130300Z 03003KT 9999 FEW012 30/23 Q1013=
13/08/2020 03:30:00Z	 SAID34 WAGG 130330	METAR WAGG 130330Z 07004KT 9999 SCT012 31/23 Q1013=
13/08/2020 04:00:00Z	 SAID34 WAGG 130400	METAR WAGG 130400Z 07003KT 9999 SCT012 31/22 Q1013=
13/08/2020 04:30:00Z	 SAID34 WAGG 130430	METAR WAGG 130430Z 10003KT 9999 SCT012 32/22 Q1012=
13/08/2020 05:00:00Z	 SAID34 WAGG 130500	METAR WAGG 130500Z 02003KT 9999 SCT012 33/22 Q1012=
13/08/2020 05:30:00Z	 SAID34 WAGG 130530	METAR WAGG 130530Z 11004KT 9999 SCT012 32/22 Q1011=
13/08/2020 06:00:00Z	 SAID34 WAGG 130600	METAR WAGG 130600Z 14002KT 9999 SCT012 32/22 Q1011=
13/08/2020 06:30:00Z	 SAID34 WAGG 130630	METAR WAGG 130630Z 12003KT 9999 SCT012 33/22 Q1010=
13/08/2020 07:00:00Z	 SAID34 WAGG 130700	METAR WAGG 130700Z 22003KT 9999 SCT012 33/22 Q1010=
13/08/2020 07:30:00Z	 SAID34 WAGG 130730	METAR WAGG 130730Z 17003KT 9999 SCT012 32/21 Q1009=
13/08/2020 08:00:00Z	 SAID34 WAGG 130800	METAR WAGG 130800Z 04003KT 9999 SCT012 33/21 Q1009=
13/08/2020 08:30:00Z	 SAID34 WAGG 130830	METAR WAGG 130830Z 15003KT 9999 SCT012 32/22 Q1009=
13/08/2020 09:00:00Z	 SAID34 WAGG 130900	METAR WAGG 130900Z 09003KT 9999 SCT012 33/22 Q1008=
13/08/2020 09:30:00Z	 SAID34 WAGG 130930	METAR WAGG 130930Z 17003KT 9999 SCT012 32/22 Q1009=
13/08/2020 10:00:00Z	 SAID34 WAGG 131000	METAR WAGG 131000Z 16003KT 9999 FEW012 32/22 Q1009=
13/08/2020 10:30:00Z	 SAID34 WAGG 131030	METAR WAGG 131030Z 18002KT 9999 FEW012 30/23 Q1009=
13/08/2020 11:00:00Z	 SAID34 WAGG 131100	METAR WAGG 131100Z 20002KT 9999 FEW012 30/23 Q1009=
13/08/2020 11:30:00Z	 SAID34 WAGG 131130	METAR WAGG 131130Z 22002KT 9000 NSC 29/23 Q1010=
13/08/2020 12:00:00Z	 SAID34 WAGG 131200	METAR WAGG 131200Z 18002KT 9000 NSC 28/24 Q1010=
13/08/2020 21:00:00Z	 SAID34 WAGG 132100	METAR WAGG 132100Z 06002KT 7000 FEW013 25/25 Q1011=
13/08/2020 21:30:00Z	 SAID34 WAGG 132130	METAR WAGG 132130Z 05002KT 5000 HZ FEW013 25/25 Q1011=
13/08/2020 22:00:00Z	 SAID34 WAGG 132200	METAR WAGG 132200Z 14002KT 5000 HZ FEW013 25/25 Q1011=
13/08/2020 22:30:00Z	 SAID34 WAGG 132230	METAR WAGG 132230Z 14002KT 5000 HZ SCT013 25/25 Q1011=
13/08/2020 23:00:00Z	 SAID34 WAGG 132300	METAR WAGG 132300Z 11004KT 7000 SCT013 26/25 Q1012=
13/08/2020 23:30:00Z	 SAID34 WAGG 132330	METAR WAGG 132330Z 09001KT 9000 SCT013 26/25 Q1012=
14/08/2020 00:00:00Z	 SAID34 WAGG 140000	METAR WAGG 140000Z 14003KT 9000 SCT013 27/25 Q1013=
14/08/2020 00:30:00Z	 SAID34 WAGG 140030	METAR WAGG 140030Z 13003KT 9999 SCT013 27/25 Q1013=
14/08/2020 01:00:00Z	 SAID34 WAGG 140100	METAR WAGG 140100Z 13004KT 9999 SCT013 28/24 Q1013=
14/08/2020 01:30:00Z	 SAID34 WAGG 140130	METAR WAGG 140130Z 14005KT 9999 SCT013 30/24 Q1013=
14/08/2020 02:00:00Z	 SAID34 WAGG 140200	METAR WAGG 140200Z 14005KT 9999 SCT013 30/24 Q1013=
14/08/2020 02:30:00Z	 SAID34 WAGG 140230	METAR WAGG 140230Z 11006KT 9999 BKN013 31/24 Q1012=
14/08/2020 03:00:00Z	 SAID34 WAGG 140300	METAR WAGG 140300Z 15005KT 9999 BKN013 31/24 Q1012=
14/08/2020 03:30:00Z	 SAID34 WAGG 140330	METAR WAGG 140330Z 13005KT 9999 BKN013 31/24 Q1012=
14/08/2020 04:00:00Z	 SAID34 WAGG 140400	METAR WAGG 140400Z 12005KT 9999 BKN013 32/24 Q1011=
14/08/2020 04:30:00Z	 SAID34 WAGG 140430	METAR WAGG 140430Z 18005KT 9999 BKN013 31/24 Q1011=
14/08/2020 11:30:00Z	 SAID34 WAGG 141130	METAR WAGG 141130Z 25008KT 8000 FEW011CB BKN012 27/24 Q1010=
14/08/2020 12:00:00Z	 SAID34 WAGG 141200	METAR WAGG 141200Z 25008KT 8000 VCTS FEW011CB BKN012 26/24 Q1010=
14/08/2020 12:30:00Z	 SAID34 WAGG 141230	METAR WAGG 141230Z 23006KT 8000 TS BKN011CB 26/24 Q1011=
14/08/2020 13:00:00Z	 SAID34 WAGG 141300	METAR WAGG 141300Z 23006KT 8000 TS BKN011CB 26/24 Q1011=
14/08/2020 13:30:00Z	 SAID34 WAGG 141330	METAR WAGG 141330Z AUTO 21007KT 170V250 9999 VCTS BKN037 BKN044 OVC055 26/26 Q1012=
14/08/2020 14:00:00Z	 SAID34 WAGG 141400	METAR WAGG 141400Z AUTO 18006KT 150V210 9999 VCTS FEW038 OVC049 26/25 Q1012=
14/08/2020 14:30:00Z	 SAID34 WAGG 141430	METAR WAGG 141430Z AUTO 16005KT 5000 -RA SCT030 BKN050 OVC140 25/25 Q1012=
14/08/2020 15:00:00Z	 SAID34 WAGG 141500	METAR WAGG 141500Z AUTO 12004KT 070V140 9999 FEW002 SCT090 BKN120 25/25 Q1012=
14/08/2020 21:30:00Z	 SAID34 WAGG 142130	METAR WAGG 142130Z 32001KT 8000 BKN012 25/24 Q1010=
14/08/2020 22:00:00Z	 SAID34 WAGG 142200 CCA	METAR WAGG 142200Z 30001KT 8000 SCT012 25/24 Q1011=
14/08/2020 22:30:00Z	 SAID34 WAGG 142230	METAR WAGG 142230Z 04001KT 4000 BR SCT012 24/24 Q1011=
14/08/2020 23:00:00Z	 SAID34 WAGG 142300	METAR WAGG 142300Z 04001KT 4500 BR BKN012 25/24 Q1011=
14/08/2020 23:30:00Z	 SAID34 WAGG 142330	METAR WAGG 142330Z 36002KT 6000 BKN012 25/24 Q1012=
15/08/2020 00:00:00Z	 SAID34 WAGG 150000	METAR WAGG 150000Z 03002KT 7000 BKN012 26/24 Q1012=
15/08/2020 00:30:00Z	 SAID34 WAGG 150030	METAR WAGG 150030Z 36002KT 8000 BKN012 27/25 Q1013=
15/08/2020 01:00:00Z	 SAID34 WAGG 150100	METAR WAGG 150100Z 05002KT 8000 BKN012 27/24 Q1013=
15/08/2020 01:30:00Z	 SAID34 WAGG 150130	METAR WAGG 150130Z 07002KT 9000 BKN012 28/23 Q1013=
15/08/2020 02:00:00Z	 SAID34 WAGG 150200	METAR WAGG 150200Z 16003KT 9999 BKN012 29/24 Q1013=
15/08/2020 02:30:00Z	 SAID34 WAGG 150230	METAR WAGG 150230Z 21002KT 9999 BKN012 29/24 Q1013=
15/08/2020 03:00:00Z	 SAID34 WAGG 150300	METAR WAGG 150300Z 16003KT 9999 SCT012 29/24 Q1013=
15/08/2020 03:30:00Z	 SAID34 WAGG 150330	METAR WAGG 150330Z 16003KT 9999 SCT012 29/24 Q1012=
15/08/2020 04:00:00Z	 SAID34 WAGG 150400	METAR WAGG 150400Z 15002KT 9999 BKN011 30/25 Q1011=
15/08/2020 04:30:00Z	 SAID34 WAGG 150430	METAR WAGG 150430Z 18003KT 9999 BKN011 30/23 Q1011=
15/08/2020 05:00:00Z	 SAID34 WAGG 150500	METAR WAGG 150500Z 12003KT 9999 BKN011 31/23 Q1010=
15/08/2020 05:30:00Z	 SAID34 WAGG 150530	METAR WAGG 150530Z 18003KT 9999 BKN011 31/23 Q1010=
15/08/2020 06:00:00Z	 SAID34 WAGG 150600	METAR WAGG 150600Z 18002KT 9999 FEW010TCU BKN010 31/23 Q1010=
15/08/2020 06:30:00Z	 SAID34 WAGG 150630	METAR WAGG 150630Z 11003KT 9999 FEW010TCU BKN010 30/24 Q1009=
15/08/2020 07:00:00Z	 SAID34 WAGG 150700	METAR WAGG 150700Z 13003KT 9999 FEW010TCU SCT010 30/24 Q1009=
15/08/2020 07:30:00Z	 SAID34 WAGG 150730	METAR WAGG 150730Z 10003KT 9999 FEW010CB BKN010 29/25 Q1008=
15/08/2020 08:00:00Z	 SAID34 WAGG 150800	METAR WAGG 150800Z 07004KT 9999 FEW010CB BKN010 29/25 Q1009=
15/08/2020 08:30:00Z	 SAID34 WAGG 150830	METAR WAGG 150830Z 06017G21KT 8000 FEW010CB BKN010 28/24 Q1010=
15/08/2020 09:00:00Z	 SAID34 WAGG 150900	METAR WAGG 150900Z 01010KT 8000 FEW010CB BKN010 25/22 Q1010=
15/08/2020 09:30:00Z	 SAID34 WAGG 150930	METAR WAGG 150930Z 35004KT 8000 TS FEW010CB BKN010 25/22 Q1010=
15/08/2020 10:00:00Z	 SAID34 WAGG 151000	METAR WAGG 151000Z 32002KT 8000 TS FEW010CB BKN010 25/23 Q1011=
15/08/2020 10:30:00Z	 SAID34 WAGG 151030	METAR WAGG 151030Z 29002KT 5000 -RA FEW010CB BKN010 24/22 Q1012=
15/08/2020 11:00:00Z	 SAID34 WAGG 151100	METAR WAGG 151100Z 19006KT 5000 -RA FEW010CB BKN010 24/22 Q1013=
15/08/2020 11:30:00Z	 SAID34 WAGG 151130	METAR WAGG 151130Z 00000KT 7000 BKN010 23/22 Q1014=
15/08/2020 12:00:00Z	 SAID34 WAGG 151200	METAR WAGG 151200Z 16002KT 7000 VCSH BKN010 23/22 Q1014=
15/08/2020 15:00:00Z	 SAID34 WAGG 151500	METAR WAGG 151500Z 21003KT 8000 BKN011 23/23 Q1013=
15/08/2020 18:00:00Z	 SAID34 WAGG 151800	METAR WAGG 151800Z 23003KT 7000 BKN011 23/22 Q1012=
15/08/2020 21:30:00Z	 SAID34 WAGG 152130	METAR WAGG 152130Z 00000KT 8000 BKN011 23/22 Q1012=
15/08/2020 22:00:00Z	 SAID34 WAGG 152200 CCA	METAR WAGG 152200Z 35003KT 8000 SCT012 23/23 Q1012=
15/08/2020 22:30:00Z	 SAID34 WAGG 152230	METAR WAGG 152230Z 03003KT 8000 SCT012 23/22 Q1012=
15/08/2020 23:00:00Z	 SAID34 WAGG 152300	METAR WAGG 152300Z 04003KT 8000 BKN010 23/22 Q1013=
15/08/2020 23:30:00Z	 SAID34 WAGG 152330	METAR WAGG 152330Z 05003KT 8000 BKN010 24/23 Q1013=
16/08/2020 00:00:00Z	 SAID34 WAGG 160000	METAR WAGG 160000Z 06003KT 9000 BKN009 24/23 Q1013=
16/08/2020 00:30:00Z	 SAID34 WAGG 160030	METAR WAGG 160030Z 06002KT 9999 BKN009 24/23 Q1014=
16/08/2020 01:00:00Z	 SAID34 WAGG 160100	METAR WAGG 160100Z 12002KT 9999 BKN009 25/23 Q1013=
16/08/2020 01:30:00Z	 SAID34 WAGG 160130	METAR WAGG 160130Z 11003KT 9999 OVC009 25/23 Q1014=
16/08/2020 02:00:00Z	 SAID34 WAGG 160200	METAR WAGG 160200Z 13003KT 9999 OVC010 26/23 Q1014=
16/08/2020 02:30:00Z	 SAID34 WAGG 160230	METAR WAGG 160230Z 12003KT 9999 BKN010 27/23 Q1014=
16/08/2020 03:00:00Z	 SAID34 WAGG 160300	METAR WAGG 160300Z 12004KT 9999 BKN010 27/23 Q1014=
16/08/2020 03:30:00Z	 SAID34 WAGG 160330	METAR WAGG 160330Z 15003KT 9999 BKN010 28/23 Q1013=
16/08/2020 04:00:00Z	 SAID34 WAGG 160400	METAR WAGG 160400Z 11003KT 9999 BKN010 28/23 Q1013=
16/08/2020 04:30:00Z	 SAID34 WAGG 160430	METAR WAGG 160430Z 13003KT 9999 BKN010 29/23 Q1012=
16/08/2020 05:00:00Z	 SAID34 WAGG 160500	METAR WAGG 160500Z 17004KT 9999 BKN010 28/24 Q1013=
16/08/2020 05:30:00Z	 SAID34 WAGG 160530	METAR WAGG 160530Z 14004KT 9999 BKN010 29/23 Q1011=
16/08/2020 06:00:00Z	 SAID34 WAGG 160600	METAR WAGG 160600Z 08006KT 9999 BKN011 30/23 Q1011=
16/08/2020 06:30:00Z	 SAID34 WAGG 160630	METAR WAGG 160630Z 11008KT 9999 BKN011 31/23 Q1010=
16/08/2020 09:30:00Z	 SAID34 WAGG 160930	METAR WAGG 160630Z 11008KT 9999 BKN011 31/23 Q1010=
16/08/2020 07:00:00Z	 SAID34 WAGG 160700	METAR WAGG 160700Z 10006KT 9999 BKN011 31/22 Q1010=
16/08/2020 07:30:00Z	 SAID34 WAGG 160730	METAR WAGG 160730Z 12005KT 9999 BKN011 30/23 Q1009=
16/08/2020 08:00:00Z	 SAID34 WAGG 160800	METAR WAGG 160800Z 17008KT 9999 SCT012 31/23 Q1009=
16/08/2020 09:00:00Z	 SAID34 WAGG 160900	METAR WAGG 160900Z 14006KT 9999 SCT012 31/22 Q1009=
16/08/2020 09:30:00Z	 SAID34 WAGG 160930	METAR WAGG 160930Z 11008KT 9999 BKN011 31/23 Q1010=
16/08/2020 10:00:00Z	 SAID34 WAGG 161000	METAR WAGG 161000Z 15005KT 9999 FEW012 30/22 Q1009=
16/08/2020 11:00:00Z	 SAID34 WAGG 161100	METAR WAGG 161100Z 11003KT 9999 FEW012TCU 28/23 Q1010=
16/08/2020 11:30:00Z	 SAID34 WAGG 161130	METAR WAGG 161130Z 08001KT 9000 FEW010TCU BKN010 Q1010=
16/08/2020 21:00:00Z	 SAID34 WAGG 162100	METAR WAGG 162100Z 31002KT 7000 SCT010 25/24 Q1011=
16/08/2020 21:30:00Z	 SAID34 WAGG 162130	METAR WAGG 162130Z 36001KT 7000 SCT010 24/24 Q1011=
16/08/2020 22:00:00Z	 SAID34 WAGG 162200	METAR WAGG 162200Z 08001KT 7000 SCT010 24/23 Q1012=
16/08/2020 22:30:00Z	 SAID34 WAGG 162230	METAR WAGG 162230Z 35001KT 7000 SCT010 24/24 Q1012=
16/08/2020 23:00:00Z	 SAID34 WAGG 162300	METAR WAGG 162300Z 36002KT 7000 SCT010 25/24 Q1012=
16/08/2020 23:30:00Z	 SAID34 WAGG 162330	METAR WAGG 162330Z 34003KT 4000 HZ SCT008 25/24 Q1012=
17/08/2020 00:00:00Z	 SAID34 WAGG 170000	METAR WAGG 170000Z 35005KT 5000 HZ SCT008 25/24 Q1013=
17/08/2020 00:30:00Z	 SAID34 WAGG 170030	METAR WAGG 170030Z 03004KT 8000 BKN008 26/24 Q1013=
17/08/2020 01:00:00Z	 SAID34 WAGG 170100	METAR WAGG 170100Z 05002KT 9999 SCT009 27/24 Q1013=
17/08/2020 01:30:00Z	 SAID34 WAGG 170130	METAR WAGG 170130Z 04004KT 9999 SCT009 28/24 Q1013=
17/08/2020 02:00:00Z	 SAID34 WAGG 170200	METAR WAGG 170200Z 10007KT 9999 SCT009 30/24 Q1013=
17/08/2020 02:30:00Z	 SAID34 WAGG 170230	METAR WAGG 170230Z 12009KT 9999 BKN010 30/24 Q1012=
17/08/2020 03:00:00Z	 SAID34 WAGG 170300	METAR WAGG 170300Z 13006KT 9999 BKN010 30/24 Q1012=
17/08/2020 03:30:00Z	 SAID34 WAGG 170330	METAR WAGG 170330Z 17007KT 9999 BKN010 31/23 Q1012=
17/08/2020 04:00:00Z	 SAID34 WAGG 170400	METAR WAGG 170400Z 15006KT 9999 BKN010 31/23 Q1011=
17/08/2020 04:30:00Z	 SAID34 WAGG 170430	METAR WAGG 170430Z 18010KT 9999 BKN010 31/22 Q1011=
17/08/2020 05:00:00Z	 SAID34 WAGG 170500	METAR WAGG 170500Z 18009KT 9999 SCT010 32/23 Q1010=
17/08/2020 05:30:00Z	 SAID34 WAGG 170530	METAR WAGG 170530Z 15003KT 9999 SCT010 32/23 Q1010=
17/08/2020 06:00:00Z	 SAID34 WAGG 170600	METAR WAGG 170600Z 18003KT 9999 SCT010 33/23 Q1009=
17/08/2020 06:30:00Z	 SAID34 WAGG 170630	METAR WAGG 170630Z 16005KT 9999 SCT010 32/23 Q1009=
17/08/2020 07:00:00Z	 SAID34 WAGG 170700	METAR WAGG 170700Z 13003KT 9999 BKN010 32/23 Q1008=
17/08/2020 07:30:00Z	 SAID34 WAGG 170730	METAR WAGG 170730Z 15005KT 9999 BKN010 31/24 Q1008=
17/08/2020 08:00:00Z	 SAID34 WAGG 170800	METAR WAGG 170800Z 14002KT 9999 SCT010 33/23 Q1007=
17/08/2020 08:30:00Z	 SAID34 WAGG 170830	METAR WAGG 170830Z 12004KT 9999 SCT010 33/23 Q1007=
17/08/2020 09:00:00Z	 SAID34 WAGG 170900	METAR WAGG 170900Z 11003KT 9999 FEW010TCU SCT011 31/23 Q1007=
17/08/2020 09:30:00Z	 SAID34 WAGG 170930	METAR WAGG 170930Z 13003KT 9999 FEW010TCU SCT011 32/23 Q1007=
17/08/2020 10:00:00Z	 SAID34 WAGG 171000	METAR WAGG 171000Z 12004KT 9999 FEW010TCU SCT011 31/24 Q1008=
17/08/2020 10:30:00Z	 SAID34 WAGG 171030	METAR WAGG 171030Z 14004KT 9999 FEW010TCU SCT011 30/24 Q1008=
17/08/2020 11:00:00Z	 SAID34 WAGG 171100	METAR WAGG 171100Z 12002KT 9999 FEW010TCU SCT011 29/24 Q1009=
17/08/2020 11:30:00Z	 SAID34 WAGG 171130	METAR WAGG 171130Z 17004KT 9999 FEW010TCU SCT011 28/24 Q1009=
17/08/2020 12:00:00Z	 SAID34 WAGG 171200	METAR WAGG 171200Z 24005KT 9000 SCT012 27/23 Q1010=
17/08/2020 15:00:00Z	 SAID34 WAGG 171500	METAR WAGG 171500Z 17006KT 8000 SCT012 26/24 Q1011=
17/08/2020 18:00:00Z	 SAID34 WAGG 171800	METAR WAGG 171800Z 17004KT 8000 SCT012 25/24 Q1010=
17/08/2020 21:30:00Z	 SAID34 WAGG 172130	METAR WAGG 172130Z 10003KT 8000 SCT012 24/23 Q1010=
17/08/2020 23:00:00Z	 SAID34 WAGG 172300	METAR WAGG 172300Z 00000KT 9000 SCT012 24/23 Q1011=
17/08/2020 23:30:00Z	 SAID34 WAGG 172330	METAR WAGG 172330Z 05002KT 9000 SCT012 25/24 Q1011=
18/08/2020 00:00:00Z	 SAID34 WAGG 180000	METAR WAGG 180000Z 09001KT 8000 BKN012 26/23 Q1011=
18/08/2020 00:30:00Z	 SAID34 WAGG 180030	METAR WAGG 180030Z 15002KT 9000 SCT012 27/23 Q1012=
18/08/2020 01:00:00Z	 SAID34 WAGG 180100	METAR WAGG 180100Z 11003KT 9000 SCT012 27/23 Q1012=
18/08/2020 01:30:00Z	 SAID34 WAGG 180130	METAR WAGG 180130Z 15003KT 9000 SCT012 29/23 Q1012=
18/08/2020 02:00:00Z	 SAID34 WAGG 180200	METAR WAGG 180200Z 15004KT 9000 SCT011 30/23 Q1012=
18/08/2020 02:30:00Z	 SAID34 WAGG 180230	METAR WAGG 180230Z 14004KT 9000 SCT011 31/23 Q1012=
18/08/2020 03:00:00Z	 SAID34 WAGG 180300	METAR WAGG 180300Z 14003KT 9999 SCT011 31/23 Q1011=
18/08/2020 03:30:00Z	 SAID34 WAGG 180330	METAR WAGG 180330Z 15004KT 9999 BKN011 32/23 Q1011=
18/08/2020 04:00:00Z	 SAID34 WAGG 180400	METAR WAGG 180400Z 10004KT 9999 BKN011 32/22 Q1011=
18/08/2020 04:30:00Z	 SAID34 WAGG 180430	METAR WAGG 180430Z 18006KT 9999 BKN011 31/23 Q1011=
18/08/2020 05:00:00Z	 SAID34 WAGG 180500	METAR WAGG 180500Z 17005KT 9999 BKN011 31/23 Q1010=
18/08/2020 05:30:00Z	 SAID34 WAGG 180530	METAR WAGG 180530Z 18006KT 9999 BKN011 33/23 Q1010=
18/08/2020 06:00:00Z	 SAID34 WAGG 180600	METAR WAGG 180600Z 16006KT 9999 BKN012 32/22 Q1009=
18/08/2020 06:30:00Z	 SAID34 WAGG 180630	METAR WAGG 180630Z 21007KT 9999 BKN012 33/22 Q1009=
18/08/2020 07:00:00Z	 SAID34 WAGG 180700	METAR WAGG 180700Z 18008KT 9999 BKN012 33/22 Q1008=
18/08/2020 07:30:00Z	 SAID34 WAGG 180730	METAR WAGG 180730Z 16006KT 9999 BKN012 34/21 Q1008=
18/08/2020 08:00:00Z	 SAID34 WAGG 180800	METAR WAGG 180800Z 16009KT 9999 SCT012 33/20 Q1007=
18/08/2020 08:30:00Z	 SAID34 WAGG 180830	METAR WAGG 180830Z 16007KT 9999 SCT012 33/20 Q1007=
18/08/2020 09:00:00Z	 SAID34 WAGG 180900	METAR WAGG 180900Z 16008KT 9999 FEW012 33/21 Q1007=
18/08/2020 09:30:00Z	 SAID34 WAGG 180930	METAR WAGG 180930Z 14005KT 9999 FEW012 32/20 Q1007=
18/08/2020 10:00:00Z	 SAID34 WAGG 181000	METAR WAGG 181000Z 14005KT 9999 FEW012 32/21 Q1007=
18/08/2020 10:30:00Z	 SAID34 WAGG 181030	METAR WAGG 181030Z 18006KT 9999 FEW012 30/23 Q1008=
18/08/2020 11:00:00Z	 SAID34 WAGG 181100	METAR WAGG 181100Z 18007KT 9999 FEW012 29/24 Q1009=
18/08/2020 11:30:00Z	 SAID34 WAGG 181130	METAR WAGG 181130Z 19008KT 9000 FEW012 28/24 Q1009=
18/08/2020 12:00:00Z	 SAID34 WAGG 181200	METAR WAGG 181200Z 21006KT 9000 FEW013 28/24 Q1010=
18/08/2020 12:30:00Z	 SAID34 WAGG 181230	METAR WAGG 181230Z 21008KT 9000 FEW013 27/23 Q1010=
18/08/2020 13:00:00Z	 SAID34 WAGG 181300	METAR WAGG 181300Z 21008KT 9000 FEW013 27/23 Q1010=
