01/09/2020 00:00:00Z	 SAID32 WIOO 010000	METAR WIOO 010000Z 00000KT 7000 SCT009 25/24 Q1008 NOSIG=
01/09/2020 00:30:00Z	 SAID32 WIOO 010030	METAR WIOO 010030Z 00000KT 8000 SCT010 26/24 Q1009 NOSIG=
01/09/2020 01:00:00Z	 SAID32 WIOO 010100	METAR WIOO 010100Z 00000KT 9999 SCT010 26/24 Q1010 NOSIG=
01/09/2020 01:30:00Z	 SAID32 WIOO 010130	METAR WIOO 010130Z 10003KT 9999 SCT010 27/24 Q1010 NOSIG=
01/09/2020 02:00:00Z	 SAID32 WIOO 010200	METAR WIOO 010200Z 08003KT 9999 BKN010 28/25 Q1010 NOSIG=
01/09/2020 02:30:00Z	 SAID32 WIOO 010230	METAR WIOO 010230Z 00000KT 9999 BKN010 28/25 Q1010 NOSIG=
01/09/2020 03:00:00Z	 SAID32 WIOO 010300	METAR WIOO 010300Z 08005KT 9999 SCT010 30/25 Q1010 NOSIG=
01/09/2020 03:30:00Z	 SAID32 WIOO 010330	METAR WIOO 010330Z 00000KT 9999 SCT010 30/25 Q1009 NOSIG=
01/09/2020 04:00:00Z	 SAID32 WIOO 010400	METAR WIOO 010400Z 00000KT 9999 BKN010 30/25 Q1009 NOSIG=
01/09/2020 04:30:00Z	 SAID32 WIOO 010430	METAR WIOO 010430Z 00000KT 9999 BKN010 31/25 Q1008 NOSIG=
01/09/2020 05:00:00Z	 SAID32 WIOO 010500	METAR WIOO 010500Z 00000KT 9999 BKN010 31/24 Q1008 NOSIG=
01/09/2020 05:30:00Z	 SAID32 WIOO 010530	METAR WIOO 010530Z 00000KT 9999 FEW010CB BKN011 31/24 Q1007 NOSIG=
01/09/2020 06:00:00Z	 SAID32 WIOO 010600	METAR WIOO 010600Z 03004KT 9999 FEW010CB BKN011 32/25 Q1007 NOSIG=
01/09/2020 06:30:00Z	 SAID32 WIOO 010630	METAR WIOO 010630Z 16008KT 9999 FEW010CB BKN011 32/25 Q1006 TEMP FM0700 23010KT TS=
01/09/2020 07:14:00Z	 SAID32 WIOO 010714 CCA	METAR COR WIOO 010630Z 16008KT 9999 FEW010CB BKN011 32/25 Q1006 TEMPO FM0700 23010KT TS=
01/09/2020 07:00:00Z	 SAID32 WIOO 010700	METAR WIOO 010700Z 16008KT 9999 FEW010CB BKN011 32/25 Q1006 TEMPO 0740 24010KT 4000 TSRA=
01/09/2020 07:13:00Z	 SAID32 WIOO 010713 CCA	METAR COR WIOO 010700Z 16008KT 9999 FEW010CB BKN011 32/25 Q1006 TEMPO FM0740 24010KT 4000 TSRA=
01/09/2020 07:30:00Z	 SAID32 WIOO 010730	METAR WIOO 010730Z 23015KT 9999 TS FEW010CB BKN011 30/25 Q1005 TEMPO FM0740 24010KT 4000 TSRA=
01/09/2020 08:00:00Z	 SAID32 WIOO 010800	METAR WIOO 010800Z 23017KT 8000 TS FEW009CB BKN010 28/24 Q1005 TEMPO FM0810 2000 TSRA=
01/09/2020 08:30:00Z	 SAID32 WIOO 010830	METAR WIOO 010830Z 22012KT 5000 -TSRA FEW009CB BKN010 26/25 Q1005 TEMPO TL0900 0800 +TSRA=
01/09/2020 09:00:00Z	 SAID32 WIOO 010900	METAR WIOO 010900Z 22014KT 0100 +TSRA FEW007CB BKN008 25/24 Q1006 TEMPO FM0930 2000=
01/09/2020 09:30:00Z	 SAID32 WIOO 010930	METAR WIOO 010930Z 21007KT 8000 TS FEW008CB BKN009 24/23 Q1006 RERA NOSIG=
01/09/2020 10:00:00Z	 SAID32 WIOO 011000	METAR WIOO 011000Z 30004KT 9999 TS FEW010CB BKN011 24/24 Q1007 NOSIG=
01/09/2020 10:30:00Z	 SAID32 WIOO 011030	METAR WIOO 011030Z 02004KT 9999 FEW011CB BKN012 24/24 Q1007 RETS NOSIG=
01/09/2020 11:00:00Z	 SAID32 WIOO 011100	METAR WIOO 011100Z 00000KT 8000 TS FEW011CB BKN012 24/24 Q1007 NOSIG=
01/09/2020 11:30:00Z	 SAID32 WIOO 011130	METAR WIOO 011130Z 33004KT 5000 -TSRA FEW011CB BKN012 25/24 Q1008 NOSIG=
01/09/2020 12:00:00Z	 SAID32 WIOO 011200	METAR WIOO 011200Z 31004KT 4000 -TSRA FEW011CB BKN012 25/24 Q1008 NOSIG=
01/09/2020 12:30:00Z	 SAID32 WIOO 011230	METAR WIOO 011230Z 35004KT 4000 -TSRA FEW011CB BKN012 25/24 Q1009 NOSIG=
01/09/2020 13:00:00Z	 SAID32 WIOO 011300	METAR WIOO 011300Z 33004KT 5000 -TSRA FEW011CB BKN012 25/24 Q1009 NOSIG=
01/09/2020 13:23:00Z	 SAID32 WIOO 011323	METAR WIOO 011330Z 00000KT 6000 -RA FEW011CB BKN012 25/24 Q1010 RETS NOSIG=
01/09/2020 13:58:00Z	 SAID32 WIOO 011358	METAR WIOO 011400Z 00000KT 6000 -RA FEW011CB BKN012 25/24 Q1010 NOSIG=
01/09/2020 14:29:00Z	 SAID32 WIOO 011429	METAR WIOO 011430Z 00000KT 6000 -RA FEW011CB BKN012 24/23 Q1011 NOSIG=
01/09/2020 15:00:00Z	 SAID32 WIOO 011500	METAR WIOO 011500Z 00000KT 6000 -RA FEW011CB BKN012 24/24 Q1011 NOSIG=
01/09/2020 15:29:00Z	 SAID32 WIOO 011529	METAR WIOO 011530Z 00000KT 6000 -RA FEW011CB BKN012 24/24 Q1011 NOSIG=
01/09/2020 15:56:00Z	 SAID32 WIOO 011556	METAR WIOO 011600Z 00000KT 6000 -RA FEW011CB BKN012 24/24 Q1010 NOSIG=
01/09/2020 16:30:00Z	 SAID32 WIOO 011630	METAR WIOO 011630Z 00000KT 6000 -RA FEW011CB BKN012 24/24 Q1010 NOSIG=
01/09/2020 16:56:00Z	 SAID32 WIOO 011656	METAR WIOO 011700Z 00000KT 6000 -RA FEW011CB BKN012 24/23 Q1009 NOSIG=
01/09/2020 17:30:00Z	 SAID32 WIOO 011730	METAR WIOO 011730Z 00000KT 6000 -RA FEW011CB BKN012 24/23 Q1009 NOSIG=
01/09/2020 18:00:00Z	 SAID32 WIOO 011800	METAR WIOO 011800Z 00000KT 6000 FEW011CB BKN012 24/24 Q1009 RERA NOSIG=
01/09/2020 18:26:00Z	 SAID32 WIOO 011826	METAR WIOO 011830Z 00000KT 6000 FEW011CB BKN012 24/24 Q1009 NOSIG=
01/09/2020 19:00:00Z	 SAID32 WIOO 011900	METAR WIOO 011900Z 00000KT 6000 BKN012 24/24 Q1009 NOSIG=
01/09/2020 19:30:00Z	 SAID32 WIOO 011930	METAR WIOO 011930Z 00000KT 6000 BKN012 24/24 Q1008 NOSIG=
01/09/2020 19:55:00Z	 SAID32 WIOO 011955	METAR WIOO 012000Z 00000KT 6000 BKN012 24/24 Q1008 NOSIG=
01/09/2020 20:30:00Z	 SAID32 WIOO 012030	METAR WIOO 012030Z 00000KT 6000 SCT012 24/24 Q1008 NOSIG=
01/09/2020 20:57:00Z	 SAID32 WIOO 012057	METAR WIOO 012100Z 00000KT 6000 SCT012 24/23 Q1008 NOSIG=
01/09/2020 22:05:00Z	 SAID32 WIOO 012205	METAR WIOO 012200Z 00000KT 1000 BR SCT012 24/23 Q1009 TEMPO FM2300 3000=
01/09/2020 22:28:00Z	 SAID32 WIOO 012228	METAR WIOO 012230Z 00000KT 1000 BR SCT012 23/23 Q1009 TEMPO FM2300 3000=
01/09/2020 23:00:00Z	 SAID32 WIOO 012300	METAR WIOO 012300Z 00000KT 2000 BR BKN011 23/23 Q1010 TEMPO FM2330 3000=
01/09/2020 23:30:00Z	 SAID32 WIOO 012330	METAR WIOO 012330Z 00000KT 0800 FG VV001 23/23 Q1010 TEMPO FM0100 3000=
02/09/2020 00:00:00Z	 SAID32 WIOO 020000	METAR WIOO 020000Z 00000KT 1500 BR VV002 23/23 Q1010 TEMPO FM0100 3000=
02/09/2020 00:30:00Z	 SAID32 WIOO 020030	METAR WIOO 020030Z 00000KT 5000 BR OVC007 24/23 Q1010 NOSIG=
02/09/2020 01:00:00Z	 SAID32 WIOO 020100	METAR WIOO 020100Z 05003KT 5000 BR OVC007 24/23 Q1011 NOSIG=
02/09/2020 01:30:00Z	 SAID32 WIOO 020130	METAR WIOO 020130Z 05004KT 7000 OVC007 24/24 Q1011 NOSIG=
02/09/2020 02:00:00Z	 SAID32 WIOO 020200	METAR WIOO 020200Z 04003KT 8000 BKN007 25/23 Q1011 NOSIG=
02/09/2020 02:30:00Z	 SAID32 WIOO 020230	METAR WIOO 020230Z 06004KT 9999 BKN007 26/24 Q1011 NOSIG=
02/09/2020 03:00:00Z	 SAID32 WIOO 020300	METAR WIOO 020300Z 12003KT 9999 BKN009 27/24 Q1011 NOSIG=
02/09/2020 03:30:00Z	 SAID32 WIOO 020330	METAR WIOO 020330Z 07003KT 9999 BKN010 28/24 Q1011 NOSIG=
02/09/2020 04:00:00Z	 SAID32 WIOO 020400	METAR WIOO 020400Z 11003KT 9999 BKN010 28/25 Q1010 NOSIG=
02/09/2020 04:30:00Z	 SAID32 WIOO 020430	METAR WIOO 020430Z 09003KT 9999 SCT011 29/25 Q1010 NOSIG=
02/09/2020 05:00:00Z	 SAID32 WIOO 020500	METAR WIOO 020500Z 05005KT 9999 SCT011 29/25 Q1009 NOSIG=
02/09/2020 05:30:00Z	 SAID32 WIOO 020530	METAR WIOO 020530Z 06006KT 9999 BKN011 30/24 Q1008 NOSIG=
02/09/2020 06:00:00Z	 SAID32 WIOO 020600	METAR WIOO 020600Z 05004KT 9999 BKN011 30/24 Q1008 NOSIG=
02/09/2020 06:30:00Z	 SAID32 WIOO 020630	METAR WIOO 020630Z 11005KT 9999 BKN011 30/24 Q1007 NOSIG=
02/09/2020 07:00:00Z	 SAID32 WIOO 020700	METAR WIOO 020700Z 07004KT 9999 BKN011 30/24 Q1007 NOSIG=
02/09/2020 07:30:00Z	 SAID32 WIOO 020730	METAR WIOO 020730Z 09003KT 9999 BKN011 31/24 Q1007 NOSIG=
02/09/2020 08:00:00Z	 SAID32 WIOO 020800	METAR WIOO 020800Z 00000KT 9999 FEW010CB BKN011 30/24 Q1006 NOSIG=
02/09/2020 08:30:00Z	 SAID32 WIOO 020830	METAR WIOO 020830Z 00000KT 9999 FEW010CB BKN011 30/24 Q1006 NOSIG=
02/09/2020 09:00:00Z	 SAID32 WIOO 020900	METAR WIOO 020900Z 00000KT 9999 FEW010CB BKN011 30/24 Q1006 NOSIG=
02/09/2020 09:30:00Z	 SAID32 WIOO 020930	METAR WIOO 020930Z 14004KT 9999 FEW010CB BKN011 30/24 Q1007 TEMPO FM1010 2000 TSRA=
02/09/2020 10:00:00Z	 SAID32 WIOO 021000	METAR WIOO 021000Z 23010KT 8000 FEW010CB BKN011 28/23 Q1007 NOSIG=
02/09/2020 10:30:00Z	 SAID32 WIOO 021030	METAR WIOO 021030Z 21010KT 8000 FEW010CB BKN011 26/23 Q1008 NOSIG=
02/09/2020 11:00:00Z	 SAID32 WIOO 021100	METAR WIOO 021100Z 28004KT 8000 FEW010CB BKN011 25/24 Q1008 NOSIG=
02/09/2020 11:30:00Z	 SAID32 WIOO 021130	METAR WIOO 021130Z 21005KT 6000 -RA FEW010CB BKN011 25/23 Q1009 NOSIG=
02/09/2020 12:00:00Z	 SAID32 WIOO 021200	METAR WIOO 021200Z 22003KT 6000 FEW010CB BKN011 24/23 Q1009 RERA NOSIG=
02/09/2020 12:30:00Z	 SAID32 WIOO 021230	METAR WIOO 021230Z 00000KT 6000 FEW010CB BKN011 25/23 Q1010 NOSIG=
02/09/2020 13:00:00Z	 SAID32 WIOO 021300	METAR WIOO 021300Z 00000KT 6000 FEW010CB BKN011 25/23 Q1010 NOSIG=
02/09/2020 13:30:00Z	 SAID32 WIOO 021330	METAR WIOO 021330Z 22003KT 6000 BKN011 24/23 Q1010 NOSIG=
02/09/2020 14:00:00Z	 SAID32 WIOO 021400	METAR WIOO 021400Z 00000KT 6000 BKN011 24/23 Q1010 NOSIG=
02/09/2020 14:30:00Z	 SAID32 WIOO 021430	METAR WIOO 021430Z 00000KT 6000 BKN012 25/23 Q1010 NOSIG=
02/09/2020 15:00:00Z	 SAID32 WIOO 021500	METAR WIOO 021500Z 00000KT 6000 SCT012 25/23 Q1011 NOSIG=
02/09/2020 15:30:00Z	 SAID32 WIOO 021530	METAR WIOO 021530Z 00000KT 6000 SCT012 25/23 Q1010 NOSIG=
02/09/2020 16:00:00Z	 SAID32 WIOO 021600	METAR WIOO 021600Z 04003KT 6000 SCT012 25/23 Q1010 NOSIG=
02/09/2020 16:30:00Z	 SAID32 WIOO 021630	METAR WIOO 021630Z 00000KT 6000 SCT012 24/23 Q1010 NOSIG=
02/09/2020 17:00:00Z	 SAID32 WIOO 021700	METAR WIOO 021700Z 00000KT 6000 SCT012 24/23 Q1010 NOSIG=
02/09/2020 17:30:00Z	 SAID32 WIOO 021730	METAR WIOO 021730Z 00000KT 6000 SCT012 24/23 Q1009 NOSIG=
02/09/2020 18:00:00Z	 SAID32 WIOO 021800	METAR WIOO 021800Z 00000KT 6000 SCT012 24/23 Q1009 NOSIG=
02/09/2020 18:30:00Z	 SAID32 WIOO 021830	METAR WIOO 021830Z 00000KT 6000 SCT012 24/23 Q1009 NOSIG=
02/09/2020 19:00:00Z	 SAID32 WIOO 021900	METAR WIOO 021900Z 00000KT 6000 SCT012 24/23 Q1008 NOSIG=
02/09/2020 19:30:00Z	 SAID32 WIOO 021930	METAR WIOO 021930Z 00000KT 6000 SCT012 24/23 Q1008 NOSIG=
02/09/2020 20:00:00Z	 SAID32 WIOO 022000	METAR WIOO 022000Z 00000KT 6000 SCT012 24/23 Q1008 NOSIG=
02/09/2020 20:30:00Z	 SAID32 WIOO 022030	METAR WIOO 022030Z 00000KT 6000 SCT012 24/23 Q1008 NOSIG=
02/09/2020 21:00:00Z	 SAID32 WIOO 022100	METAR WIOO 022100Z 00000KT 6000 SCT009 24/23 Q1009 NOSIG=
02/09/2020 21:30:00Z	 SAID32 WIOO 022130	METAR WIOO 022130Z 00000KT 6000 SCT009 24/23 Q1009 NOSIG=
02/09/2020 22:00:00Z	 SAID32 WIOO 022200	METAR WIOO 022200Z 00000KT 6000 SCT012 24/23 Q1009 NOSIG=
02/09/2020 22:30:00Z	 SAID32 WIOO 022230	METAR WIOO 022230Z 00000KT 6000 SCT012 24/23 Q1009 NOSIG=
02/09/2020 23:00:00Z	 SAID32 WIOO 022300	METAR WIOO 022300Z 00000KT 8000 FEW012 24/23 Q1010 NOSIG=
02/09/2020 23:30:00Z	 SAID32 WIOO 022330	METAR WIOO 022330Z 13004KT 8000 SCT012 24/23 Q1010 NOSIG=
03/09/2020 00:00:00Z	 SAID32 WIOO 030000	METAR WIOO 030000Z 00000KT 9999 SCT012 25/23 Q1011 NOSIG=
03/09/2020 00:30:00Z	 SAID32 WIOO 030030	METAR WIOO 030030Z 12003KT 9999 SCT012 25/23 Q1011 NOSIG=
03/09/2020 00:53:00Z	 SAID32 WIOO 030053	METAR WIOO 030100Z 02003KT 9999 FEW013 26/23 Q1011 NOSIG=
03/09/2020 01:30:00Z	 SAID32 WIOO 030130	METAR WIOO 030130Z 10005KT 9999 SCT013 26/24 Q1011 NOSIG=
03/09/2020 01:55:00Z	 SAID32 WIOO 030155	METAR WIOO 030200Z 07003KT 9999 SCT013 27/24 Q1011 NOSIG=
03/09/2020 02:25:00Z	 SAID32 WIOO 030225	METAR WIOO 030230Z 07003KT 9999 SCT013 27/24 Q1011 NOSIG=
03/09/2020 02:54:00Z	 SAID32 WIOO 030254	METAR WIOO 030300Z 00000KT 9999 SCT013 28/24 Q1011 NOSIG=
03/09/2020 03:27:00Z	 SAID32 WIOO 030327	METAR WIOO 030330Z 04003KT 9999 BKN11 29/24 Q1010 NOSIG=
03/09/2020 03:30:00Z	 SAID32 WIOO 030330 CCA	METAR COR WIOO 030330Z 04003KT 9999 BKN011 29/24 Q1010 NOSIG=
03/09/2020 03:57:00Z	 SAID32 WIOO 030357	METAR WIOO 030400Z 05005KT 9999 BKN11 29/24 Q1010 NOSIG=
03/09/2020 04:00:00Z	 SAID32 WIOO 030400 CCA	METAR COR WIOO 030400Z 03005KT 9999 BKN011 29/24 Q1010 NOSIG=
03/09/2020 04:27:00Z	 SAID32 WIOO 030427	METAR WIOO 030430Z 13003KT 9999 BKN11 30/24 Q1010 NOSIG=
03/09/2020 04:30:00Z	 SAID32 WIOO 030430	METAR WIOO 030430Z 13003KT 9999 BKN011 30/24 Q1010 NOSIG=
03/09/2020 04:54:00Z	 SAID32 WIOO 030454	METAR WIOO 030500Z 10003KT 9999 BKN011 31/24 Q1009 NOSIG=
03/09/2020 05:53:00Z	 SAID32 WIOO 030553	METAR WIOO 030600Z 18006KT 9999 BKN011 31/25 Q1009 NOSIG=
03/09/2020 06:30:00Z	 SAID32 WIOO 030630	METAR WIOO 030630Z 19006KT 9999 BKN011 30/24 Q1008 TEMPO FM0730 20012KT 3000 RA=
03/09/2020 07:00:00Z	 SAID32 WIOO 030700	METAR WIOO 030700Z 09010KT 0500 +RA FEW009CB BKN010 29/26 Q1008 TEMPO FM0730 TSRA=
03/09/2020 07:00:00Z	 SAID32 WIOO 030700 CCA	METAR COR WIOO 030700Z 09010KT 0300 +TSRA FEW009CB BKN010 29/26 Q1008 NOSIG=
03/09/2020 07:30:00Z	 SAID32 WIOO 030730	METAR WIOO 030730Z 26006KT 1500 TSRA FEW008CB BKN009 26/24 Q1007 NOSIG=
03/09/2020 08:00:00Z	 SAID32 WIOO 030800	METAR WIOO 030800Z 16003KT 4000 -RA FEW010CB BKN011 28/25 Q1007 NOSIG=
03/09/2020 08:30:00Z	 SAID32 WIOO 030830	METAR WIOO 030830Z 00000KT 8000 BKN011 28/25 Q1007 RERA NOSIG=
03/09/2020 09:00:00Z	 SAID32 WIOO 030900	METAR WIOO 030900Z 21004KT 9999 SCT012 29/26 Q1007 NOSIG=
03/09/2020 09:30:00Z	 SAID32 WIOO 030930	METAR WIOO 030930Z 20003KT 9999 BKN010 30/26 Q1007 NOSIG=
03/09/2020 10:00:00Z	 SAID32 WIOO 031000	METAR WIOO 031000Z 20004KT 8000 FEW010CB BKN011 29/25 Q1007 NOSIG=
03/09/2020 10:30:00Z	 SAID32 WIOO 031030	METAR WIOO 031030Z 28004KT 8000 FEW009CB BKN010 28/24 Q1008 NOSIG=
03/09/2020 11:00:00Z	 SAID32 WIOO 031100	METAR WIOO 031100Z 33009KT 7000 FEW009CB BKN010 27/24 Q1008 NOSIG=
03/09/2020 11:30:00Z	 SAID32 WIOO 031130	METAR WIOO 031130Z 32005KT 7000 FEW009CB BKN010 26/24 Q1009 NOSIG=
03/09/2020 12:00:00Z	 SAID32 WIOO 031200	METAR WIOO 031200Z 33007KT 7000 FEW010CB BKN011 25/24 Q1009 NOSIG=
03/09/2020 12:30:00Z	 SAID32 WIOO 031230	METAR WIOO 031230Z 36004KT 7000 BKN011 25/23 Q1010 NOSIG=
03/09/2020 13:00:00Z	 SAID32 WIOO 031300	METAR WIOO 031300Z 35003KT 6000 BKN011 25/23 Q1010 NOSIG=
03/09/2020 13:30:00Z	 SAID32 WIOO 031330	METAR WIOO 031330Z 00000KT 6000 BKN011 25/24 Q1010 NOSIG=
03/09/2020 14:00:00Z	 SAID32 WIOO 031400	METAR WIOO 031400Z 00000KT 6000 BKN011 25/24 Q1011 NOSIG=
03/09/2020 14:30:00Z	 SAID32 WIOO 031430	METAR WIOO 031430Z 00000KT 6000 BKN011 25/24 Q1011 NOSIG=
03/09/2020 15:00:00Z	 SAID32 WIOO 031500	METAR WIOO 031500Z 00000KT 6000 BKN011 25/23 Q1012 NOSIG=
03/09/2020 15:30:00Z	 SAID32 WIOO 031530	METAR WIOO 031530Z 00000KT 6000 BKN011 25/23 Q1012 NOSIG=
03/09/2020 16:00:00Z	 SAID32 WIOO 031600	METAR WIOO 031600Z 00000KT 6000 BKN011 25/23 Q1011 NOSIG=
03/09/2020 16:30:00Z	 SAID32 WIOO 031630	METAR WIOO 031630Z 00000KT 6000 BKN011 25/23 Q1011 NOSIG=
03/09/2020 17:00:00Z	 SAID32 WIOO 031700	METAR WIOO 031700Z 00000KT 6000 BKN011 25/23 Q1011 NOSIG=
03/09/2020 17:30:00Z	 SAID32 WIOO 031730	METAR WIOO 031730Z 00000KT 6000 BKN011 24/23 Q1010 NOSIG=
03/09/2020 18:00:00Z	 SAID32 WIOO 031800	METAR WIOO 031800Z 00000KT 6000 BKN011 24/23 Q1010 NOSIG=
03/09/2020 18:30:00Z	 SAID32 WIOO 031830	METAR WIOO 031830Z 00000KT 6000 BKN011 24/23 Q1009 NOSIG=
03/09/2020 19:00:00Z	 SAID32 WIOO 031900	METAR WIOO 031900Z 00000KT 6000 BKN011 24/23 Q1009 NOSIG=
03/09/2020 19:30:00Z	 SAID32 WIOO 031930	METAR WIOO 031930Z 00000KT 6000 BKN011 24/23 Q1009 NOSIG=
03/09/2020 20:00:00Z	 SAID32 WIOO 032000	METAR WIOO 032000Z 00000KT 6000 BKN011 24/23 Q1009 NOSIG=
03/09/2020 20:30:00Z	 SAID32 WIOO 032030	METAR WIOO 032030Z 00000KT 6000 BKN011 24/23 Q1009 NOSIG=
03/09/2020 21:00:00Z	 SAID32 WIOO 032100	METAR WIOO 032100Z 00000KT 6000 BKN011 24/23 Q1009 NOSIG=
03/09/2020 21:30:00Z	 SAID32 WIOO 032130	METAR WIOO 032130Z 00000KT 6000 BKN011 24/23 Q1009 NOSIG=
03/09/2020 22:00:00Z	 SAID32 WIOO 032200	METAR WIOO 032200Z 00000KT 6000 BKN011 24/23 Q1010 NOSIG=
03/09/2020 22:30:00Z	 SAID32 WIOO 032230	METAR WIOO 032230Z 00000KT 6000 BKN011 24/23 Q1010 NOSIG=
03/09/2020 22:59:00Z	 SAID32 WIOO 032259	METAR WIOO 032300Z 00000KT 6000 BKN011 24/23 Q1010 NOSIG=
03/09/2020 23:30:00Z	 SAID32 WIOO 032330	METAR WIOO 032330Z 00000KT 8000 BKN011 24/23 Q1010 NOSIG=
04/09/2020 00:00:00Z	 SAID32 WIOO 040000	METAR WIOO 040000Z 00000KT 9000 SCT011 25/24 Q1010 NOSIG=
04/09/2020 00:28:00Z	 SAID32 WIOO 040028	METAR WIOO 040030Z 00000KT 9999 SCT011 25/24 Q1011 NOSIG=
04/09/2020 00:58:00Z	 SAID32 WIOO 040058	METAR WIOO 040100Z 35003KT 9999 SCT011 26/25 Q1011 NOSIG=
04/09/2020 01:30:00Z	 SAID32 WIOO 040130	METAR WIOO 040130Z 00000KT 9999 BKN011 28/25 Q1011 NOSIG=
04/09/2020 02:00:00Z	 SAID32 WIOO 040200	METAR WIOO 040200Z 00000KT 9999 BKN011 29/25 Q1011 NOSIG=
04/09/2020 02:26:00Z	 SAID32 WIOO 040226	METAR WIOO 040230Z 00000KT 9999 BKN011 30/25 Q1010 NOSIG=
04/09/2020 03:00:00Z	 SAID32 WIOO 040300	METAR WIOO 040300Z 00000KT 9999 BKN011 30/25 Q1010 NOSIG=
04/09/2020 03:30:00Z	 SAID32 WIOO 040330	METAR WIOO 040330Z 00000KT 9999 BKN011 30/25 Q1010 NOSIG=
04/09/2020 03:55:00Z	 SAID32 WIOO 040355	METAR WIOO 040400Z 31003KT 9999 BKN011 30/24 Q1010 NOSIG=
04/09/2020 04:26:00Z	 SAID32 WIOO 040426	METAR WIOO 040430Z 33004KT 9999 BKN011 30/24 Q1009 NOSIG=
04/09/2020 05:00:00Z	 SAID32 WIOO 040500	METAR WIOO 040500Z 23003KT 9999 BKN011 31/24 Q1009 NOSIG=
04/09/2020 05:30:00Z	 SAID32 WIOO 040530	METAR WIOO 040530Z 26003KT 9999 BKN011 32/25 Q1008 NOSIG=
04/09/2020 06:00:00Z	 SAID32 WIOO 040600	METAR WIOO 040600Z 30005KT 9999 BKN011 32/24 Q1007 NOSIG=
04/09/2020 06:30:00Z	 SAID32 WIOO 040630	METAR WIOO 040630Z 30003KT 9999 BKN011 32/24 Q1006 TEMPO FM0730 FEW010CB BKN011=
04/09/2020 07:00:00Z	 SAID32 WIOO 040700	METAR WIOO 040700Z 26007KT 9999 BKN011 32/24 Q1006 TEMPO FM0730 FEW010CB BKN011=
04/09/2020 07:30:00Z	 SAID32 WIOO 040730	METAR WIOO 040730Z 25005KT 9999 FEW010CB BKN011 32/24 Q1005 NOSIG=
04/09/2020 08:00:00Z	 SAID32 WIOO 040800	METAR WIOO 040800Z 29011KT 7000 TS FEW010CB BKN011 31/25 Q1005 TEMPO FM0810 1000 TSRA=
04/09/2020 08:30:00Z	 SAID32 WIOO 040830	METAR WIOO 040830Z 22011KT 3000 -TSRA FEW009CB BKN010 27/25 Q1005 NOSIG=
04/09/2020 09:00:00Z	 SAID32 WIOO 040900	METAR WIOO 040900Z 21017KT 1000 TSRA FEW008CB BKN009 26/24 Q1006 BECMG FM1000 2000=
04/09/2020 09:30:00Z	 SAID32 WIOO 040930	METAR WIOO 040930Z 30011KT 1500 +RA FEW008CB BKN009 25/24 Q1006 BECMG FM1030 3000 RA=
04/09/2020 10:00:00Z	 SAID32 WIOO 041000	METAR WIOO 041000Z 23007KT 4000 -RA FEW009CB BKN010 24/24 Q1007 BECMG FM1030 3000 RA=
04/09/2020 10:30:00Z	 SAID32 WIOO 041030	METAR WIOO 041030Z 25003KT 6000 FEW009CB BKN010 24/24 Q1006 BECMG FM1100 2000 RA=
04/09/2020 11:00:00Z	 SAID32 WIOO 041100	METAR WIOO 041100Z 22003KT 6000 BKN010 25/24 Q1006 NOSIG=
04/09/2020 11:30:00Z	 SAID32 WIOO 041130	METAR WIOO 041130Z 00000KT 6000 BKN011 25/24 Q1007 NOSIG=
04/09/2020 12:00:00Z	 SAID32 WIOO 041200	METAR WIOO 041200Z 00000KT 6000 BKN011 25/24 Q1008 NOSIG=
04/09/2020 12:30:00Z	 SAID32 WIOO 041230	METAR WIOO 041230Z 00000KT 6000 BKN011 25/24 Q1008 NOSIG=
04/09/2020 13:00:00Z	 SAID32 WIOO 041300	METAR WIOO 041300Z 00000KT 6000 BKN011 25/24 Q1009 NOSIG=
04/09/2020 13:30:00Z	 SAID32 WIOO 041330	METAR WIOO 041330Z 35003KT 6000 BKN011 25/24 Q1009 NOSIG=
04/09/2020 14:00:00Z	 SAID32 WIOO 041400	METAR WIOO 041400Z 00000KT 6000 BKN011 25/24 Q1009 NOSIG=
04/09/2020 14:30:00Z	 SAID32 WIOO 041430	METAR WIOO 041430Z 06003KT 6000 BKN011 25/24 Q1009 NOSIG=
04/09/2020 15:00:00Z	 SAID32 WIOO 041500	METAR WIOO 041500Z 00000KT 6000 SCT011 25/24 Q1009 NOSIG=
04/09/2020 15:30:00Z	 SAID32 WIOO 041530	METAR WIOO 041530Z 00000KT 6000 SCT011 25/24 Q1009 NOSIG=
04/09/2020 16:00:00Z	 SAID32 WIOO 041600	METAR WIOO 041600Z 00000KT 6000 SCT011 25/24 Q1009 NOSIG=
04/09/2020 16:30:00Z	 SAID32 WIOO 041630	METAR WIOO 041630Z 02003KT 6000 SCT011 25/24 Q1009 NOSIG=
04/09/2020 17:00:00Z	 SAID32 WIOO 041700	METAR WIOO 041700Z 00000KT 6000 BKN011 25/24 Q1008 NOSIG=
04/09/2020 17:30:00Z	 SAID32 WIOO 041730	METAR WIOO 041730Z 00000KT 6000 BKN011 25/24 Q1008 NOSIG=
04/09/2020 18:00:00Z	 SAID32 WIOO 041800	METAR WIOO 041800Z 07003KT 6000 SCT011 25/24 Q1008 NOSIG=
04/09/2020 18:30:00Z	 SAID32 WIOO 041830	METAR WIOO 041830Z 03003KT 6000 SCT011 25/24 Q1008 NOSIG=
04/09/2020 19:00:00Z	 SAID32 WIOO 041900	METAR WIOO 041900Z 07003KT 6000 BKN010 25/24 Q1008 NOSIG=
04/09/2020 19:30:00Z	 SAID32 WIOO 041930	METAR WIOO 041930Z 07003KT 6000 BKN010 25/24 Q1008 NOSIG=
04/09/2020 20:00:00Z	 SAID32 WIOO 042000	METAR WIOO 042000Z 00000KT 6000 BKN010 25/24 Q1007 NOSIG=
04/09/2020 20:30:00Z	 SAID32 WIOO 042030	METAR WIOO 042030Z 00000KT 6000 BKN010 25/24 Q1007 NOSIG=
04/09/2020 21:00:00Z	 SAID32 WIOO 042100	METAR WIOO 042100Z 00000KT 6000 BKN010 25/24 Q1008 NOSIG=
04/09/2020 21:30:00Z	 SAID32 WIOO 042130	METAR WIOO 042130Z 06003KT 6000 BKN010 25/24 Q1008 NOSIG=
04/09/2020 22:00:00Z	 SAID32 WIOO 042200	METAR WIOO 042200Z 04004KT 6000 BKN010 25/24 Q1008 NOSIG=
04/09/2020 23:00:00Z	 SAID32 WIOO 042300	METAR WIOO 042300Z 04003KT 7000 BKN009 25/24 Q1008 NOSIG=
04/09/2020 23:30:00Z	 SAID32 WIOO 042330	METAR WIOO 042330Z 00000KT 9999 SCT010 25/24 Q1008 NOSIG=
05/09/2020 00:00:00Z	 SAID32 WIOO 050000	METAR WIOO 050000Z 00000KT 9999 SCT007 25/24 Q1008 NOSIG=
05/09/2020 00:30:00Z	 SAID32 WIOO 050030	METAR WIOO 050030Z 15003KT 9999 SCT009 25/24 Q1009 NOSIG=
05/09/2020 01:00:00Z	 SAID32 WIOO 050100	METAR WIOO 050100Z 17003KT 9999 SCT011 26/24 Q1009 NOSIG=
05/09/2020 01:30:00Z	 SAID32 WIOO 050130	METAR WIOO 050130Z 00000KT 9999 SCT011 27/24 Q1009 NOSIG=
05/09/2020 02:00:00Z	 SAID32 WIOO 050200	METAR WIOO 050200Z 07004KT 9999 BKN012 29/25 Q1009 NOSIG=
05/09/2020 02:30:00Z	 SAID32 WIOO 050230	METAR WIOO 050230Z 05005KT 9999 BKN012 30/25 Q1009 NOSIG=
05/09/2020 03:00:00Z	 SAID32 WIOO 050300	METAR WIOO 050300Z 04005KT 9999 FEW010CB BKN011 30/25 Q1009 NOSIG=
05/09/2020 03:30:00Z	 SAID32 WIOO 050330	METAR WIOO 050330Z 06006KT 9999 FEW010CB BKN011 30/25 Q1009 TEMPO FM0415 4000 RA=
05/09/2020 04:00:00Z	 SAID32 WIOO 050400	METAR WIOO 050400Z 00000KT 7000 -RA FEW010CB BKN011 29/26 Q1008 NOSIG=
05/09/2020 04:30:00Z	 SAID32 WIOO 050430	METAR WIOO 050430Z 00000KT 9999 FEW010CB BKN011 28/25 Q1008 RERA NOSIG=
05/09/2020 05:00:00Z	 SAID32 WIOO 050500	METAR WIOO 050500Z 25005KT 9999 FEW010CB BKN011 28/25 Q1008 NOSIG=
05/09/2020 05:30:00Z	 SAID32 WIOO 050530	METAR WIOO 050530Z 34003KT 9999 FEW010CB BKN011 28/25 Q1007 NOSIG=
05/09/2020 05:30:00Z	 SAID32 WIOO 050530 CCA	METAR WIOO 050530Z 34003KT 1500 RA FEW009CB BKN010 28/25 Q1007 NOSIG=
05/09/2020 06:00:00Z	 SAID32 WIOO 050600	METAR WIOO 050600Z 27007KT 9999 FEW010CB BKN011 27/25 Q1007 NOSIG=
05/09/2020 06:30:00Z	 SAID32 WIOO 050630	METAR WIOO 050630Z 29009KT 8000 TS FEW010CB BKN011 27/25 Q1007 TEMPO FM0700 29008G18KT 3000 TSRA=
05/09/2020 07:00:00Z	 SAID32 WIOO 050700	METAR WIOO 050700Z 22011KT 6000 -TSRA FEW009CB BKN010 26/24 Q1006 TEMPO FM0730 2000 TSRA=
05/09/2020 07:30:00Z	 SAID32 WIOO 050730	METAR WIOO 050730Z 23009KT 5000 -RA FEW010CB BKN011 26/24 Q1006 NOSIG=
05/09/2020 07:31:00Z	 SAID32 WIOO 050731 CCA	METAR COR WIOO 050730Z 23009KT 5000 -RA FEW010CB BKN011 26/24 Q1006 RETS NOSIG=
05/09/2020 08:00:00Z	 SAID32 WIOO 050800	METAR WIOO 050800Z 29009KT 9999 FEW010CB BKN011 27/25 Q1006 RERA NOSIG=
05/09/2020 08:30:00Z	 SAID32 WIOO 050830	METAR WIOO 050830Z 29009KT 9999 FEW010CB BKN011 26/25 Q1006 NOSIG=
05/09/2020 09:00:00Z	 SAID32 WIOO 050900	METAR WIOO 050900Z 31010KT 9999 FEW010CB BKN011 26/24 Q1006 NOSIG=
05/09/2020 09:30:00Z	 SAID32 WIOO 050930	METAR WIOO 050930Z 29007KT 9999 FEW010CB BKN011 26/24 Q1007 NOSIG=
05/09/2020 10:00:00Z	 SAID32 WIOO 051000	METAR WIOO 051000Z 27006KT 7000 -RA FEW010CB BKN011 26/25 Q1007 NOSIG=
05/09/2020 10:30:00Z	 SAID32 WIOO 051030	METAR WIOO 051030Z 28007KT 7000 -RA BKN010 25/24 Q1007 NOSIG=
05/09/2020 11:00:00Z	 SAID32 WIOO 051100	METAR WIOO 051100Z 30005KT 7000 -RA BKN010 25/24 Q1008 NOSIG=
05/09/2020 11:30:00Z	 SAID32 WIOO 051130	METAR WIOO 051130Z 31004KT 6000 FEW010CB BKN011 25/24 Q1009 RERA NOSIG=
05/09/2020 12:00:00Z	 SAID32 WIOO 051200	METAR WIOO 051200Z 28007KT 6000 TS FEW010CB BKN011 25/23 Q1009 NOSIG=
05/09/2020 12:30:00Z	 SAID32 WIOO 051230	METAR WIOO 051230Z 22005KT 6000 TS FEW010CB BKN011 24/23 Q1009 NOSIG=
05/09/2020 12:33:00Z	 SAID32 WIOO 051233 CCA	METAR COR WIOO 051230Z 22005KT 6000 FEW010CB BKN011 24/23 Q1009 RETS NOSIG=
05/09/2020 13:00:00Z	 SAID32 WIOO 051300	METAR WIOO 051300Z 25007KT 2000 -RA FEW009CB BKN010 24/23 Q1010 NOSIG=
05/09/2020 13:30:00Z	 SAID32 WIOO 051330	METAR WIOO 051330Z 26005KT 4000 -RA FEW009CB BKN010 24/23 Q1010 NOSIG=
05/09/2020 14:00:00Z	 SAID32 WIOO 051400	METAR WIOO 051400Z 00000KT 4000 -RA FEW009CB BKN010 24/23 Q1010 NOSIG=
05/09/2020 14:30:00Z	 SAID32 WIOO 051430	METAR WIOO 051430Z 31003KT 5000 -RA FEW009CB BKN010 24/23 Q1010 NOSIG=
05/09/2020 15:00:00Z	 SAID32 WIOO 051500	METAR WIOO 051500Z 30008KT 5000 -RA BKN010 24/23 Q1010 NOSIG=
05/09/2020 15:30:00Z	 SAID32 WIOO 051530	METAR WIOO 051530Z 24003KT 6000 BKN010 24/23 Q1010 RERA NOSIG=
05/09/2020 16:00:00Z	 SAID32 WIOO 051600	METAR WIOO 051600Z 23003KT 6000 BKN010 24/23 Q1009 NOSIG=
05/09/2020 16:30:00Z	 SAID32 WIOO 051630	METAR WIOO 051630Z 00000KT 6000 BKN010 24/23 Q1009 NOSIG=
05/09/2020 17:00:00Z	 SAID32 WIOO 051700	METAR WIOO 051700Z 00000KT 6000 BKN011 24/23 Q1009 NOSIG=
05/09/2020 17:30:00Z	 SAID32 WIOO 051730	METAR WIOO 051730Z 00000KT 6000 BKN011 24/23 Q1008 NOSIG=
05/09/2020 18:00:00Z	 SAID32 WIOO 051800	METAR WIOO 051800Z 00000KT 6000 BKN011 24/23 Q1008 NOSIG=
05/09/2020 18:30:00Z	 SAID32 WIOO 051830	METAR WIOO 051830Z 00000KT 6000 SCT011 24/23 Q1008 NOSIG=
05/09/2020 19:00:00Z	 SAID32 WIOO 051900	METAR WIOO 051900Z 00000KT 6000 SCT011 24/23 Q1008 NOSIG=
05/09/2020 19:30:00Z	 SAID32 WIOO 051930	METAR WIOO 051930Z 00000KT 6000 SCT011 24/23 Q1008 NOSIG=
05/09/2020 20:00:00Z	 SAID32 WIOO 052000	METAR WIOO 052000Z 00000KT 6000 SCT011 24/23 Q1008 NOSIG=
05/09/2020 20:30:00Z	 SAID32 WIOO 052030	METAR WIOO 052030Z 00000KT 6000 SCT011 24/23 Q1008 NOSIG=
05/09/2020 21:00:00Z	 SAID32 WIOO 052100	METAR WIOO 052100Z 00000KT 5000 -RA BKN011 24/23 Q1008 NOSIG=
05/09/2020 21:30:00Z	 SAID32 WIOO 052130	METAR WIOO 052130Z 00000KT 6000 BKN011 24/23 Q1008 RERA NOSIG=
05/09/2020 22:00:00Z	 SAID32 WIOO 052200	METAR WIOO 052200Z 00000KT 6000 BKN011 24/23 Q1008 NOSIG=
05/09/2020 22:30:00Z	 SAID32 WIOO 052230	METAR WIOO 052230Z 00000KT 5000 -RA BKN011 24/23 Q1008 NOSIG=
05/09/2020 23:00:00Z	 SAID32 WIOO 052300	METAR WIOO 052300Z 00000KT 6000 BKN011 24/23 Q1009 NOSIG=
05/09/2020 23:30:00Z	 SAID32 WIOO 052330	METAR WIOO 052330Z 00000KT 5000 -RA BKN011 24/23 Q1009 NOSIG=
06/09/2020 00:00:00Z	 SAID32 WIOO 060000	METAR WIOO 060000Z 07003KT 5000 -RA BKN011 24/23 Q1010 NOSIG=
06/09/2020 00:30:00Z	 SAID32 WIOO 060030	METAR WIOO 060030Z 07003KT 8000 BKN011 24/23 Q1010 RERA NOSIG=
06/09/2020 01:00:00Z	 SAID32 WIOO 060100	METAR WIOO 060100Z 00000KT 8000 BKN009 25/24 Q1011 NOSIG=
06/09/2020 01:30:00Z	 SAID32 WIOO 060130	METAR WIOO 060130Z 00000KT 8000 -RA BKN008 25/24 Q1011 NOSIG=
06/09/2020 02:00:00Z	 SAID32 WIOO 060200	METAR WIOO 060200Z 14003KT 8000 -RA BKN008 25/24 Q1011 NOSIG=
06/09/2020 02:30:00Z	 SAID32 WIOO 060230	METAR WIOO 060230Z 19007KT 8000 -RA BKN008 25/24 Q1011 NOSIG=
06/09/2020 03:00:00Z	 SAID32 WIOO 060300	METAR WIOO 060300Z 29005KT 4000 -RA BKN008 25/24 Q1011 NOSIG=
06/09/2020 03:30:00Z	 SAID32 WIOO 060330	METAR WIOO 060330Z 24005KT 7000 -RA BKN010 25/24 Q1011 NOSIG=
06/09/2020 03:56:00Z	 SAID32 WIOO 060356	METAR WIOO 060400Z 25005KT 8000 -RA BKN010 25/24 Q1011 NOSIG=
06/09/2020 04:30:00Z	 SAID32 WIOO 060430	METAR WIOO 060430Z 20005KT 8000 -RA BKN010 26/24 Q1010 NOSIG=
06/09/2020 05:00:00Z	 SAID32 WIOO 060500	METAR WIOO 060500Z 17006KT 8000 -RA BKN010 27/24 Q1009 NOSIG=
06/09/2020 05:30:00Z	 SAID32 WIOO 060530	METAR WIOO 060530Z 16005KT 8000 BKN010 27/24 Q1008 RERA NOSIG=
06/09/2020 06:00:00Z	 SAID32 WIOO 060600	METAR WIOO 060600Z 16005KT 8000 -RA BKN010 28/24 Q1008 NOSIG=
06/09/2020 06:30:00Z	 SAID32 WIOO 060630	METAR WIOO 060630Z 18005KT 9999 SCT010 28/24 Q1007 RERA NOSIG=
06/09/2020 07:00:00Z	 SAID32 WIOO 060700	METAR WIOO 060700Z 13005KT 9999 SCT012 28/24 Q1007 NOSIG=
06/09/2020 07:30:00Z	 SAID32 WIOO 060730	METAR WIOO 060730Z 16006KT 9999 BKN012 29/24 Q1007 NOSIG=
06/09/2020 08:00:00Z	 SAID32 WIOO 060800	METAR WIOO 060800Z 14005KT 9999 SCT012 29/24 Q1006 NOSIG=
06/09/2020 08:30:00Z	 SAID32 WIOO 060830	METAR WIOO 060830Z 10003KT 9999 SCT012 30/25 Q1006 NOSIG=
06/09/2020 09:00:00Z	 SAID32 WIOO 060900	METAR WIOO 060900Z 12006KT 9999 SCT012 29/23 Q1006 NOSIG=
06/09/2020 09:30:00Z	 SAID32 WIOO 060930	METAR WIOO 060930Z 14007KT 9999 FEW012 29/23 Q1007 NOSIG=
06/09/2020 10:00:00Z	 SAID32 WIOO 061000	METAR WIOO 061000Z 15004KT 9999 FEW012 29/23 Q1007 NOSIG=
06/09/2020 10:30:00Z	 SAID32 WIOO 061030	METAR WIOO 061030Z 13004KT 9999 FEW012 28/23 Q1007 NOSIG=
06/09/2020 11:00:00Z	 SAID32 WIOO 061100	METAR WIOO 061100Z 12003KT 8000 FEW012 28/23 Q1008 NOSIG=
06/09/2020 11:30:00Z	 SAID32 WIOO 061130	METAR WIOO 061130Z 00000KT 6000 FEW012 27/23 Q1008 NOSIG=
06/09/2020 12:00:00Z	 SAID32 WIOO 061200	METAR WIOO 061200Z 00000KT 6000 FEW012 27/24 Q1008 NOSIG=
06/09/2020 12:30:00Z	 SAID32 WIOO 061230	METAR WIOO 061230Z 00000KT 6000 FEW012 27/24 Q1009 NOSIG=
06/09/2020 13:00:00Z	 SAID32 WIOO 061300	METAR WIOO 061300Z 00000KT 6000 FEW012 27/24 Q1009 NOSIG=
06/09/2020 13:30:00Z	 SAID32 WIOO 061330	METAR WIOO 061330Z 00000KT 6000 FEW012 26/24 Q1010 NOSIG=
06/09/2020 13:59:00Z	 SAID32 WIOO 061359	METAR WIOO 061400Z 00000KT 6000 FEW012 26/24 Q1010 NOSIG=
06/09/2020 14:27:00Z	 SAID32 WIOO 061427	METAR WIOO 061430Z 00000KT 6000 FEW012 25/24 Q1010 NOSIG=
06/09/2020 14:55:00Z	 SAID32 WIOO 061455	METAR WIOO 061500Z 00000KT 6000 FEW012 25/24 Q1010 NOSIG=
06/09/2020 15:30:00Z	 SAID32 WIOO 061530	METAR WIOO 061530Z 00000KT 6000 FEW012 25/24 Q1009 NOSIG=
06/09/2020 15:56:00Z	 SAID32 WIOO 061556	METAR WIOO 061600Z 00000KT 6000 FEW012 25/23 Q1009 NOSIG=
06/09/2020 16:30:00Z	 SAID32 WIOO 061630	METAR WIOO 061630Z 00000KT 6000 FEW012 25/23 Q1009 NOSIG=
06/09/2020 16:56:00Z	 SAID32 WIOO 061656	METAR WIOO 061700Z 00000KT 6000 FEW012 24/23 Q1009 NOSIG=
06/09/2020 17:30:00Z	 SAID32 WIOO 061730	METAR WIOO 061730Z 00000KT 6000 FEW012 24/23 Q1009 NOSIG=
06/09/2020 18:00:00Z	 SAID32 WIOO 061800	METAR WIOO 061800Z 00000KT 6000 FEW012 24/23 Q1009 NOSIG=
06/09/2020 18:30:00Z	 SAID32 WIOO 061830	METAR WIOO 061830Z 00000KT 6000 FEW012 24/23 Q1009 NOSIG=
06/09/2020 18:53:00Z	 SAID32 WIOO 061853	METAR WIOO 061900Z 00000KT 6000 FEW012 24/23 Q1009 NOSIG=
06/09/2020 19:30:00Z	 SAID32 WIOO 061930	METAR WIOO 061930Z 00000KT 6000 FEW012 24/23 Q1008 NOSIG=
06/09/2020 19:53:00Z	 SAID32 WIOO 061953	METAR WIOO 062000Z 00000KT 6000 FEW012 24/23 Q1009 NOSIG=
06/09/2020 20:30:00Z	 SAID32 WIOO 062030	METAR WIOO 062030Z 00000KT 6000 FEW012 24/23 Q1009 NOSIG=
06/09/2020 20:57:00Z	 SAID32 WIOO 062057	METAR WIOO 062100Z 00000KT 6000 FEW012 24/23 Q1009 NOSIG=
06/09/2020 21:30:00Z	 SAID32 WIOO 062130	METAR WIOO 062130Z 00000KT 6000 FEW012 24/23 Q1009 NOSIG=
06/09/2020 21:59:00Z	 SAID32 WIOO 062159	METAR WIOO 062200Z 00000KT 6000 SCT012 24/23 Q1009 NOSIG=
06/09/2020 22:30:00Z	 SAID32 WIOO 062230	METAR WIOO 062230Z 00000KT 2000 BR SCT012 24/23 Q1009 NOSIG=
06/09/2020 23:00:00Z	 SAID32 WIOO 062300	METAR WIOO 062300Z 00000KT 0500 FG SCT012 24/23 Q1010 NOSIG=
06/09/2020 23:30:00Z	 SAID32 WIOO 062330	METAR WIOO 062330Z 00000KT 8000 SCT011 24/23 Q1010 NOSIG=
07/09/2020 00:00:00Z	 SAID32 WIOO 070000	METAR WIOO 070000Z 00000KT 9999 SCT011 24/24 Q1011 NOSIG=
07/09/2020 00:30:00Z	 SAID32 WIOO 070030	METAR WIOO 070030Z 08003KT 9999 FEW011 25/24 Q1011 NOSIG=
07/09/2020 01:00:00Z	 SAID32 WIOO 070100	METAR WIOO 070100Z 07005KT 9999 FEW011 26/24 Q1011 NOSIG=
07/09/2020 01:30:00Z	 SAID32 WIOO 070130	METAR WIOO 070130Z 08005KT 9999 SCT011 28/24 Q1011 NOSIG=
07/09/2020 02:00:00Z	 SAID32 WIOO 070200	METAR WIOO 070200Z 07006KT 9999 FEW011 28/24 Q1011 NOSIG=
07/09/2020 02:30:00Z	 SAID32 WIOO 070230	METAR WIOO 070230Z 10005KT 9999 FEW011 29/24 Q1011 NOSIG=
07/09/2020 03:00:00Z	 SAID32 WIOO 070300	METAR WIOO 070300Z 12005KT 9999 SCT012 29/24 Q1010 NOSIG=
07/09/2020 03:30:00Z	 SAID32 WIOO 070330	METAR WIOO 070330Z 10005KT 9999 BKN012 30/24 Q1010 NOSIG=
07/09/2020 04:00:00Z	 SAID32 WIOO 070400	METAR WIOO 070400Z 06005KT 9999 BKN012 31/24 Q1010 NOSIG=
07/09/2020 04:30:00Z	 SAID32 WIOO 070430	METAR WIOO 070430Z 03004KT 9999 BKN012 31/24 Q1009 NOSIG=
07/09/2020 05:00:00Z	 SAID32 WIOO 070500	METAR WIOO 070500Z 02004KT 9999 BKN012 31/23 Q1009 NOSIG=
07/09/2020 05:30:00Z	 SAID32 WIOO 070530	METAR WIOO 070530Z 04004KT 9999 BKN012 32/24 Q1008 NOSIG=
07/09/2020 06:00:00Z	 SAID32 WIOO 070600	METAR WIOO 070600Z 08005KT 9999 BKN012 32/23 Q1008 NOSIG=
07/09/2020 06:30:00Z	 SAID32 WIOO 070630	METAR WIOO 070630Z 30004KT 9999 BKN012 33/23 Q1007 NOSIG=
07/09/2020 07:00:00Z	 SAID32 WIOO 070700	METAR WIOO 070700Z 30003KT 9999 BKN012 33/23 Q1007 NOSIG=
07/09/2020 07:30:00Z	 SAID32 WIOO 070730	METAR WIOO 070730Z 27003KT 9999 FEW011CB BKN012 33/23 Q1006 NOSIG=
07/09/2020 08:00:00Z	 SAID32 WIOO 070800	METAR WIOO 070800Z 30003KT 9999 FEW011CB BKN012 33/23 Q1006 NOSIG=
07/09/2020 08:30:00Z	 SAID32 WIOO 070830	METAR WIOO 070830Z 24010KT 8000 FEW010CB BKN011 32/23 Q1006 NOSIG=
07/09/2020 09:00:00Z	 SAID32 WIOO 070900	METAR WIOO 070900Z 26015KT 8000 TS FEW010CB BKN011 29/24 Q1007 NOSIG=
07/09/2020 09:30:00Z	 SAID32 WIOO 070930	METAR WIOO 070930Z 30010KT 8000 TS FEW010CB BKN011 26/24 Q1007 NOSIG=
07/09/2020 10:00:00Z	 SAID32 WIOO 071000	METAR WIOO 071000Z 00000KT 6000 TSRA FEW010CB BKN011 25/24 Q1008 NOSIG=
07/09/2020 10:30:00Z	 SAID32 WIOO 071030	METAR WIOO 071030Z 25004KT 6000 TSRA FEW010CB BKN011 25/24 Q1008 BECMG FM1130 6000=
07/09/2020 11:00:00Z	 SAID32 WIOO 071100	METAR WIOO 071100Z 21003KT 2500 TSRA FEW010CB BKN011 25/24 Q1008 NOSIG=
07/09/2020 11:30:00Z	 SAID32 WIOO 071130	METAR WIOO 071130Z 00000KT 6000 -TSRA FEW010CB BKN011 25/24 Q1009 NOSIG=
07/09/2020 12:00:00Z	 SAID32 WIOO 071200	METAR WIOO 071200Z 00000KT 6000 -TSRA FEW010CB BKN011 25/24 Q1009 NOSIG=
07/09/2020 12:30:00Z	 SAID32 WIOO 071230	METAR WIOO 071230Z 00000KT 6000 -TSRA FEW010CB BKN011 25/24 Q1009 NOSIG=
07/09/2020 13:00:00Z	 SAID32 WIOO 071300	METAR WIOO 071300Z 19003KT 6000 -RA FEW010CB BKN011 25/24 Q1009 RETS NOSIG=
07/09/2020 13:30:00Z	 SAID32 WIOO 071330	METAR WIOO 071330Z 16003KT 6000 -RA FEW010CB BKN011 25/24 Q1010 NOSIG=
07/09/2020 14:00:00Z	 SAID32 WIOO 071400	METAR WIOO 071400Z 00000KT 6000 -RA FEW010CB BKN011 25/24 Q1010 NOSIG=
07/09/2020 14:30:00Z	 SAID32 WIOO 071430	METAR WIOO 071430Z 00000KT 6000 FEW010CB BKN011 26/24 Q1010 RERA NOSIG=
07/09/2020 15:00:00Z	 SAID32 WIOO 071500	METAR WIOO 071500Z 12003KT 5000 -RA FEW010CB BKN011 25/24 Q1011 NOSIG=
07/09/2020 15:30:00Z	 SAID32 WIOO 071530	METAR WIOO 071530Z 00000KT 6000 FEW010CB BKN011 25/24 Q1011 RERA NOSIG=
07/09/2020 16:00:00Z	 SAID32 WIOO 071600	METAR WIOO 071600Z 00000KT 6000 BKN010 25/24 Q1011 NOSIG=
07/09/2020 16:30:00Z	 SAID32 WIOO 071630	METAR WIOO 071630Z 00000KT 6000 BKN010 25/24 Q1011 NOSIG=
07/09/2020 17:00:00Z	 SAID32 WIOO 071700	METAR WIOO 071700Z 00000KT 6000 BKN010 25/24 Q1011 NOSIG=
07/09/2020 17:30:00Z	 SAID32 WIOO 071730	METAR WIOO 071730Z 00000KT 6000 BKN010 24/23 Q1011 NOSIG=
07/09/2020 18:00:00Z	 SAID32 WIOO 071800	METAR WIOO 071800Z 00000KT 6000 FEW010CB BKN011 24/24 Q1010 NOSIG=
07/09/2020 18:30:00Z	 SAID32 WIOO 071830	METAR WIOO 071830Z 00000KT 6000 FEW010CB BKN011 24/24 Q1010 NOSIG=
07/09/2020 19:00:00Z	 SAID32 WIOO 071900	METAR WIOO 071900Z 00000KT 6000 FEW010CB BKN011 24/23 Q1010 NOSIG=
07/09/2020 19:30:00Z	 SAID32 WIOO 071930	METAR WIOO 071930Z 00000KT 6000 FEW010CB BKN011 24/23 Q1010 NOSIG=
07/09/2020 20:00:00Z	 SAID32 WIOO 072000	METAR WIOO 072000Z 00000KT 6000 BKN011 24/23 Q1010 NOSIG=
07/09/2020 20:30:00Z	 SAID32 WIOO 072030	METAR WIOO 072030Z 00000KT 6000 BKN011 24/23 Q1010 NOSIG=
07/09/2020 21:00:00Z	 SAID32 WIOO 072100	METAR WIOO 072100Z 00000KT 6000 BN011 24/23 Q1010 NOSIG=
07/09/2020 21:02:00Z	 SAID32 WIOO 072102 CCA	METAR COR WIOO 072100Z 00000KT 6000 BKN011 24/23 Q1010 NOSIG=
07/09/2020 21:30:00Z	 SAID32 WIOO 072130	METAR WIOO 072130Z 00000KT 6000 BKN011 24/23 Q1010 NOSIG=
07/09/2020 22:00:00Z	 SAID32 WIOO 072200	METAR WIOO 072200Z 05003KT 6000 BKN010 24/23 Q1011 NOSIG=
07/09/2020 22:30:00Z	 SAID32 WIOO 072230	METAR WIOO 072230Z 00000KT 6000 BKN008 24/23 Q1011 NOSIG=
07/09/2020 23:00:00Z	 SAID32 WIOO 072300	METAR WIOO 072300Z 00000KT 7000 BKN007 24/23 Q1011 NOSIG=
07/09/2020 23:30:00Z	 SAID32 WIOO 072330	METAR WIOO 072330Z 12003KT 6000 BKN006 24/23 Q1011 NOSIG=
08/09/2020 00:00:00Z	 SAID32 WIOO 080000	METAR WIOO 080000Z 09004KT 9000 BKN006 24/23 Q1012 NOSIG=
08/09/2020 00:30:00Z	 SAID32 WIOO 080030	METAR WIOO 080030Z 10004KT 9999 BKN008 25/24 Q1012 NOSIG=
08/09/2020 01:00:00Z	 SAID32 WIOO 080100	METAR WIOO 080100Z 12003KT 9999 FEW009 26/24 Q1012 NOSIG=
08/09/2020 01:30:00Z	 SAID32 WIOO 080130	METAR WIOO 080130Z 09004KT 9999 FEW010 27/24 Q1012 NOSIG=
08/09/2020 02:00:00Z	 SAID32 WIOO 080200	METAR WIOO 080200Z 06006KT 9999 FEW010 28/24 Q1012 NOSIG=
08/09/2020 02:30:00Z	 SAID32 WIOO 080230	METAR WIOO 080230Z 07003KT 9999 SCT011 29/25 Q1012 NOSIG=
08/09/2020 03:00:00Z	 SAID32 WIOO 080300	METAR WIOO 080300Z 05005KT 9999 BKN011 30/25 Q1012 NOSIG=
08/09/2020 03:30:00Z	 SAID32 WIOO 080330	METAR WIOO 080330Z 00000KT 9999 BKN011 30/24 Q1011 NOSIG=
08/09/2020 04:00:00Z	 SAID32 WIOO 080400	METAR WIOO 080400Z 11004KT 9999 BKN011 31/24 Q1011 NOSIG=
08/09/2020 04:30:00Z	 SAID32 WIOO 080430	METAR WIOO 080430Z 08005KT 9999 SCT011 32/24 Q1011 NOSIG=
08/09/2020 05:00:00Z	 SAID32 WIOO 080500	METAR WIOO 080500Z 09003KT 9999 BKN012 32/24 Q1010 NOSIG=
08/09/2020 05:30:00Z	 SAID32 WIOO 080530	METAR WIOO 080530Z 07005KT 9999 FEW011CB BKN012 32/24 Q1009 NOSIG=
08/09/2020 06:00:00Z	 SAID32 WIOO 080600	METAR WIOO 080600Z 34005KT 9999 FEW011CB BKN012 33/24 Q1008 TEMPO FM0700 7000 TS=
08/09/2020 06:30:00Z	 SAID32 WIOO 080630	METAR WIOO 080630Z 17007KT 9999 FEW011CB BKN012 33/24 Q1008 TEMPO FM0700 7000 TS=
08/09/2020 07:00:00Z	 SAID32 WIOO 080700	METAR WIOO 080700Z 18004KT 9999 FEW010CB BKN011 32/24 Q1007 TEMPO FM0730 4000 RA=
08/09/2020 07:30:00Z	 SAID32 WIOO 080730	METAR WIOO 080730Z 23004KT 9000 FEW010CB BKN011 33/25 Q1007 NOSIG=
08/09/2020 08:00:00Z	 SAID32 WIOO 080800	METAR WIOO 080800Z 23012KT 8000 FEW010CB BKN011 30/25 Q1007 TEMPO FM0820 3000 RA=
08/09/2020 08:30:00Z	 SAID32 WIOO 080830	METAR WIOO 080830Z 23012KT 8000 FEW010CB BKN011 29/24 Q1007 TEMPO FM0845 3000 TSRA=
08/09/2020 09:00:00Z	 SAID32 WIOO 080900	METAR WIOO 080900Z 19016KT 0400 FEW009CB BKN010 25/24 Q1008 NOSIG=
08/09/2020 09:00:00Z	 SAID32 WIOO 080900 CCA	METAR COR WIOO 080900Z 19016KT 0400 +RA FEW009CB BKN010 25/24 Q1008 NOSIG=
08/09/2020 09:30:00Z	 SAID32 WIOO 080930	METAR WIOO 080930Z 19012KT 0300 +RA FEW005CB OVC006 24/24 Q1008 TEMPO FM1030 3000 TSRA=
08/09/2020 10:00:00Z	 SAID32 WIOO 081000	METAR WIOO 081000Z 19007KT 0600 +TSRA FEW006CB OVC007 24/24 Q1009 TEMPO FM1030 3000 TSRA=
08/09/2020 10:30:00Z	 SAID32 WIOO 081030	METAR WIOO 081030Z 19007KT 5000 -RA FEW008CB BKN009 24/24 Q1008 RETS NOSIG=
08/09/2020 11:00:00Z	 SAID32 WIOO 081100	METAR WIOO 081100Z 12003KT 6000 -RA FEW010CB BKN011 24/24 Q1009 NOSIG=
08/09/2020 11:30:00Z	 SAID32 WIOO 081130	METAR WIOO 081130Z 05003KT 6000 -RA BKN011 25/24 Q1009 NOSIG=
08/09/2020 12:00:00Z	 SAID32 WIOO 081200	METAR WIOO 081200Z 09004KT 6000 -RA BKN011 25/24 Q1010 NOSIG=
08/09/2020 12:30:00Z	 SAID32 WIOO 081230	METAR WIOO 081230Z 05004KT 5000 -RA BKN011 25/24 Q1010 NOSIG=
08/09/2020 13:00:00Z	 SAID32 WIOO 081300	METAR WIOO 081300Z 00000KT 6000 -RA BKN011 25/24 Q1011 NOSIG=
08/09/2020 13:30:00Z	 SAID32 WIOO 081330	METAR WIOO 081330Z 0703KT 6000 -RA BKN011 25/24 Q1011 NOSIG=
08/09/2020 13:30:00Z	 SAID32 WIOO 081330 CCA	METAR COR WIOO 081330Z 07003KT 6000 -RA BKN011 25/24 Q1011 NOSIG=
08/09/2020 14:00:00Z	 SAID32 WIOO 081400	METAR WIOO 081400Z 04003KT 6000 -RA BKN011 25/24 Q1011 NOSIG=
08/09/2020 14:30:00Z	 SAID32 WIOO 081430	METAR WIOO 081430Z 00000KT 6000 -RA BKN011 25/24 Q1012 NOSIG=
08/09/2020 15:00:00Z	 SAID32 WIOO 081500	METAR WIOO 081500Z 00000KT 6000 BKN011 24/24 Q1012 RERA NOSIG=
08/09/2020 15:30:00Z	 SAID32 WIOO 081530	METAR WIOO 081530Z 00000KT 6000 -RA BKN008 24/24 Q1012 NOSIG=
08/09/2020 16:00:00Z	 SAID32 WIOO 081600	METAR WIOO 081600Z 03003KT 6000 BKN011 24/23 Q1012 RERA NOSIG=
08/09/2020 16:30:00Z	 SAID32 WIOO 081630	METAR WIOO 081630Z 00000KT 6000 BKN011 24/23 Q1012 NOSIG=
08/09/2020 17:00:00Z	 SAID32 WIOO 081700	METAR WIOO 081700Z 06003KT 6000 BKN011 24/23 Q1011 NOSIG=
08/09/2020 17:30:00Z	 SAID32 WIOO 081730	METAR WIOO 081730Z 04003KT 6000 BKN011 24/23 Q1010 NOSIG=
08/09/2020 18:00:00Z	 SAID32 WIOO 081800	METAR WIOO 081800Z 00000KT 6000 -RA BKN011 24/23 Q1010 NOSIG=
08/09/2020 18:30:00Z	 SAID32 WIOO 081830	METAR WIOO 081830Z 00000KT 6000 -RA BKN010 24/23 Q1010 NOSIG=
08/09/2020 19:00:00Z	 SAID32 WIOO 081900	METAR WIOO 081900Z 00000KT 6000 -RA BKN010 24/23 Q1010 NOSIG=
08/09/2020 19:30:00Z	 SAID32 WIOO 081930	METAR WIOO 081930Z 00000KT 6000 -RA BKN010 24/23 Q1010 NOSIG=
08/09/2020 20:00:00Z	 SAID32 WIOO 082000	METAR WIOO 082000Z 00000KT 6000 -RA BKN010 24/23 Q1010 NOSIG=
08/09/2020 20:30:00Z	 SAID32 WIOO 082030	METAR WIOO 082030Z 00000KT 6000 -RA BKN010 24/23 Q1010 NOSIG=
08/09/2020 21:00:00Z	 SAID32 WIOO 082100	METAR WIOO 082100Z 00000KT 6000 -RA BKN010 24/23 Q1010 NOSIG=
08/09/2020 21:30:00Z	 SAID32 WIOO 082130	METAR WIOO 082130Z 00000KT 6000 -RA BKN010 24/23 Q1009 NOSIG=
08/09/2020 22:00:00Z	 SAID32 WIOO 082200	METAR WIOO 082200Z 00000KT 6000 -RA BKN010 24/23 Q1009 NOSIG=
08/09/2020 22:30:00Z	 SAID32 WIOO 082230	METAR WIOO 082230Z 16003KT 6000 -RA BKN010 24/23 Q1009 NOSIG=
08/09/2020 23:00:00Z	 SAID32 WIOO 082300	METAR WIOO 082300Z 15003KT 6000 -RA BKN010 24/23 Q1009 NOSIG=
08/09/2020 23:30:00Z	 SAID32 WIOO 082330	METAR WIOO 082330Z 00000KT 6000 -RA BKN007 24/23 Q1009 NOSIG=
09/09/2020 00:00:00Z	 SAID32 WIOO 090000	METAR WIOO 090000Z 31003KT 9999 BKN010 24/23 Q1009 RERA NOSIG=
09/09/2020 00:30:00Z	 SAID32 WIOO 090030	METAR WIOO 090030Z 03003KT 9999 BKN010 24/23 Q1009 NOSIG=
09/09/2020 00:59:00Z	 SAID32 WIOO 090059	METAR WIOO 090100Z 00000KT 9999 BKN011 25/24 Q1010 NOSIG=
09/09/2020 01:28:00Z	 SAID32 WIOO 090128	METAR WIOO 090130Z 00000KT 9999 BKN011 25/24 Q1010 NOSIG=
09/09/2020 01:58:00Z	 SAID32 WIOO 090158	METAR WIOO 090200Z 00000KT 9999 BKN011 25/24 Q1010 NOSIG=
09/09/2020 02:30:00Z	 SAID32 WIOO 090230	METAR WIOO 090230Z 18003KT 9999 SCT011 26/24 Q1010 NOSIG=
09/09/2020 03:00:00Z	 SAID32 WIOO 090300	METAR WIOO 090300Z 00000KT 9999 BKN011 26/24 Q1011 NOSIG=
09/09/2020 03:30:00Z	 SAID32 WIOO 090330	METAR WIOO 090330Z 04003KT 9999 SCT011 27/24 Q1010 NOSIG=
09/09/2020 04:00:00Z	 SAID32 WIOO 090400	METAR WIOO 090400Z 07004KT 9999 SCT011 28/24 Q1010 NOSIG=
09/09/2020 04:30:00Z	 SAID32 WIOO 090430	METAR WIOO 090430Z 03003KT 9999 SCT011 28/24 Q1010 NOSIG=
09/09/2020 05:00:00Z	 SAID32 WIOO 090500	METAR WIOO 090500Z 12003KT 9999 SCT011 29/24 Q1009 NOSIG=
09/09/2020 05:30:00Z	 SAID32 WIOO 090530	METAR WIOO 090530Z 00000KT 9999 SCT011 30/24 Q1008 NOSIG=
09/09/2020 06:00:00Z	 SAID32 WIOO 090600	METAR WIOO 090600Z 12003KT 9999 SCT012 30/23 Q1008 NOSIG=
09/09/2020 06:30:00Z	 SAID32 WIOO 090630	METAR WIOO 090630Z 17003KT 9999 SCT012 31/22 Q1007 NOSIG=
09/09/2020 07:00:00Z	 SAID32 WIOO 090700	METAR WIOO 090700Z 09003KT 9999 SCT012 31/22 Q1006 NOSIG=
09/09/2020 07:30:00Z	 SAID32 WIOO 090730	METAR WIOO 090730Z 23003KT 9999 SCT012 32/23 Q1006 NOSIG=
09/09/2020 08:00:00Z	 SAID32 WIOO 090800	METAR WIOO 090800Z 20003KT 9999 SCT012 31/23 Q1005 NOSIG=
09/09/2020 08:30:00Z	 SAID32 WIOO 090830	METAR WIOO 090830Z 23004KT 9999 SCT012 31/23 Q1005 NOSIG=
09/09/2020 09:00:00Z	 SAID32 WIOO 090900	METAR WIOO 090900Z 21004KT 9999 SCT012 31/24 Q1005 NOSIG=
09/09/2020 09:30:00Z	 SAID32 WIOO 090930	METAR WIOO 090930Z 15005KT 9999 SCT012 31/23 Q1006 NOSIG=
09/09/2020 10:00:00Z	 SAID32 WIOO 091000	METAR WIOO 091000Z 23004KT 9999 SCT012 31/24 Q1006 NOSIG=
09/09/2020 10:30:00Z	 SAID32 WIOO 091030	METAR WIOO 091030Z 20003KT 8000 SCT012 30/24 Q1006 NOSIG=
09/09/2020 11:00:00Z	 SAID32 WIOO 091100	METAR WIOO 091100Z 24004KT 8000 SCT012 29/25 Q1006 NOSIG=
09/09/2020 11:30:00Z	 SAID32 WIOO 091130	METAR WIOO 091130Z 25004KT 6000 SCT011 28/25 Q1007 NOSIG=
09/09/2020 12:00:00Z	 SAID32 WIOO 091200	METAR WIOO 091200Z 25004KT 6000 SCT011 28/25 Q1007 NOSIG=
09/09/2020 12:30:00Z	 SAID32 WIOO 091230	METAR WIOO 091230Z 00000KT 6000 SCT011 27/25 Q1008 NOSIG=
09/09/2020 13:00:00Z	 SAID32 WIOO 091300	METAR WIOO 091300Z 00000KT 6000 SCT011 27/25 Q1008 NOSIG=
09/09/2020 13:30:00Z	 SAID32 WIOO 091330	METAR WIOO 091330Z 00000KT 6000 SCT011 27/25 Q1008 NOSIG=
09/09/2020 14:00:00Z	 SAID32 WIOO 091400	METAR WIOO 091400Z 00000KT 6000 SCT012 27/25 Q1009 NOSIG=
09/09/2020 14:30:00Z	 SAID32 WIOO 091430	METAR WIOO 091430Z 00000KT 6000 SCT012 26/24 Q1009 NOSIG=
09/09/2020 15:00:00Z	 SAID32 WIOO 091500	METAR WIOO 091500Z 00000KT 6000 SCT012 26/24 Q1009 NOSIG=
09/09/2020 15:30:00Z	 SAID32 WIOO 091530	METAR WIOO 091530Z 04003KT 6000 SCT012 26/24 Q1009 NOSIG=
09/09/2020 16:00:00Z	 SAID32 WIOO 091600	METAR WIOO 091600Z 00000KT 6000 SCT012 26/24 Q1009 NOSIG=
09/09/2020 16:30:00Z	 SAID32 WIOO 091630	METAR WIOO 091630Z 00000KT 6000 SCT012 26/24 Q1009 NOSIG=
