01/06/2022 00:00:00Z	 SAID32 WIBB 010000	METAR WIBB 010000Z 00000KT 8000 FEW015 25/24 Q1007=
01/06/2022 00:30:00Z	 SAID32 WIBB 010030	METAR WIBB 010030Z 00000KT 8000 FEW015 25/24 Q1007=
01/06/2022 01:30:00Z	 SAID32 WIBB 010130	METAR WIBB 010130Z 00000KT 8000 NSC 27/24 Q1008=
01/06/2022 02:00:00Z	 SAID32 WIBB 010200	METAR WIBB 010200Z 33004KT 8000 NSC 28/24 Q1008=
01/06/2022 02:30:00Z	 SAID32 WIBB 010230	METAR WIBB 010230Z 31005KT 8000 FEW015 28/23 Q1008=
01/06/2022 03:00:00Z	 SAID32 WIBB 010300	METAR WIBB 010300Z 25004KT 8000 FEW015 29/23 Q1008=
01/06/2022 03:30:00Z	 SAID32 WIBB 010330	METAR WIBB 010330Z 26003KT 9000 FEW015 29/23 Q1008=
01/06/2022 04:00:00Z	 SAID32 WIBB 010400	METAR WIBB 010400Z 00000KT 9000 FEW015 31/22 Q1008=
01/06/2022 04:30:00Z	 SAID32 WIBB 010430	METAR WIBB 010430Z 00000KT 9000 FEW015 31/21 Q1008=
01/06/2022 05:00:00Z	 SAID32 WIBB 010500	METAR WIBB 010500Z 00000KT 9999 FEW015 31/21 Q1007=
01/06/2022 05:30:00Z	 SAID32 WIBB 010530	METAR WIBB 010530Z 00000KT 9999 FEW015 32/21 Q1007=
01/06/2022 06:00:00Z	 SAID32 WIBB 010600	METAR WIBB 010600Z 36007KT 9999 FEW010 33/21 Q1006=
01/06/2022 06:30:00Z	 SAID32 WIBB 010630	METAR WIBB 010630Z 33008KT 9999 SCT010 33/21 Q1006=
01/06/2022 07:00:00Z	 SAID32 WIBB 010700	METAR WIBB 010700Z 30006KT 9999 SCT010 32/19 Q1005=
01/06/2022 07:30:00Z	 SAID32 WIBB 010730	METAR WIBB 010730Z 30007KT 9999 SCT010 33/21 Q1005=
01/06/2022 08:00:00Z	 SAID32 WIBB 010800	METAR WIBB 010800Z 33006KT 9999 SCT010 33/21 Q1005=
01/06/2022 08:30:00Z	 SAID32 WIBB 010830	METAR WIBB 010830Z 33006KT 9999 SCT010 33/21 Q1004=
01/06/2022 09:00:00Z	 SAID32 WIBB 010900	METAR WIBB 010900Z 31007KT 9999 FEW010 32/21 Q1004=
01/06/2022 09:30:00Z	 SAID32 WIBB 010930	METAR WIBB 010930Z 00000KT 9999 FEW010 32/21 Q1004=
01/06/2022 10:00:00Z	 SAID32 WIBB 011000	METAR WIBB 011000Z 00000KT 9000 FEW015 32/21 Q1004=
01/06/2022 10:30:00Z	 SAID32 WIBB 011030	METAR WIBB 011030Z 00000KT 9000 FEW015 31/22 Q1004=
01/06/2022 11:00:00Z	 SAID32 WIBB 011100	METAR WIBB 011100Z 29003KT 9000 SCT013 31/22 Q1004=
01/06/2022 11:30:00Z	 SAID32 WIBB 011130	METAR WIBB 011130Z 00000KT 9000 SCT013 31/21 Q1004=
01/06/2022 12:00:00Z	 SAID32 WIBB 011200	METAR WIBB 011200Z 00000KT 8000 SCT013 30/21 Q1005=
01/06/2022 12:30:00Z	 SAID32 WIBB 011230	METAR WIBB 011230Z 00000KT 8000 SCT013 29/24 Q1005=
01/06/2022 13:00:00Z	 SAID32 WIBB 011300	METAR WIBB 011300Z 00000KT 8000 FEW015 28/23 Q1005=
01/06/2022 13:30:00Z	 SAID32 WIBB 011330	METAR WIBB 011330Z 00000KT 8000 FEW015 28/23 Q1006=
01/06/2022 14:00:00Z	 SAID32 WIBB 011400	METAR WIBB 011400Z 00000KT 8000 FEW015 27/24 Q1006=
01/06/2022 14:30:00Z	 SAID32 WIBB 011430	METAR WIBB 011430Z 00000KT 8000 FEW015 27/24 Q1006=
01/06/2022 15:00:00Z	 SAID32 WIBB 011500	METAR WIBB 011500Z 00000KT 8000 FEW015 27/24 Q1007=
01/06/2022 15:30:00Z	 SAID32 WIBB 011530	METAR WIBB 011530Z 00000KT 8000 FEW015 27/25 Q1007=
01/06/2022 16:00:00Z	 SAID32 WIBB 011600	METAR WIBB 011600Z 00000KT 8000 FEW015 28/24 Q1007=
01/06/2022 16:30:00Z	 SAID32 WIBB 011630	METAR WIBB 011630Z 00000KT 8000 FEW015 28/25 Q1008=
01/06/2022 17:00:00Z	 SAID32 WIBB 011700	METAR WIBB 011700Z 32006KT 7000 -RA SCT013 27/24 Q1008=
01/06/2022 17:30:00Z	 SAID32 WIBB 011730	METAR WIBB 011730Z 00000KT 7000 -RA SCT014 26/24 Q1007=
01/06/2022 18:00:00Z	 SAID32 WIBB 011800	METAR WIBB 011800Z 00000KT 7000 SCT013 26/24 Q1007=
01/06/2022 18:30:00Z	 SAID32 WIBB 011830	METAR WIBB 011830Z 00000KT 7000 SCT013 26/23 Q1007=
01/06/2022 19:00:00Z	 SAID32 WIBB 011900	METAR WIBB 011900Z AUTO VRB02KT 9999 ////// 26/23 Q1006=
01/06/2022 19:30:00Z	 SAID32 WIBB 011930	METAR WIBB 011930Z AUTO 11003KT 9999 ////// 26/23 Q1006=
01/06/2022 20:00:00Z	 SAID32 WIBB 012000	METAR WIBB 012000Z AUTO 12004KT 090V160 9999 ////// 26/23 Q1006=
01/06/2022 20:30:00Z	 SAID32 WIBB 012030	METAR WIBB 012030Z AUTO VRB02KT 9999 ////// 26/24 Q1006=
01/06/2022 21:00:00Z	 SAID32 WIBB 012100	METAR WIBB 012100Z 00000KT 7000 VCTS FEW013 FEW016CB 25/24 Q1006=
01/06/2022 21:30:00Z	 SAID32 WIBB 012130	METAR WIBB 012130Z AUTO VRB02KT 9999 ////// 25/24 Q1006=
01/06/2022 22:00:00Z	 SAID32 WIBB 012200	METAR WIBB 012200Z AUTO VRB02KT 9999 -RA ////// 25/24 Q1007=
01/06/2022 22:30:00Z	 SAID32 WIBB 012230	METAR WIBB 012230Z 00000KT 7000 -RA SCT013 25/24 Q1007=
01/06/2022 23:00:00Z	 SAID32 WIBB 012300	METAR WIBB 012300Z 00000KT 7000 -RA SCT013 25/23 Q1007=
01/06/2022 23:30:00Z	 SAID32 WIBB 012330	METAR WIBB 012330Z 00000KT 7000 FEW013 24/24 Q1007=
02/06/2022 00:00:00Z	 SAID32 WIBB 020000	METAR WIBB 020000Z 00000KT 7000 FEW013 25/24 Q1007=
02/06/2022 00:30:00Z	 SAID32 WIBB 020030	METAR WIBB 020030Z 00000KT 7000 FEW013 26/23 Q1007=
02/06/2022 01:00:00Z	 SAID32 WIBB 020100	METAR WIBB 020100Z 00000KT 9999 FEW015 26/24 Q1008 NOSIG=
02/06/2022 01:30:00Z	 SAID32 WIBB 020130	METAR WIBB 020130Z 00000KT 9999 FEW015 27/23 Q1008 NOSIG=
02/06/2022 02:00:00Z	 SAID32 WIBB 020200	METAR WIBB 020200Z 00000KT CAVOK 28/23 Q1009=
02/06/2022 02:30:00Z	 SAID32 WIBB 020230	METAR WIBB 020230Z 00000KT CAVOK 28/23 Q1009=
02/06/2022 03:00:00Z	 SAID32 WIBB 020300	METAR WIBB 020300Z 00000KT 9999 FEW012 28/23 Q1008 NOSIG=
02/06/2022 03:30:00Z	 SAID32 WIBB 020330	METAR WIBB 020330Z 00000KT 9999 SCT012 29/23 Q1008 NOSIG=
02/06/2022 04:00:00Z	 SAID32 WIBB 020400	METAR WIBB 020400Z 00000KT 9999 SCT012 29/23 Q1008 NOSIG=
02/06/2022 04:30:00Z	 SAID32 WIBB 020430	METAR WIBB 020430Z 00000KT 9999 SCT012 29/23 Q1008 NOSIG=
02/06/2022 05:00:00Z	 SAID32 WIBB 020500	METAR WIBB 020500Z 00000KT 9999 SCT012 29/23 Q1008 NOSIG=
02/06/2022 05:30:00Z	 SAID32 WIBB 020530	METAR WIBB 020530Z 00000KT 9999 SCT012 30/22 Q1007 NOSIG=
02/06/2022 06:00:00Z	 SAID32 WIBB 020600	METAR WIBB 020600Z 00000KT 9999 SCT012 30/23 Q1007 NOSIG=
02/06/2022 06:30:00Z	 SAID32 WIBB 020630	METAR WIBB 020630Z 00000KT 9999 SCT012 30/22 Q1007 NOSIG=
02/06/2022 07:00:00Z	 SAID32 WIBB 020700	METAR WIBB 020700Z 00000KT 9999 SCT012 31/22 Q1006=
02/06/2022 07:30:00Z	 SAID32 WIBB 020730	METAR WIBB 020730Z 00000KT 9999 SCT012 31/22 Q1006=
02/06/2022 08:00:00Z	 SAID32 WIBB 020800	METAR WIBB 020800Z 32005KT 9999 SCT012 31/22 Q1006=
02/06/2022 08:30:00Z	 SAID32 WIBB 020830	METAR WIBB 020830Z 00000KT 9999 SCT012 30/22 Q1005=
02/06/2022 09:00:00Z	 SAID32 WIBB 020900	METAR WIBB 020900Z 00000KT 9999 SCT012 30/22 Q1005=
02/06/2022 09:30:00Z	 SAID32 WIBB 020930	METAR WIBB 020930Z 00000KT 9999 SCT012 30/23 Q1005=
02/06/2022 10:00:00Z	 SAID32 WIBB 021000	METAR WIBB 021000Z 00000KT 8000 SCT012 29/23 Q1006=
02/06/2022 10:30:00Z	 SAID32 WIBB 021030	METAR WIBB 021030Z 00000KT 8000 SCT012 29/24 Q1006=
02/06/2022 11:00:00Z	 SAID32 WIBB 021100	METAR WIBB 021100Z 16006KT 8000 SCT012 29/24 Q1006=
02/06/2022 11:30:00Z	 SAID32 WIBB 021130	METAR WIBB 021130Z 16005KT 8000 SCT012 28/25 Q1007=
02/06/2022 12:00:00Z	 SAID32 WIBB 021200	METAR WIBB 021200Z 19007KT 7000 SCT012 27/23 Q1007=
02/06/2022 12:30:00Z	 SAID32 WIBB 021230	METAR WIBB 021230Z 18008KT 7000 SCT012 27/21 Q1007=
02/06/2022 13:00:00Z	 SAID32 WIBB 021300	METAR WIBB 021300Z 19006KT 7000 BKN010 27/22 Q1008=
02/06/2022 13:30:00Z	 SAID32 WIBB 021330	METAR WIBB 021330Z 17005KT 7000 BKN010 27/22 Q1008=
02/06/2022 14:00:00Z	 SAID32 WIBB 021400	METAR WIBB 021400Z 22006KT 7000 SCT010 26/22 Q1008=
02/06/2022 14:30:00Z	 SAID32 WIBB 021430	METAR WIBB 021430Z 18008KT 7000 SCT010 25/22 Q1009=
02/06/2022 15:00:00Z	 SAID32 WIBB 021500	METAR WIBB 021500Z 19008KT 7000 VCTS SCT010 FEW015CB 25/22 Q1009 RMK CB TO SE=
02/06/2022 15:30:00Z	 SAID32 WIBB 021530	METAR WIBB 021530Z 19008KT 7000 SCT010 FEW015CB 25/22 Q1009 RMK CB TO SE=
02/06/2022 16:00:00Z	 SAID32 WIBB 021600	METAR WIBB 021600Z 17007KT 7000 SCT010 FEW015CB 25/22 Q1009 RMK CB TO SE=
02/06/2022 16:30:00Z	 SAID32 WIBB 021630	METAR WIBB 021630Z 17006KT 7000 SCT010 FEW015CB 25/22 Q1010=
02/06/2022 17:00:00Z	 SAID32 WIBB 021700	METAR WIBB 021700Z 19008KT 7000 SCT010 FEW015CB 25/22 Q1010=
02/06/2022 17:30:00Z	 SAID32 WIBB 021730	METAR WIBB 021730Z 18008KT 7000 SCT010 FEW015CB 25/23 Q1009=
02/06/2022 18:00:00Z	 SAID32 WIBB 021800	METAR WIBB 021800Z 18005KT 7000 SCT010 FEW015CB 25/23 Q1009=
02/06/2022 18:30:00Z	 SAID32 WIBB 021830	METAR WIBB 021830Z AUTO 24003KT 220V290 9999 ////// 24/23 Q1008=
02/06/2022 19:00:00Z	 SAID32 WIBB 021900	METAR WIBB 021900Z AUTO VRB02KT 9999 ////// 24/23 Q1008=
02/06/2022 19:30:00Z	 SAID32 WIBB 021930	METAR WIBB 021930Z AUTO 36001KT 9999 ////// 24/23 Q1008=
02/06/2022 20:00:00Z	 SAID32 WIBB 022000	METAR WIBB 022000Z AUTO 18002KT 9999 ////// 24/23 Q1008=
02/06/2022 20:30:00Z	 SAID32 WIBB 022030	METAR WIBB 022030Z AUTO 21003KT 180V240 9999 ////// 24/23 Q1008=
02/06/2022 21:00:00Z	 SAID32 WIBB 022100	METAR WIBB 022100Z 00000KT 7000 SCT010 24/23 Q1008=
02/06/2022 21:30:00Z	 SAID32 WIBB 022130	METAR WIBB 022130Z 00000KT 7000 SCT010 24/23 Q1008=
02/06/2022 22:00:00Z	 SAID32 WIBB 022200	METAR WIBB 022200Z 00000KT 7000 BKN010 24/23 Q1008=
02/06/2022 22:30:00Z	 SAID32 WIBB 022230	METAR WIBB 022230Z 00000KT 7000 BKN010 24/23 Q1008=
02/06/2022 23:00:00Z	 SAID32 WIBB 022300	METAR WIBB 022300Z 34004KT 6000 BKN009 24/23 Q1009=
02/06/2022 23:30:00Z	 SAID32 WIBB 022330	METAR WIBB 022330Z 00000KT 7000 BKN009 FEW015CB 24/23 Q1008=
03/06/2022 00:00:00Z	 SAID32 WIBB 030000	METAR WIBB 030000Z 00000KT 7000 BKN010 24/23 Q1009=
03/06/2022 00:30:00Z	 SAID32 WIBB 030030	METAR WIBB 030030Z 00000KT 6000 BKN010 25/23 Q1009=
03/06/2022 01:00:00Z	 SAID32 WIBB 030100	METAR WIBB 030100Z 00000KT 8000 FEW015 25/22 Q1009=
03/06/2022 01:30:00Z	 SAID32 WIBB 030130	METAR WIBB 030130Z 00000KT 8000 FEW015 26/23 Q1009=
03/06/2022 02:00:00Z	 SAID32 WIBB 030200	METAR WIBB 030200Z 00000KT 9999 FEW015 27/23 Q1009=
03/06/2022 02:30:00Z	 SAID32 WIBB 030230	METAR WIBB 030230Z 00000KT 9999 FEW015 27/22 Q1008=
03/06/2022 03:00:00Z	 SAID32 WIBB 030300	METAR WIBB 030300Z 00000KT 9999 FEW015 29/21 Q1008=
03/06/2022 03:30:00Z	 SAID32 WIBB 030330	METAR WIBB 030330Z 00000KT 9999 FEW015 29/21 Q1008=
03/06/2022 04:00:00Z	 SAID32 WIBB 030400	METAR WIBB 030400Z 00000KT 9999 FEW015 30/22 Q1008=
03/06/2022 04:30:00Z	 SAID32 WIBB 030430	METAR WIBB 030430Z 00000KT 9999 FEW015 31/22 Q1007=
03/06/2022 05:00:00Z	 SAID32 WIBB 030500	METAR WIBB 030500Z 00000KT 9999 FEW015 31/21 Q1007=
03/06/2022 05:30:00Z	 SAID32 WIBB 030530	METAR WIBB 030530Z 22005KT 9999 FEW015 32/22 Q1007=
03/06/2022 06:00:00Z	 SAID32 WIBB 030600	METAR WIBB 030600Z 00000KT 9999 FEW015 32/22 Q1006=
03/06/2022 06:30:00Z	 SAID32 WIBB 030630	METAR WIBB 030630Z 00000KT 9999 FEW015 32/21 Q1006=
03/06/2022 07:00:00Z	 SAID32 WIBB 030700	METAR WIBB 030700Z 00000KT 9999 SCT015 34/22 Q1006 NOSIG=
03/06/2022 07:30:00Z	 SAID32 WIBB 030730	METAR WIBB 030730Z 00000KT 9999 SCT015 33/22 Q1005 NOSIG=
03/06/2022 08:00:00Z	 SAID32 WIBB 030800	METAR WIBB 030800Z 00000KT 9999 SCT015 33/22 Q1005 NOSIG=
03/06/2022 08:30:00Z	 SAID32 WIBB 030830	METAR WIBB 030830Z 29004KT 9999 SCT015 33/21 Q1005 NOSIG=
03/06/2022 09:00:00Z	 SAID32 WIBB 030900	METAR WIBB 030900Z 00000KT 9999 SCT015 33/22 Q1005 NOSIG=
03/06/2022 09:30:00Z	 SAID32 WIBB 030930	METAR WIBB 030930Z 00000KT 9999 SCT015 32/22 Q1005 NOSIG=
03/06/2022 10:00:00Z	 SAID32 WIBB 031000	METAR WIBB 031000Z 10004KT 9999 SCT015 32/22 Q1005 NOSIG=
03/06/2022 10:30:00Z	 SAID32 WIBB 031030	METAR WIBB 031030Z 00000KT 9000 FEW015 32/22 Q1005 NOSIG=
03/06/2022 11:00:00Z	 SAID32 WIBB 031100	METAR WIBB 031100Z 00000KT 9000 FEW015 31/22 Q1006 NOSIG=
03/06/2022 11:30:00Z	 SAID32 WIBB 031130	METAR WIBB 031130Z 00000KT 9000 FEW015 31/23 Q1006 NOSIG=
03/06/2022 12:00:00Z	 SAID32 WIBB 031200	METAR WIBB 031200Z 00000KT 8000 FEW017 30/24 Q1006 NOSIG=
03/06/2022 12:30:00Z	 SAID32 WIBB 031230	METAR WIBB 031230Z 000//KT 8000 FEW017CB 29/24 Q1007 NOSIG=
03/06/2022 13:00:00Z	 SAID32 WIBB 031300	METAR WIBB 031300Z 09004KT 7000 FEW015CB 29/23 Q1008=
03/06/2022 13:30:00Z	 SAID32 WIBB 031330	METAR WIBB 031330Z 19014KT 7000 FEW015CB 28/24 Q1008=
03/06/2022 14:00:00Z	 SAID32 WIBB 031400	METAR WIBB 031400Z 21014KT 7000 TS SCT015CB 27/21 Q1009=
03/06/2022 14:30:00Z	 SAID32 WIBB 031430	METAR WIBB 031430Z 21014KT 5000 -TSRA SCT015CB 26/23 Q1010 TEMPO 1630 23012K T 3000 TSRA SCT015CB=
03/06/2022 15:00:00Z	 SAID32 WIBB 031500	METAR WIBB 031500Z 21012KT 5000 -TSRA FEW015CB 24/22 Q1010=
03/06/2022 15:30:00Z	 SAID32 WIBB 031530	METAR WIBB 031530Z 16006KT 3000 TSRA BKN015CB 24/22 Q1011=
03/06/2022 16:00:00Z	 SAID32 WIBB 031600	METAR WIBB 031600Z 22007KT 1500 TSRA SCT014CB 23/22 Q1011=
03/06/2022 16:30:00Z	 SAID32 WIBB 031630	METAR WIBB 031630Z 25007KT 2000 R36/P2000 TSRA SCT014CB 22/22 Q1011=
03/06/2022 17:00:00Z	 SAID32 WIBB 031700	METAR WIBB 031700Z 02006KT 2000 TSRA SCT014CB 22/22 Q1011 TEMPO TL1900 02008KT 3000 TSRA=
03/06/2022 17:30:00Z	 SAID32 WIBB 031730	METAR WIBB 031730Z 36006KT 5000 -RA FEW014CB 23/22 Q1010=
03/06/2022 18:00:00Z	 SAID32 WIBB 031800	METAR WIBB 031800Z 00000KT 5000 -TSRA SCT014CB 23/22 Q1010=
03/06/2022 21:00:00Z	 SAID32 WIBB 032100	METAR WIBB 032100Z 00000KT 7000 SCT012 23/23 Q1008=
03/06/2022 21:30:00Z	 SAID32 WIBB 032130	METAR WIBB 032130Z 18004KT 7000 SCT012 23/23 Q1008=
03/06/2022 22:00:00Z	 SAID32 WIBB 032200	METAR WIBB 032200Z 16004KT 4000 BR SCT010 23/23 Q1008=
03/06/2022 22:30:00Z	 SAID32 WIBB 032230	METAR WIBB 032230Z 21004KT 1000 BR SCT010 23/23 Q1008=
03/06/2022 23:00:00Z	 SAID32 WIBB 032300	METAR WIBB 032300Z 00000KT 3000 BR SCT010 22/22 Q1008=
03/06/2022 23:30:00Z	 SAID32 WIBB 032330	METAR WIBB 032330Z 22005KT 0800 FG VV008 22/22 Q1009=
04/06/2022 00:00:00Z	 SAID32 WIBB 040000	METAR WIBB 040000Z 16004KT 1500 BR SCT005 22/22 Q1009=
04/06/2022 00:30:00Z	 SAID32 WIBB 040030	METAR WIBB 040030Z 00000KT 0800 FG VV005 22/22 Q1009=
04/06/2022 01:30:00Z	 SAID32 WIBB 040130	METAR WIBB 040130Z 00000KT 3000 BR OVC005 23/22 Q1010=
04/06/2022 02:00:00Z	 SAID32 WIBB 040200	METAR WIBB 040200Z 18004KT 6000 OVC005 23/22 Q1010=
04/06/2022 02:30:00Z	 SAID32 WIBB 040230	METAR WIBB 040230Z 21004KT 7000 BKN006 24/23 Q1010=
04/06/2022 03:00:00Z	 SAID32 WIBB 040300	METAR WIBB 040300Z 00000KT 7000 BKN008 24/23 Q1010=
04/06/2022 03:30:00Z	 SAID32 WIBB 040330	METAR WIBB 040330Z 00000KT 8000 SCT010 26/23 Q1010=
04/06/2022 04:00:00Z	 SAID32 WIBB 040400	METAR WIBB 040400Z 00000KT 9000 SCT010 27/23 Q1009=
04/06/2022 04:30:00Z	 SAID32 WIBB 040430	METAR WIBB 040430Z 29005KT 9000 SCT010 28/23 Q1009=
04/06/2022 05:00:00Z	 SAID32 WIBB 040500	METAR WIBB 040500Z 26004KT 9000 SCT010 29/23 Q1008=
04/06/2022 05:30:00Z	 SAID32 WIBB 040530	METAR WIBB 040530Z 20005KT 9000 SCT010 29/23 Q1008=
04/06/2022 06:00:00Z	 SAID32 WIBB 040600	METAR WIBB 040600Z 18006KT 9000 SCT010 30/22 Q1008=
04/06/2022 06:30:00Z	 SAID32 WIBB 040630	METAR WIBB 040630Z 00000KT 9000 SCT012 30/22 Q1007=
04/06/2022 07:00:00Z	 SAID32 WIBB 040700	METAR WIBB 040700Z 16004KT 9999 SCT012 31/23 Q1007=
04/06/2022 07:30:00Z	 SAID32 WIBB 040730	METAR WIBB 040730Z 12005KT 9999 SCT012 31/22 Q1006=
04/06/2022 08:30:00Z	 SAID32 WIBB 040830	METAR WIBB 040830Z 00000KT 9000 SCT012 31/23 Q1006=
04/06/2022 09:00:00Z	 SAID32 WIBB 040900	METAR WIBB 040900Z 00000KT 9999 SCT012 FEW015CB 31/22 Q1005 RMK CB TO E=
04/06/2022 09:30:00Z	 SAID32 WIBB 040930	METAR WIBB 040930Z 11004KT 9999 SCT012 32/22 Q1005=
04/06/2022 10:00:00Z	 SAID32 WIBB 041000	METAR WIBB 041000Z 05004KT 9999 FEW012 32/22 Q1005=
04/06/2022 11:00:00Z	 SAID32 WIBB 041100	METAR WIBB 041100Z 00000KT 9000 SCT010 31/23 Q1006=
04/06/2022 12:00:00Z	 SAID32 WIBB 041200	METAR WIBB 041200Z 09004KT 7000 SCT010 29/24 Q1007=
04/06/2022 12:30:00Z	 SAID32 WIBB 041230	METAR WIBB 041230Z 00000KT 7000 SCT012 29/25 Q1007=
04/06/2022 13:00:00Z	 SAID32 WIBB 041300	METAR WIBB 041300Z 00000KT 8000 FEW012 28/25 Q1007 NOSIG=
04/06/2022 13:30:00Z	 SAID32 WIBB 041330	METAR WIBB 041330Z 00000KT 8000 FEW013 27/25 Q1008 NOSIG=
04/06/2022 14:00:00Z	 SAID32 WIBB 041400	METAR WIBB 041400Z 00000KT 8000 NSC 27/25 Q1008 NOSIG=
04/06/2022 14:30:00Z	 SAID32 WIBB 041430	METAR WIBB 041430Z 00000KT 8000 NSC 27/25 Q1009 NOSIG=
04/06/2022 15:00:00Z	 SAID32 WIBB 041500	METAR WIBB 041500Z 00000KT 8000 NSC 26/25 Q1009=
04/06/2022 15:30:00Z	 SAID32 WIBB 041530	METAR WIBB 041530Z 00000KT 8000 NSC 27/25 Q1009 NOSIG=
04/06/2022 16:00:00Z	 SAID32 WIBB 041600	METAR WIBB 041600Z 00000KT 8000 NSC 26/25 Q1009=
04/06/2022 16:30:00Z	 SAID32 WIBB 041630	METAR WIBB 041630Z 00000KT 8000 NSC 26/25 Q1009=
04/06/2022 17:00:00Z	 SAID32 WIBB 041700	METAR WIBB 041700Z 00000KT 8000 NSC 26/25 Q1009=
04/06/2022 17:30:00Z	 SAID32 WIBB 041730	METAR WIBB 041730Z 00000KT 7000 NSC 26/25 Q1009=
04/06/2022 18:00:00Z	 SAID32 WIBB 041800	METAR WIBB 041800Z 00000KT 7000 NSC 26/25 Q1008=
04/06/2022 18:30:00Z	 SAID32 WIBB 041830	METAR WIBB 041830Z AUTO 05001KT 7000 ////// 26/25 Q1008=
04/06/2022 19:00:00Z	 SAID32 WIBB 041900	METAR WIBB 041900Z AUTO 15001KT 8000 ////// 26/25 Q1008=
04/06/2022 19:30:00Z	 SAID32 WIBB 041930	METAR WIBB 041930Z AUTO 30001KT 7000 ////// 25/25 Q1008=
04/06/2022 20:00:00Z	 SAID32 WIBB 042000	METAR WIBB 042000Z AUTO 32001KT 7000 ////// 25/24 Q1007=
04/06/2022 20:30:00Z	 SAID32 WIBB 042030	METAR WIBB 042030Z AUTO 00000KT 7000 ////// 25/25 Q1007=
04/06/2022 21:00:00Z	 SAID32 WIBB 042100	METAR WIBB 042100Z 00000KT 6000 FEW015 25/25 Q1007 NOSIG=
04/06/2022 21:30:00Z	 SAID32 WIBB 042130	METAR WIBB 042130Z AUTO 20002KT 7000 ////// 25/25 Q1008=
04/06/2022 22:00:00Z	 SAID32 WIBB 042200	METAR WIBB 042200Z 00000KT 6000 FEW015 25/25 Q1008 NOSIG=
04/06/2022 22:30:00Z	 SAID32 WIBB 042230	METAR WIBB 042230Z AUTO 20004KT 7000 ////// 25/24 Q1008=
04/06/2022 23:00:00Z	 SAID32 WIBB 042300	METAR WIBB 042300Z 00000KT 7000 SCT010 25/25 Q1008 NOSIG=
04/06/2022 23:30:00Z	 SAID32 WIBB 042330	METAR WIBB 042330Z 21005KT 6000 SCT010 24/24 Q1009 NOSIG=
05/06/2022 00:00:00Z	 SAID32 WIBB 050000	METAR WIBB 050000Z 21006KT 7000 SCT010 24/23 Q1009 NOSIG=
05/06/2022 00:30:00Z	 SAID32 WIBB 050030	METAR WIBB 050030Z 23005KT 8000 SCT012 25/23 Q1009 NOSIG=
05/06/2022 01:00:00Z	 SAID32 WIBB 050100	METAR WIBB 050100Z 23004KT 7000 SCT010 FEW014CB 26/24 Q1010 RMK CB TO N AND W=
05/06/2022 01:30:00Z	 SAID32 WIBB 050130	METAR WIBB 050130Z 27005KT 7000 SCT010 FEW015CB 26/23 Q1010 RMK CB TO N=
05/06/2022 02:00:00Z	 SAID32 WIBB 050200	METAR WIBB 050200Z 00000KT 8000 SCT012 FEW015CB 28/24 Q1010 RMK CB TO SE AND NW=
05/06/2022 02:30:00Z	 SAID32 WIBB 050230	METAR WIBB 050230Z 18004KT 8000 SCT012 FEW015CB 29/23 Q1010 RMK CB TO SE AND N=
05/06/2022 03:00:00Z	 SAID32 WIBB 050300	METAR WIBB 050300Z 22007KT 9000 SCT010 FEW015CB 29/24 Q1010 RMK CB TO N=
05/06/2022 03:30:00Z	 SAID32 WIBB 050330	METAR WIBB 050330Z 00000KT 9000 SCT010 29/24 Q1009=
05/06/2022 04:00:00Z	 SAID32 WIBB 050400	METAR WIBB 050400Z 14005KT 9999 SCT010 FEW015CB 30/23 Q1009 RMK CB TO NE=
05/06/2022 04:30:00Z	 SAID32 WIBB 050430	METAR WIBB 050430Z 18006KT 9999 SCT010 FEW015CB 31/24 Q1008 RMK CB TO NE AND E=
05/06/2022 05:00:00Z	 SAID32 WIBB 050500	METAR WIBB 050500Z 22005KT 9999 SCT010 FEW015CB 31/23 Q1007 RMK CB TO NE=
05/06/2022 05:30:00Z	 SAID32 WIBB 050530	METAR WIBB 050530Z 20008KT 9999 SCT010 31/22 Q1007=
05/06/2022 06:00:00Z	 SAID32 WIBB 050600	METAR WIBB 050600Z 00000KT 9000 BKN010 32/22 Q1007=
05/06/2022 06:30:00Z	 SAID32 WIBB 050630	METAR WIBB 050630Z 23006KT 9999 BKN010 32/23 Q1006=
05/06/2022 07:00:00Z	 SAID32 WIBB 050700	METAR WIBB 050700Z 27005KT 9000 BKN012 32/22 Q1006 NOSIG=
05/06/2022 07:30:00Z	 SAID32 WIBB 050730	METAR WIBB 050730Z 20004KT 9999 BKN012 32/22 Q1005=
05/06/2022 08:00:00Z	 SAID32 WIBB 050800	METAR WIBB 050800Z 34009KT 9999 FEW017CB 32/24 Q1005=
05/06/2022 08:30:00Z	 SAID32 WIBB 050830	METAR WIBB 050830Z 35009KT 9999 FEW017CB 30/22 Q1005=
05/06/2022 09:00:00Z	 SAID32 WIBB 050900	METAR WIBB 050900Z 02009KT 8000 FEW017CB 30/22 Q1005=
05/06/2022 09:30:00Z	 SAID32 WIBB 050930	METAR WIBB 050930Z 03005KT 7000 TS FEW017CB 29/22 Q1005=
05/06/2022 10:00:00Z	 SAID32 WIBB 051000	METAR WIBB 051000Z 13006KT 7000 TS SCT017CB 28/24 Q1006 TEMPO FM1730 TL1830 4000 TSRA=
05/06/2022 10:30:00Z	 SAID32 WIBB 051030	METAR WIBB 051030Z 13014KT 7000 TS SCT015CB 26/22 Q1007=
05/06/2022 11:00:00Z	 SAID32 WIBB 051100	METAR WIBB 051100Z 12011KT 5000 -TSRA SCT015CB 25/23 Q1007=
05/06/2022 11:30:00Z	 SAID32 WIBB 051130	METAR WIBB 051130Z 14009KT 5000 -TSRA SCT015CB 24/22 Q1007=
05/06/2022 12:00:00Z	 SAID32 WIBB 051200	METAR WIBB 051200Z 11007KT 5000 -RA BKN010 23/22 Q1007=
05/06/2022 12:30:00Z	 SAID32 WIBB 051230	METAR WIBB 051230Z 10006KT 5000 -RA BKN010 24/22 Q1007=
05/06/2022 13:00:00Z	 SAID32 WIBB 051300	METAR WIBB 051300Z VRB00KT 7000 -RA BKN010 23/22 Q1007=
05/06/2022 13:30:00Z	 SAID32 WIBB 051330	METAR WIBB 051330Z 00000KT 7000 -RA BKN010 24/23 Q1007=
05/06/2022 14:00:00Z	 SAID32 WIBB 051400	METAR WIBB 051400Z 00000KT 7000 BKN010 24/23 Q1007=
05/06/2022 14:30:00Z	 SAID32 WIBB 051430	METAR WIBB 051430Z 00000KT 7000 BKN010 24/23 Q1008=
05/06/2022 15:00:00Z	 SAID32 WIBB 051500	METAR WIBB 051500Z 00000KT 7000 SCT013 24/23 Q1008=
05/06/2022 15:30:00Z	 SAID32 WIBB 051530	METAR WIBB 051530Z 17006KT 7000 SCT013 24/23 Q1008=
05/06/2022 16:00:00Z	 SAID32 WIBB 051600	METAR WIBB 051600Z 00000KT 7000 FEW013 23/23 Q1008=
05/06/2022 16:30:00Z	 SAID32 WIBB 051630	METAR WIBB 051630Z AUTO VRB02KT 9999 ////// 24/23 Q1008=
05/06/2022 17:00:00Z	 SAID32 WIBB 051700	METAR WIBB 051700Z AUTO VRB02KT 9999 ////// 24/23 Q1008=
05/06/2022 17:30:00Z	 SAID32 WIBB 051730	METAR WIBB 051730Z AUTO 32001KT 9999 ////// 24/23 Q1008=
05/06/2022 18:00:00Z	 SAID32 WIBB 051800	METAR WIBB 051800Z 00000KT 7000 FEW013 23/23 Q1008=
05/06/2022 18:30:00Z	 SAID32 WIBB 051830	METAR WIBB 051830Z AUTO 35001KT 9999 ////// 24/23 Q1008=
05/06/2022 19:00:00Z	 SAID32 WIBB 051900	METAR WIBB 051900Z AUTO 13002KT 9999 ////// 24/23 Q1008=
05/06/2022 19:30:00Z	 SAID32 WIBB 051930	METAR WIBB 051930Z AUTO VRB02KT 9000 ////// 24/23 Q1007=
05/06/2022 20:00:00Z	 SAID32 WIBB 052000	METAR WIBB 052000Z AUTO VRB02KT 9999 ////// 24/23 Q1007=
05/06/2022 20:30:00Z	 SAID32 WIBB 052030	METAR WIBB 052030Z AUTO 12001KT 9999 ////// 24/23 Q1007=
05/06/2022 21:00:00Z	 SAID32 WIBB 052100	METAR WIBB 052100Z 00000KT 7000 FEW013 23/23 Q1007=
05/06/2022 21:30:00Z	 SAID32 WIBB 052130	METAR WIBB 052130Z AUTO 14004KT 100V170 9999 ////// 24/23 Q1007=
05/06/2022 22:00:00Z	 SAID32 WIBB 052200	METAR WIBB 052200Z AUTO 11003KT 060V140 9999 ////// 24/23 Q1007=
05/06/2022 22:30:00Z	 SAID32 WIBB 052230	METAR WIBB 052230Z 00000KT 7000 FEW013 24/23 Q1007=
05/06/2022 23:00:00Z	 SAID32 WIBB 052300	METAR WIBB 052300Z 00000KT 7000 SCT013 23/23 Q1007=
05/06/2022 23:30:00Z	 SAID32 WIBB 052330	METAR WIBB 052330Z 00000KT 7000 SCT013 23/23 Q1008=
06/06/2022 00:00:00Z	 SAID32 WIBB 060000	METAR WIBB 060000Z 00000KT 8000 SCT013 24/23 Q1008=
06/06/2022 00:30:00Z	 SAID32 WIBB 060030	METAR WIBB 060030Z 14005KT 8000 SCT014 24/23 Q1008=
06/06/2022 01:00:00Z	 SAID32 WIBB 060100	METAR WIBB 060100Z 13005KT 8000 FEW015 26/23 Q1008 NOSIG=
06/06/2022 01:30:00Z	 SAID32 WIBB 060130	METAR WIBB 060130Z 14007KT 8000 FEW015 26/23 Q1008 NOSIG=
06/06/2022 02:00:00Z	 SAID32 WIBB 060200	METAR WIBB 060200Z 15007KT 8000 FEW015 27/24 Q1008 NOSIG=
06/06/2022 02:30:00Z	 SAID32 WIBB 060230	METAR WIBB 060230Z 18009KT 8000 FEW015 28/23 Q1008=
06/06/2022 03:00:00Z	 SAID32 WIBB 060300	METAR WIBB 060300Z 18011KT 9999 FEW015 28/23 Q1008 NOSIG=
06/06/2022 03:30:00Z	 SAID32 WIBB 060330	METAR WIBB 060330Z 18007KT 9999 FEW015 28/23 Q1008 NOSIG=
06/06/2022 04:00:00Z	 SAID32 WIBB 060400	METAR WIBB 060400Z 14008KT 9999 SCT015 29/24 Q1008 NOSIG=
06/06/2022 04:30:00Z	 SAID32 WIBB 060430	METAR WIBB 060430Z 16005KT 9999 SCT015 30/23 Q1008=
06/06/2022 05:00:00Z	 SAID32 WIBB 060500	METAR WIBB 060500Z 17006KT 9999 SCT015 30/24 Q1007=
06/06/2022 05:30:00Z	 SAID32 WIBB 060530	METAR WIBB 060530Z 13010KT 9999 BKN013 34/24 Q1007 NOSIG=
06/06/2022 06:00:00Z	 SAID32 WIBB 060600	METAR WIBB 060600Z 15010KT 9999 BKN013 31/24 Q1006 NOSIG=
06/06/2022 06:30:00Z	 SAID32 WIBB 060630	METAR WIBB 060630Z 14011KT 9999 BKN013 31/23 Q1006 NOSIG=
06/06/2022 07:00:00Z	 SAID32 WIBB 060700	METAR WIBB 060700Z 11007KT 9000 BKN012 31/23 Q1006=
06/06/2022 07:30:00Z	 SAID32 WIBB 060730	METAR WIBB 060730Z 12009KT 9000 BKN012 31/23 Q1005=
06/06/2022 08:00:00Z	 SAID32 WIBB 060800	METAR WIBB 060800Z 09009KT 9000 SCT012 FEW015CB 31/24 Q1005=
06/06/2022 08:30:00Z	 SAID32 WIBB 060830	METAR WIBB 060830Z 14007KT 9000 SCT012 31/24 Q1004=
06/06/2022 09:00:00Z	 SAID32 WIBB 060900	METAR WIBB 060900Z 10008KT 9000 SCT012 31/24 Q1004=
06/06/2022 09:30:00Z	 SAID32 WIBB 060930	METAR WIBB 060930Z 08008KT 9000 SCT012 31/24 Q1004=
06/06/2022 10:00:00Z	 SAID32 WIBB 061000	METAR WIBB 061000Z 12006KT 9000 SCT012 30/24 Q1004=
06/06/2022 10:30:00Z	 SAID32 WIBB 061030	METAR WIBB 061030Z 11009KT 9000 SCT012 30/24 Q1004=
06/06/2022 11:00:00Z	 SAID32 WIBB 061100	METAR WIBB 061100Z 11005KT 8000 SCT012 FEW015CB 30/24 Q1005 RMK CB TO W=
06/06/2022 11:30:00Z	 SAID32 WIBB 061130	METAR WIBB 061130Z 14005KT 7000 FEW015CB 29/24 Q1006 RMK CB TO W AND SE=
06/06/2022 12:00:00Z	 SAID32 WIBB 061200	METAR WIBB 061200Z 00000KT 7000 FEW012 FEW015CB 29/24 Q1006 RMK CB TO W=
06/06/2022 12:30:00Z	 SAID32 WIBB 061230	METAR WIBB 061230Z 16005KT 7000 SCT012 FEW015CB 28/24 Q1006 RMK CB TO SW AND W=
06/06/2022 13:00:00Z	 SAID32 WIBB 061300	METAR WIBB 061300Z 00000KT 8000 FEW013 28/24 Q1007=
06/06/2022 13:30:00Z	 SAID32 WIBB 061330	METAR WIBB 061330Z 00000KT 7000 FEW013 28/24 Q1007=
06/06/2022 14:00:00Z	 SAID32 WIBB 061400	METAR WIBB 061400Z 19004KT 7000 FEW013 27/24 Q1007=
06/06/2022 14:30:00Z	 SAID32 WIBB 061430	METAR WIBB 061430Z 00000KT 7000 FEW013 27/23 Q1008=
06/06/2022 15:00:00Z	 SAID32 WIBB 061500	METAR WIBB 061500Z 00000KT 7000 FEW013 27/23 Q1007=
06/06/2022 15:30:00Z	 SAID32 WIBB 061530	METAR WIBB 061530Z AUTO 20002KT 9999 ////// 26/23 Q1008=
06/06/2022 16:00:00Z	 SAID32 WIBB 061600	METAR WIBB 061600Z AUTO 36001KT 9999 ////// 26/24 Q1008=
06/06/2022 16:30:00Z	 SAID32 WIBB 061630	METAR WIBB 061630Z 00000KT 7000 FEW013 25/24 Q1008=
06/06/2022 17:00:00Z	 SAID32 WIBB 061700	METAR WIBB 061700Z AUTO 29002KT 9999 ////// 25/24 Q1008=
06/06/2022 17:30:00Z	 SAID32 WIBB 061730	METAR WIBB 061730Z AUTO 00000KT 9999 ////// 25/24 Q1008=
06/06/2022 18:00:00Z	 SAID32 WIBB 061800	METAR WIBB 061800Z AUTO 30001KT 9999 ////// 25/24 Q1007=
06/06/2022 18:30:00Z	 SAID32 WIBB 061830	METAR WIBB 061830Z AUTO 27001KT 9000 ////// 25/24 Q1007=
06/06/2022 19:00:00Z	 SAID32 WIBB 061900	METAR WIBB 061900Z AUTO 24003KT 8000 ////// 25/24 Q1006=
06/06/2022 19:30:00Z	 SAID32 WIBB 061930	METAR WIBB 061930Z AUTO 23002KT 8000 ////// 25/24 Q1006=
06/06/2022 20:00:00Z	 SAID32 WIBB 062000	METAR WIBB 062000Z AUTO VRB02KT 9000 ////// 25/24 Q1006=
06/06/2022 20:30:00Z	 SAID32 WIBB 062030	METAR WIBB 062030Z AUTO 24001KT 8000 ////// 24/24 Q1006=
06/06/2022 21:00:00Z	 SAID32 WIBB 062100	METAR WIBB 062100Z 00000KT 5000 HZ FEW012 24/24 Q1006=
06/06/2022 21:30:00Z	 SAID32 WIBB 062130	METAR WIBB 062130Z 00000KT 5000 HZ FEW012 24/24 Q1006=
06/06/2022 22:00:00Z	 SAID32 WIBB 062200	METAR WIBB 062200Z AUTO 21002KT 8000 ////// 24/24 Q1007=
06/06/2022 22:30:00Z	 SAID32 WIBB 062230	METAR WIBB 062230Z AUTO 14002KT 8000 ////// 24/24 Q1007=
06/06/2022 23:00:00Z	 SAID32 WIBB 062300	METAR WIBB 062300Z 00000KT 5000 HZ FEW009 24/24 Q1007=
06/06/2022 23:30:00Z	 SAID32 WIBB 062330	METAR WIBB 062330Z 00000KT 5000 HZ FEW009 24/23 Q1007=
07/06/2022 00:00:00Z	 SAID32 WIBB 070000	METAR WIBB 070000Z 00000KT 5000 HZ FEW009 24/24 Q1008=
07/06/2022 00:30:00Z	 SAID32 WIBB 070030	METAR WIBB 070030Z 00000KT 6000 FEW009 25/24 Q1008=
07/06/2022 01:00:00Z	 SAID32 WIBB 070100	METAR WIBB 070100Z 00000KT 6000 FEW013 26/24 Q1008 NOSIG=
07/06/2022 01:30:00Z	 SAID32 WIBB 070130	METAR WIBB 070130Z 00000KT 7000 SCT013 27/24 Q1009 NOSIG=
07/06/2022 02:00:00Z	 SAID32 WIBB 070200	METAR WIBB 070200Z 00000KT 8000 SCT010 27/24 Q1009 NOSIG=
07/06/2022 02:30:00Z	 SAID32 WIBB 070230	METAR WIBB 070230Z 00000KT 9000 SCT010 28/24 Q1009 NOSIG=
07/06/2022 03:00:00Z	 SAID32 WIBB 070300	METAR WIBB 070300Z 00000KT 9000 SCT012 28/24 Q1009 NOSIG=
07/06/2022 03:30:00Z	 SAID32 WIBB 070330	METAR WIBB 070330Z 13005KT 9999 SCT012 28/24 Q1009 NOSIG=
07/06/2022 04:00:00Z	 SAID32 WIBB 070400	METAR WIBB 070400Z 16005KT 9999 SCT013 29/24 Q1008 NOSIG=
07/06/2022 04:30:00Z	 SAID32 WIBB 070430	METAR WIBB 070430Z 00000KT 9999 SCT013 29/24 Q1008 NOSIG=
07/06/2022 05:00:00Z	 SAID32 WIBB 070500	METAR WIBB 070500Z 00000KT 9999 SCT013 29/23 Q1007 NOSIG=
07/06/2022 05:30:00Z	 SAID32 WIBB 070530	METAR WIBB 070530Z 00000KT 9999 SCT013 33/22 Q1007 NOSIG=
07/06/2022 06:00:00Z	 SAID32 WIBB 070600	METAR WIBB 070600Z 00000KT 9999 SCT015 31/23 Q1006 NOSIG=
07/06/2022 06:30:00Z	 SAID32 WIBB 070630	METAR WIBB 070630Z 00000KT 9999 SCT015 31/23 Q1006 NOSIG=
07/06/2022 07:00:00Z	 SAID32 WIBB 070700	METAR WIBB 070700Z 00000KT 9999 SCT013 32/23 Q1006 NOSIG=
07/06/2022 07:30:00Z	 SAID32 WIBB 070730	METAR WIBB 070730Z 24003KT 9999 SCT013 31/22 Q1005 NOSIG=
07/06/2022 08:00:00Z	 SAID32 WIBB 070800	METAR WIBB 070800Z 00000KT 9999 BKN013 32/22 Q1005 NOSIG=
07/06/2022 08:30:00Z	 SAID32 WIBB 070830	METAR WIBB 070830Z 12007KT 9999 BKN013 32/23 Q1005 NOSIG=
07/06/2022 09:00:00Z	 SAID32 WIBB 070900	METAR WIBB 070900Z 09005KT 9999 FEW017CB 31/23 Q1005=
07/06/2022 09:30:00Z	 SAID32 WIBB 070930	METAR WIBB 070930Z 03006KT 8000 FEW017CB 29/25 Q1005=
07/06/2022 10:00:00Z	 SAID32 WIBB 071000	METAR WIBB 071000Z 32006KT 8000 FEW017CB 30/25 Q1005=
07/06/2022 10:30:00Z	 SAID32 WIBB 071030	METAR WIBB 071030Z 00000KT 8000 FEW017CB 30/24 Q1005=
07/06/2022 11:00:00Z	 SAID32 WIBB 071100	METAR WIBB 071100Z 06004KT 8000 FEW017CB 29/24 Q1006=
07/06/2022 11:30:00Z	 SAID32 WIBB 071130	METAR WIBB 071130Z 00000KT 7000 FEW017CB 29/25 Q1006=
07/06/2022 12:00:00Z	 SAID32 WIBB 071200	METAR WIBB 071200Z 00000KT 7000 FEW017CB 28/25 Q1006=
07/06/2022 12:30:00Z	 SAID32 WIBB 071230	METAR WIBB 071230Z 00000KT 7000 FEW017CB 27/25 Q1006=
07/06/2022 13:00:00Z	 SAID32 WIBB 071300	METAR WIBB 071300Z 00000KT 6000 FEW013 FEW017CB 28/24 Q1007 RMK CB TO NW AND W=
07/06/2022 13:30:00Z	 SAID32 WIBB 071330	METAR WIBB 071330Z 00000KT 6000 FEW013 FEW017CB 27/25 Q1007 RMK NW AND W=
07/06/2022 14:00:00Z	 SAID32 WIBB 071400	METAR WIBB 071400Z 00000KT 6000 FEW013 26/25 Q1008=
07/06/2022 14:30:00Z	 SAID32 WIBB 071430	METAR WIBB 071430Z 00000KT 6000 FEW013 26/25 Q1008=
07/06/2022 15:00:00Z	 SAID32 WIBB 071500	METAR WIBB 071500Z 00000KT 5000 HZ FEW013 26/25 Q1008=
07/06/2022 15:30:00Z	 SAID32 WIBB 071530	METAR WIBB 071530Z 00000KT 6000 FEW013 26/25 Q1008=
07/06/2022 16:00:00Z	 SAID32 WIBB 071600	METAR WIBB 071600Z 36004KT 5000 HZ FEW012 26/25 Q1008=
07/06/2022 16:30:00Z	 SAID32 WIBB 071630	METAR WIBB 071630Z 00000KT 5000 HZ FEW012 26/25 Q1008=
07/06/2022 17:30:00Z	 SAID32 WIBB 071730	METAR WIBB 071730Z 00000KT 5000 HZ FEW013 26/25 Q1008=
07/06/2022 18:00:00Z	 SAID32 WIBB 071800	METAR COR WIBB 071800Z 00000KT 4000 BR FEW013 FEW017CB 25/25 Q1007=
07/06/2022 18:30:00Z	 SAID32 WIBB 071830	METAR WIBB 071830Z AUTO 36002KT 5000 VCTS ////// 26/25 Q1007=
07/06/2022 19:00:00Z	 SAID32 WIBB 071900	METAR WIBB 071900Z AUTO VRB02KT 4000 VCTS BR ////// 26/25 Q1007=
07/06/2022 19:30:00Z	 SAID32 WIBB 071930	METAR WIBB 071930Z AUTO 08003KT 3400 BR ////// 25/25 Q1007=
07/06/2022 20:00:00Z	 SAID32 WIBB 072000	METAR WIBB 072000Z AUTO 06003KT 3200 VCTS BR ////// 25/25 Q1007=
07/06/2022 20:30:00Z	 SAID32 WIBB 072030	METAR WIBB 072030Z AUTO 02004KT 3700 VCTS BR ////// 25/25 Q1006=
07/06/2022 21:00:00Z	 SAID32 WIBB 072100	METAR WIBB 072100Z 07004KT 3000 TS SCT015CB 25/25 Q1007=
07/06/2022 21:30:00Z	 SAID32 WIBB 072130	METAR WIBB 072130Z 00000KT 3000 TS SCT013CB 25/25 Q1007 RMK CB OVER THE FIELD=
07/06/2022 22:00:00Z	 SAID32 WIBB 072200	METAR COR WIBB 072200Z 22008KT 200V340 2000 BR SCT012CB 25/25 Q1008=
07/06/2022 22:30:00Z	 SAID32 WIBB 072230	METAR WIBB 072230Z 25018KT 0300 +TSRA BKN008 SCT010CB 23/23 Q1008 RMK CB OVER THE FIELD=
07/06/2022 23:00:00Z	 SAID32 WIBB 072300	METAR WIBB 072300Z 22009KT 3000 -TSRA BKN005 SCT012CB 23/23 Q1009 RMK CB OVER THE FIELD=
07/06/2022 23:11:00Z	 SAID32 WIBB 072311	METAR WIBB 072311Z 20012KT 0800 TSRA BKN005 SCT012CB 23/23 Q1009=
07/06/2022 23:30:00Z	 SAID32 WIBB 072330	METAR WIBB 072330Z 22008KT 0600 TSRA BKN005 SCT012CB 23/23 Q1009 RMK CB OVER THE FIELD=
08/06/2022 00:00:00Z	 SAID32 WIBB 080000	METAR WIBB 080000Z 00000KT 2000 TSRA BKN006 SCT013CB 23/22 Q1009 RMK CB OVER THE FIELD=
08/06/2022 00:30:00Z	 SAID32 WIBB 080030	METAR WIBB 080030Z 02004KT 3000 -TSRA BKN006 SCT013CB 23/23 Q1009=
08/06/2022 01:00:00Z	 SAID32 WIBB 080100	METAR WIBB 080100Z 36006KT 5000 -RA BKN010 23/22 Q1009=
08/06/2022 01:30:00Z	 SAID32 WIBB 080130	METAR WIBB 080130Z 00000KT 5000 -RA BKN010 23/22 Q1010=
08/06/2022 02:00:00Z	 SAID32 WIBB 080200	METAR WIBB 080200Z 00000KT 7000 -RA BKN010 23/22 Q1009=
08/06/2022 02:30:00Z	 SAID32 WIBB 080230	METAR WIBB 080230Z 00000KT 8000 -RA SCT012 25/23 Q1009=
08/06/2022 03:00:00Z	 SAID32 WIBB 080300	METAR WIBB 080300Z 31006KT 8000 SCT012 26/23 Q1009=
08/06/2022 03:30:00Z	 SAID32 WIBB 080330	METAR WIBB 080330Z 30005KT 8000 SCT012 27/23 Q1009=
08/06/2022 04:00:00Z	 SAID32 WIBB 080400	METAR WIBB 080400Z 33008KT 8000 SCT012 27/23 Q1009=
08/06/2022 04:30:00Z	 SAID32 WIBB 080430	METAR WIBB 080430Z 31006KT 8000 SCT012 28/23 Q1009=
08/06/2022 05:00:00Z	 SAID32 WIBB 080500	METAR WIBB 080500Z 31007KT 9000 SCT012 28/22 Q1009=
08/06/2022 05:30:00Z	 SAID32 WIBB 080530	METAR WIBB 080530Z 32006KT 9000 SCT012 28/23 Q1008=
08/06/2022 06:00:00Z	 SAID32 WIBB 080600	METAR WIBB 080600Z 31012KT 9000 BKN012 28/22 Q1008=
08/06/2022 06:30:00Z	 SAID32 WIBB 080630	METAR WIBB 080630Z 28009KT 9000 BKN012 29/21 Q1007=
08/06/2022 07:00:00Z	 SAID32 WIBB 080700	METAR WIBB 080700Z 28007KT 9999 FEW012 30/23 Q1007 NOSIG=
08/06/2022 07:30:00Z	 SAID32 WIBB 080730	METAR WIBB 080730Z 31008KT 9999 FEW012 30/23 Q1006 NOSIG=
08/06/2022 08:00:00Z	 SAID32 WIBB 080800	METAR WIBB 080800Z 32008KT 9999 SCT013 30/23 Q1006 NOSIG=
08/06/2022 08:30:00Z	 SAID32 WIBB 080830	METAR WIBB 080830Z 32009KT 9999 SCT013 30/24 Q1005 NOSIG=
08/06/2022 09:00:00Z	 SAID32 WIBB 080900	METAR WIBB 080900Z 33009KT 9999 SCT015 29/24 Q1005 NOSIG=
08/06/2022 09:30:00Z	 SAID32 WIBB 080930	METAR WIBB 080930Z 32008KT 9999 FEW015 29/24 Q1005 NOSIG=
08/06/2022 10:00:00Z	 SAID32 WIBB 081000	METAR WIBB 081000Z 33008KT 9999 FEW010 29/24 Q1005 NOSIG=
08/06/2022 10:30:00Z	 SAID32 WIBB 081030	METAR WIBB 081030Z 31008KT 9999 FEW010 28/23 Q1005 NOSIG=
08/06/2022 11:00:00Z	 SAID32 WIBB 081100	METAR WIBB 081100Z 33006KT 9000 FEW010 28/24 Q1006 NOSIG=
08/06/2022 11:30:00Z	 SAID32 WIBB 081130	METAR WIBB 081130Z 32005KT 9000 FEW010 27/23 Q1006 NOSIG=
08/06/2022 12:00:00Z	 SAID32 WIBB 081200	METAR WIBB 081200Z 32005KT 8000 FEW012 27/24 Q1006 NOSIG=
08/06/2022 12:30:00Z	 SAID32 WIBB 081230	METAR WIBB 081230Z 32005KT 8000 FEW012 27/24 Q1007 NOSIG=
08/06/2022 13:00:00Z	 SAID32 WIBB 081300	METAR WIBB 081300Z 00000KT 8000 FEW013 27/24 Q1007 NOSIG=
08/06/2022 13:30:00Z	 SAID32 WIBB 081330	METAR WIBB 081330Z 00000KT 8000 SCT013 26/24 Q1008 NOSIG=
09/06/2022 00:30:00Z	 SAID32 WIBB 090030	METAR WIBB 090030Z 00000KT 4000 BR FEW014 24/24 Q1008=
09/06/2022 01:00:00Z	 SAID32 WIBB 090100	METAR WIBB 090100Z 00000KT 5000 HZ FEW014 25/23 Q1009=
09/06/2022 01:30:00Z	 SAID32 WIBB 090130	METAR WIBB 090130Z 00000KT 5000 HZ FEW014 26/22 Q1009=
09/06/2022 02:00:00Z	 SAID32 WIBB 090200	METAR WIBB 090200Z 00000KT 7000 FEW014 26/23 Q1009=
09/06/2022 02:30:00Z	 SAID32 WIBB 090230	METAR WIBB 090230Z 00000KT 7000 FEW014 28/23 Q1009=
09/06/2022 03:00:00Z	 SAID32 WIBB 090300	METAR WIBB 090300Z 34005KT 9999 SCT014 29/21 Q1009=
09/06/2022 03:30:00Z	 SAID32 WIBB 090330	METAR WIBB 090330Z 33005KT 9999 SCT014 29/21 Q1009=
09/06/2022 04:00:00Z	 SAID32 WIBB 090400	METAR WIBB 090400Z 00000KT 9999 SCT014 29/21 Q1009=
09/06/2022 04:30:00Z	 SAID32 WIBB 090430	METAR WIBB 090430Z 00000KT 9999 SCT014 30/20 Q1008=
09/06/2022 05:00:00Z	 SAID32 WIBB 090500	METAR WIBB 090500Z 29005KT 9999 SCT014 30/20 Q1008=
09/06/2022 05:30:00Z	 SAID32 WIBB 090530	METAR WIBB 090530Z 31007KT 9999 SCT014 31/20 Q1007=
09/06/2022 06:00:00Z	 SAID32 WIBB 090600	METAR WIBB 090600Z 30005KT 9999 SCT013 31/20 Q1007=
09/06/2022 06:30:00Z	 SAID32 WIBB 090630	METAR WIBB 090630Z 33006KT 9999 SCT013 31/21 Q1007=
09/06/2022 07:00:00Z	 SAID32 WIBB 090700	METAR WIBB 090700Z 29007KT 9999 SCT013 32/21 Q1006=
09/06/2022 07:30:00Z	 SAID32 WIBB 090730	METAR WIBB 090730Z 33005KT 9999 SCT013 31/20 Q1006=
09/06/2022 08:00:00Z	 SAID32 WIBB 090800	METAR WIBB 090800Z 33005KT 9999 SCT013 31/21 Q1005=
09/06/2022 08:30:00Z	 SAID32 WIBB 090830	METAR WIBB 090830Z 00000KT 9999 SCT013 31/21 Q1005=
09/06/2022 09:00:00Z	 SAID32 WIBB 090900	METAR WIBB 090900Z 31006KT 9999 SCT013 32/21 Q1005=
09/06/2022 09:30:00Z	 SAID32 WIBB 090930	METAR WIBB 090930Z 32005KT 9999 SCT013 31/21 Q1009=
09/06/2022 10:00:00Z	 SAID32 WIBB 091000	METAR WIBB 091000Z 00000KT 9999 FEW015 31/20 Q1005=
09/06/2022 10:30:00Z	 SAID32 WIBB 091030	METAR WIBB 091030Z 00000KT 9000 FEW015 30/21 Q1006=
09/06/2022 11:00:00Z	 SAID32 WIBB 091100	METAR WIBB 091100Z 00000KT 8000 FEW015 30/21 Q1006=
09/06/2022 11:30:00Z	 SAID32 WIBB 091130	METAR WIBB 091130Z 00000KT 8000 FEW015 29/22 Q1007=
09/06/2022 12:00:00Z	 SAID32 WIBB 091200	METAR WIBB 091200Z 00000KT 8000 FEW015 28/23 Q1007=
09/06/2022 12:30:00Z	 SAID32 WIBB 091230	METAR WIBB 091230Z 00000KT 8000 FEW015CB SCT013 29/22 Q1008=
09/06/2022 13:00:00Z	 SAID32 WIBB 091300	METAR WIBB 091300Z 00000KT 8000 FEW014 29/23 Q1008=
09/06/2022 13:30:00Z	 SAID32 WIBB 091330	METAR WIBB 091330Z 00000KT 8000 FEW014 28/24 Q1008=
09/06/2022 14:00:00Z	 SAID32 WIBB 091400	METAR WIBB 091400Z 11005KT 8000 FEW014 27/24 Q1009=
09/06/2022 14:30:00Z	 SAID32 WIBB 091430	METAR WIBB 091430Z 00000KT 8000 FEW012 27/24 Q1009=
09/06/2022 15:00:00Z	 SAID32 WIBB 091500	METAR WIBB 091500Z 00000KT 9000 SCT012 27/24 Q1009=
09/06/2022 15:30:00Z	 SAID32 WIBB 091530	METAR WIBB 091530Z 00000KT 8000 SCT012 27/24 Q1009=
09/06/2022 16:00:00Z	 SAID32 WIBB 091600	METAR WIBB 091600Z 15004KT 8000 SCT012 26/24 Q1009=
09/06/2022 16:30:00Z	 SAID32 WIBB 091630	METAR WIBB 091630Z 00000KT 8000 SCT012 26/24 Q1009=
09/06/2022 17:00:00Z	 SAID32 WIBB 091700	METAR WIBB 091700Z 18006KT 8000 SCT012 26/24 Q1009=
09/06/2022 17:30:00Z	 SAID32 WIBB 091730	METAR WIBB 091730Z 18006KT 8000 SCT012 26/24 Q1009=
09/06/2022 18:00:00Z	 SAID32 WIBB 091800	METAR WIBB 091800Z 18008KT 8000 SCT012 25/24 Q1008=
09/06/2022 19:00:00Z	 SAID32 WIBB 091900	METAR WIBB 091900Z 00000KT 7000 FEW014 25/24 Q1007=
09/06/2022 19:28:00Z	 SAID32 WIBB 091928	METAR WIBB 091928Z 15005KT 9000 FEW018 25/23 Q1007=
09/06/2022 19:30:00Z	 SAID32 WIBB 091930	METAR WIBB 091930Z 00000KT 7000 FEW014 25/24 Q1007=
09/06/2022 20:00:00Z	 SAID32 WIBB 092000	METAR WIBB 092000Z 00000KT 7000 FEW014 24/23 Q1006=
09/06/2022 20:30:00Z	 SAID32 WIBB 092030	METAR WIBB 092030Z 00000KT 7000 FEW014 24/23 Q1006=
09/06/2022 21:00:00Z	 SAID32 WIBB 092100	METAR WIBB 092100Z 17005KT 7000 FEW014 25/24 Q1007=
09/06/2022 21:30:00Z	 SAID32 WIBB 092130	METAR WIBB 092130Z 00000KT 7000 FEW014 24/23 Q1006=
09/06/2022 23:00:00Z	 SAID32 WIBB 092300	METAR WIBB 092300Z 00000KT 6000 FEW010 24/23 Q1006=
10/06/2022 00:00:00Z	 SAID32 WIBB 100000	METAR WIBB 100000Z 00000KT 7000 FEW014 24/23 Q1008=
10/06/2022 01:00:00Z	 SAID32 WIBB 100100	METAR WIBB 100100Z 00000KT 7000 FEW012 25/23 Q1008=
10/06/2022 01:30:00Z	 SAID32 WIBB 100130	METAR WIBB 100130Z 00000KT 7000 FEW013 26/23 Q1008=
10/06/2022 02:00:00Z	 SAID32 WIBB 100200	METAR WIBB 100200Z 02004KT 7000 FEW013 27/23 Q1009=
10/06/2022 02:30:00Z	 SAID32 WIBB 100230	METAR WIBB 100230Z 33004KT 7000 FEW013 28/23 Q1009=
10/06/2022 03:00:00Z	 SAID32 WIBB 100300	METAR WIBB 100300Z 30005KT 8000 FEW010 28/23 Q1009=
10/06/2022 03:30:00Z	 SAID32 WIBB 100330	METAR WIBB 100330Z 33007KT 8000 FEW010 29/23 Q1008=
10/06/2022 04:00:00Z	 SAID32 WIBB 100400	METAR WIBB 100400Z 35006KT 8000 SCT012 29/22 Q1008=
10/06/2022 04:30:00Z	 SAID32 WIBB 100430	METAR WIBB 100430Z 31008KT 8000 BKN012 30/23 Q1008=
10/06/2022 05:00:00Z	 SAID32 WIBB 100500	METAR WIBB 100500Z 31008KT 9000 BKN010 30/24 Q1008=
10/06/2022 05:30:00Z	 SAID32 WIBB 100530	METAR WIBB 100530Z 33009KT 9000 BKN010 30/24 Q1007=
10/06/2022 06:00:00Z	 SAID32 WIBB 100600	METAR WIBB 100600Z 34009KT 9000 BKN012 31/24 Q1007=
10/06/2022 06:30:00Z	 SAID32 WIBB 100630	METAR WIBB 100630Z 34007KT 9000 BKN012 31/23 Q1007=
10/06/2022 07:00:00Z	 SAID32 WIBB 100700	METAR WIBB 100700Z 31007KT 9999 SCT015 30/24 Q1006 NOSIG=
10/06/2022 07:30:00Z	 SAID32 WIBB 100730	METAR WIBB 100730Z 33007KT 9999 SCT015 32/24 Q1006 NOSIG=
10/06/2022 08:00:00Z	 SAID32 WIBB 100800	METAR WIBB 100800Z 30007KT 9999 SCT015 31/24 Q1005 NOSIG=
10/06/2022 08:30:00Z	 SAID32 WIBB 100830	METAR WIBB 100830Z 30007KT 9999 SCT015 31/23 Q1005 NOSIG=
10/06/2022 09:00:00Z	 SAID32 WIBB 100900	METAR WIBB 100900Z 32007KT 9999 FEW013 31/23 Q1005 NOSIG=
10/06/2022 10:00:00Z	 SAID32 WIBB 101000	METAR WIBB 101000Z 32006KT 9999 FEW012 30/23 Q1005 NOSIG=
10/06/2022 10:30:00Z	 SAID32 WIBB 101030	METAR WIBB 101030Z 33006KT 9999 FEW012 30/24 Q1005 NOSIG=
10/06/2022 11:00:00Z	 SAID32 WIBB 101100	METAR WIBB 101100Z 33006KT 9000 FEW012 29/24 Q1005 NOSIG=
10/06/2022 11:30:00Z	 SAID32 WIBB 101130	METAR WIBB 101130Z 33005KT 9000 FEW017 29/24 Q1006 NOSIG=
10/06/2022 12:00:00Z	 SAID32 WIBB 101200	METAR WIBB 101200Z 32005KT 8000 FEW017 28/24 Q1006 NOSIG=
10/06/2022 12:30:00Z	 SAID32 WIBB 101230	METAR WIBB 101230Z 32003KT 8000 FEW017 28/24 Q1006 NOSIG=
10/06/2022 13:00:00Z	 SAID32 WIBB 101300	METAR WIBB 101300Z 00000KT 8000 FEW016 27/24 Q1007=
10/06/2022 13:30:00Z	 SAID32 WIBB 101330	METAR WIBB 101330Z 00000KT 8000 FEW016 26/24 Q1007=
10/06/2022 14:00:00Z	 SAID32 WIBB 101400	METAR WIBB 101400Z 00000KT 8000 FEW014 27/23 Q1008=
10/06/2022 14:30:00Z	 SAID32 WIBB 101430	METAR WIBB 101430Z 00000KT 8000 FEW014 26/24 Q1008=
10/06/2022 15:00:00Z	 SAID32 WIBB 101500	METAR WIBB 101500Z 00000KT 8000 FEW014 26/24 Q1008=
10/06/2022 15:30:00Z	 SAID32 WIBB 101530	METAR WIBB 101530Z 00000KT 8000 FEW014 26/24 Q1008=
10/06/2022 16:00:00Z	 SAID32 WIBB 101600	METAR WIBB 101600Z 00000KT 8000 FEW014 25/24 Q1009=
10/06/2022 16:30:00Z	 SAID32 WIBB 101630	METAR WIBB 101630Z AUTO 35005KT 9000 ////// 26/24 Q1009=
10/06/2022 17:00:00Z	 SAID32 WIBB 101700	METAR WIBB 101700Z AUTO 33003KT 9000 ////// 26/25 Q1009=
10/06/2022 17:30:00Z	 SAID32 WIBB 101730	METAR WIBB 101730Z AUTO 33004KT 9000 ////// 26/24 Q1008=
10/06/2022 18:00:00Z	 SAID32 WIBB 101800	METAR WIBB 101800Z 32005KT 7000 FEW014 25/24 Q1008=
10/06/2022 18:30:00Z	 SAID32 WIBB 101830	METAR WIBB 101830Z AUTO 33004KT 9000 ////// 25/24 Q1007=
10/06/2022 19:00:00Z	 SAID32 WIBB 101900	METAR WIBB 101900Z AUTO 32002KT 9000 ////// 25/24 Q1007=
10/06/2022 19:30:00Z	 SAID32 WIBB 101930	METAR WIBB 101930Z AUTO 31002KT 9000 ////// 25/24 Q1007=
10/06/2022 20:00:00Z	 SAID32 WIBB 102000	METAR WIBB 102000Z AUTO 31003KT 9000 ////// 25/23 Q1007=
10/06/2022 20:30:00Z	 SAID32 WIBB 102030	METAR WIBB 102030Z AUTO 33003KT 9000 ////// 25/23 Q1007=
10/06/2022 21:00:00Z	 SAID32 WIBB 102100	METAR WIBB 102100Z 00000KT 7000 FEW014 24/22 Q1007=
10/06/2022 21:30:00Z	 SAID32 WIBB 102130	METAR WIBB 102130Z AUTO VRB02KT 9999 ////// 25/23 Q1006=
10/06/2022 22:00:00Z	 SAID32 WIBB 102200	METAR WIBB 102200Z AUTO VRB02KT 9999 ////// 25/23 Q1007=
10/06/2022 22:30:00Z	 SAID32 WIBB 102230	METAR WIBB 102230Z AUTO VRB02KT 9999 ////// 24/23 Q1007=
10/06/2022 23:00:00Z	 SAID32 WIBB 102300	METAR WIBB 102300Z 00000KT 7000 FEW014 24/22 Q1007=
10/06/2022 23:30:00Z	 SAID32 WIBB 102330	METAR WIBB 102330Z 00000KT 7000 SCT013 24/22 Q1008=
11/06/2022 00:00:00Z	 SAID32 WIBB 110000	METAR WIBB 110000Z 20006KT 7000 SCT012 23/22 Q1008=
11/06/2022 00:30:00Z	 SAID32 WIBB 110030	METAR WIBB 110030Z 00000KT 6000 BKN012 24/23 Q1009=
11/06/2022 01:00:00Z	 SAID32 WIBB 110100	METAR WIBB 110100Z 00000KT 7000 SCT013 25/23 Q1009 NOSIG=
11/06/2022 02:00:00Z	 SAID32 WIBB 110200	METAR WIBB 110200Z 21005KT 7000 FEW017CB 26/24 Q1010=
11/06/2022 02:30:00Z	 SAID32 WIBB 110230	METAR WIBB 110230Z 23004KT 7000 FEW017CB 26/24 Q1009=
11/06/2022 03:00:00Z	 SAID32 WIBB 110300	METAR WIBB 110300Z 18007KT 8000 FEW017CB 26/23 Q1010=
11/06/2022 03:30:00Z	 SAID32 WIBB 110330	METAR WIBB 110330Z 18007KT 7000 FEW017CB 26/24 Q1010=
11/06/2022 04:00:00Z	 SAID32 WIBB 110400	METAR WIBB 110400Z 17007KT 7000 BKN010 26/24 Q1011 NOSIG=
11/06/2022 04:30:00Z	 SAID32 WIBB 110430	METAR WIBB 110430Z 16006KT 7000 BKN010 26/24 Q1010 NOSIG=
11/06/2022 05:00:00Z	 SAID32 WIBB 110500	METAR WIBB 110500Z 19007KT 7000 -RA BKN010 26/24 Q1009=
11/06/2022 05:30:00Z	 SAID32 WIBB 110530	METAR WIBB 110530Z 22005KT 7000 -RA BKN010 26/24 Q1009=
11/06/2022 06:00:00Z	 SAID32 WIBB 110600	METAR WIBB 110600Z 00000KT 6000 -RA BKN010 26/25 Q1008=
11/06/2022 06:30:00Z	 SAID32 WIBB 110630	METAR WIBB 110630Z 00000KT 6000 -RA BKN010 FEW017CB 27/24 Q1008=
11/06/2022 07:00:00Z	 SAID32 WIBB 110700	METAR WIBB 110700Z 22004KT 6000 BKN010 FEW015CB 27/24 Q1007 RMK CB TO N=
11/06/2022 07:30:00Z	 SAID32 WIBB 110730	METAR WIBB 110730Z 19008KT 6000 BKN010 FEW014CB 27/25 Q1007 RMK CB TO N=
11/06/2022 08:00:00Z	 SAID32 WIBB 110800	METAR WIBB 110800Z 21006KT 7000 BKN008 FEW013CB 27/24 Q1006=
11/06/2022 08:30:00Z	 SAID32 WIBB 110830	METAR WIBB 110830Z 22005KT 7000 BKN010 FEW014CB 27/24 Q1006 RMK CB TO N=
11/06/2022 09:00:00Z	 SAID32 WIBB 110900	METAR WIBB 110900Z 25004KT 7000 SCT010 FEW015CB 28/24 Q1006 RMK CB TO NW AND N=
11/06/2022 09:30:00Z	 SAID32 WIBB 110930	METAR WIBB 110930Z 00000KT 7000 SCT010 FEW015CB 28/24 Q1006 RMK CB TO NW AND N=
11/06/2022 10:00:00Z	 SAID32 WIBB 111000	METAR WIBB 111000Z 00000KT 7000 SCT010 FEW015CB 28/23 Q1006 RMK CB TO NW AND N=
11/06/2022 10:30:00Z	 SAID32 WIBB 111030	METAR WIBB 111030Z 00000KT 7000 SCT010 FEW015CB 28/23 Q1007 RMK CB TO NW, N, AND NE=
11/06/2022 11:00:00Z	 SAID32 WIBB 111100	METAR WIBB 111100Z 00000KT 7000 SCT012 28/24 Q1007=
11/06/2022 11:30:00Z	 SAID32 WIBB 111130	METAR WIBB 111130Z 00000KT 5000 HZ SCT012 27/25 Q1008=
11/06/2022 12:00:00Z	 SAID32 WIBB 111200	METAR WIBB 111200Z 00000KT 6000 SCT012 27/25 Q1008=
11/06/2022 12:30:00Z	 SAID32 WIBB 111230	METAR WIBB 111230Z 00000KT 6000 SCT012 26/25 Q1008=
11/06/2022 13:00:00Z	 SAID32 WIBB 111300	METAR WIBB 111300Z 00000KT 5000 HZ SCT012 26/25 Q1009=
11/06/2022 13:30:00Z	 SAID32 WIBB 111330	METAR WIBB 111330Z 00000KT 5000 HZ SCT012 26/25 Q1009=
11/06/2022 14:00:00Z	 SAID32 WIBB 111400	METAR WIBB 111400Z 00000KT 5000 HZ SCT012 26/25 Q1010=
11/06/2022 14:30:00Z	 SAID32 WIBB 111430	METAR WIBB 111430Z 00000KT 5000 HZ SCT012 25/25 Q1010=
11/06/2022 15:00:00Z	 SAID32 WIBB 111500	METAR WIBB 111500Z 00000KT 5000 HZ SCT012 25/25 Q1010=
11/06/2022 15:30:00Z	 SAID32 WIBB 111530	METAR WIBB 111530Z 00000KT 5000 HZ SCT010 26/25 Q1010=
11/06/2022 16:00:00Z	 SAID32 WIBB 111600	METAR WIBB 111600Z 32005KT 5000 SCT010 26/25 Q1010=
11/06/2022 16:30:00Z	 SAID32 WIBB 111630	METAR WIBB 111630Z 33006KT 6000 SCT010 25/24 Q1010=
11/06/2022 17:00:00Z	 SAID32 WIBB 111700	METAR WIBB 111700Z 32006KT 6000 SCT010 25/23 Q1010=
11/06/2022 17:30:00Z	 SAID32 WIBB 111730	METAR WIBB 111730Z 32006KT 6000 SCT010 25/23 Q1010=
11/06/2022 18:00:00Z	 SAID32 WIBB 111800	METAR WIBB 111800Z 00000KT 6000 SCT010 24/22 Q1010=
11/06/2022 18:30:00Z	 SAID32 WIBB 111830	METAR WIBB 111830Z 00000KT 6000 SCT010 24/22 Q1010=
11/06/2022 19:00:00Z	 SAID32 WIBB 111900	METAR WIBB 111900Z 00000KT 6000 SCT010 23/22 Q1010=
11/06/2022 19:30:00Z	 SAID32 WIBB 111930	METAR WIBB 111930Z 00000KT 5000 HZ SCT010 23/22 Q1008=
11/06/2022 20:00:00Z	 SAID32 WIBB 112000	METAR WIBB 112000Z 00000KT 5000 HZ SCT010 23/22 Q1008=
11/06/2022 20:30:00Z	 SAID32 WIBB 112030	METAR WIBB 112030Z 00000KT 5000 HZ SCT010 23/22 Q1008=
11/06/2022 21:30:00Z	 SAID32 WIBB 112130	METAR WIBB 112130Z 00000KT 5000 HZ SCT010 23/23 Q1008=
11/06/2022 22:00:00Z	 SAID32 WIBB 112200	METAR WIBB 112200Z 00000KT 5000 HZ SCT010 24/22 Q1009=
11/06/2022 22:30:00Z	 SAID32 WIBB 112230	METAR WIBB 112230Z 00000KT 5000 HZ FEW010 23/23 Q1008=
11/06/2022 23:00:00Z	 SAID32 WIBB 112300	METAR WIBB 112300Z 00000KT 5000 HZ FEW010 23/22 Q1008=
11/06/2022 23:30:00Z	 SAID32 WIBB 112330	METAR WIBB 112330Z 00000KT 5000 HZ FEW010 23/22 Q1008=
12/06/2022 00:00:00Z	 SAID32 WIBB 120000	METAR WIBB 120000Z 00000KT 4000 HZ FEW013 23/23 Q1009=
12/06/2022 00:30:00Z	 SAID32 WIBB 120030	METAR WIBB 120030Z 33005KT 4000 HZ FEW012 23/23 Q1009=
12/06/2022 01:00:00Z	 SAID32 WIBB 120100	METAR WIBB 120100Z 32005KT 7000 FEW013 24/23 Q1009 NOSIG=
12/06/2022 01:30:00Z	 SAID32 WIBB 120130	METAR WIBB 120130Z 00000KT 7000 FEW013 25/23 Q1010 NOSIG=
12/06/2022 02:00:00Z	 SAID32 WIBB 120200	METAR WIBB 120200Z 31005KT 8000 FEW013 26/22 Q1010 NOSIG=
12/06/2022 02:30:00Z	 SAID32 WIBB 120230	METAR WIBB 120230Z 28005KT 8000 FEW013 27/22 Q1010 NOSIG=
12/06/2022 03:00:00Z	 SAID32 WIBB 120300	METAR WIBB 120300Z 33007KT 8000 SCT013 28/22 Q1010 NOSIG=
12/06/2022 03:30:00Z	 SAID32 WIBB 120330	METAR WIBB 120330Z 35010KT 8000 SCT013 29/23 Q1010 NOSIG=
12/06/2022 04:00:00Z	 SAID32 WIBB 120400	METAR WIBB 120400Z 34010KT 8000 SCT013 29/23 Q1010 NOSIG=
12/06/2022 04:30:00Z	 SAID32 WIBB 120430	METAR WIBB 120430Z 33008KT 8000 SCT013 29/23 Q1009 NOSIG=
12/06/2022 05:30:00Z	 SAID32 WIBB 120530	METAR WIBB 120530Z 32010KT 9999 SCT013 29/23 Q1008 NOSIG=
12/06/2022 06:00:00Z	 SAID32 WIBB 120600	METAR WIBB 120600Z 30006KT 9999 SCT013 30/23 Q1008 NOSIG=
12/06/2022 06:30:00Z	 SAID32 WIBB 120630	METAR WIBB 120630Z 32009KT 9999 SCT013 30/23 Q1008 NOSIG=
12/06/2022 07:00:00Z	 SAID32 WIBB 120700	METAR WIBB 120700Z 33008KT 9999 SCT013 31/23 Q1007=
12/06/2022 07:30:00Z	 SAID32 WIBB 120730	METAR WIBB 120730Z 32008KT 9000 SCT013 31/22 Q1007=
12/06/2022 08:00:00Z	 SAID32 WIBB 120800	METAR WIBB 120800Z 34006KT 9999 SCT013 31/22 Q1006=
12/06/2022 08:30:00Z	 SAID32 WIBB 120830	METAR WIBB 120830Z 34006KT 9999 SCT013 31/23 Q1006=
12/06/2022 09:00:00Z	 SAID32 WIBB 120900	METAR WIBB 120900Z 34006KT 9999 SCT013 31/23 Q1006=
12/06/2022 09:30:00Z	 SAID32 WIBB 120930	METAR WIBB 120930Z 35006KT 9999 SCT013 31/22 Q1006=
12/06/2022 10:00:00Z	 SAID32 WIBB 121000	METAR WIBB 121000Z 32006KT 9999 SCT013 31/22 Q1006=
12/06/2022 10:30:00Z	 SAID32 WIBB 121030	METAR WIBB 121030Z 33004KT 9000 SCT013 30/22 Q1007=
12/06/2022 11:00:00Z	 SAID32 WIBB 121100	METAR WIBB 121100Z 32005KT 8000 SCT013 30/23 Q1007=
12/06/2022 11:30:00Z	 SAID32 WIBB 121130	METAR WIBB 121130Z 03007KT 8000 SCT013 29/23 Q1007=
12/06/2022 12:00:00Z	 SAID32 WIBB 121200	METAR WIBB 121200Z 36007KT 8000 FEW013 FEW016CB 28/24 Q1008=
12/06/2022 12:30:00Z	 SAID32 WIBB 121230	METAR WIBB 121230Z 36007KT 8000 FEW013 FEW016CB 27/23 Q1008=
12/06/2022 13:00:00Z	 SAID32 WIBB 121300	METAR WIBB 121300Z 02006KT 8000 SCT012 FEW016CB 27/23 Q1009 RMK CB TO SW=
12/06/2022 13:30:00Z	 SAID32 WIBB 121330	METAR WIBB 121330Z 01004KT 8000 SCT012 FEW016CB 26/23 Q1009 RMK CB TO SW=
12/06/2022 14:00:00Z	 SAID32 WIBB 121400	METAR WIBB 121400Z 00000KT 8000 SCT012 FEW016CB 26/23 Q1010 RMK CB TO SW=
12/06/2022 14:30:00Z	 SAID32 WIBB 121430	METAR WIBB 121430Z 00000KT 7000 SCT012 FEW016CB 26/23 Q1010 RMK CB TO SW=
12/06/2022 15:00:00Z	 SAID32 WIBB 121500	METAR WIBB 121500Z 00000KT 7000 SCT012 FEW016CB 25/23 Q1010 RMK CB TO SW=
12/06/2022 15:30:00Z	 SAID32 WIBB 121530	METAR WIBB 121530Z 32004KT 7000 SCT012 FEW016CB 25/23 Q1010 RMK CB TO SW=
12/06/2022 16:00:00Z	 SAID32 WIBB 121600	METAR WIBB 121600Z 00000KT 7000 SCT012 25/23 Q1010=
12/06/2022 16:30:00Z	 SAID32 WIBB 121630	METAR WIBB 121630Z 00000KT 7000 SCT012 25/23 Q1010=
12/06/2022 17:00:00Z	 SAID32 WIBB 121700	METAR WIBB 121700Z 28004KT 7000 SCT012 25/23 Q1010=
12/06/2022 17:30:00Z	 SAID32 WIBB 121730	METAR WIBB 121730Z 00000KT 7000 SCT012 25/23 Q1009=
12/06/2022 18:00:00Z	 SAID32 WIBB 121800	METAR WIBB 121800Z 23004KT 7000 SCT012 25/23 Q1009=
12/06/2022 18:30:00Z	 SAID32 WIBB 121830	METAR WIBB 121830Z AUTO 23003KT 9999 ////// 24/23 Q1008=
12/06/2022 19:00:00Z	 SAID32 WIBB 121900	METAR WIBB 121900Z AUTO VRB02KT 9999 ////// 24/23 Q1008=
12/06/2022 19:30:00Z	 SAID32 WIBB 121930	METAR WIBB 121930Z AUTO 23002KT 9999 ////// 24/23 Q1007=
12/06/2022 20:00:00Z	 SAID32 WIBB 122000	METAR WIBB 122000Z AUTO 27001KT 7000 ////// 25/23 Q1007=
12/06/2022 20:30:00Z	 SAID32 WIBB 122030	METAR WIBB 122030Z AUTO 19004KT 8000 ////// 24/24 Q1007=
12/06/2022 21:00:00Z	 SAID32 WIBB 122100	METAR WIBB 122100Z 00000KT 7000 SCT012 24/24 Q1007=
12/06/2022 21:30:00Z	 SAID32 WIBB 122130	METAR WIBB 122130Z 00000KT 7000 SCT013 24/24 Q1007=
12/06/2022 22:00:00Z	 SAID32 WIBB 122200	METAR WIBB 122200Z 00000KT 7000 SCT013 24/23 Q1007=
12/06/2022 22:30:00Z	 SAID32 WIBB 122230	METAR WIBB 122230Z 00000KT 7000 SCT012 24/23 Q1007=
12/06/2022 23:00:00Z	 SAID32 WIBB 122300	METAR WIBB 122300Z 00000KT 7000 SCT012 24/23 Q1008=
12/06/2022 23:30:00Z	 SAID32 WIBB 122330	METAR WIBB 122330Z 00000KT 6000 SCT012 24/24 Q1008=
13/06/2022 00:00:00Z	 SAID32 WIBB 130000	METAR WIBB 130000Z 00000KT 6000 SCT012 24/23 Q1009=
13/06/2022 00:30:00Z	 SAID32 WIBB 130030	METAR WIBB 130030Z 00000KT 6000 SCT012 25/23 Q1009=
13/06/2022 01:00:00Z	 SAID32 WIBB 130100	METAR WIBB 130100Z 00000KT 6000 SCT012 25/23 Q1009=
13/06/2022 01:30:00Z	 SAID32 WIBB 130130	METAR WIBB 130130Z 00000KT 8000 FEW013 26/23 Q1009=
13/06/2022 02:00:00Z	 SAID32 WIBB 130200	METAR WIBB 130200Z 29005KT 8000 FEW015 27/23 Q1010=
13/06/2022 02:30:00Z	 SAID32 WIBB 130230	METAR WIBB 130230Z 00000KT 9999 FEW015 28/23 Q1010=
13/06/2022 03:00:00Z	 SAID32 WIBB 130300	METAR WIBB 130300Z 32005KT 9999 FEW015 29/22 Q1010=
13/06/2022 03:30:00Z	 SAID32 WIBB 130330	METAR WIBB 130330Z 32006KT 9999 FEW015 29/21 Q1009=
13/06/2022 04:00:00Z	 SAID32 WIBB 130400	METAR WIBB 130400Z 36006KT 9999 FEW015 30/22 Q1009=
13/06/2022 04:30:00Z	 SAID32 WIBB 130430	METAR WIBB 130430Z 00000KT 9999 SCT013 30/21 Q1008=
13/06/2022 05:00:00Z	 SAID32 WIBB 130500	METAR WIBB 130500Z 00000KT 9999 BKN012 31/21 Q1008=
13/06/2022 05:30:00Z	 SAID32 WIBB 130530	METAR WIBB 130530Z 26005KT 9999 BKN012 31/21 Q1007=
13/06/2022 06:00:00Z	 SAID32 WIBB 130600	METAR WIBB 130600Z 35006KT 9999 BKN012 32/22 Q1007=
13/06/2022 06:30:00Z	 SAID32 WIBB 130630	METAR WIBB 130630Z 36005KT 9999 BKN012 32/22 Q1007=
13/06/2022 07:00:00Z	 SAID32 WIBB 130700	METAR WIBB 130700Z 31006KT 9999 BKN015 32/21 Q1006=
13/06/2022 07:30:00Z	 SAID32 WIBB 130730	METAR WIBB 130730Z 28005KT 9999 BKN012 32/21 Q1005=
13/06/2022 08:00:00Z	 SAID32 WIBB 130800	METAR WIBB 130800Z 36010KT 9999 BKN012 31/22 Q1005=
13/06/2022 08:30:00Z	 SAID32 WIBB 130830	METAR WIBB 130830Z 03008KT 7000 -RA BKN012 29/23 Q1005=
13/06/2022 09:00:00Z	 SAID32 WIBB 130900	METAR WIBB 130900Z 03005KT 8000 SCT015 29/23 Q1004=
13/06/2022 09:30:00Z	 SAID32 WIBB 130930	METAR WIBB 130930Z AUTO 02003KT 8888 BKN012 30/23 Q1005=
13/06/2022 10:00:00Z	 SAID32 WIBB 131000	METAR WIBB 131000Z 00000KT 8000 FEW015CB SCT012 31/23 Q1005=
13/06/2022 10:30:00Z	 SAID32 WIBB 131030	METAR WIBB 131030Z 00000KT 8000 FEW015CB SCT012 30/23 Q1005=
13/06/2022 11:00:00Z	 SAID32 WIBB 131100	METAR WIBB 131100Z 05008KT 7000 TS FEW015CB SCT012 29/23 Q1005=
13/06/2022 11:30:00Z	 SAID32 WIBB 131130	METAR WIBB 131130Z 06007KT 7000 FEW015CB SCT012 27/23 Q1006=
13/06/2022 12:00:00Z	 SAID32 WIBB 131200	METAR WIBB 131200Z 07005KT 7000 TS FEW015CB BKN012 27/22 Q1006=
13/06/2022 12:30:00Z	 SAID32 WIBB 131230	METAR WIBB 131230Z 04006KT 7000 TS FEW015CB SCT012 27/22 Q1007=
13/06/2022 13:00:00Z	 SAID32 WIBB 131300	METAR WIBB 131300Z 00000KT 8000 TS FEW015CB 27/23 Q1007 NOSIG=
13/06/2022 13:30:00Z	 SAID32 WIBB 131330	METAR WIBB 131330Z 00000KT 8000 TS FEW015CB 27/23 Q1008 NOSIG=
13/06/2022 14:00:00Z	 SAID32 WIBB 131400	METAR WIBB 131400Z 00000KT 8000 FEW015CB 27/23 Q1008 NOSIG=
13/06/2022 14:30:00Z	 SAID32 WIBB 131430	METAR WIBB 131430Z 00000KT 8000 FEW015CB 27/23 Q1008 NOSIG=
13/06/2022 15:00:00Z	 SAID32 WIBB 131500	METAR WIBB 131500Z 19004KT 8000 FEW017CB 26/23 Q1009 NOSIG=
13/06/2022 15:30:00Z	 SAID32 WIBB 131530	METAR WIBB 131530Z 20005KT 8000 FEW017CB 26/24 Q1009 NOSIG=
13/06/2022 16:00:00Z	 SAID32 WIBB 131600	METAR WIBB 131600Z 26007KT 8000 SCT017CB 25/27 Q1009 NOSIG=
13/06/2022 16:30:00Z	 SAID32 WIBB 131630	METAR WIBB 131630Z 24007KT 8000 TS SCT012 FEW015CB 24/23 Q1010 NOSIG=
13/06/2022 17:00:00Z	 SAID32 WIBB 131700	METAR WIBB 131700Z 25008KT 1000 +TSRA SCT009 SCT013CB 23/23 Q1009 NOSIG=
13/06/2022 17:30:00Z	 SAID32 WIBB 131730	METAR WIBB 131730Z 27007KT 2000 TSRA SCT008 SCT013 23/23 Q1009 NOSIG=
13/06/2022 18:00:00Z	 SAID32 WIBB 131800	METAR WIBB 131800Z 27006KT 3000 TSRA SCT008 SCT013CB 23/23 Q1009 NOSIG=
13/06/2022 18:30:00Z	 SAID32 WIBB 131830	METAR WIBB 131830Z AUTO 21008KT 9999 -TSRA ////// 23/23 Q1009=
13/06/2022 19:00:00Z	 SAID32 WIBB 131900	METAR WIBB 131900Z AUTO 22007KT 1800 RA ////// 23/23 Q1009=
13/06/2022 19:30:00Z	 SAID32 WIBB 131930	METAR WIBB 131930Z AUTO 18005KT 3300 VCTS RA ////// 23/22 Q1009=
13/06/2022 20:00:00Z	 SAID32 WIBB 132000	METAR WIBB 132000Z AUTO 16006KT 5000 -RA ////// 23/22 Q1009=
13/06/2022 20:30:00Z	 SAID32 WIBB 132030	METAR WIBB 132030Z AUTO 16005KT 4900 RA ////// 23/22 Q1009=
13/06/2022 21:00:00Z	 SAID32 WIBB 132100	METAR WIBB 132100Z 00000KT 5000 RA BKN008 23/23 Q1009 NOSIG=
13/06/2022 21:30:00Z	 SAID32 WIBB 132130	METAR WIBB 132130Z AUTO VRB02KT 8000 -RA ////// 23/23 Q1009=
13/06/2022 22:00:00Z	 SAID32 WIBB 132200	METAR WIBB 132200Z 00000KT 7000 -RA SCT007 23/23 Q1009 NOSIG=
13/06/2022 22:30:00Z	 SAID32 WIBB 132230	METAR WIBB 132230Z AUTO 14004KT 8000 -RA ////// 23/23 Q1009=
13/06/2022 23:00:00Z	 SAID32 WIBB 132300	METAR WIBB 132300Z 00000KT 7000 -RA SCT008 23/23 Q1009 NOSIG=
13/06/2022 23:30:00Z	 SAID32 WIBB 132330	METAR WIBB 132330Z 00000KT 7000 -RA SCT008 23/23 Q1009 NOSIG=
14/06/2022 00:00:00Z	 SAID32 WIBB 140000	METAR WIBB 140000Z 00000KT 8000 SCT013 23/23 Q1008 NOSIG=
14/06/2022 00:30:00Z	 SAID32 WIBB 140030	METAR WIBB 140030Z 00000KT 9000 SCT010 23/23 Q1008 NOSIG=
14/06/2022 01:00:00Z	 SAID32 WIBB 140100	METAR WIBB 140100Z 00000KT 8000 SCT010 24/23 Q1009=
14/06/2022 01:30:00Z	 SAID32 WIBB 140130	METAR WIBB 140130Z 19005KT 8000 SCT010 25/23 Q1009=
14/06/2022 02:00:00Z	 SAID32 WIBB 140200	METAR WIBB 140200Z 00000KT 8000 SCT010 26/23 Q1010=
14/06/2022 03:00:00Z	 SAID32 WIBB 140300	METAR WIBB 140300Z 00000KT 9000 FEW010 28/23 Q1009=
14/06/2022 03:30:00Z	 SAID32 WIBB 140330	METAR WIBB 140330Z 00000KT 9000 FEW010 29/22 Q1009=
14/06/2022 04:00:00Z	 SAID32 WIBB 140400	METAR WIBB 140400Z 15004KT 9000 FEW010 29/23 Q1009=
14/06/2022 04:30:00Z	 SAID32 WIBB 140430	METAR WIBB 140430Z 19005KT 9000 FEW010 29/23 Q1009=
14/06/2022 05:00:00Z	 SAID32 WIBB 140500	METAR WIBB 140500Z 11004KT 9000 FEW010 30/23 Q1008=
14/06/2022 05:30:00Z	 SAID32 WIBB 140530	METAR WIBB 140530Z 15005KT 9000 FEW010 30/23 Q1008=
14/06/2022 06:00:00Z	 SAID32 WIBB 140600	METAR WIBB 140600Z 20008KT 9999 SCT010 30/23 Q1007=
14/06/2022 07:00:00Z	 SAID32 WIBB 140700	METAR WIBB 140700Z 16005KT 9999 SCT010 30/22 Q1006=
14/06/2022 07:30:00Z	 SAID32 WIBB 140730	METAR WIBB 140730Z 00000KT 9999 SCT010 30/22 Q1006=
14/06/2022 08:30:00Z	 SAID32 WIBB 140830	METAR WIBB 140830Z 00000KT 9999 SCT010 31/23 Q1005=
14/06/2022 09:00:00Z	 SAID32 WIBB 140900	METAR WIBB 140900Z 00000KT 9999 SCT010 32/23 Q1005=
14/06/2022 09:30:00Z	 SAID32 WIBB 140930	METAR WIBB 140930Z 00000KT 9999 SCT010 31/23 Q1005=
14/06/2022 10:00:00Z	 SAID32 WIBB 141000	METAR WIBB 141000Z 00000KT 9000 SCT012 30/22 Q1005=
14/06/2022 10:30:00Z	 SAID32 WIBB 141030	METAR WIBB 141030Z 18005KT 9000 SCT012 30/22 Q1005=
14/06/2022 11:00:00Z	 SAID32 WIBB 141100	METAR WIBB 141100Z 00000KT 9000 SCT012 30/23 Q1005=
14/06/2022 11:30:00Z	 SAID32 WIBB 141130	METAR WIBB 141130Z 12005KT 8000 SCT012 28/23 Q1005=
14/06/2022 12:00:00Z	 SAID32 WIBB 141200	METAR WIBB 141200Z 00000KT 8000 SCT013 28/23 Q1006=
14/06/2022 12:30:00Z	 SAID32 WIBB 141230	METAR WIBB 141230Z 00000KT 8000 SCT013 28/23 Q1007=
14/06/2022 13:00:00Z	 SAID32 WIBB 141300	METAR WIBB 141300Z 00000KT 8000 SCT013 28/24 Q1007 NOSIG=
14/06/2022 13:30:00Z	 SAID32 WIBB 141330	METAR WIBB 141330Z 00000KT 8000 FEW013 28/24 Q1007 NOSIG=
14/06/2022 14:00:00Z	 SAID32 WIBB 141400	METAR WIBB 141400Z 00000KT 8000 SCT013 27/24 Q1008 NOSIG=
14/06/2022 14:30:00Z	 SAID32 WIBB 141430	METAR WIBB 141430Z 00000KT 8000 SCT013 27/25 Q1008 NOSIG=
14/06/2022 15:00:00Z	 SAID32 WIBB 141500	METAR WIBB 141500Z 00000KT 7000 SCT013 27/25 Q1009=
14/06/2022 15:30:00Z	 SAID32 WIBB 141530	METAR WIBB 141530Z 00000KT 8000 SCT013 26/25 Q1009=
14/06/2022 16:00:00Z	 SAID32 WIBB 141600	METAR WIBB 141600Z 24007KT 7000 FEW017CB 26/25 Q1009=
14/06/2022 16:30:00Z	 SAID32 WIBB 141630	METAR WIBB 141630Z 26005KT 7000 FEW017CB 26/24 Q1009=
14/06/2022 17:00:00Z	 SAID32 WIBB 141700	METAR WIBB 141700Z 36004KT 7000 SCT012 26/24 Q1009=
14/06/2022 17:30:00Z	 SAID32 WIBB 141730	METAR WIBB 141730Z 00000KT 7000 SCT012 26/24 Q1008=
14/06/2022 18:00:00Z	 SAID32 WIBB 141800	METAR WIBB 141800Z 00000KT 7000 SCT012 25/24 Q1008=
14/06/2022 21:00:00Z	 SAID32 WIBB 142100	METAR WIBB 142100Z 00000KT 000V000 7000 SCT012 25/23 Q1007=
14/06/2022 21:30:00Z	 SAID32 WIBB 142130	METAR WIBB 142130Z 00000KT 7000 SCT012 25/23 Q1007=
14/06/2022 22:00:00Z	 SAID32 WIBB 142200	METAR WIBB 142200Z 00000KT 7000 SCT012 24/23 Q1007=
14/06/2022 22:30:00Z	 SAID32 WIBB 142230	METAR WIBB 142230Z 00000KT 7000 SCT012 24/23 Q1007=
14/06/2022 23:00:00Z	 SAID32 WIBB 142300	METAR WIBB 142300Z 00000KT 7000 SCT013 24/23 Q1007 NOSIG=
14/06/2022 23:30:00Z	 SAID32 WIBB 142330	METAR WIBB 142330Z 00000KT 7000 SCT013 24/23 Q1008 NOSIG=
15/06/2022 00:00:00Z	 SAID32 WIBB 150000	METAR WIBB 150000Z 00000KT 8000 SCT013 25/24 Q1008 NOSIG=
15/06/2022 00:30:00Z	 SAID32 WIBB 150030	METAR WIBB 150030Z 00000KT 8000 SCT013 25/24 Q1009 NOSIG=
15/06/2022 01:00:00Z	 SAID32 WIBB 150100	METAR WIBB 150100Z 17004KT 7000 SCT012 FEW015CB 26/23 Q1009 RMK CB TO E=
15/06/2022 01:30:00Z	 SAID32 WIBB 150130	METAR WIBB 150130Z 18010KT 7000 BKN009 FEW015CB 25/23 Q1010 RMK CB TO E=
15/06/2022 02:00:00Z	 SAID32 WIBB 150200	METAR WIBB 150200Z 14013KT 7000 BKN009 FEW014CB 26/23 Q1010 RMK CB TO N, NE, AND E=
15/06/2022 02:30:00Z	 SAID32 WIBB 150230	METAR WIBB 150230Z 15012KT 7000 BKN009 FEW014CB 26/24 Q1010 RMK CB TO E, NE, AND N=
15/06/2022 03:00:00Z	 SAID32 WIBB 150300	METAR WIBB 150300Z 12008KT 8000 TS BKN009 FEW014CB 26/23 Q1010 RMK CB TO NE AND E=
15/06/2022 03:30:00Z	 SAID32 WIBB 150330	METAR WIBB 150330Z 14011KT 8000 BKN010 FEW014CB 26/22 Q1010 RMK CB TO N AND NE=
15/06/2022 04:00:00Z	 SAID32 WIBB 150400	METAR WIBB 150400Z 14007KT 8000 -RA BKN010 FEW015CB 26/22 Q1009 RMK CB TO N AND NE=
15/06/2022 04:30:00Z	 SAID32 WIBB 150430	METAR WIBB 150430Z 18006KT 8000 BKN010 27/23 Q1009=
15/06/2022 05:00:00Z	 SAID32 WIBB 150500	METAR WIBB 150500Z 17006KT 8000 BKN010 27/23 Q1009=
15/06/2022 05:30:00Z	 SAID32 WIBB 150530	METAR WIBB 150530Z 18004KT 8000 -RA BKN010 27/22 Q1009=
15/06/2022 06:00:00Z	 SAID32 WIBB 150600	METAR WIBB 150600Z 21005KT 8000 BKN010 28/23 Q1008=
15/06/2022 06:30:00Z	 SAID32 WIBB 150630	METAR WIBB 150630Z 12004KT 8000 SCT010 28/23 Q1008=
15/06/2022 07:00:00Z	 SAID32 WIBB 150700	METAR WIBB 150700Z 00000KT 8000 FEW012 29/23 Q1008=
15/06/2022 07:30:00Z	 SAID32 WIBB 150730	METAR WIBB 150730Z 00000KT 8000 FEW012 30/23 Q1007=
15/06/2022 08:00:00Z	 SAID32 WIBB 150800	METAR WIBB 150800Z 00000KT 8000 FEW012 30/23 Q1007=
15/06/2022 08:30:00Z	 SAID32 WIBB 150830	METAR WIBB 150830Z 19005KT 8000 FEW012 30/23 Q1006=
15/06/2022 09:00:00Z	 SAID32 WIBB 150900	METAR WIBB 150900Z 17005KT 8000 FEW012 30/23 Q1006=
15/06/2022 09:30:00Z	 SAID32 WIBB 150930	METAR WIBB 150930Z 00000KT 8000 FEW012 30/23 Q1006=
15/06/2022 10:00:00Z	 SAID32 WIBB 151000	METAR WIBB 151000Z 00000KT 8000 FEW013 30/22 Q1006=
15/06/2022 10:30:00Z	 SAID32 WIBB 151030	METAR WIBB 151030Z 00000KT 8000 FEW014 29/23 Q1007=
15/06/2022 11:00:00Z	 SAID32 WIBB 151100	METAR WIBB 151100Z 00000KT 8000 FEW015 29/24 Q1007=
15/06/2022 11:30:00Z	 SAID32 WIBB 151130	METAR WIBB 151130Z 00000KT 8000 FEW015 28/24 Q1007=
15/06/2022 12:00:00Z	 SAID32 WIBB 151200	METAR WIBB 151200Z 00000KT 8000 FEW015 27/24 Q1007=
15/06/2022 12:30:00Z	 SAID32 WIBB 151230	METAR WIBB 151230Z 00000KT 8000 FEW015 27/24 Q1008=
15/06/2022 13:00:00Z	 SAID32 WIBB 151300	METAR WIBB 151300Z 00000KT 8000 FEW015 26/24 Q1008 NOSIG=
15/06/2022 13:30:00Z	 SAID32 WIBB 151330	METAR WIBB 151330Z 00000KT 8000 FEW015 27/24 Q1009 NOSIG=
15/06/2022 14:00:00Z	 SAID32 WIBB 151400	METAR WIBB 151400Z 00000KT 8000 FEW015 27/24 Q1009 NOSIG=
15/06/2022 14:30:00Z	 SAID32 WIBB 151430	METAR WIBB 151430Z 00000KT 8000 FEW015 27/24 Q1009 NOSIG=
15/06/2022 15:00:00Z	 SAID32 WIBB 151500	METAR WIBB 151500Z 00000KT 8000 FEW015 26/24 Q1009 NOSIG=
15/06/2022 15:30:00Z	 SAID32 WIBB 151530	METAR WIBB 151530Z 00000KT 8000 FEW015 26/24 Q1010 NOSIG=
15/06/2022 16:00:00Z	 SAID32 WIBB 151600	METAR WIBB 151600Z 00000KT 8000 FEW015 25/24 Q1010 NOSIG=
15/06/2022 16:30:00Z	 SAID32 WIBB 151630	METAR WIBB 151630Z 00000KT 8000 FEW015 25/23 Q1010 NOSIG=
15/06/2022 17:00:00Z	 SAID32 WIBB 151700	METAR WIBB 151700Z 00000KT 8000 FEW017 25/23 Q1010 NOSIG=
15/06/2022 17:30:00Z	 SAID32 WIBB 151730	METAR WIBB 151730Z 00000KT 8000 FEW017 25/23 Q1010 NOSIG=
15/06/2022 18:00:00Z	 SAID32 WIBB 151800	METAR WIBB 151800Z 00000KT 8000 FEW017 24/23 Q1009 NOSIG=
15/06/2022 18:30:00Z	 SAID32 WIBB 151830	METAR WIBB 151830Z AUTO 32001KT 9999 ////// 24/23 Q1009=
15/06/2022 19:00:00Z	 SAID32 WIBB 151900	METAR WIBB 151900Z AUTO 23001KT 9999 ////// 24/23 Q1009=
15/06/2022 19:30:00Z	 SAID32 WIBB 151930	METAR WIBB 151930Z AUTO 16002KT 9999 ////// 25/24 Q1008=
15/06/2022 20:00:00Z	 SAID32 WIBB 152000	METAR WIBB 152000Z AUTO 16002KT 9999 ////// 25/24 Q1008=
15/06/2022 20:30:00Z	 SAID32 WIBB 152030	METAR WIBB 152030Z AUTO 25001KT 9999 ////// 24/24 Q1008=
15/06/2022 21:00:00Z	 SAID32 WIBB 152100	METAR WIBB 152100Z AUTO 19001KT 9999 ////// 24/24 Q1008=
15/06/2022 21:30:00Z	 SAID32 WIBB 152130	METAR WIBB 152130Z AUTO 00000KT 9999 ////// 24/23 Q1008=
15/06/2022 22:00:00Z	 SAID32 WIBB 152200	METAR WIBB 152200Z 00000KT 8000 FEW015 24/24 Q1008 NOSIG=
15/06/2022 22:30:00Z	 SAID32 WIBB 152230	METAR WIBB 152230Z AUTO 14001KT 9999 ////// 24/24 Q1009=
15/06/2022 23:00:00Z	 SAID32 WIBB 152300	METAR WIBB 152300Z 00000KT 8000 BKN009 24/23 Q1009 NOSIG=
15/06/2022 23:30:00Z	 SAID32 WIBB 152330	METAR WIBB 152330Z 00000KT 7000 SCT009 24/23 Q1009 NOSIG=
16/06/2022 00:00:00Z	 SAID32 WIBB 160000	METAR WIBB 160000Z 00000KT 8000 SCT009 24/23 Q1009 NOSIG=
16/06/2022 00:30:00Z	 SAID32 WIBB 160030	METAR WIBB 160030Z 00000KT 8000 FEW010 25/24 Q1009 NOSIG=
16/06/2022 01:00:00Z	 SAID32 WIBB 160100	METAR WIBB 160100Z 00000KT 8000 SCT012 26/23 Q1010 NOSIG=
16/06/2022 01:30:00Z	 SAID32 WIBB 160130	METAR WIBB 160130Z 00000KT 8000 SCT012 26/23 Q1010 NOSIG=
16/06/2022 02:00:00Z	 SAID32 WIBB 160200	METAR WIBB 160200Z 00000KT 8000 SCT013 28/23 Q1010 NOSIG=
16/06/2022 02:30:00Z	 SAID32 WIBB 160230	METAR WIBB 160230Z 00000KT 8000 SCT013 28/23 Q1010 NOSIG=
16/06/2022 03:00:00Z	 SAID32 WIBB 160300	METAR WIBB 160300Z 00000KT 9999 SCT013 28/23 Q1010 NOSIG=
16/06/2022 03:30:00Z	 SAID32 WIBB 160330	METAR WIBB 160330Z 19006KT 9999 SCT013 29/24 Q1009 NOSIG=
16/06/2022 04:00:00Z	 SAID32 WIBB 160400	METAR WIBB 160400Z 18007KT 9999 SCT013 29/23 Q1009 NOSIG=
16/06/2022 04:30:00Z	 SAID32 WIBB 160430	METAR WIBB 160430Z 19005KT 9999 SCT013 30/23 Q1009=
16/06/2022 05:00:00Z	 SAID32 WIBB 160500	METAR WIBB 160500Z 19005KT 9999 BKN014 31/23 Q1009=
16/06/2022 05:30:00Z	 SAID32 WIBB 160530	METAR WIBB 160530Z 19005KT 9999 BKN014 31/23 Q1008 NOSIG=
16/06/2022 06:00:00Z	 SAID32 WIBB 160600	METAR WIBB 160600Z 15008KT 9999 BKN013 31/23 Q1007 NOSIG=
16/06/2022 06:30:00Z	 SAID32 WIBB 160630	METAR WIBB 160630Z 16007KT 9999 BKN013 31/23 Q1007 NOSIG=
16/06/2022 07:00:00Z	 SAID32 WIBB 160700	METAR WIBB 160700Z 00000KT 9000 BKN012 FEW013CB 31/22 Q1006 RMK CB TO N AND NW=
16/06/2022 07:30:00Z	 SAID32 WIBB 160730	METAR WIBB 160730Z 13005KT 8000 BKN010 FEW013CB 31/23 Q1006 RMK CB TO NW AND N=
16/06/2022 08:00:00Z	 SAID32 WIBB 160800	METAR WIBB 160800Z 20005KT 8000 BKN010 FEW013CB 31/23 Q1006 RMK CB TO NW AND N=
16/06/2022 08:30:00Z	 SAID32 WIBB 160830	METAR WIBB 160830Z 34011KT 6000 -RA BKN010 FEW013CB 28/23 Q1006 RMK CB OVER THE FIELD=
16/06/2022 08:44:00Z	 SAID32 WIBB 160844	METAR WIBB 160844Z 32008KT 5000 RA BKN010 FEW013CB 28/24 Q1006 RMK CB OVER THE FIELD=
16/06/2022 09:00:00Z	 SAID32 WIBB 160900	METAR WIBB 160900Z 33010KT 4000 RA BKN010 FEW013CB 26/24 Q1006 RMK CB OVER THE FIELD=
16/06/2022 09:30:00Z	 SAID32 WIBB 160930	METAR WIBB 160930Z 01005KT 6000 BKN010 FEW013CB 28/24 Q1006 RMK CB TO NE AND N=
16/06/2022 10:00:00Z	 SAID32 WIBB 161000	METAR WIBB 161000Z 00000KT 7000 BKN010 FEW015CB 28/25 Q1006 RMK CB TO SE AND SW=
16/06/2022 10:30:00Z	 SAID32 WIBB 161030	METAR WIBB 161030Z 36004KT 7000 SCT010 FEW014CB 28/24 Q1006 RMK CB TO SE AND S=
16/06/2022 11:00:00Z	 SAID32 WIBB 161100	METAR WIBB 161100Z 00000KT 6000 SCT010 FEW013CB 28/25 Q1007 RMK CB TO E, SE, AND S=
16/06/2022 11:30:00Z	 SAID32 WIBB 161130	METAR WIBB 161130Z 00000KT 6000 TS BKN010 FEW014CB 28/25 Q1007 RMK CB TO E AND SE=
16/06/2022 12:00:00Z	 SAID32 WIBB 161200	METAR WIBB 161200Z 00000KT 6000 TS SCT010 SCT014CB 28/25 Q1007 RMK CB TO E, SE, AND S=
16/06/2022 12:30:00Z	 SAID32 WIBB 161230	METAR WIBB 161230Z 11015KT 5000 -TSRA SCT008 SCT012CB 25/23 Q1008 RMK CB OVER THE FIELD=
16/06/2022 13:00:00Z	 SAID32 WIBB 161300	METAR WIBB 161300Z 12007KT 6000 -TSRA SCT010 FEW014CB 25/22 Q1008=
16/06/2022 13:30:00Z	 SAID32 WIBB 161330	METAR WIBB 161330Z 15003KT 6000 -TSRA SCT010 FEW014CB 25/23 Q1008=
16/06/2022 14:00:00Z	 SAID32 WIBB 161400	METAR WIBB 161400Z 00000KT 6000 SCT010 FEW015CB 25/24 Q1009=
16/06/2022 14:30:00Z	 SAID32 WIBB 161430	METAR WIBB 161430Z 12004KT 6000 SCT010 26/24 Q1009=
16/06/2022 15:00:00Z	 SAID32 WIBB 161500	METAR WIBB 161500Z 12006KT 6000 SCT010 26/24 Q1009=
16/06/2022 15:30:00Z	 SAID32 WIBB 161530	METAR WIBB 161530Z 14004KT 6000 SCT010 25/24 Q1010=
16/06/2022 16:00:00Z	 SAID32 WIBB 161600	METAR WIBB 161600Z 00000KT 6000 SCT010 25/24 Q1010=
16/06/2022 16:30:00Z	 SAID32 WIBB 161630	METAR WIBB 161630Z 00000KT 6000 SCT010 25/24 Q1010=
16/06/2022 17:00:00Z	 SAID32 WIBB 161700	METAR WIBB 161700Z 00000KT 6000 SCT010 25/24 Q1010=
16/06/2022 17:30:00Z	 SAID32 WIBB 161730	METAR WIBB 161730Z 00000KT 6000 SCT010 25/24 Q1010=
16/06/2022 18:00:00Z	 SAID32 WIBB 161800	METAR WIBB 161800Z 18004KT 6000 SCT012 25/25 Q1010=
16/06/2022 18:30:00Z	 SAID32 WIBB 161830	METAR WIBB 161830Z 00000KT 6000 SCT010 24/23 Q1010=
16/06/2022 19:00:00Z	 SAID32 WIBB 161900	METAR WIBB 161900Z 00000KT 6000 SCT010 24/23 Q1010=
16/06/2022 19:30:00Z	 SAID32 WIBB 161930	METAR WIBB 161930Z 00000KT 6000 SCT010 24/23 Q1010=
16/06/2022 20:00:00Z	 SAID32 WIBB 162000	METAR WIBB 162000Z 00000KT 6000 SCT010 24/23 Q1010=
16/06/2022 20:30:00Z	 SAID32 WIBB 162030	METAR WIBB 162030Z 00000KT 6000 SCT010 24/23 Q1008=
16/06/2022 21:00:00Z	 SAID32 WIBB 162100	METAR WIBB 162100Z 00000KT 6000 FEW010 24/23 Q1008=
16/06/2022 21:30:00Z	 SAID32 WIBB 162130	METAR WIBB 162130Z 00000KT 6000 FEW010 24/23 Q1008=
16/06/2022 22:00:00Z	 SAID32 WIBB 162200	METAR WIBB 162200Z 00000KT 6000 FEW010 23/23 Q1008=
16/06/2022 22:30:00Z	 SAID32 WIBB 162230	METAR WIBB 162230Z 00000KT 6000 FEW012 23/23 Q1008=
16/06/2022 23:00:00Z	 SAID32 WIBB 162300	METAR WIBB 162300Z 00000KT 6000 FEW012 23/23 Q1008=
16/06/2022 23:30:00Z	 SAID32 WIBB 162330	METAR WIBB 162330Z 00000KT 7000 FEW012 23/23 Q1008=
17/06/2022 00:00:00Z	 SAID32 WIBB 170000	METAR WIBB 170000Z 00000KT 6000 SCT012 23/23 Q1008=
17/06/2022 00:30:00Z	 SAID32 WIBB 170030	METAR WIBB 170030Z 00000KT 6000 SCT012 24/23 Q1009=
17/06/2022 01:00:00Z	 SAID32 WIBB 170100	METAR WIBB 170100Z 00000KT 7000 SCT014 25/23 Q1009 NOSIG=
17/06/2022 01:30:00Z	 SAID32 WIBB 170130	METAR WIBB 170130Z 00000KT 7000 SCT014 25/23 Q1009 NOSIG=
17/06/2022 02:00:00Z	 SAID32 WIBB 170200	METAR WIBB 170200Z 00000KT 8000 SCT014 26/23 Q1009 NOSIG=
17/06/2022 02:30:00Z	 SAID32 WIBB 170230	METAR WIBB 170230Z 16007KT 9999 SCT014 28/23 Q1009 NOSIG=
17/06/2022 03:00:00Z	 SAID32 WIBB 170300	METAR WIBB 170300Z 18005KT 9999 SCT014 28/24 Q1009 NOSIG=
17/06/2022 03:30:00Z	 SAID32 WIBB 170330	METAR WIBB 170330Z 15005KT 9999 SCT014 29/23 Q1009 NOSIG=
17/06/2022 04:00:00Z	 SAID32 WIBB 170400	METAR WIBB 170400Z 23006KT 9999 BKN013 29/23 Q1010 NOSIG=
17/06/2022 04:30:00Z	 SAID32 WIBB 170430	METAR WIBB 170430Z 21006KT 9999 BKN013 29/22 Q1010 NOSIG=
17/06/2022 05:00:00Z	 SAID32 WIBB 170500	METAR WIBB 170500Z 00000KT 9999 BKN013 29/23 Q1010 NOSIG=
17/06/2022 05:30:00Z	 SAID32 WIBB 170530	METAR WIBB 170530Z 00000KT 9999 BKN013 29/23 Q1009 NOSIG=
17/06/2022 06:00:00Z	 SAID32 WIBB 170600	METAR WIBB 170600Z 07009KT 9999 BKN013 30/23 Q1009 NOSIG=
17/06/2022 06:30:00Z	 SAID32 WIBB 170630	METAR WIBB 170630Z 04008KT 9999 BKN013 31/24 Q1008 NOSIG=
17/06/2022 07:00:00Z	 SAID32 WIBB 170700	METAR WIBB 170700Z 00000KT 9999 SCT015 30/22 Q1007 NOSIG=
17/06/2022 07:30:00Z	 SAID32 WIBB 170730	METAR WIBB 170730Z 18008KT 9999 SCT015 29/24 Q1007 NOSIG=
17/06/2022 08:00:00Z	 SAID32 WIBB 170800	METAR WIBB 170800Z 15006KT 9999 SCT013 30/24 Q1006 NOSIG=
17/06/2022 08:30:00Z	 SAID32 WIBB 170830	METAR WIBB 170830Z 00000KT 9999 SCT013 30/23 Q1006 NOSIG=
17/06/2022 09:00:00Z	 SAID32 WIBB 170900	METAR WIBB 170900Z 00000KT 9999 FEW015 30/23 Q1006 NOSIG=
17/06/2022 09:30:00Z	 SAID32 WIBB 170930	METAR WIBB 170930Z 00000KT 9999 FEW017CB 30/23 Q1006 NOSIG=
17/06/2022 10:00:00Z	 SAID32 WIBB 171000	METAR COR WIBB 171000Z 08005KT 8000 -RA SCT017CB 30/23 Q1007 NOSIG=
17/06/2022 10:30:00Z	 SAID32 WIBB 171030	METAR WIBB 171030Z 00000KT 9000 FEW017CB 27/25 Q1007 NOSIG=
17/06/2022 11:00:00Z	 SAID32 WIBB 171100	METAR WIBB 171100Z 00000KT 9000 FEW017CB 27/24 Q1008 NOSIG=
17/06/2022 11:30:00Z	 SAID32 WIBB 171130	METAR WIBB 171130Z 00000KT 8000 FEW017CB 27/25 Q1008 NOSIG=
17/06/2022 12:00:00Z	 SAID32 WIBB 171200	METAR WIBB 171200Z 00000KT 8000 FEW017 27/23 Q1008 NOSIG=
17/06/2022 12:30:00Z	 SAID32 WIBB 171230	METAR WIBB 171230Z 00000KT 8000 FEW017 27/23 Q1009 NOSIG=
17/06/2022 13:00:00Z	 SAID32 WIBB 171300	METAR WIBB 171300Z 00000KT 8000 SCT013 26/25 Q1009 NOSIG=
17/06/2022 13:30:00Z	 SAID32 WIBB 171330	METAR WIBB 171330Z 00000KT 8000 SCT013 26/25 Q1009 NOSIG=
17/06/2022 14:00:00Z	 SAID32 WIBB 171400	METAR WIBB 171400Z 00000KT 8000 SCT012 25/25 Q1009 NOSIG=
17/06/2022 14:30:00Z	 SAID32 WIBB 171430	METAR WIBB 171430Z 00000KT 8000 FEW012 26/24 Q1010 NOSIG=
17/06/2022 15:00:00Z	 SAID32 WIBB 171500	METAR WIBB 171500Z 20004KT 8000 FEW013 25/24 Q1010 NOSIG=
17/06/2022 15:30:00Z	 SAID32 WIBB 171530	METAR WIBB 171530Z 00000KT 8000 FEW013 25/24 Q1010 NOSIG=
17/06/2022 16:00:00Z	 SAID32 WIBB 171600	METAR WIBB 171600Z 00000KT 7000 FEW013 25/24 Q1010 NOSIG=
17/06/2022 16:30:00Z	 SAID32 WIBB 171630	METAR WIBB 171630Z 20004KT 7000 FEW013 25/24 Q1009 NOSIG=
17/06/2022 17:00:00Z	 SAID32 WIBB 171700	METAR WIBB 171700Z 20005KT 7000 FEW015 25/24 Q1009 NOSIG=
17/06/2022 17:30:00Z	 SAID32 WIBB 171730	METAR WIBB 171730Z 00000KT 7000 FEW015 24/24 Q1009 NOSIG=
17/06/2022 18:00:00Z	 SAID32 WIBB 171800	METAR WIBB 171800Z 00000KT 7000 FEW015 24/23 Q1009 NOSIG=
17/06/2022 18:30:00Z	 SAID32 WIBB 171830	METAR WIBB 171830Z AUTO 26002KT 9000 ////// 24/23 Q1009=
17/06/2022 19:00:00Z	 SAID32 WIBB 171900	METAR WIBB 171900Z AUTO 01001KT 7000 ////// 24/23 Q1008=
17/06/2022 19:30:00Z	 SAID32 WIBB 171930	METAR WIBB 171930Z AUTO 16001KT 6000 ////// 24/23 Q1008=
17/06/2022 20:00:00Z	 SAID32 WIBB 172000	METAR WIBB 172000Z AUTO 36002KT 6000 ////// 24/23 Q1008=
17/06/2022 20:30:00Z	 SAID32 WIBB 172030	METAR WIBB 172030Z AUTO 33001KT 8000 ////// 24/23 Q1008=
17/06/2022 21:00:00Z	 SAID32 WIBB 172100	METAR WIBB 172100Z 00000KT 7000 SCT013 24/23 Q1008 NOSIG=
17/06/2022 21:30:00Z	 SAID32 WIBB 172130	METAR WIBB 172130Z 32004KT 7000 SCT013 24/23 Q1008 NOSIG=
17/06/2022 22:00:00Z	 SAID32 WIBB 172200	METAR WIBB 172200Z 00000KT 6000 SCT013 24/23 Q1009=
17/06/2022 22:30:00Z	 SAID32 WIBB 172230	METAR WIBB 172230Z 00000KT 6000 SCT012 24/23 Q1009 NOSIG=
17/06/2022 23:00:00Z	 SAID32 WIBB 172300	METAR WIBB 172300Z 00000KT 6000 BKN009 24/23 Q1009=
17/06/2022 23:30:00Z	 SAID32 WIBB 172330	METAR WIBB 172330Z 00000KT 5000 HZ BKN010 24/23 Q1009=
18/06/2022 00:00:00Z	 SAID32 WIBB 180000	METAR WIBB 180000Z 00000KT 5000 HZ BKN010 24/23 Q1010=
18/06/2022 00:30:00Z	 SAID32 WIBB 180030	METAR WIBB 180030Z 00000KT 5000 HZ SCT010 24/23 Q1010=
18/06/2022 01:00:00Z	 SAID32 WIBB 180100	METAR WIBB 180100Z 32004KT 6000 SCT015 25/23 Q1010 NOSIG=
18/06/2022 01:30:00Z	 SAID32 WIBB 180130	METAR WIBB 180130Z 00000KT 6000 SCT015 25/23 Q1010 NOSIG=
18/06/2022 02:00:00Z	 SAID32 WIBB 180200	METAR WIBB 180200Z 31005KT 8000 SCT015 26/23 Q1010 NOSIG=
18/06/2022 02:30:00Z	 SAID32 WIBB 180230	METAR WIBB 180230Z 32004KT 8000 FEW013 26/23 Q1010 NOSIG=
18/06/2022 03:00:00Z	 SAID32 WIBB 180300	METAR WIBB 180300Z 31004KT 8000 SCT017 27/23 Q1010 NOSIG=
18/06/2022 03:30:00Z	 SAID32 WIBB 180330	METAR WIBB 180330Z 00000KT 9000 SCT015 27/24 Q1010 NOSIG=
18/06/2022 04:00:00Z	 SAID32 WIBB 180400	METAR WIBB 180400Z 00000KT 9999 SCT013 29/24 Q1010 NOSIG=
18/06/2022 04:30:00Z	 SAID32 WIBB 180430	METAR WIBB 180430Z 00000KT 9999 SCT013 29/23 Q1010 NOSIG=
18/06/2022 05:00:00Z	 SAID32 WIBB 180500	METAR WIBB 180500Z 00000KT 9999 SCT013 29/23 Q1009 NOSIG=
18/06/2022 05:30:00Z	 SAID32 WIBB 180530	METAR WIBB 180530Z 00000KT 9999 SCT013 30/23 Q1009 NOSIG=
18/06/2022 06:00:00Z	 SAID32 WIBB 180600	METAR WIBB 180600Z 00000KT 9999 SCT013 30/23 Q1008 NOSIG=
18/06/2022 06:30:00Z	 SAID32 WIBB 180630	METAR WIBB 180630Z 00000KT 9999 SCT013 31/23 Q1008 NOSIG=
18/06/2022 07:00:00Z	 SAID32 WIBB 180700	METAR WIBB 180700Z 00000KT 9999 SCT015 30/23 Q1007 NOSIG=
18/06/2022 07:30:00Z	 SAID32 WIBB 180730	METAR WIBB 180730Z 00000KT 9999 SCT015 30/23 Q1007 NOSIG=
18/06/2022 08:00:00Z	 SAID32 WIBB 180800	METAR WIBB 180800Z 00000KT 9999 SCT015 30/23 Q1006 NOSIG=
18/06/2022 08:30:00Z	 SAID32 WIBB 180830	METAR WIBB 180830Z 00000KT 9999 SCT015 30/23 Q1006 NOSIG=
18/06/2022 09:00:00Z	 SAID32 WIBB 180900	METAR WIBB 180900Z 00000KT 9999 SCT015 30/24 Q1006 NOSIG=
18/06/2022 09:30:00Z	 SAID32 WIBB 180930	METAR WIBB 180930Z 00000KT 9999 SCT015 30/24 Q1006 NOSIG=
18/06/2022 10:00:00Z	 SAID32 WIBB 181000	METAR WIBB 181000Z 00000KT 9999 SCT017 30/22 Q1006 NOSIG=
18/06/2022 10:30:00Z	 SAID32 WIBB 181030	METAR WIBB 181030Z 00000KT 9000 SCT015 29/24 Q1007 NOSIG=
18/06/2022 11:00:00Z	 SAID32 WIBB 181100	METAR WIBB 181100Z 00000KT 8000 FEW017CB 29/24 Q1007 NOSIG=
18/06/2022 11:30:00Z	 SAID32 WIBB 181130	METAR WIBB 181130Z 00000KT 8000 FEW017CB 29/24 Q1007 NOSIG=
18/06/2022 12:00:00Z	 SAID32 WIBB 181200	METAR WIBB 181200Z 00000KT 8000 FEW017 28/25 Q1008 NOSIG=
18/06/2022 12:30:00Z	 SAID32 WIBB 181230	METAR WIBB 181230Z 00000KT 8000 FEW017 28/25 Q1008 NOSIG=
18/06/2022 13:00:00Z	 SAID32 WIBB 181300	METAR WIBB 181300Z 14007KT 8000 BKN010 FEW015CB 28/25 Q1009 RMK CB TO NE=
18/06/2022 13:30:00Z	 SAID32 WIBB 181330	METAR WIBB 181330Z 13006KT 8000 SCT010 27/25 Q1009=
18/06/2022 14:00:00Z	 SAID32 WIBB 181400	METAR WIBB 181400Z 13008KT 8000 SCT010 FEW015CB 27/24 Q1009 RMK CB TO W AND NW=
18/06/2022 14:30:00Z	 SAID32 WIBB 181430	METAR WIBB 181430Z 15005KT 8000 SCT010 FEW015CB 26/23 Q1010=
18/06/2022 15:00:00Z	 SAID32 WIBB 181500	METAR WIBB 181500Z 00000KT 8000 SCT010 26/23 Q1010=
18/06/2022 15:30:00Z	 SAID32 WIBB 181530	METAR WIBB 181530Z 15005KT 8000 SCT010 26/23 Q1010=
18/06/2022 16:00:00Z	 SAID32 WIBB 181600	METAR WIBB 181600Z 00000KT 8000 SCT012 26/23 Q1010=
18/06/2022 16:30:00Z	 SAID32 WIBB 181630	METAR WIBB 181630Z 00000KT 7000 SCT012 26/23 Q1010=
18/06/2022 17:00:00Z	 SAID32 WIBB 181700	METAR WIBB 181700Z 00000KT 7000 SCT013 25/23 Q1010=
18/06/2022 17:30:00Z	 SAID32 WIBB 181730	METAR WIBB 181730Z 00000KT 7000 SCT013 FEW017CB 25/24 Q1009=
18/06/2022 18:00:00Z	 SAID32 WIBB 181800	METAR WIBB 181800Z 00000KT 7000 FEW014 FEW015CB 25/24 Q1009=
18/06/2022 18:30:00Z	 SAID32 WIBB 181830	METAR WIBB 181830Z AUTO 00000KT 9999 ////// 25/24 Q1009=
18/06/2022 19:00:00Z	 SAID32 WIBB 181900	METAR WIBB 181900Z AUTO 27003KT 9999 ////// 25/24 Q1009=
18/06/2022 19:30:00Z	 SAID32 WIBB 181930	METAR WIBB 181930Z AUTO 25001KT 9999 ////// 24/24 Q1008=
18/06/2022 20:00:00Z	 SAID32 WIBB 182000	METAR WIBB 182000Z AUTO VRB02KT 9999 ////// 25/24 Q1008=
18/06/2022 20:30:00Z	 SAID32 WIBB 182030	METAR WIBB 182030Z AUTO 31004KT 9999 ////// 25/23 Q1008=
18/06/2022 21:00:00Z	 SAID32 WIBB 182100	METAR WIBB 182100Z 32005KT 7000 SCT010 FEW014CB 25/23 Q1008 RMK CB TO N AND S=
18/06/2022 21:30:00Z	 SAID32 WIBB 182130	METAR WIBB 182130Z 32007KT 270V340 7000 SCT010 FEW014CB 24/23 Q1008 RMK CB TO S AND N=
18/06/2022 22:00:00Z	 SAID32 WIBB 182200	METAR WIBB 182200Z 00000KT 7000 BKN010 FEW014CB 24/23 Q1008 RMK CB TO S=
18/06/2022 22:30:00Z	 SAID32 WIBB 182230	METAR WIBB 182230Z 00000KT 7000 SCT010 FEW014CB 24/23 Q1008 RMK CB TO E, SE, AND S=
18/06/2022 23:00:00Z	 SAID32 WIBB 182300	METAR WIBB 182300Z 25004KT 6000 SCT009 FEW014CB 24/23 Q1008 RMK CB TO E, SE, AND S=
18/06/2022 23:30:00Z	 SAID32 WIBB 182330	METAR WIBB 182330Z 23004KT 3000 BR SCT008 24/23 Q1009=
19/06/2022 00:00:00Z	 SAID32 WIBB 190000	METAR WIBB 190000Z 00000KT 6000 BKN008 24/23 Q1009=
19/06/2022 00:30:00Z	 SAID32 WIBB 190030	METAR WIBB 190030Z 32006KT 7000 BKN008 25/23 Q1009=
19/06/2022 01:00:00Z	 SAID32 WIBB 190100	METAR WIBB 190100Z 33008KT 8000 SCT008 25/23 Q1009=
19/06/2022 01:30:00Z	 SAID32 WIBB 190130	METAR WIBB 190130Z 32007KT 8000 SCT009 26/23 Q1009=
19/06/2022 02:00:00Z	 SAID32 WIBB 190200	METAR WIBB 190200Z 30005KT 8000 SCT009 26/23 Q1009=
19/06/2022 02:30:00Z	 SAID32 WIBB 190230	METAR WIBB 190230Z 33005KT 8000 SCT010 27/23 Q1009=
19/06/2022 03:00:00Z	 SAID32 WIBB 190300	METAR WIBB 190300Z 00000KT 9000 SCT010 28/24 Q1009=
19/06/2022 03:30:00Z	 SAID32 WIBB 190330	METAR WIBB 190330Z 00000KT 9000 SCT010 29/24 Q1009=
19/06/2022 04:00:00Z	 SAID32 WIBB 190400	METAR WIBB 190400Z 00000KT 9000 SCT010 29/24 Q1009=
19/06/2022 04:30:00Z	 SAID32 WIBB 190430	METAR WIBB 190430Z 00000KT 9000 SCT010 30/24 Q1009=
19/06/2022 05:00:00Z	 SAID32 WIBB 190500	METAR WIBB 190500Z 00000KT 9999 SCT010 31/23 Q1008=
19/06/2022 05:30:00Z	 SAID32 WIBB 190530	METAR WIBB 190530Z 00000KT 9999 SCT010 31/23 Q1007=
19/06/2022 06:00:00Z	 SAID32 WIBB 190600	METAR WIBB 190600Z 00000KT 9999 BKN010 31/23 Q1007=
19/06/2022 06:30:00Z	 SAID32 WIBB 190630	METAR WIBB 190630Z 19005KT 9999 BKN010 31/23 Q1006=
19/06/2022 07:00:00Z	 SAID32 WIBB 190700	METAR WIBB 190700Z 21005KT 8000 BKN010 29/23 Q1006=
19/06/2022 07:30:00Z	 SAID32 WIBB 190730	METAR WIBB 190730Z 29005KT 8000 BKN012 29/23 Q1005=
19/06/2022 08:00:00Z	 SAID32 WIBB 190800	METAR WIBB 190800Z 33005KT 8000 BKN012 29/24 Q1005=
19/06/2022 08:30:00Z	 SAID32 WIBB 190830	METAR WIBB 190830Z 28004KT 8000 SCT013 30/23 Q1005=
19/06/2022 09:00:00Z	 SAID32 WIBB 190900	METAR WIBB 190900Z 00000KT 9000 SCT013 31/23 Q1005=
19/06/2022 09:30:00Z	 SAID32 WIBB 190930	METAR WIBB 190930Z 03005KT 9000 SCT013 31/24 Q1005=
19/06/2022 10:00:00Z	 SAID32 WIBB 191000	METAR WIBB 191000Z 35007KT 8000 SCT012 FEW017CB 30/23 Q1005=
19/06/2022 10:30:00Z	 SAID32 WIBB 191030	METAR WIBB 191030Z 33005KT 8000 SCT012 FEW017CB 29/24 Q1005=
19/06/2022 11:00:00Z	 SAID32 WIBB 191100	METAR WIBB 191100Z 28005KT 8000 FEW015CB 29/23 Q1005=
19/06/2022 11:30:00Z	 SAID32 WIBB 191130	METAR WIBB 191130Z 00000KT 8000 TS SCT015CB 29/23 Q1006 RMK CB OVER THE FIELD=
19/06/2022 12:00:00Z	 SAID32 WIBB 191200	METAR WIBB 191200Z 17009KT 7000 TS SCT010 FEW015CB 28/24 Q1006=
19/06/2022 12:30:00Z	 SAID32 WIBB 191230	METAR WIBB 191230Z 10007KT 3000 TSRA BKN010 FEW015CB 26/25 Q1007=
19/06/2022 13:00:00Z	 SAID32 WIBB 191300	METAR WIBB 191300Z 09005KT 1000 +TSRA SCT008 SCT013CB 24/24 Q1008 RMK CB OVER THE FIELD=
19/06/2022 13:30:00Z	 SAID32 WIBB 191330	METAR WIBB 191330Z 00000KT 5000 -TSRA SCT009 FEW015 24/24 Q1008 RMK CB OVER THE FIELD=
19/06/2022 14:00:00Z	 SAID32 WIBB 191400	METAR WIBB 191400Z 27005KT 5000 -TSRA SCT007 FEW015CB 24/24 Q1009 RMK CB OVER THE FIELD=
19/06/2022 14:30:00Z	 SAID32 WIBB 191430	METAR WIBB 191430Z 28005KT 7000 -RA SCT007 FEW015CB 24/23 Q1009 NOSIG=
19/06/2022 15:00:00Z	 SAID32 WIBB 191500	METAR WIBB 191500Z 26005KT 8000 SCT007 24/24 Q1009 NOSIG=
19/06/2022 15:30:00Z	 SAID32 WIBB 191530	METAR WIBB 191530Z 00000KT 8000 SCT007 24/24 Q1009 NOSIG=
19/06/2022 16:00:00Z	 SAID32 WIBB 191600	METAR WIBB 191600Z 00000KT 8000 SCT007 24/24 Q1009 NOSIG=
19/06/2022 16:30:00Z	 SAID32 WIBB 191630	METAR WIBB 191630Z 00000KT 7000 -RA SCT007 24/24 Q1009 NOSIG=
19/06/2022 17:00:00Z	 SAID32 WIBB 191700	METAR WIBB 191700Z 18005KT 4000 -RA SCT007 24/24 Q1009 NOSIG=
19/06/2022 17:30:00Z	 SAID32 WIBB 191730	METAR WIBB 191730Z 22004KT 6000 -RA SCT007 24/23 Q1008 NOSIG=
19/06/2022 18:00:00Z	 SAID32 WIBB 191800	METAR WIBB 191800Z 20005KT 7000 -RA SCT008 24/23 Q1008 NOSIG=
19/06/2022 18:30:00Z	 SAID32 WIBB 191830	METAR WIBB 191830Z AUTO 18004KT 9999 ////// 24/23 Q1008=
19/06/2022 19:00:00Z	 SAID32 WIBB 191900	METAR WIBB 191900Z AUTO 17004KT //// -RA ////// 24/23 Q1008=
19/06/2022 19:30:00Z	 SAID32 WIBB 191930	METAR WIBB 191930Z AUTO 17003KT 9999 -RA ////// 24/23 Q1008=
19/06/2022 20:00:00Z	 SAID32 WIBB 192000	METAR WIBB 192000Z AUTO 14004KT 7000 -RA ////// 24/23 Q1008=
19/06/2022 20:30:00Z	 SAID32 WIBB 192030	METAR WIBB 192030Z AUTO 15003KT 130V190 5000 RA ////// 23/23 Q1008=
19/06/2022 21:00:00Z	 SAID32 WIBB 192100	METAR WIBB 192100Z 16005KT 5000 RA BKN008 23/23 Q1008 NOSIG=
19/06/2022 21:30:00Z	 SAID32 WIBB 192130	METAR WIBB 192130Z AUTO 18004KT 6000 -RA ////// 23/23 Q1008=
19/06/2022 22:00:00Z	 SAID32 WIBB 192200	METAR WIBB 192200Z 21004KT 6000 -RA BKN008 23/23 Q1008 NOSIG=
19/06/2022 22:30:00Z	 SAID32 WIBB 192230	METAR WIBB 192230Z AUTO 24001KT 3700 -RA ////// 23/23 Q1008=
19/06/2022 23:00:00Z	 SAID32 WIBB 192300	METAR WIBB 192300Z 00000KT 6000 -RA BKN008 23/23 Q1008 NOSIG=
19/06/2022 23:30:00Z	 SAID32 WIBB 192330	METAR WIBB 192330Z 00000KT 4000 -RA BKN007 23/23 Q1008 NOSIG=
20/06/2022 00:00:00Z	 SAID32 WIBB 200000	METAR WIBB 200000Z 00000KT 5000 -RA OVC006 23/23 Q1008 NOSIG=
20/06/2022 00:30:00Z	 SAID32 WIBB 200030	METAR WIBB 200030Z 00000KT 7000 -RA OVC006 23/23 Q1008 NOSIG=
20/06/2022 01:00:00Z	 SAID32 WIBB 200100	METAR WIBB 200100Z 00000KT 7000 -RA BKN006 23/23 Q1009=
20/06/2022 01:30:00Z	 SAID32 WIBB 200130	METAR WIBB 200130Z 00000KT 7000 BKN006 24/23 Q1008=
20/06/2022 02:00:00Z	 SAID32 WIBB 200200	METAR WIBB 200200Z 00000KT 8000 SCT008 25/23 Q1008=
20/06/2022 02:30:00Z	 SAID32 WIBB 200230	METAR WIBB 200230Z 18006KT 8000 BKN008 25/23 Q1008=
20/06/2022 03:00:00Z	 SAID32 WIBB 200300	METAR WIBB 200300Z 20005KT 8000 BKN008 25/23 Q1008=
20/06/2022 03:30:00Z	 SAID32 WIBB 200330	METAR WIBB 200330Z 19004KT 8000 BKN008 26/23 Q1008=
20/06/2022 04:00:00Z	 SAID32 WIBB 200400	METAR WIBB 200400Z 00000KT 8000 BKN009 26/23 Q1008=
20/06/2022 04:30:00Z	 SAID32 WIBB 200430	METAR WIBB 200430Z 00000KT 8000 BKN008 26/23 Q1008=
20/06/2022 05:00:00Z	 SAID32 WIBB 200500	METAR WIBB 200500Z 00000KT 8000 BKN009 27/23 Q1008=
20/06/2022 05:30:00Z	 SAID32 WIBB 200530	METAR WIBB 200530Z 21004KT 190V320 8000 BKN009 27/23 Q1007=
20/06/2022 06:00:00Z	 SAID32 WIBB 200600	METAR WIBB 200600Z 22007KT 8000 BKN009 28/23 Q1007=
20/06/2022 06:30:00Z	 SAID32 WIBB 200630	METAR WIBB 200630Z 22005KT 8000 BKN009 27/23 Q1007=
20/06/2022 07:00:00Z	 SAID32 WIBB 200700	METAR WIBB 200700Z 21006KT 8000 SCT010 28/24 Q1006=
20/06/2022 07:30:00Z	 SAID32 WIBB 200730	METAR WIBB 200730Z 00000KT 8000 SCT010 28/24 Q1006=
20/06/2022 08:00:00Z	 SAID32 WIBB 200800	METAR WIBB 200800Z 00000KT 8000 SCT010 28/24 Q1005=
20/06/2022 08:30:00Z	 SAID32 WIBB 200830	METAR WIBB 200830Z 00000KT 8000 SCT010 28/24 Q1005=
20/06/2022 09:30:00Z	 SAID32 WIBB 200930	METAR WIBB 200930Z 00000KT 8000 SCT013 29/23 Q1005=
20/06/2022 10:00:00Z	 SAID32 WIBB 201000	METAR WIBB 201000Z 00000KT 8000 SCT013 29/23 Q1005=
20/06/2022 10:30:00Z	 SAID32 WIBB 201030	METAR WIBB 201030Z 00000KT 8000 SCT013 29/23 Q1005=
20/06/2022 11:00:00Z	 SAID32 WIBB 201100	METAR WIBB 201100Z 00000KT 8000 FEW013 28/23 Q1005=
20/06/2022 11:30:00Z	 SAID32 WIBB 201130	METAR WIBB 201130Z 00000KT 8000 FEW013 28/23 Q1005=
20/06/2022 12:00:00Z	 SAID32 WIBB 201200	METAR WIBB 201200Z 00000KT 8000 SCT013 27/23 Q1005=
20/06/2022 13:00:00Z	 SAID32 WIBB 201300	METAR WIBB 201300Z 00000KT 7000 SCT013 27/25 Q1006=
20/06/2022 13:30:00Z	 SAID32 WIBB 201330	METAR WIBB 201330Z 00000KT 7000 SCT013 27/25 Q1006=
20/06/2022 14:00:00Z	 SAID32 WIBB 201400	METAR WIBB 201400Z 00000KT 7000 SCT013 26/25 Q1006=
20/06/2022 14:30:00Z	 SAID32 WIBB 201430	METAR WIBB 201430Z 00000KT 7000 SCT013 26/25 Q1007=
20/06/2022 15:00:00Z	 SAID32 WIBB 201500	METAR WIBB 201500Z 00000KT 7000 FEW014 26/25 Q1007=
20/06/2022 15:30:00Z	 SAID32 WIBB 201530	METAR WIBB 201530Z 00000KT 7000 FEW014 26/25 Q1007=
20/06/2022 16:00:00Z	 SAID32 WIBB 201600	METAR WIBB 201600Z 00000KT 7000 FEW014 25/25 Q1007=
20/06/2022 16:30:00Z	 SAID32 WIBB 201630	METAR WIBB 201630Z AUTO 03002KT 9999 ////// 25/24 Q1007=
20/06/2022 17:00:00Z	 SAID32 WIBB 201700	METAR WIBB 201700Z 00000KT 7000 FEW014 25/25 Q1007=
20/06/2022 17:30:00Z	 SAID32 WIBB 201730	METAR WIBB 201730Z AUTO 34002KT 9000 ////// 25/24 Q1006=
20/06/2022 18:00:00Z	 SAID32 WIBB 201800	METAR WIBB 201800Z 00000KT 6000 FEW015 25/24 Q1006=
20/06/2022 18:30:00Z	 SAID32 WIBB 201830	METAR WIBB 201830Z AUTO 32002KT 5000 ////// 25/24 Q1006=
20/06/2022 19:00:00Z	 SAID32 WIBB 201900	METAR WIBB 201900Z AUTO 31001KT 4700 BR ////// 25/24 Q1006=
20/06/2022 19:30:00Z	 SAID32 WIBB 201930	METAR WIBB 201930Z AUTO 36001KT 4600 BR ////// 25/24 Q1006=
20/06/2022 20:00:00Z	 SAID32 WIBB 202000	METAR WIBB 202000Z AUTO 20002KT 6000 ////// 25/24 Q1006=
20/06/2022 20:30:00Z	 SAID32 WIBB 202030	METAR WIBB 202030Z AUTO 35001KT 7000 ////// 25/24 Q1006=
20/06/2022 21:00:00Z	 SAID32 WIBB 202100	METAR WIBB 202100Z 00000KT 6000 SCT013 25/24 Q1006=
20/06/2022 21:30:00Z	 SAID32 WIBB 202130	METAR WIBB 202130Z AUTO 16001KT 4000 BR ////// 25/24 Q1006=
20/06/2022 22:00:00Z	 SAID32 WIBB 202200	METAR WIBB 202200Z 00000KT 5000 HZ FEW013 24/24 Q1006=
20/06/2022 22:30:00Z	 SAID32 WIBB 202230	METAR WIBB 202230Z 00000KT 4000 BR FEW013 24/24 Q1006=
20/06/2022 23:00:00Z	 SAID32 WIBB 202300	METAR WIBB 202300Z 00000KT 3000 BR FEW013 24/24 Q1006=
20/06/2022 23:30:00Z	 SAID32 WIBB 202330	METAR WIBB 202330Z 00000KT 3000 BR FEW015 24/24 Q1007=
21/06/2022 00:00:00Z	 SAID32 WIBB 210000	METAR WIBB 210000Z 00000KT 2500 BR SCT013 24/24 Q1007=
21/06/2022 01:00:00Z	 SAID32 WIBB 210100	METAR WIBB 210100Z 00000KT 6000 BKN014 25/25 Q1008=
21/06/2022 01:30:00Z	 SAID32 WIBB 210130	METAR WIBB 210130Z 00000KT 6000 BKN014 26/25 Q1008=
21/06/2022 02:00:00Z	 SAID32 WIBB 210200	METAR WIBB 210200Z 20005KT 7000 BKN012 26/25 Q1008=
21/06/2022 02:30:00Z	 SAID32 WIBB 210230	METAR WIBB 210230Z 20054KT 7000 SCT012 26/24 Q1008=
21/06/2022 03:00:00Z	 SAID32 WIBB 210300	METAR WIBB 210300Z 23007KT 8000 FEW013 27/24 Q1008=
21/06/2022 03:30:00Z	 SAID32 WIBB 210330	METAR WIBB 210330Z 17007KT 8000 FEW013 27/24 Q1008 NOSIG=
21/06/2022 04:00:00Z	 SAID32 WIBB 210400	METAR WIBB 210400Z 16006KT 9999 BKN013 28/24 Q1008 NOSIG=
21/06/2022 04:30:00Z	 SAID32 WIBB 210430	METAR WIBB 210430Z 18009KT 9999 SCT013 29/24 Q1007 NOSIG=
21/06/2022 05:00:00Z	 SAID32 WIBB 210500	METAR WIBB 210500Z 10010KT 9999 SCT012 30/24 Q1006=
21/06/2022 05:30:00Z	 SAID32 WIBB 210530	METAR WIBB 210530Z 19011KT 9999 BKN012 30/24 Q1006=
21/06/2022 06:00:00Z	 SAID32 WIBB 210600	METAR WIBB 210600Z 20011KT 9999 BKN012 31/24 Q1005=
21/06/2022 06:30:00Z	 SAID32 WIBB 210630	METAR WIBB 210630Z 16010KT 9999 BKN012 30/23 Q1005=
21/06/2022 07:00:00Z	 SAID32 WIBB 210700	METAR WIBB 210700Z 14007KT 9000 BKN012 FEW015CB 31/24 Q1004 RMK CB TO E=
21/06/2022 07:30:00Z	 SAID32 WIBB 210730	METAR WIBB 210730Z 16008KT 9000 BKN010 30/24 Q1004=
21/06/2022 08:00:00Z	 SAID32 WIBB 210800	METAR WIBB 210800Z 13008KT 9000 BKN012 FEW015CB 31/24 Q1004 RMK CB TO W=
21/06/2022 08:30:00Z	 SAID32 WIBB 210830	METAR WIBB 210830Z 13007KT 8000 SCT012 FEW015CB 31/24 Q1003 RMK CB TO W=
21/06/2022 09:00:00Z	 SAID32 WIBB 210900	METAR WIBB 210900Z 08008KT 9000 SCT012 FEW015CB 30/24 Q1004 RMK CB TO SW=
21/06/2022 09:30:00Z	 SAID32 WIBB 210930	METAR WIBB 210930Z 11005KT 9000 SCT012 FEW015CB 30/23 Q1004 RMK CB TO SW=
21/06/2022 10:30:00Z	 SAID32 WIBB 211030	METAR WIBB 211030Z 11004KT 9000 FEW012 FEW015CB 30/24 Q1004 RMK CB TO W AND NW=
21/06/2022 11:00:00Z	 SAID32 WIBB 211100	METAR WIBB 211100Z 08005KT 8000 FEW012 FEW015CB 29/24 Q1005 RMK CB TO NW, W, SW, AND S=
21/06/2022 11:30:00Z	 SAID32 WIBB 211130	METAR WIBB 211130Z 00000KT 7000 SCT013 FEW014CB 29/24 Q1005 RMK CB TO W, SW, AND S=
21/06/2022 12:00:00Z	 SAID32 WIBB 211200	METAR WIBB 211200Z 00000KT 7000 TS SCT013 SCT014CB 28/24 Q1006 RMK CB TO SW AND S=
21/06/2022 12:30:00Z	 SAID32 WIBB 211230	METAR WIBB 211230Z 20007KT 7000 TS SCT010 SCT013CB 28/25 Q1006 RMK CB TO W, SW, AND S=
21/06/2022 13:00:00Z	 SAID32 WIBB 211300	METAR WIBB 211300Z 22008KT 7000 TS SCT013 FEW014CB 26/24 Q1007=
21/06/2022 13:30:00Z	 SAID32 WIBB 211330	METAR WIBB 211330Z 20010KT 7000 TS SCT013 FEW014CB 26/23 Q1007=
21/06/2022 14:00:00Z	 SAID32 WIBB 211400	METAR WIBB 211400Z 19008KT 7000 -TSRA SCT014CB 25/23 Q1007=
21/06/2022 14:30:00Z	 SAID32 WIBB 211430	METAR WIBB 211430Z 19014KT 7000 -TSRA SCT014CB 24/23 Q1008=
21/06/2022 15:00:00Z	 SAID32 WIBB 211500	METAR WIBB 211500Z 00000KT 7000 -TSRA SCT014CB 24/23 Q1008=
21/06/2022 15:30:00Z	 SAID32 WIBB 211530	METAR WIBB 211530Z 00000KT 7000 -TSRA SCT014CB 23/23 Q1008=
21/06/2022 16:00:00Z	 SAID32 WIBB 211600	METAR WIBB 211600Z 00000KT 7000 -TSRA SCT014CB 23/23 Q1009=
21/06/2022 16:30:00Z	 SAID32 WIBB 211630	METAR WIBB 211630Z 00000KT 1000 +TSRA SCT014CB 23/23 Q1010=
21/06/2022 17:00:00Z	 SAID32 WIBB 211700	METAR WIBB 211700Z 00000KT 2000 TSRA SCT014CB 23/23 Q1010 TL1900Z 2000 +TSRA SCT014CB=
21/06/2022 17:30:00Z	 SAID32 WIBB 211730	METAR WIBB 211730Z 00000KT 3000 -TSRA SCT014CB 23/23 Q1010=
21/06/2022 18:00:00Z	 SAID32 WIBB 211800	METAR WIBB 211800Z 00000KT 3000 +RA SCT014CB 23/23 Q1009 TL1900 3000 +RA SCT014CB=
21/06/2022 18:30:00Z	 SAID32 WIBB 211830	METAR WIBB 211830Z 00000KT 3000 RA SCT014CB 23/23 Q1009 TL1900 3000 RA SCT014CB=
21/06/2022 19:00:00Z	 SAID32 WIBB 211900	METAR WIBB 211900Z 00000KT 4000 RA SCT009 23/23 Q1008=
21/06/2022 19:30:00Z	 SAID32 WIBB 211930	METAR WIBB 211930Z 00000KT 4000 RA SCT009 23/23 Q1008=
21/06/2022 20:00:00Z	 SAID32 WIBB 212000	METAR WIBB 212000Z 00000KT 4000 SCT009 23/23 Q1007=
21/06/2022 20:30:00Z	 SAID32 WIBB 212030	METAR WIBB 212030Z 00000KT 4000 SCT009 23/23 Q1007=
21/06/2022 21:00:00Z	 SAID32 WIBB 212100	METAR WIBB 212100Z 00000KT 6000 SCT009 23/22 Q1007=
21/06/2022 21:30:00Z	 SAID32 WIBB 212130	METAR WIBB 212130Z 00000KT 6000 SCT009 23/22 Q1007=
21/06/2022 22:00:00Z	 SAID32 WIBB 212200	METAR WIBB 212200Z 00000KT 6000 SCT009 23/23 Q1007=
21/06/2022 22:30:00Z	 SAID32 WIBB 212230	METAR WIBB 212230Z 00000KT 6000 SCT009 23/23 Q1007=
21/06/2022 23:00:00Z	 SAID32 WIBB 212300	METAR WIBB 212300Z 00000KT 6000 FEW009 23/23 Q1007=
21/06/2022 23:30:00Z	 SAID32 WIBB 212330	METAR WIBB 212330Z 00000KT 6000 FEW009 23/23 Q1007=
22/06/2022 00:00:00Z	 SAID32 WIBB 220000	METAR WIBB 220000Z 00000KT 7000 FEW010 23/23 Q1007=
22/06/2022 00:30:00Z	 SAID32 WIBB 220030	METAR WIBB 220030Z 00000KT 7000 FEW010 23/23 Q1008=
22/06/2022 01:00:00Z	 SAID32 WIBB 220100	METAR WIBB 220100Z 00000KT 8000 SCT010 23/23 Q1008=
22/06/2022 01:30:00Z	 SAID32 WIBB 220130	METAR WIBB 220130Z 00000KT 8000 SCT010 24/23 Q1009=
22/06/2022 02:00:00Z	 SAID32 WIBB 220200	METAR WIBB 220200Z 27004KT 9000 SCT010 25/23 Q1009=
22/06/2022 02:30:00Z	 SAID32 WIBB 220230	METAR WIBB 220230Z 00000KT 9000 SCT010 26/24 Q1009=
22/06/2022 03:00:00Z	 SAID32 WIBB 220300	METAR WIBB 220300Z 00000KT 9999 FEW012 27/23 Q1009 NOSIG=
22/06/2022 03:30:00Z	 SAID32 WIBB 220330	METAR WIBB 220330Z 14005KT 9999 FEW012 28/23 Q1009=
22/06/2022 04:00:00Z	 SAID32 WIBB 220400	METAR WIBB 220400Z 18008KT 9999 SCT012 28/23 Q1009 NOSIG=
22/06/2022 04:30:00Z	 SAID32 WIBB 220430	METAR WIBB 220430Z 16007KT 9999 SCT012 28/23 Q1008=
22/06/2022 05:00:00Z	 SAID32 WIBB 220500	METAR WIBB 220500Z 16007KT 9999 SCT012 29/23 Q1008 NOSIG=
22/06/2022 05:30:00Z	 SAID32 WIBB 220530	METAR WIBB 220530Z 14009KT 9999 SCT012 30/23 Q1008=
22/06/2022 06:00:00Z	 SAID32 WIBB 220600	METAR WIBB 220600Z 15006KT 9999 BKN013 30/23 Q1007=
22/06/2022 06:30:00Z	 SAID32 WIBB 220630	METAR WIBB 220630Z 15005KT 9999 BKN013 30/24 Q1007=
22/06/2022 07:00:00Z	 SAID32 WIBB 220700	METAR WIBB 220700Z 18008KT 9000 SCT013 FEW017CB 29/23 Q1006 RMK CB TO S=
22/06/2022 07:30:00Z	 SAID32 WIBB 220730	METAR WIBB 220730Z 17008KT 9000 SCT013 FEW017CB 30/24 Q1006 RMK CB TO S=
22/06/2022 08:00:00Z	 SAID32 WIBB 220800	METAR WIBB 220800Z 18009KT 9000 SCT013 FEW017CB 30/24 Q1005 RMK CB TO S=
22/06/2022 08:30:00Z	 SAID32 WIBB 220830	METAR WIBB 220830Z 18010KT 9000 SCT013 FEW017CB 29/23 Q1006 RMK CB TO S=
22/06/2022 09:00:00Z	 SAID32 WIBB 220900	METAR WIBB 220900Z 13008KT 9000 SCT013 FEW017CB 29/23 Q1005 RMK CB TO E=
22/06/2022 09:30:00Z	 SAID32 WIBB 220930	METAR WIBB 220930Z 11008KT 080V150 9000 BKN013 29/22 Q1005=
22/06/2022 10:00:00Z	 SAID32 WIBB 221000	METAR WIBB 221000Z 12005KT 9999 SCT013 29/22 Q1005 NOSIG=
22/06/2022 10:30:00Z	 SAID32 WIBB 221030	METAR WIBB 221030Z 14005KT 9999 SCT013 29/23 Q1006 NOSIG=
22/06/2022 11:00:00Z	 SAID32 WIBB 221100	METAR WIBB 221100Z 18004KT 9999 SCT013 29/23 Q1006=
22/06/2022 11:30:00Z	 SAID32 WIBB 221130	METAR WIBB 221130Z 21004KT 8000 FEW017CB 27/24 Q1007=
22/06/2022 12:00:00Z	 SAID32 WIBB 221200	METAR WIBB 221200Z 21004KT 8000 FEW017CB 27/24 Q1008=
22/06/2022 12:30:00Z	 SAID32 WIBB 221230	METAR WIBB 221230Z 18004KT 8000 FEW017CB 27/24 Q1008=
22/06/2022 13:00:00Z	 SAID32 WIBB 221300	METAR WIBB 221300Z 20007KT 8000 SCT012 FEW015CB 27/24 Q1009 RMK CB TO NW, E, AND SE=
22/06/2022 13:30:00Z	 SAID32 WIBB 221330	METAR WIBB 221330Z 22006KT 8000 SCT012 FEW015CB 26/23 Q1009 RMK CB TO NW, E, AND SE=
22/06/2022 14:00:00Z	 SAID32 WIBB 221400	METAR WIBB 221400Z 00000KT 8000 SCT012 FEW015CB 26/23 Q1009 RMK CB TO NW AND W=
22/06/2022 14:30:00Z	 SAID32 WIBB 221430	METAR WIBB 221430Z 00000KT 8000 SCT012 FEW015CB 25/24 Q1010=
22/06/2022 15:00:00Z	 SAID32 WIBB 221500	METAR WIBB 221500Z 00000KT 7000 SCT012 FEW015CB 25/23 Q1010=
22/06/2022 15:30:00Z	 SAID32 WIBB 221530	METAR WIBB 221530Z 00000KT 7000 SCT012 FEW015CB 25/23 Q1010=
22/06/2022 16:00:00Z	 SAID32 WIBB 221600	METAR WIBB 221600Z 29004KT 7000 SCT010 FEW015CB 25/23 Q1010=
22/06/2022 16:30:00Z	 SAID32 WIBB 221630	METAR WIBB 221630Z 33004KT 7000 SCT010 FEW014CB 25/23 Q1010=
22/06/2022 17:00:00Z	 SAID32 WIBB 221700	METAR WIBB 221700Z 15008KT 7000 BKN010 FEW013CB 25/24 Q1010 RMK CB OVER THE FIELD=
22/06/2022 17:30:00Z	 SAID32 WIBB 221730	METAR WIBB 221730Z 34005KT 2000 -RA SCT013CB 24/24 Q1010 RMK CB OVER THE FIELD=
22/06/2022 18:00:00Z	 SAID32 WIBB 221800	METAR WIBB 221800Z 33004KT 1500 RA SCT009 SCT013CB 24/24 Q1010 RMK CB OVER THE FIELD=
22/06/2022 18:30:00Z	 SAID32 WIBB 221830	METAR WIBB 221830Z AUTO 34005KT 9999 ////// 24/24 Q1009=
22/06/2022 19:00:00Z	 SAID32 WIBB 221900	METAR WIBB 221900Z AUTO 34004KT 4700 BR ////// 24/24 Q1009=
22/06/2022 19:30:00Z	 SAID32 WIBB 221930	METAR WIBB 221930Z AUTO 34005KT 7000 ////// 24/24 Q1009=
22/06/2022 20:00:00Z	 SAID32 WIBB 222000	METAR WIBB 222000Z AUTO 33005KT 9999 ////// 24/23 Q1008=
22/06/2022 20:30:00Z	 SAID32 WIBB 222030	METAR WIBB 222030Z AUTO 32005KT 9999 ////// 24/23 Q1008=
22/06/2022 21:00:00Z	 SAID32 WIBB 222100	METAR WIBB 222100Z 31004KT 5000 HZ SCT010 FEW015CB 23/23 Q1009=
22/06/2022 21:30:00Z	 SAID32 WIBB 222130	METAR WIBB 222130Z 27004KT 6000 SCT010 FEW014CB 23/23 Q1009=
22/06/2022 22:00:00Z	 SAID32 WIBB 222200	METAR WIBB 222200Z 25006KT 7000 SCT010 FEW014CB 23/23 Q1009 RMK CB TO S AND W=
22/06/2022 22:30:00Z	 SAID32 WIBB 222230	METAR WIBB 222230Z 22005KT 7000 BKN006 FEW014CB 23/23 Q1009 RMK CB TO S AND W=
22/06/2022 23:00:00Z	 SAID32 WIBB 222300	METAR WIBB 222300Z 27004KT 7000 SCT010 FEW015CB 23/23 Q1009 RMK CB TO SW AND NE=
22/06/2022 23:30:00Z	 SAID32 WIBB 222330	METAR WIBB 222330Z 20006KT 7000 SCT012 23/23 Q1009 NOSIG=
23/06/2022 00:00:00Z	 SAID32 WIBB 230000	METAR WIBB 230000Z 20005KT 6000 SCT012 24/23 Q1010 NOSIG=
23/06/2022 00:30:00Z	 SAID32 WIBB 230030	METAR WIBB 230030Z 18007KT 8000 SCT012 24/23 Q1010 NOSIG=
23/06/2022 01:00:00Z	 SAID32 WIBB 230100	METAR WIBB 230100Z 19005KT 8000 SCT012 25/24 Q1010=
23/06/2022 01:30:00Z	 SAID32 WIBB 230130	METAR WIBB 230130Z 00000KT 8000 SCT012 25/24 Q1011=
23/06/2022 02:00:00Z	 SAID32 WIBB 230200	METAR WIBB 230200Z 17006KT 8000 SCT012 26/24 Q1011=
23/06/2022 02:30:00Z	 SAID32 WIBB 230230	METAR WIBB 230230Z 00000KT 8000 SCT012 26/24 Q1011=
23/06/2022 03:00:00Z	 SAID32 WIBB 230300	METAR WIBB 230300Z 20004KT 8000 FEW010 27/24 Q1010=
23/06/2022 03:30:00Z	 SAID32 WIBB 230330	METAR WIBB 230330Z 17010KT 8000 FEW010 28/24 Q1010=
23/06/2022 04:00:00Z	 SAID32 WIBB 230400	METAR WIBB 230400Z 19010KT 8000 SCT010 29/24 Q1010=
23/06/2022 04:30:00Z	 SAID32 WIBB 230430	METAR WIBB 230430Z 19006KT 8000 BKN010 29/24 Q1009=
23/06/2022 05:00:00Z	 SAID32 WIBB 230500	METAR WIBB 230500Z 20005KT 8000 BKN010 29/24 Q1009=
23/06/2022 05:30:00Z	 SAID32 WIBB 230530	METAR WIBB 230530Z 18004KT 8000 BKN010 30/24 Q1008=
23/06/2022 06:00:00Z	 SAID32 WIBB 230600	METAR WIBB 230600Z 20007KT 8000 BKN010 30/24 Q1008=
23/06/2022 06:30:00Z	 SAID32 WIBB 230630	METAR WIBB 230630Z 22006KT 8000 BKN010 30/24 Q1007=
23/06/2022 07:00:00Z	 SAID32 WIBB 230700	METAR WIBB 230700Z 17005KT 8000 SCT012 28/25 Q1007=
23/06/2022 07:30:00Z	 SAID32 WIBB 230730	METAR WIBB 230730Z 22005KT 8000 BKN010 29/24 Q1006=
23/06/2022 08:00:00Z	 SAID32 WIBB 230800	METAR WIBB 230800Z 00000KT 8000 SCT012 30/24 Q1006=
23/06/2022 08:30:00Z	 SAID32 WIBB 230830	METAR WIBB 230830Z 13006KT 8000 SCT012 30/24 Q1006=
23/06/2022 09:00:00Z	 SAID32 WIBB 230900	METAR WIBB 230900Z 14005KT 8000 SCT013 30/24 Q1006=
23/06/2022 09:30:00Z	 SAID32 WIBB 230930	METAR WIBB 230930Z 00000KT 8000 SCT013 30/23 Q1006=
23/06/2022 10:00:00Z	 SAID32 WIBB 231000	METAR WIBB 231000Z 11004KT 8000 SCT012 FEW017CB 29/24 Q1006 RMK CB TO SE=
23/06/2022 10:30:00Z	 SAID32 WIBB 231030	METAR WIBB 231030Z 13011KT 8000 TS SCT010 FEW015CB 27/24 Q1007=
23/06/2022 11:00:00Z	 SAID32 WIBB 231100	METAR WIBB 231100Z 12009KT 7000 -RA SCT010 FEW013CB 26/23 Q1007=
23/06/2022 11:30:00Z	 SAID32 WIBB 231130	METAR WIBB 231130Z 00000KT 7000 -RA SCT010 FEW013CB 25/24 Q1008=
23/06/2022 12:00:00Z	 SAID32 WIBB 231200	METAR WIBB 231200Z 13004KT 7000 BKN012 25/23 Q1008=
23/06/2022 12:30:00Z	 SAID32 WIBB 231230	METAR WIBB 231230Z 11004KT 7000 SCT012 25/23 Q1009=
23/06/2022 13:00:00Z	 SAID32 WIBB 231300	METAR WIBB 231300Z 14005KT 8000 SCT012 25/23 Q1010=
23/06/2022 13:30:00Z	 SAID32 WIBB 231330	METAR WIBB 231330Z 15004KT 8000 SCT012 25/23 Q1010=
23/06/2022 14:00:00Z	 SAID32 WIBB 231400	METAR WIBB 231400Z 16004KT 8000 SCT012 25/23 Q1010=
23/06/2022 14:30:00Z	 SAID32 WIBB 231430	METAR WIBB 231430Z 18005KT 8000 SCT012 25/23 Q1010=
23/06/2022 15:00:00Z	 SAID32 WIBB 231500	METAR WIBB 231500Z 18004KT 8000 SCT012 24/23 Q1011=
23/06/2022 15:30:00Z	 SAID32 WIBB 231530	METAR WIBB 231530Z 22005KT 8000 SCT012 24/24 Q1010=
23/06/2022 16:00:00Z	 SAID32 WIBB 231600	METAR WIBB 231600Z 26005KT 7000 SCT012 24/24 Q1010=
23/06/2022 16:30:00Z	 SAID32 WIBB 231630	METAR WIBB 231630Z 00000KT 7000 SCT012 24/24 Q1010=
23/06/2022 17:00:00Z	 SAID32 WIBB 231700	METAR WIBB 231700Z 00000KT 7000 SCT012 24/24 Q1010=
23/06/2022 17:30:00Z	 SAID32 WIBB 231730	METAR WIBB 231730Z 00000KT 7000 SCT012 24/24 Q1009=
23/06/2022 18:00:00Z	 SAID32 WIBB 231800	METAR WIBB 231800Z 00000KT 8000 SCT012 24/24 Q1009=
23/06/2022 18:30:00Z	 SAID32 WIBB 231830	METAR WIBB 231830Z AUTO 24001KT 9999 ////// 24/24 Q1008=
23/06/2022 19:00:00Z	 SAID32 WIBB 231900	METAR WIBB 231900Z AUTO 19002KT 9000 ////// 24/24 Q1008=
23/06/2022 19:30:00Z	 SAID32 WIBB 231930	METAR WIBB 231930Z AUTO 19002KT 7000 ////// 24/24 Q1008=
23/06/2022 20:00:00Z	 SAID32 WIBB 232000	METAR WIBB 232000Z AUTO 18002KT 6000 ////// 24/24 Q1008=
23/06/2022 20:30:00Z	 SAID32 WIBB 232030	METAR WIBB 232030Z AUTO 00000KT 5000 ////// 24/24 Q1007=
23/06/2022 21:00:00Z	 SAID32 WIBB 232100	METAR WIBB 232100Z 00000KT 6000 FEW012 24/24 Q1007=
23/06/2022 21:30:00Z	 SAID32 WIBB 232130	METAR WIBB 232130Z AUTO 19001KT 6000 ////// 24/24 Q1007=
23/06/2022 22:00:00Z	 SAID32 WIBB 232200	METAR WIBB 232200Z AUTO 00000KT 6000 ////// 24/23 Q1008=
23/06/2022 22:30:00Z	 SAID32 WIBB 232230	METAR WIBB 232230Z 00000KT 6000 SCT012 23/23 Q1008=
23/06/2022 23:00:00Z	 SAID32 WIBB 232300	METAR WIBB 232300Z 00000KT 6000 SCT012 23/23 Q1008=
23/06/2022 23:30:00Z	 SAID32 WIBB 232330	METAR WIBB 232330Z 00000KT 5000 BR FEW013 23/23 Q1009=
24/06/2022 00:00:00Z	 SAID32 WIBB 240000	METAR WIBB 240000Z 00000KT 6000 FEW013 24/24 Q1009=
24/06/2022 00:30:00Z	 SAID32 WIBB 240030	METAR WIBB 240030Z 34005KT 6000 FEW013 24/24 Q1010=
24/06/2022 01:00:00Z	 SAID32 WIBB 240100	METAR WIBB 240100Z 00000KT 1200 BR BKN006 24/24 Q1010=
24/06/2022 01:30:00Z	 SAID32 WIBB 240130	METAR WIBB 240130Z 34004KT 6000 BKN008 25/24 Q1010=
24/06/2022 02:00:00Z	 SAID32 WIBB 240200	METAR WIBB 240200Z 30004KT 7000 BKN008 26/24 Q1010=
24/06/2022 02:30:00Z	 SAID32 WIBB 240230	METAR WIBB 240230Z 23005KT 7000 BKN008 26/23 Q1010=
24/06/2022 03:00:00Z	 SAID32 WIBB 240300	METAR WIBB 240300Z 22005KT 8000 BKN009 27/24 Q1010=
24/06/2022 03:30:00Z	 SAID32 WIBB 240330	METAR WIBB 240330Z 21007KT 8000 BKN009 28/23 Q1010=
24/06/2022 04:00:00Z	 SAID32 WIBB 240400	METAR WIBB 240400Z 19006KT 8000 BKN010 28/24 Q1010=
24/06/2022 04:30:00Z	 SAID32 WIBB 240430	METAR WIBB 240430Z 00000KT 8000 BKN010 FEW014CB 29/23 Q1009 RMK CB TO NW=
24/06/2022 05:00:00Z	 SAID32 WIBB 240500	METAR WIBB 240500Z 18006KT 140V220 9000 BKN010 29/23 Q1009=
24/06/2022 05:30:00Z	 SAID32 WIBB 240530	METAR WIBB 240530Z 18007KT 9000 BKN010 FEW014CB 29/23 Q1008 RMK CB TO NW, E, AND SE=
24/06/2022 06:00:00Z	 SAID32 WIBB 240600	METAR WIBB 240600Z 23007KT 8000 BKN010 FEW014CB 30/23 Q1008 RMK CB TO E AND SE=
24/06/2022 06:30:00Z	 SAID32 WIBB 240630	METAR WIBB 240630Z 13005KT 8000 BKN010 FEW014CB 30/23 Q1007 RMK CB TO SE AND S=
24/06/2022 07:00:00Z	 SAID32 WIBB 240700	METAR WIBB 240700Z 20007KT 9000 BKN010 FEW014CB 31/23 Q1006 RMK CB TO E AND SE=
24/06/2022 07:30:00Z	 SAID32 WIBB 240730	METAR WIBB 240730Z 16009KT 8000 BKN010 29/24 Q1006=
24/06/2022 08:00:00Z	 SAID32 WIBB 240800	METAR WIBB 240800Z 16007KT 8000 BKN010 30/23 Q1006=
24/06/2022 08:30:00Z	 SAID32 WIBB 240830	METAR WIBB 240830Z 15010KT 8000 SCT012 31/22 Q1005=
24/06/2022 09:00:00Z	 SAID32 WIBB 240900	METAR WIBB 240900Z 16007KT 8000 SCT012 31/22 Q1005=
24/06/2022 09:30:00Z	 SAID32 WIBB 240930	METAR WIBB 240930Z 16005KT 8000 SCT012 31/23 Q1005=
24/06/2022 10:00:00Z	 SAID32 WIBB 241000	METAR WIBB 241000Z 00000KT 8000 SCT012 30/23 Q1005=
24/06/2022 10:30:00Z	 SAID32 WIBB 241030	METAR WIBB 241030Z 18003KT 8000 SCT013 30/23 Q1005=
24/06/2022 11:00:00Z	 SAID32 WIBB 241100	METAR WIBB 241100Z 16005KT 8000 SCT013 30/24 Q1006=
24/06/2022 11:30:00Z	 SAID32 WIBB 241130	METAR WIBB 241130Z 17006KT 8000 SCT013 28/24 Q1006=
24/06/2022 12:00:00Z	 SAID32 WIBB 241200	METAR WIBB 241200Z 32006KT 8000 FEW013 FEW015CB 28/24 Q1007=
24/06/2022 12:30:00Z	 SAID32 WIBB 241230	METAR WIBB 241230Z 00000KT 8000 FEW013 FEW015CB 27/24 Q1007=
24/06/2022 13:00:00Z	 SAID32 WIBB 241300	METAR WIBB 241300Z 00000KT 8000 SCT013 27/24 Q1007=
24/06/2022 13:30:00Z	 SAID32 WIBB 241330	METAR WIBB 241330Z 00000KT 8000 SCT013 26/25 Q1008=
24/06/2022 14:00:00Z	 SAID32 WIBB 241400	METAR WIBB 241400Z 00000KT 8000 SCT012 26/24 Q1008=
24/06/2022 14:30:00Z	 SAID32 WIBB 241430	METAR WIBB 241430Z 00000KT 8000 SCT012 26/24 Q1008=
24/06/2022 15:00:00Z	 SAID32 WIBB 241500	METAR WIBB 241500Z 00000KT 8000 SCT012 26/24 Q1009=
24/06/2022 15:30:00Z	 SAID32 WIBB 241530	METAR WIBB 241530Z 28004KT 8000 SCT012 26/24 Q1009=
24/06/2022 16:00:00Z	 SAID32 WIBB 241600	METAR WIBB 241600Z 28004KT 8000 SCT012 26/24 Q1009=
24/06/2022 16:30:00Z	 SAID32 WIBB 241630	METAR WIBB 241630Z 28004KT 8000 SCT012 26/24 Q1008=
24/06/2022 17:00:00Z	 SAID32 WIBB 241700	METAR WIBB 241700Z 25005KT 8000 SCT012 25/23 Q1008=
24/06/2022 17:30:00Z	 SAID32 WIBB 241730	METAR WIBB 241730Z 28004KT 8000 SCT012 25/23 Q1008=
24/06/2022 18:00:00Z	 SAID32 WIBB 241800	METAR WIBB 241800Z 27004KT 8000 SCT013 25/23 Q1008=
24/06/2022 18:30:00Z	 SAID32 WIBB 241830	METAR WIBB 241830Z AUTO 29004KT 9999 ////// 25/23 Q1007=
24/06/2022 19:00:00Z	 SAID32 WIBB 241900	METAR WIBB 241900Z AUTO 27002KT 9999 ////// 25/23 Q1007=
24/06/2022 19:30:00Z	 SAID32 WIBB 241930	METAR WIBB 241930Z AUTO 31002KT 9999 ////// 25/23 Q1007=
24/06/2022 20:00:00Z	 SAID32 WIBB 242000	METAR WIBB 242000Z AUTO 24003KT 9999 ////// 24/23 Q1007=
24/06/2022 20:30:00Z	 SAID32 WIBB 242030	METAR WIBB 242030Z AUTO 20007KT 9999 ////// 24/23 Q1007=
24/06/2022 21:00:00Z	 SAID32 WIBB 242100	METAR WIBB 242100Z 18009KT 8000 SCT012 FEW015CB 24/23 Q1007=
24/06/2022 21:30:00Z	 SAID32 WIBB 242130	METAR WIBB 242130Z AUTO 17007KT 9999 ////// 24/23 Q1007=
24/06/2022 22:00:00Z	 SAID32 WIBB 242200	METAR WIBB 242200Z 17006KT 8000 BKN012 24/23 Q1007=
24/06/2022 22:30:00Z	 SAID32 WIBB 242230	METAR WIBB 242230Z 16006KT 8000 SCT012 24/22 Q1007=
24/06/2022 23:00:00Z	 SAID32 WIBB 242300	METAR WIBB 242300Z 17007KT 7000 SCT012 23/22 Q1007=
24/06/2022 23:30:00Z	 SAID32 WIBB 242330	METAR WIBB 242330Z 23005KT 7000 -RA SCT012 23/22 Q1007=
25/06/2022 00:00:00Z	 SAID32 WIBB 250000	METAR WIBB 250000Z 00000KT 7000 -RA SCT013 23/23 Q1008=
25/06/2022 01:00:00Z	 SAID32 WIBB 250100	METAR WIBB 250100Z 16005KT 7000 -RA SCT010 24/23 Q1008=
25/06/2022 01:30:00Z	 SAID32 WIBB 250130	METAR WIBB 250130Z 19005KT 7000 -RA BKN010 24/23 Q1008=
25/06/2022 02:00:00Z	 SAID32 WIBB 250200	METAR WIBB 250200Z 00000KT 8000 BKN012 24/23 Q1008=
25/06/2022 02:30:00Z	 SAID32 WIBB 250230	METAR WIBB 250230Z 00000KT 8000 BKN012 25/23 Q1008=
25/06/2022 03:00:00Z	 SAID32 WIBB 250300	METAR WIBB 250300Z 20006KT 8000 BKN013 25/23 Q1008=
25/06/2022 03:30:00Z	 SAID32 WIBB 250330	METAR WIBB 250330Z 19005KT 8000 BKN013 26/23 Q1008=
25/06/2022 04:00:00Z	 SAID32 WIBB 250400	METAR WIBB 250400Z 22005KT 8000 BKN013 27/24 Q1007=
25/06/2022 04:30:00Z	 SAID32 WIBB 250430	METAR WIBB 250430Z 21005KT 8000 BKN013 27/24 Q1007=
25/06/2022 05:00:00Z	 SAID32 WIBB 250500	METAR WIBB 250500Z 18005KT 9999 SCT013 28/24 Q1007=
25/06/2022 05:30:00Z	 SAID32 WIBB 250530	METAR WIBB 250530Z 16004KT 9999 SCT013 29/25 Q1006=
25/06/2022 06:00:00Z	 SAID32 WIBB 250600	METAR WIBB 250600Z 14007KT 9999 SCT013 30/24 Q1006=
25/06/2022 06:30:00Z	 SAID32 WIBB 250630	METAR WIBB 250630Z 21005KT 9999 SCT013 30/24 Q1005=
25/06/2022 07:00:00Z	 SAID32 WIBB 250700	METAR WIBB 250700Z 21005KT 9999 SCT013 31/24 Q1005=
25/06/2022 07:30:00Z	 SAID32 WIBB 250730	METAR WIBB 250730Z 14005KT 9999 SCT013 31/24 Q1004=
25/06/2022 08:00:00Z	 SAID32 WIBB 250800	METAR WIBB 250800Z 00000KT 9999 SCT013 31/24 Q1004=
25/06/2022 09:00:00Z	 SAID32 WIBB 250900	METAR WIBB 250900Z 21005KT 9999 SCT013 32/23 Q1004=
25/06/2022 09:30:00Z	 SAID32 WIBB 250930	METAR WIBB 250930Z 18005KT 9999 SCT013 31/23 Q1004=
25/06/2022 10:00:00Z	 SAID32 WIBB 251000	METAR WIBB 251000Z 00000KT 9999 FEW013 32/23 Q1004=
25/06/2022 10:30:00Z	 SAID32 WIBB 251030	METAR WIBB 251030Z 06005KT 9999 FEW013 31/24 Q1004=
25/06/2022 11:00:00Z	 SAID32 WIBB 251100	METAR WIBB 251100Z 00000KT 9999 FEW013 31/25 Q1004=
25/06/2022 11:30:00Z	 SAID32 WIBB 251130	METAR WIBB 251130Z 06004KT 9000 FEW013 30/25 Q1004=
25/06/2022 12:00:00Z	 SAID32 WIBB 251200	METAR WIBB 251200Z 00000KT 8000 SCT012 29/25 Q1005=
25/06/2022 13:30:00Z	 SAID32 WIBB 251330	METAR WIBB 251330Z 27009KT 5000 -TSRA SCT012 FEW015CB 28/25 Q1007=
25/06/2022 14:00:00Z	 SAID32 WIBB 251400	METAR WIBB 251400Z 02005KT 6000 -TSRA SCT012 FEW015CB 24/23 Q1007 RETSRA=
25/06/2022 14:30:00Z	 SAID32 WIBB 251430	METAR WIBB 251430Z 00000KT 7000 -RA SCT013 25/24 Q1008=
25/06/2022 15:00:00Z	 SAID32 WIBB 251500	METAR WIBB 251500Z 00000KT 7000 SCT013 25/24 Q1008=
25/06/2022 15:30:00Z	 SAID32 WIBB 251530	METAR WIBB 251530Z 00000KT 7000 SCT013 25/25 Q1008=
25/06/2022 16:00:00Z	 SAID32 WIBB 251600	METAR WIBB 251600Z 00000KT 7000 SCT013 25/25 Q1008=
25/06/2022 16:30:00Z	 SAID32 WIBB 251630	METAR WIBB 251630Z 00000KT 7000 FEW013 26/25 Q1008=
25/06/2022 17:00:00Z	 SAID32 WIBB 251700	METAR WIBB 251700Z AUTO 09002KT 9999 ////// 26/26 Q1008=
25/06/2022 17:30:00Z	 SAID32 WIBB 251730	METAR WIBB 251730Z AUTO 09002KT 9000 ////// 26/26 Q1008=
25/06/2022 18:00:00Z	 SAID32 WIBB 251800	METAR WIBB 251800Z AUTO 09002KT 9000 ////// 26/26 Q1007=
25/06/2022 18:30:00Z	 SAID32 WIBB 251830	METAR WIBB 251830Z AUTO 10002KT 9999 ////// 26/26 Q1007=
25/06/2022 19:00:00Z	 SAID32 WIBB 251900	METAR WIBB 251900Z AUTO 13003KT 080V150 9999 ////// 26/26 Q1007=
25/06/2022 19:30:00Z	 SAID32 WIBB 251930	METAR WIBB 251930Z AUTO 14001KT 7000 ////// 26/25 Q1007=
25/06/2022 20:00:00Z	 SAID32 WIBB 252000	METAR WIBB 252000Z AUTO 21003KT 8000 ////// 25/25 Q1006=
25/06/2022 20:30:00Z	 SAID32 WIBB 252030	METAR WIBB 252030Z AUTO 19006KT 9999 ////// 25/25 Q1007=
25/06/2022 21:00:00Z	 SAID32 WIBB 252100	METAR WIBB 252100Z AUTO 20007KT 9999 ////// 24/23 Q1007=
25/06/2022 21:30:00Z	 SAID32 WIBB 252130	METAR WIBB 252130Z AUTO 18005KT 9999 ////// 24/23 Q1007=
25/06/2022 22:00:00Z	 SAID32 WIBB 252200	METAR WIBB 252200Z AUTO 18005KT 9999 ////// 24/23 Q1007=
25/06/2022 22:30:00Z	 SAID32 WIBB 252230	METAR WIBB 252230Z AUTO 16003KT //// ////// 24/22 Q1007=
25/06/2022 23:00:00Z	 SAID32 WIBB 252300	METAR WIBB 252300Z 00000KT 7000 FEW015 23/22 Q1007=
25/06/2022 23:30:00Z	 SAID32 WIBB 252330	METAR WIBB 252330Z 00000KT 7000 FEW015 23/22 Q1007=
26/06/2022 00:00:00Z	 SAID32 WIBB 260000	METAR WIBB 260000Z 00000KT 7000 FEW014 24/22 Q1007=
26/06/2022 00:30:00Z	 SAID32 WIBB 260030	METAR WIBB 260030Z 00000KT 7000 FEW014 25/22 Q1007=
26/06/2022 01:00:00Z	 SAID32 WIBB 260100	METAR WIBB 260100Z 16005KT 8000 FEW015 25/22 Q1007 NOSIG=
26/06/2022 01:30:00Z	 SAID32 WIBB 260130	METAR WIBB 260130Z 14006KT 8000 FEW015 26/22 Q1008=
26/06/2022 02:00:00Z	 SAID32 WIBB 260200	METAR WIBB 260200Z 15006KT 9999 FEW017 26/23 Q1008=
26/06/2022 02:30:00Z	 SAID32 WIBB 260230	METAR WIBB 260230Z 14005KT 9999 FEW017 27/23 Q1008 NOSIG=
26/06/2022 03:00:00Z	 SAID32 WIBB 260300	METAR WIBB 260300Z 18007KT 9999 FEW017 28/23 Q1008 NOSIG=
26/06/2022 03:30:00Z	 SAID32 WIBB 260330	METAR WIBB 260330Z 19005KT 9999 FEW017 28/23 Q1008=
26/06/2022 04:00:00Z	 SAID32 WIBB 260400	METAR WIBB 260400Z 19005KT 9999 FEW015 29/23 Q1008 NOSIG=
26/06/2022 05:00:00Z	 SAID32 WIBB 260500	METAR WIBB 260500Z 23004KT 9999 SCT015 30/23 Q1007 NOSIG=
26/06/2022 05:30:00Z	 SAID32 WIBB 260530	METAR WIBB 260530Z 22004KT 9999 SCT015 31/23 Q1007=
26/06/2022 06:00:00Z	 SAID32 WIBB 260600	METAR WIBB 260600Z 15006KT 9999 SCT013 32/23 Q1007 NOSIG=
26/06/2022 06:30:00Z	 SAID32 WIBB 260630	METAR WIBB 260630Z 00000KT 9999 BKN013 31/23 Q1007 NOSIG=
26/06/2022 07:00:00Z	 SAID32 WIBB 260700	METAR WIBB 260700Z 11005KT 9999 BKN013 31/23 Q1006=
26/06/2022 07:30:00Z	 SAID32 WIBB 260730	METAR WIBB 260730Z 15004KT 9999 BKN013 32/23 Q1006=
26/06/2022 08:00:00Z	 SAID32 WIBB 260800	METAR WIBB 260800Z 11005KT 9999 BKN013 32/24 Q1005=
26/06/2022 08:30:00Z	 SAID32 WIBB 260830	METAR WIBB 260830Z 09005KT 9999 BKN015 32/23 Q1005=
26/06/2022 09:00:00Z	 SAID32 WIBB 260900	METAR WIBB 260900Z 17005KT 9999 BKN013 31/23 Q1005=
26/06/2022 09:30:00Z	 SAID32 WIBB 260930	METAR WIBB 260930Z 00000KT 9999 BKN013 32/23 Q1005=
26/06/2022 10:00:00Z	 SAID32 WIBB 261000	METAR WIBB 261000Z 13006KT 9999 SCT013 32/23 Q1005=
26/06/2022 10:30:00Z	 SAID32 WIBB 261030	METAR WIBB 261030Z 00000KT 9999 SCT013 31/23 Q1005=
26/06/2022 11:00:00Z	 SAID32 WIBB 261100	METAR WIBB 261100Z 13005KT 9999 FEW014 31/23 Q1005=
26/06/2022 12:00:00Z	 SAID32 WIBB 261200	METAR WIBB 261200Z 00000KT 8000 FEW013 29/24 Q1006=
26/06/2022 12:30:00Z	 SAID32 WIBB 261230	METAR WIBB 261230Z 00000KT 8000 FEW013 29/24 Q1007=
26/06/2022 13:00:00Z	 SAID32 WIBB 261300	METAR WIBB 261300Z 00000KT 8000 FEW013 FEW015CB 28/25 Q1008 RMK CB TO W=
26/06/2022 13:30:00Z	 SAID32 WIBB 261330	METAR WIBB 261330Z 19004KT 6000 FEW010 FEW015CB 28/25 Q1008 RMK CB TO W=
26/06/2022 14:00:00Z	 SAID32 WIBB 261400	METAR WIBB 261400Z 00000KT 7000 FEW012 FEW015CB 27/25 Q1009 RMK CB TO W=
26/06/2022 14:30:00Z	 SAID32 WIBB 261430	METAR WIBB 261430Z 00000KT 7000 FEW013 FEW015CB 26/25 Q1009 RMK CB TO W=
26/06/2022 15:00:00Z	 SAID32 WIBB 261500	METAR WIBB 261500Z 21004KT 7000 SCT013 FEW015CB 27/25 Q1009=
26/06/2022 15:30:00Z	 SAID32 WIBB 261530	METAR WIBB 261530Z 22004KT 7000 SCT013 FEW015CB 27/25 Q1009=
26/06/2022 16:00:00Z	 SAID32 WIBB 261600	METAR WIBB 261600Z 00000KT 7000 FEW014 26/25 Q1009=
26/06/2022 16:30:00Z	 SAID32 WIBB 261630	METAR WIBB 261630Z 00000KT 7000 FEW014 26/24 Q1009=
26/06/2022 17:00:00Z	 SAID32 WIBB 261700	METAR WIBB 261700Z 00000KT 7000 FEW015 26/24 Q1009=
26/06/2022 18:00:00Z	 SAID32 WIBB 261800	METAR WIBB 261800Z 00000KT 7000 FEW015 25/24 Q1009=
26/06/2022 18:30:00Z	 SAID32 WIBB 261830	METAR WIBB 261830Z AUTO 00000KT 9999 ////// 25/24 Q1008=
26/06/2022 19:00:00Z	 SAID32 WIBB 261900	METAR WIBB 261900Z AUTO 11002KT 9999 ////// 25/25 Q1008=
26/06/2022 19:30:00Z	 SAID32 WIBB 261930	METAR WIBB 261930Z AUTO 00000KT 9999 ////// 25/25 Q1008=
26/06/2022 20:00:00Z	 SAID32 WIBB 262000	METAR WIBB 262000Z AUTO 03001KT 9999 ////// 25/24 Q1008=
26/06/2022 20:30:00Z	 SAID32 WIBB 262030	METAR WIBB 262030Z AUTO 14001KT 9999 ////// 25/24 Q1008=
26/06/2022 21:00:00Z	 SAID32 WIBB 262100	METAR WIBB 262100Z 00000KT 7000 FEW013 24/24 Q1007=
26/06/2022 21:30:00Z	 SAID32 WIBB 262130	METAR WIBB 262130Z 00000KT 7000 FEW013 24/24 Q1008=
26/06/2022 22:00:00Z	 SAID32 WIBB 262200	METAR WIBB 262200Z 00000KT 7000 FEW012 25/24 Q1008=
26/06/2022 22:30:00Z	 SAID32 WIBB 262230	METAR WIBB 262230Z 00000KT 7000 SCT012 25/24 Q1008=
26/06/2022 23:00:00Z	 SAID32 WIBB 262300	METAR WIBB 262300Z 00000KT 7000 SCT010 25/24 Q1008=
26/06/2022 23:30:00Z	 SAID32 WIBB 262330	METAR WIBB 262330Z 00000KT 7000 SCT010 25/24 Q1008=
27/06/2022 00:00:00Z	 SAID32 WIBB 270000	METAR WIBB 270000Z 00000KT 6000 SCT012 25/24 Q1008=
27/06/2022 00:30:00Z	 SAID32 WIBB 270030	METAR WIBB 270030Z 00000KT 7000 SCT012 26/24 Q1009=
27/06/2022 01:00:00Z	 SAID32 WIBB 270100	METAR WIBB 270100Z 00000KT 8000 SCT012 26/24 Q1009=
27/06/2022 01:30:00Z	 SAID32 WIBB 270130	METAR WIBB 270130Z 00000KT 8000 SCT012 27/24 Q1009=
27/06/2022 02:00:00Z	 SAID32 WIBB 270200	METAR WIBB 270200Z 10005KT 8000 SCT012 29/24 Q1009=
27/06/2022 02:30:00Z	 SAID32 WIBB 270230	METAR WIBB 270230Z 15007KT 8000 SCT012 29/24 Q1009=
27/06/2022 03:00:00Z	 SAID32 WIBB 270300	METAR WIBB 270300Z 12005KT 8000 FEW013 29/24 Q1009=
27/06/2022 03:30:00Z	 SAID32 WIBB 270330	METAR WIBB 270330Z 17006KT 8000 FEW012 30/25 Q1009=
27/06/2022 04:00:00Z	 SAID32 WIBB 270400	METAR WIBB 270400Z 17007KT 9000 SCT010 31/25 Q1009=
27/06/2022 05:00:00Z	 SAID32 WIBB 270500	METAR WIBB 270500Z 17006KT 9000 SCT010 31/24 Q1008=
27/06/2022 05:30:00Z	 SAID32 WIBB 270530	METAR WIBB 270530Z 16007KT 9000 SCT010 32/24 Q1008=
27/06/2022 06:00:00Z	 SAID32 WIBB 270600	METAR WIBB 270600Z 19006KT 9000 BKN012 32/24 Q1007=
27/06/2022 06:30:00Z	 SAID32 WIBB 270630	METAR WIBB 270630Z 19005KT 9000 BKN012 32/24 Q1007=
27/06/2022 07:00:00Z	 SAID32 WIBB 270700	METAR WIBB 270700Z 22006KT 9000 BKN012 32/23 Q1006=
27/06/2022 07:30:00Z	 SAID32 WIBB 270730	METAR WIBB 270730Z 21005KT 9000 BKN012 33/23 Q1006=
27/06/2022 08:00:00Z	 SAID32 WIBB 270800	METAR WIBB 270800Z 12007KT 9000 SCT012 32/24 Q1005=
27/06/2022 08:30:00Z	 SAID32 WIBB 270830	METAR WIBB 270830Z 10005KT 9000 SCT012 31/25 Q1005=
27/06/2022 09:00:00Z	 SAID32 WIBB 270900	METAR WIBB 270900Z 00000KT 9000 SCT013 32/24 Q1005 NOSIG=
27/06/2022 09:30:00Z	 SAID32 WIBB 270930	METAR WIBB 270930Z 10006KT 9000 SCT013 31/24 Q1005=
27/06/2022 10:00:00Z	 SAID32 WIBB 271000	METAR WIBB 271000Z 11004KT 9000 FEW013 31/24 Q1004 NOSIG=
27/06/2022 10:30:00Z	 SAID32 WIBB 271030	METAR WIBB 271030Z 10004KT 9000 FEW013 31/24 Q1004 NOSIG=
27/06/2022 11:00:00Z	 SAID32 WIBB 271100	METAR WIBB 271100Z 10004KT 9000 FEW015 31/24 Q1005 NOSIG=
27/06/2022 11:30:00Z	 SAID32 WIBB 271130	METAR WIBB 271130Z 10004KT 8000 FEW015 30/25 Q1005 NOSIG=
27/06/2022 12:00:00Z	 SAID32 WIBB 271200	METAR WIBB 271200Z 00000KT 8000 FEW015 29/25 Q1005 NOSIG=
27/06/2022 12:30:00Z	 SAID32 WIBB 271230	METAR WIBB 271230Z 00000KT 8000 FEW015 29/24 Q1006 NOSIG=
27/06/2022 13:00:00Z	 SAID32 WIBB 271300	METAR WIBB 271300Z 00000KT 8000 FEW015 28/24 Q1006=
27/06/2022 13:30:00Z	 SAID32 WIBB 271330	METAR WIBB 271330Z 12004KT 8000 FEW015 28/24 Q1007=
27/06/2022 14:00:00Z	 SAID32 WIBB 271400	METAR WIBB 271400Z 00000KT 8000 SCT014 28/24 Q1007=
27/06/2022 14:30:00Z	 SAID32 WIBB 271430	METAR WIBB 271430Z 00000KT 8000 SCT014 27/25 Q1007=
27/06/2022 15:00:00Z	 SAID32 WIBB 271500	METAR WIBB 271500Z 00000KT 8000 SCT013 27/25 Q1008=
27/06/2022 15:30:00Z	 SAID32 WIBB 271530	METAR WIBB 271530Z 00000KT 8000 SCT013 27/25 Q1008=
27/06/2022 16:00:00Z	 SAID32 WIBB 271600	METAR WIBB 271600Z /////KT 8000 FEW013 28/25 Q1008=
27/06/2022 16:30:00Z	 SAID32 WIBB 271630	METAR WIBB 271630Z 00000KT 8000 SCT013 27/25 Q1008=
27/06/2022 17:00:00Z	 SAID32 WIBB 271700	METAR WIBB 271700Z 00000KT 8000 SCT013 26/25 Q1008=
27/06/2022 17:30:00Z	 SAID32 WIBB 271730	METAR WIBB 271730Z 00000KT 8000 SCT012 26/25 Q1008=
27/06/2022 18:00:00Z	 SAID32 WIBB 271800	METAR WIBB 271800Z 00000KT 8000 SCT012 26/24 Q1007=
27/06/2022 18:30:00Z	 SAID32 WIBB 271830	METAR WIBB 271830Z AUTO 19003KT 9999 ////// 26/24 Q1007=
