01/04/2021 00:00:00Z	 SAID32 WIOO 010000	METAR WIOO 010000Z 07003KT 8000 SCT009 25/24 Q1007 NOSIG=
01/04/2021 00:30:00Z	 SAID32 WIOO 010030	METAR WIOO 010030Z 05004KT 9999 SCT010 26/25 Q1007 NOSIG=
01/04/2021 01:00:00Z	 SAID32 WIOO 010100	METAR WIOO 010100Z 06003KT 9999 SCT011 27/25 Q1008 NOSIG=
01/04/2021 01:30:00Z	 SAID32 WIOO 010130	METAR WIOO 010130Z 36003KT 9999 FEW012 28/25 Q1008 NOSIG=
01/04/2021 02:00:00Z	 SAID32 WIOO 010200	METAR WIOO 010200Z 36004KT 9999 FEW012 29/25 Q1008 NOSIG=
01/04/2021 02:30:00Z	 SAID32 WIOO 010230	METAR WIOO 010230Z 01005KT 9999 FEW012 30/25 Q1008 NOSIG=
01/04/2021 03:00:00Z	 SAID32 WIOO 010300	METAR WIOO 010300Z 34007KT 9999 SCT012 31/25 Q1008 NOSIG=
01/04/2021 03:30:00Z	 SAID32 WIOO 010330	METAR WIOO 010330Z 28006KT 9999 SCT012 32/25 Q1008 NOSIG=
01/04/2021 04:00:00Z	 SAID32 WIOO 010400	METAR WIOO 010400Z 29011KT 9999 BKN012 32/24 Q1008 NOSIG=
01/04/2021 04:30:00Z	 SAID32 WIOO 010430	METAR WIOO 010430Z 28014KT 9999 FEW011CB BKN012 33/24 Q1007 NOSIG=
01/04/2021 05:00:00Z	 SAID32 WIOO 010500	METAR WIOO 010500Z 26012KT 9999 FEW011CB BKN012 33/25 Q1007 NOSIG=
01/04/2021 05:30:00Z	 SAID32 WIOO 010530	METAR WIOO 010530Z 27012KT 9999 FEW011CB BKN012 33/24 Q1006 NOSIG=
01/04/2021 06:00:00Z	 SAID32 WIOO 010600	METAR WIOO 010600Z 29012KT 9999 FEW011CB BKN012 32/25 Q1006 NOSIG=
01/04/2021 06:30:00Z	 SAID32 WIOO 010630	METAR WIOO 010630Z 25015KT 9999 FEW011CB BKN012 30/26 Q1005 NOSIG=
01/04/2021 07:00:00Z	 SAID32 WIOO 010700	METAR WIOO 010700Z 25009KT 9999 FEW011CB BKN012 30/25 Q1006 NOSIG=
01/04/2021 07:30:00Z	 SAID32 WIOO 010730	METAR WIOO 010730Z 24007KT 9999 BKN012 30/25 Q1005 NOSIG=
01/04/2021 08:00:00Z	 SAID32 WIOO 010800	METAR WIOO 010800Z 21008KT 9999 BKN012 29/26 Q1005 NOSIG=
01/04/2021 08:30:00Z	 SAID32 WIOO 010830	METAR WIOO 010830Z 23006KT 9999 BKN012 28/25 Q1005 NOSIG=
01/04/2021 09:00:00Z	 SAID32 WIOO 010900	METAR WIOO 010900Z 22006KT 9999 BKN012 28/25 Q1005 NOSIG=
01/04/2021 09:30:00Z	 SAID32 WIOO 010930	METAR WIOO 010930Z 23005KT 9999 BKN012 28/25 Q1005 NOSIG=
01/04/2021 10:00:00Z	 SAID32 WIOO 011000	METAR WIOO 011000Z 22004KT 9999 BKN012 28/25 Q1005 NOSIG=
01/04/2021 10:30:00Z	 SAID32 WIOO 011030	METAR WIOO 011030Z 20004KT 9999 BKN012 28/25 Q1005 NOSIG=
01/04/2021 11:00:00Z	 SAID32 WIOO 011100	METAR WIOO 011100Z 00000KT 8000 SCT012 28/25 Q1005 NOSIG=
01/04/2021 11:30:00Z	 SAID32 WIOO 011130	METAR WIOO 011130Z 16004KT 7000 SCT012 27/25 Q1006 NOSIG=
01/04/2021 12:00:00Z	 SAID32 WIOO 011200	METAR WIOO 011200Z 00000KT 6000 SCT012 27/25 Q1006 NOSIG=
01/04/2021 12:30:00Z	 SAID32 WIOO 011230	METAR WIOO 011230Z 16004KT 6000 SCT012 27/25 Q1006 NOSIG=
01/04/2021 13:00:00Z	 SAID32 WIOO 011300	METAR WIOO 011300Z 00000KT 6000 SCT012 27/25 Q1007 NOSIG=
01/04/2021 13:30:00Z	 SAID32 WIOO 011330	METAR WIOO 011330Z 14003KT 6000 SCT012 27/25 Q1007 NOSIG=
01/04/2021 14:00:00Z	 SAID32 WIOO 011400	METAR WIOO 011400Z 13004KT 6000 SCT012 27/25 Q1007 NOSIG=
01/04/2021 14:30:00Z	 SAID32 WIOO 011430	METAR WIOO 011430Z 14003KT 6000 SCT012 27/25 Q1007 NOSIG=
01/04/2021 15:00:00Z	 SAID32 WIOO 011500	METAR WIOO 011500Z 10005KT 6000 SCT012 26/24 Q1008 NOSIG=
01/04/2021 15:30:00Z	 SAID32 WIOO 011530	METAR WIOO 011530Z 11004KT 6000 SCT012 26/24 Q1008 NOSIG=
01/04/2021 16:00:00Z	 SAID32 WIOO 011600	METAR WIOO 011600Z 11004KT 6000 SCT012 26/25 Q1008 NOSIG=
01/04/2021 16:30:00Z	 SAID32 WIOO 011630	METAR WIOO 011630Z AUTO 11004KT 9999 FEW003 BKN017 25/25 Q1008=
01/04/2021 17:00:00Z	 SAID32 WIOO 011700	METAR WIOO 011700Z AUTO 08003KT 9999 FEW003 OVC016 BKN017 25/25 Q1007=
01/04/2021 17:30:00Z	 SAID32 WIOO 011730	METAR WIOO 011730Z AUTO 09003KT 9999 FEW003 SCT018 BKN024 25/24 Q1007=
01/04/2021 18:00:00Z	 SAID32 WIOO 011800	METAR WIOO 011800Z AUTO 07003KT 9999 FEW003 BKN140 OVC230 24/24 Q1007=
01/04/2021 18:30:00Z	 SAID32 WIOO 011830	METAR WIOO 011830Z AUTO 05002KT 9999 SCT140 OVC230 OVC240 24/24 Q1006=
01/04/2021 19:00:00Z	 SAID32 WIOO 011900	METAR WIOO 011900Z AUTO 06002KT 9999 OVC230 OVC240 24/24 Q1006=
01/04/2021 19:30:00Z	 SAID32 WIOO 011930	METAR WIOO 011930Z AUTO 05003KT 9999 OVC240 24/24 Q1006=
01/04/2021 20:00:00Z	 SAID32 WIOO 012000	METAR WIOO 012000Z AUTO 05003KT 9999 SCT003 OVC250 24/24 Q1006=
01/04/2021 20:30:00Z	 SAID32 WIOO 012030	METAR WIOO 012030Z AUTO 06003KT 9999 FEW003 SCT230 OVC260 24/24 Q1006=
01/04/2021 21:00:00Z	 SAID32 WIOO 012100	METAR WIOO 012100Z AUTO 10001KT 9999 FEW140 OVC270 24/24 Q1006=
01/04/2021 21:30:00Z	 SAID32 WIOO 012130	METAR WIOO 012130Z AUTO 08002KT 9999 BKN270 24/24 Q1006=
01/04/2021 22:00:00Z	 SAID32 WIOO 012200	METAR WIOO 012200Z AUTO 07001KT 9999 FEW140 SCT150 BKN270 24/24 Q1006=
01/04/2021 22:30:00Z	 SAID32 WIOO 012230	METAR WIOO 012230Z AUTO 10002KT 9999 BKN150 OVC280 24/24 Q1007=
01/04/2021 23:00:00Z	 SAID32 WIOO 012300	METAR WIOO 012300Z .00000KT 8000 FEW010 24/23 Q1007 NOSIG=
01/04/2021 23:00:00Z	 SAID32 WIOO 012300 CCA	METAR COR WIOO 012300Z 00000KT 8000 FEW010 24/23 Q1007 NOSIG=
01/04/2021 23:30:00Z	 SAID32 WIOO 012330	METAR WIOO 012330Z 05003KT 6000 FEW012 24/24 Q1007 NOSIG=
02/04/2021 00:00:00Z	 SAID32 WIOO 020000	METAR WIOO 020000Z 07003KT 6000 FEW012 24/24 Q1008 NOSIG=
02/04/2021 00:30:00Z	 SAID32 WIOO 020030	METAR WIOO 020030Z 02007KT 9000 FEW012 26/25 Q1008 NOSIG=
02/04/2021 01:00:00Z	 SAID32 WIOO 020100	METAR WIOO 020100Z 07004KT 9999 SCT011 26/25 Q1008 NOSIG=
02/04/2021 01:30:00Z	 SAID32 WIOO 020130	METAR WIOO 020130Z 07007KT 9999 SCT011 28/26 Q1008 NOSIG=
02/04/2021 02:00:00Z	 SAID32 WIOO 020200	METAR WIOO 020200Z 04003KT 9999 FEW011 28/25 Q1008 NOSIG=
02/04/2021 02:30:00Z	 SAID32 WIOO 020230	METAR WIOO 020230Z 01004KT 9999 FEW011 30/26 Q1008 NOSIG=
02/04/2021 03:00:00Z	 SAID32 WIOO 020300	METAR WIOO 020300Z 01006KT 9999 SCT011 30/25 Q1008 NOSIG=
02/04/2021 03:30:00Z	 SAID32 WIOO 020330	METAR WIOO 020330Z 35005KT 9999 SCT012 31/25 Q1008 NOSIG=
02/04/2021 04:00:00Z	 SAID32 WIOO 020400	METAR WIOO 020400Z 34007KT 9999 BKN012 31/25 Q1008 NOSIG=
02/04/2021 04:30:00Z	 SAID32 WIOO 020430	METAR WIOO 020430Z 32006KT 9999 BKN012 32/25 Q1007 NOSIG=
02/04/2021 05:00:00Z	 SAID32 WIOO 020500	METAR WIOO 020500Z 24003KT 8000 FEW011CB BKN012 32/25 Q1007 TEMPO FM0530 4000 RA FEW010CB BKN011=
02/04/2021 05:30:00Z	 SAID32 WIOO 020530	METAR WIOO 020530Z 01005KT 8000 FEW011CB BKN012 32/25 Q1006 TEMPO FM0600 3000 RA=
02/04/2021 06:00:00Z	 SAID32 WIOO 020600	METAR WIOO 020600Z 29005KT 8000 FEW011CB BKN012 32/25 Q1006 TEMPO FM0610 TL0730 2000 TSRA=
02/04/2021 06:30:00Z	 SAID32 WIOO 020630	METAR WIOO 020630Z 32009KT 8000 FEW011CB BKN012 32/24 Q1006 NOSIG=
02/04/2021 07:00:00Z	 SAID32 WIOO 020700	METAR WIOO 020700Z 35007KT 9999 FEW011CB BKN012 32/25 Q1005 NOSIG=
02/04/2021 07:30:00Z	 SAID32 WIOO 020730	METAR WIOO 020730Z 32012KT 9999 FEW011CB BKN012 34/25 Q1005 NOSIG=
02/04/2021 08:00:00Z	 SAID32 WIOO 020800	METAR WIOO 020800Z 30010KT 9999 BKN012 33/24 Q1005 NOSIG=
02/04/2021 08:30:00Z	 SAID32 WIOO 020830	METAR WIOO 020830Z 30013KT 9999 BKN012 32/24 Q1005 NOSIG=
02/04/2021 09:00:00Z	 SAID32 WIOO 020900	METAR WIOO 020900Z 29012KT 9999 FEW011CB BKN012 32/24 Q1005 NOSIG=
02/04/2021 09:30:00Z	 SAID32 WIOO 020930	METAR WIOO 020930Z 28008KT 9999 FEW011CB SCT012 31/24 Q1005 NOSIG=
02/04/2021 10:00:00Z	 SAID32 WIOO 021000	METAR WIOO 021000Z 28008KT 9999 FEW011CB SCT012 31/24 Q1005 NOSIG=
02/04/2021 10:30:00Z	 SAID32 WIOO 021030	METAR WIOO 021030Z 29005KT 9000 SCT012 30/24 Q1005 NOSIG=
02/04/2021 11:00:00Z	 SAID32 WIOO 021100	METAR WIOO 021100Z 29004KT 7000 BKN012 29/25 Q1005 NOSIG=
02/04/2021 11:30:00Z	 SAID32 WIOO 021130	METAR WIOO 021130Z 27003KT 6000 BKN012 29/25 Q1006 NOSIG=
02/04/2021 12:00:00Z	 SAID32 WIOO 021200	METAR WIOO 021200Z 28003KT 6000 BKN012 28/25 Q1006 NOSIG=
02/04/2021 12:30:00Z	 SAID32 WIOO 021230	METAR WIOO 021230Z 27003KT 6000 BKN012 28/25 Q1006 NOSIG=
02/04/2021 13:00:00Z	 SAID32 WIOO 021300	METAR WIOO 021300Z 00000KT 6000 BKN012 28/25 Q1006 NOSIG=
02/04/2021 13:30:00Z	 SAID32 WIOO 021330	METAR WIOO 021330Z 00000KT 6000 SCT012 28/25 Q1007 NOSIG=
02/04/2021 14:00:00Z	 SAID32 WIOO 021400	METAR WIOO 021400Z 00000KT 6000 SCT012 28/25 Q1007 NOSIG=
02/04/2021 14:30:00Z	 SAID32 WIOO 021430	METAR WIOO 021430Z 00000KT 6000 SCT012 27/25 Q1007 NOSIG=
02/04/2021 15:00:00Z	 SAID32 WIOO 021500	METAR WIOO 021500Z 04003KT 6000 SCT012 27/25 Q1008 NOSG=
02/04/2021 15:30:00Z	 SAID32 WIOO 021530	METAR WIOO 021530Z AUTO 04002KT 9999 OVC060 26/24 Q1008=
02/04/2021 16:00:00Z	 SAID32 WIOO 021600	METAR WIOO 021600Z AUTO 30001KT 9999 OVC060 OVC065 26/25 Q1008=
02/04/2021 16:30:00Z	 SAID32 WIOO 021630	METAR WIOO 021630Z AUTO 35001KT 9999 FEW060 25/25 Q1008=
02/04/2021 17:00:00Z	 SAID32 WIOO 021700	METAR WIOO 021700Z AUTO VRB02KT 8000 SCT065 25/24 Q1008=
02/04/2021 17:30:00Z	 SAID32 WIOO 021730	METAR WIOO 021730Z AUTO 05001KT 9000 FEW070 25/24 Q1007=
02/04/2021 18:30:00Z	 SAID32 WIOO 021830	METAR WIOO 021830Z AUTO 10002KT 9000 FEW260 SCT280 25/24 Q1007=
02/04/2021 19:00:00Z	 SAID32 WIOO 021900	METAR WIOO 021900Z AUTO VRB02KT 8000 2600 BR BKN001 BKN002 25/24 Q1006=
02/04/2021 19:30:00Z	 SAID32 WIOO 021930	METAR WIOO 021930Z AUTO 08001KT 6000 2300 BR SCT001 24/24 Q1006=
02/04/2021 20:00:00Z	 SAID32 WIOO 022000	METAR WIOO 022000Z AUTO VRB02KT 5000 BR NCD 23/23 Q1006=
02/04/2021 20:30:00Z	 SAID32 WIOO 022030	METAR WIOO 022030Z AUTO 06001KT 5000 BR NCD 24/24 Q1006=
02/04/2021 21:00:00Z	 SAID32 WIOO 022100	METAR WIOO 022100Z AUTO 07001KT 6000 BR NCD 23/23 Q1007=
02/04/2021 21:30:00Z	 SAID32 WIOO 022130	METAR WIOO 022130Z AUTO 04002KT 8000 BR NCD 23/23 Q1007=
02/04/2021 22:00:00Z	 SAID32 WIOO 022200	METAR WIOO 022200Z 00000KT4000 BR SCT012 23/23 Q1007 NOSIG=
02/04/2021 22:30:00Z	 SAID32 WIOO 022230	METAR WIOO 022230Z 00000KT 4000 BR SCT012 23/23 Q1007 NOSIG=
02/04/2021 23:00:00Z	 SAID32 WIOO 022300	METAR WIOO 022300Z 00000KT 5000 BR SCT012 24/23 Q1007 NOSIG=
02/04/2021 23:30:00Z	 SAID32 WIOO 022330	METAR WIOO 022330Z 12003KT 4000 BR FEW010 24/23 Q1008 NOSIG=
03/04/2021 00:00:00Z	 SAID32 WIOO 030000	METAR WIOO 030000Z 07004KT 8000 FEW010 25/24 Q1008 NOSIG=
03/04/2021 00:30:00Z	 SAID32 WIOO 030030	METAR WIOO 030030Z 04003KT 9999 FEW011 26/24 Q1008 NOSIG=
03/04/2021 01:00:00Z	 SAID32 WIOO 030100	METAR WIOO 030100Z 33003KT 9999 FEW011 27/25 Q1009 NOSIG=
03/04/2021 01:30:00Z	 SAID32 WIOO 030130	METAR WIOO 030130Z 03008KT 9999 FEW012 28/24 Q1008 NOSIG=
03/04/2021 02:00:00Z	 SAID32 WIOO 030200	METAR WIOO 030200Z 01007KT 9999 FEW012 29/23 Q1009 NOSIG=
03/04/2021 02:30:00Z	 SAID32 WIOO 030230	METAR WIOO 030230Z 01006KT 9999 FEW012 31/23 Q1008 NOSIG=
03/04/2021 03:00:00Z	 SAID32 WIOO 030300	METAR WIOO 030300Z 03008KT 9999 FEW012 31/23 Q1008 NOSIG=
03/04/2021 03:30:00Z	 SAID32 WIOO 030330	METAR WIOO 030330Z 01007KT 9999 FEW012 32/23 Q1008 NOSIG=
03/04/2021 04:00:00Z	 SAID32 WIOO 030400	METAR WIOO 030400Z 34015KT 9999 FEW012 32/22 Q1008 NOSIG=
03/04/2021 04:30:00Z	 SAID32 WIOO 030430	METAR WIOO 030430Z 01011KT 9999 FEW012 33/23 Q1007 NOSIG=
03/04/2021 05:00:00Z	 SAID32 WIOO 030500	METAR WIOO 030500Z 35011KT 9999 SCT012 34/23 Q1007 NOSIG=
03/04/2021 05:30:00Z	 SAID32 WIOO 030530	METAR WIOO 030530Z 34010KT 9999 SCT 34/23 Q1006 NOSIG=
03/04/2021 05:30:00Z	 SAID32 WIOO 030530 CCA	METAR COR WIOO 030530Z 34010KT 9999 SCT012 34/23 Q1006 NOSIG=
03/04/2021 06:00:00Z	 SAID32 WIOO 030600	METAR WIOO 030600Z 34011KT 9999 BKN012 34/23 Q1006 NOSIG=
03/04/2021 06:30:00Z	 SAID32 WIOO 030630	METAR WIOO 030630Z 27012KT 9999 BKN012 33/24 Q1006 NOSIG=
03/04/2021 07:00:00Z	 SAID32 WIOO 030700	METAR WIOO 030700Z 28010KT 9999 SCT012 34/25 Q1005 NOSIG=
03/04/2021 07:30:00Z	 SAID32 WIOO 030730	METAR WIOO 030730Z 31008KT 9999 FEW011CB SCT012 33/25 Q1005 NOSIG=
03/04/2021 08:00:00Z	 SAID32 WIOO 030800	METAR WIOO 030800Z 27005KT 9999 FEW011CB SCT012 33/25 Q1005 NOSIG=
03/04/2021 08:30:00Z	 SAID32 WIOO 030830	METAR WIOO 030830Z 28008KT 9999 FEW011CB SCT012 34/25 Q1005 NOSIG=
03/04/2021 09:00:00Z	 SAID32 WIOO 030900	METAR WIOO 030900Z 29005KT 9999 FEW011CB SCT012 33/25 Q1004 NOSIG=
03/04/2021 09:30:00Z	 SAID32 WIOO 030930	METAR WIOO 030930Z 26008KT 9999 SCT012 33/25 Q1005 NOSIG=
03/04/2021 10:00:00Z	 SAID32 WIOO 031000	METAR WIOO 031000Z 25008KT 9999 SCT012 32/25 Q1005 NOSIG=
03/04/2021 10:30:00Z	 SAID32 WIOO 031030	METAR WIOO 031030Z 24008KT 8000 SCT012 31/25 Q1005 NOSIG=
03/04/2021 11:00:00Z	 SAID32 WIOO 031100	METAR WIOO 031100Z 26005KT 8000 SCT012 30/25 Q1005 NOSIG=
03/04/2021 11:30:00Z	 SAID32 WIOO 031130	METAR WIOO 031130Z 27003KT 8000 SCT012 29/25 Q1005 NOSIG=
03/04/2021 12:00:00Z	 SAID32 WIOO 031200	METAR WIOO 031200Z 00000KT 8000 SCT012 29/24 Q1006 NOSIG=
03/04/2021 12:30:00Z	 SAID32 WIOO 031230	METAR WIOO 031230Z 28003KT 8000 SCT012 28/25 Q1006 NOSIG=
03/04/2021 13:00:00Z	 SAID32 WIOO 031300	METAR WIOO 031300Z 00000KT 8000 SCT011 28/25 Q1007 NOSIG=
03/04/2021 13:30:00Z	 SAID32 WIOO 031330	METAR WIOO 031330Z 33003KT 6000 SCT011 27/25 Q1007 NOSIG=
03/04/2021 14:00:00Z	 SAID32 WIOO 031400	METAR WIOO 031400Z 00000KT 6000 SCT011 27/25 Q1008 NOSIG=
03/04/2021 14:30:00Z	 SAID32 WIOO 031430	METAR WIOO 031430Z 00000KT 6000 SCT011 27/24 Q1008 NOSIG=
03/04/2021 15:00:00Z	 SAID32 WIOO 031500	METAR WIOO 031500Z 00000KT 6000 SCT011 27/24 Q1008 NOSIG=
03/04/2021 15:30:00Z	 SAID32 WIOO 031530	METAR WIOO 031530Z 00000KT 6000 SCT011 27/24 Q1008 NOSIG=
03/04/2021 16:00:00Z	 SAID32 WIOO 031600	METAR WIOO 031600Z 16004KT 6000 SCT012 26/24 Q1008 NOSIG=
03/04/2021 16:30:00Z	 SAID32 WIOO 031630	METAR WIOO 031630Z 00000KT 5000 HZ SCT012 26/24 Q1008 NOSIG=
03/04/2021 17:00:00Z	 SAID32 WIOO 031700	METAR WIOO 031700Z 00000KT 5000 HZ SCT012 26/24 Q1007 NOSIG=
03/04/2021 17:30:00Z	 SAID32 WIOO 031730	METAR WIOO 031730Z 00000KT 6000 SCT012 25/24 Q1007 NOSIG=
03/04/2021 18:00:00Z	 SAID32 WIOO 031800	METAR WIOO 031800Z 00000KT 6000 SCT012 25/24 Q1007 NOSIG=
03/04/2021 18:30:00Z	 SAID32 WIOO 031830	METAR WIOO 031830Z AUTO 15001KT 9999 NCD 24/24 Q1007=
03/04/2021 19:00:00Z	 SAID32 WIOO 031900	METAR WIOO 031900Z AUTO 19001KT 8000 3200 BR NCD 24/24 Q1007=
03/04/2021 19:30:00Z	 SAID32 WIOO 031930	METAR WIOO 031930Z AUTO 00000KT 4900 BR NCD 23/23 Q1007=
03/04/2021 20:00:00Z	 SAID32 WIOO 032000	METAR WIOO 032000Z AUTO 19001KT 8000 2000 BR NCD 24/23 Q1007=
03/04/2021 20:30:00Z	 SAID32 WIOO 032030	METAR WIOO 032030Z AUTO 31001KT 4800 BR NCD 23/23 Q1007=
03/04/2021 21:00:00Z	 SAID32 WIOO 032100	METAR WIOO 032100Z AUTO 20001KT 6000 1600 BR VV005 23/23 Q1007=
03/04/2021 21:30:00Z	 SAID32 WIOO 032130	METAR WIOO 032130Z AUTO 22001KT 5000 1900 BR SCT014 SCT017 BKN026 23/23 Q1007=
03/04/2021 22:00:00Z	 SAID32 WIOO 032200	METAR WIOO 032200Z 00000KT 3000 BR SCT011 23/22 Q1007 NOSIG=
03/04/2021 22:30:00Z	 SAID32 WIOO 032230	METAR WIOO 032230Z 00000KT 3000 BR SCT010 23/22 Q1008 NOSIG=
03/04/2021 23:00:00Z	 SAID32 WIOO 032300	METAR WIOO 032300Z 00000KT 2000 BR SCT008 23/22 Q1007 NOSIG=
03/04/2021 23:30:00Z	 SAID32 WIOO 032330	METAR WIOO 032330Z 00000KT 4000 BR FEW010 24/23 Q1008 NOSIG=
04/04/2021 00:00:00Z	 SAID32 WIOO 040000	METAR WIOO 040000Z 00000KT 7000 FEW011 25/24 Q1008 NOSIG=
04/04/2021 00:30:00Z	 SAID32 WIOO 040030	METAR WIOO 040030Z 00000KT 7000 FEW011 26/24 Q1008 NOSIG=
04/04/2021 01:00:00Z	 SAID32 WIOO 040100	METAR WIOO 040100Z 36003KT 8000 FEW011 27/24 Q1009 NOSIG=
04/04/2021 01:30:00Z	 SAID32 WIOO 040130	METAR WIOO 040130Z 34003KT 9999 FEW011 29/24 Q1009 NOSIG=
04/04/2021 02:00:00Z	 SAID32 WIOO 040200	METAR WIOO 040200Z 02004KT 9999 FEW011 30/24 Q1009 NOSIG=
04/04/2021 02:30:00Z	 SAID32 WIOO 040230	METAR WIOO 040230Z 35004KT 9999 FEW012 31/24 Q1009 NOSIG=
04/04/2021 03:00:00Z	 SAID32 WIOO 040300	METAR WIOO 040300Z 36004KT 9999 FEW012 31/23 Q1009 NOSIG=
04/04/2021 03:30:00Z	 SAID32 WIOO 040330	METAR WIOO 040330Z 31004KT 9999 SCT012 32/24 Q1008 NOSIG=
04/04/2021 04:00:00Z	 SAID32 WIOO 040400	METAR WIOO 040400Z 25004KT 9999 BKN012 32/24 Q1008 NOSIG=
04/04/2021 04:30:00Z	 SAID32 WIOO 040430	METAR WIOO 040430Z 30005KT 9999 BKN012 33/24 Q1008 NOSIG=
04/04/2021 05:00:00Z	 SAID32 WIOO 040500	METAR WIOO 040500Z 27009KT 9999 BKN012 33/24 Q1007 NOSIG=
04/04/2021 05:30:00Z	 SAID32 WIOO 040530	METAR WIOO 040530Z 32010KT 9999 BKN012 34/24 Q1007 NOSIG=
04/04/2021 06:00:00Z	 SAID32 WIOO 040600	METAR WIOO 040600Z 29008KT 9999 BKN012 34/23 Q1006 NOSIG=
04/04/2021 06:30:00Z	 SAID32 WIOO 040630	METAR WIOO 040630Z 26010KT 9999 SCT012 34/23 Q1006 NOSIG=
04/04/2021 07:00:00Z	 SAID32 WIOO 040700	METAR WIOO 040700Z 28011KT 9999 SCT012 35/22 Q1005 NOSIG=
04/04/2021 07:30:00Z	 SAID32 WIOO 040730	METAR WIOO 040730Z 28011KT 9999 FEW013 34/22 Q1005 NOSIG=
04/04/2021 08:00:00Z	 SAID32 WIOO 040800	METAR WIOO 040800Z 28010KT 9999 FEW013 34/22 Q1005 NOSIG=
04/04/2021 08:30:00Z	 SAID32 WIOO 040830	METAR WIOO 040830Z 25012KT 9999 FEW013 33/22 Q1005 NOSIG=
04/04/2021 09:00:00Z	 SAID32 WIOO 040900	METAR WIOO 040900Z 25012KT 9999 FEW013 32/23 Q1005 NOSIG=
04/04/2021 09:30:00Z	 SAID32 WIOO 040930	METAR WIOO 040930Z 26010KT 9999 FEW013 32/43 Q1006 NOSIG=
04/04/2021 10:00:00Z	 SAID32 WIOO 041000	METAR WIOO 041000Z 28009KT 9999 FEW013 31/24 Q1006 NOSIG=
04/04/2021 10:30:00Z	 SAID32 WIOO 041030	METAR WIOO 041030Z 26006KT 8000 FEW013 29/25 Q1007 NOSIG=
04/04/2021 11:00:00Z	 SAID32 WIOO 041100	METAR WIOO 041100Z 27005KT 8000 FEW013 29/25 Q1007 NOSIG=
04/04/2021 11:30:00Z	 SAID32 WIOO 041130	METAR WIOO 041130Z 00000KT 8000 FEW013 29/25 Q1007 NOSIG=
04/04/2021 12:00:00Z	 SAID32 WIOO 041200	METAR WIOO 041200Z 00000KT 6000 FEW013 28/25 Q1007 NOSIG=
04/04/2021 12:30:00Z	 SAID32 WIOO 041230	METAR WIOO 041230Z 00000KT 6000 FEW013 28/25 Q1008 NOSIG=
04/04/2021 13:00:00Z	 SAID32 WIOO 041300	METAR WIOO 041300Z 00000KT 6000 FEW013 27/25 Q1008 NOSIG=
04/04/2021 13:30:00Z	 SAID32 WIOO 041330	METAR WIOO 041330Z 00000KT 3000 HZ FEW013 27/25 Q1009 NOSIG=
04/04/2021 14:00:00Z	 SAID32 WIOO 041400	METAR WIOO 041400Z 22003KT 3000 HZ FEW013 26/25 Q1009 NOSIG=
04/04/2021 14:30:00Z	 SAID32 WIOO 041430	METAR WIOO 041430Z 00000KT 3000 HZ FEW013 26/25 Q1009 NOSIG=
04/04/2021 15:00:00Z	 SAID32 WIOO 041500	METAR WIOO 041500Z 00000KT 3000 HZ FEW012 26/25 Q1009 NOSIG=
04/04/2021 15:30:00Z	 SAID32 WIOO 041530	METAR WIOO 041530Z 00000KT 4000 HZ FEW012 25/24 Q1009 NOSIG=
04/04/2021 16:00:00Z	 SAID32 WIOO 041600	METAR WIOO 041600Z 00000KT 3000 HZ FEW012 25/24 Q1009 NOSIG=
04/04/2021 16:30:00Z	 SAID32 WIOO 041630	METAR WIOO 041630Z 00000KT 3000 HZ FEW012 25/24 Q1009 NOSIG=
04/04/2021 17:00:00Z	 SAID32 WIOO 041700	METAR WIOO 041700Z 07003KT 4000 HZ SCT009 25/24 Q1009 NOSIG=
04/04/2021 17:30:00Z	 SAID32 WIOO 041730	METAR WIOO 041730Z 00000KT 4000 HZ SCT009 25/24 Q1008 NOSIG=
04/04/2021 18:00:00Z	 SAID32 WIOO 041800	METAR WIOO 041800Z 00000KT 3000 HZ SCT010 25/24 Q1008 NOSIG=
04/04/2021 18:30:00Z	 SAID32 WIOO 041830	METAR WIOO 041830Z AUTO 23001KT 3700 BR BKN016 24/23 Q1008=
04/04/2021 19:00:00Z	 SAID32 WIOO 041900	METAR WIOO 041900Z AUTO 06002KT 4400 BR SCT017 24/24 Q1008=
04/04/2021 19:30:00Z	 SAID32 WIOO 041930	METAR WIOO 041930Z AUTO 08002KT 4100 BR SCT002 BKN003 24/24 Q1008=
04/04/2021 20:00:00Z	 SAID32 WIOO 042000	METAR WIOO 042000Z AUTO 10001KT 5000 2700 BR SCT002 24/24 Q1008=
04/04/2021 20:30:00Z	 SAID32 WIOO 042030	METAR WIOO 042030Z AUTO 25002KT 3900 BR FEW002 OVC015 23/23 Q1008=
04/04/2021 21:00:00Z	 SAID32 WIOO 042100	METAR WIOO 042100Z AUTO 26001KT 2700 1000 R15/1400U BR SCT001 SCT002 OVC018 23/23 Q1008=
04/04/2021 21:30:00Z	 SAID32 WIOO 042130	METAR WIOO 042130Z AUTO 22001KT 2600 0350 FG OVC001 BKN017 OVC022 23/23 Q1008=
04/04/2021 22:00:00Z	 SAID32 WIOO 042200	METAR WIOO 042200Z 00000KT 0350 FG BKN005 24/23 Q1008 TEMPO TL2300 0800 FG=
04/04/2021 22:30:00Z	 SAID32 WIOO 042230	METAR WIOO 042230Z 00000KT 0700 FG BKN005 24/23 Q1009 TEMPO TL2300 0800 FG=
04/04/2021 23:00:00Z	 SAID32 WIOO 042300	METAR WIOO 042300Z 00000KT 0800 FG BKN005 23/23 Q1009 TEMPO TL2330 1000 BR=
04/04/2021 23:30:00Z	 SAID32 WIOO 042330	METAR WIOO 042330Z 05003KT 0700 FG BKN005 24/23 Q1009 TEMPO AT0000 1000=
05/04/2021 00:00:00Z	 SAID32 WIOO 050000	METAR WIOO 050000Z 09003KT 2000 BR SCT011 24/23 Q1010 TEMPO FM0030 5000=
05/04/2021 00:30:00Z	 SAID32 WIOO 050030	METAR WIOO 050030Z 05003KT 7000 SCT011 25/24 Q1010 NOSIG=
05/04/2021 01:00:00Z	 SAID32 WIOO 050100	METAR WIOO 050100Z 05004KT9000 SCT011 26/25 Q1010 NOSIG=
05/04/2021 01:01:00Z	 SAID32 WIOO 050101	METAR WIOO 050100Z 05004KT 9000 SCT011 26/25 Q1010 NOSIG=
05/04/2021 01:30:00Z	 SAID32 WIOO 050130	METAR WIOO 050130Z 03004KT 9000 SCT011 28/25 Q1010 NOSIG=
05/04/2021 02:00:00Z	 SAID32 WIOO 050200	METAR WIOO 050200Z 35004KT 9999 BKN011 28/25 Q1011 NOSIG=
05/04/2021 02:30:00Z	 SAID32 WIOO 050230	METAR WIOO 050230Z 34004KT 9999 BKN011 30/25 Q1011 NOSIG=
05/04/2021 03:00:00Z	 SAID32 WIOO 050300	METAR WIOO 050300Z 29005KT 9999 BKN011 31/25 Q1010 NOSIG=
05/04/2021 03:30:00Z	 SAID32 WIOO 050330	METAR WIOO 050330Z 01006KT 9999 BKN011 31/25 Q1010 NOSIG=
05/04/2021 04:00:00Z	 SAID32 WIOO 050400	METAR WIOO 050400Z 34003KT 9999 BKN011 31/24 Q1010 NOSIG=
05/04/2021 04:30:00Z	 SAID32 WIOO 050430	METAR WIOO 050430Z 00000KT 9999 BKN011 32/24 Q1009 NOSIG=
05/04/2021 05:00:00Z	 SAID32 WIOO 050500	METAR WIOO 050500Z 35003KT 9999 SCT011 33/24 Q1009 NOSIG=
05/04/2021 05:30:00Z	 SAID32 WIOO 050530	METAR WIOO 050530Z 36007KT 9999 BKN011 33/24 Q1008 NOSIG=
05/04/2021 06:00:00Z	 SAID32 WIOO 050600	METAR WIOO 050600Z 34004KT 9999 BKN011 33/24 Q1008 NOSIG=
05/04/2021 06:30:00Z	 SAID32 WIOO 050630	METAR WIOO 050630Z 33004KT 9999 SCT012 32/24 Q1007 NOSIG=
05/04/2021 07:00:00Z	 SAID32 WIOO 050700	METAR WIOO 050700Z 30007KT 9999 SCT012 34/24 Q1006 NOSIG=
05/04/2021 07:30:00Z	 SAID32 WIOO 050730	METAR WIOO 050730Z 30007KT 9999 SCT012 33/24 Q1006 NOSIG=
05/04/2021 08:00:00Z	 SAID32 WIOO 050800	METAR WIOO 050800Z 31011KT 9999 SCT012 34/24 Q1006 NOSIG=
05/04/2021 08:30:00Z	 SAID32 WIOO 050830	METAR WIOO 050830Z 28010KT 9999 SCT012 33/25 Q1006 NOSIG=
05/04/2021 09:00:00Z	 SAID32 WIOO 050900	METAR WIOO 050900Z 27011KT 9999 FEW012 32/25 Q1006 NOSIG=
05/04/2021 09:30:00Z	 SAID32 WIOO 050930	METAR WIOO 050930Z 26010KT 9999 FEW012 31/24 Q1006 NOSIG=
05/04/2021 10:00:00Z	 SAID32 WIOO 051000	METAR WIOO 051000Z 29008KT 9999 FEW012 31/24 Q1006 NOSIG=
05/04/2021 11:00:00Z	 SAID32 WIOO 051100	METAR WIOO 051100Z 26006KT 8000 FEW012 28/24 Q1007 NOSIG=
05/04/2021 11:30:00Z	 SAID32 WIOO 051130	METAR WIOO 051130Z 28005KT 7000 FEW012 28/24 Q1007 NOSIG=
05/04/2021 12:00:00Z	 SAID32 WIOO 051200	METAR WIOO 051200Z 29003KT 7000 FEW012 27/25 Q1008 NOSIG=
05/04/2021 13:00:00Z	 SAID32 WIOO 051300	METAR WIOO 051300Z 25004KT 7000 FEW012 26/24 Q1009 NOSIG=
05/04/2021 13:30:00Z	 SAID32 WIOO 051330	METAR WIOO 051330Z AUTO 29002KT 9999 -RA NCD 26/24 Q1009=
05/04/2021 14:00:00Z	 SAID32 WIOO 051400	METAR WIOO 051400Z AUTO 32002KT 8000 NCD 25/24 Q1010=
05/04/2021 14:30:00Z	 SAID32 WIOO 051430	METAR WIOO 051430Z AUTO 35003KT 7000 BKN230 26/24 Q1010=
05/04/2021 15:00:00Z	 SAID32 WIOO 051500	METAR WIOO 051500Z AUTO 31003KT 9000 OVC240 25/24 Q1010=
05/04/2021 15:30:00Z	 SAID32 WIOO 051530	METAR WIOO 051530Z AUTO 30004KT 7000 BKN230 SCT240 25/24 Q1010=
05/04/2021 16:00:00Z	 SAID32 WIOO 051600	METAR WIOO 051600Z AUTO 33004KT 9999 OVC230 25/24 Q1010=
05/04/2021 16:30:00Z	 SAID32 WIOO 051630	METAR WIOO 051630Z AUTO 27002KT 9000 OVC240 25/24 Q1010=
05/04/2021 17:00:00Z	 SAID32 WIOO 051700	METAR WIOO 051700Z AUTO 25003KT 9999 SCT240 25/24 Q1010=
05/04/2021 17:30:00Z	 SAID32 WIOO 051730	METAR WIOO 051730Z AUTO 29003KT 7000 BKN240 OVC260 25/24 Q1010=
05/04/2021 18:00:00Z	 SAID32 WIOO 051800	METAR WIOO 051800Z AUTO 33002KT 8000 BKN240 OVC260 25/24 Q1009=
05/04/2021 18:30:00Z	 SAID32 WIOO 051830	METAR WIOO 051830Z AUTO 24001KT 6000 FEW210 SCT230 OVC250 24/24 Q1009=
05/04/2021 19:00:00Z	 SAID32 WIOO 051900	METAR WIOO 051900Z AUTO 00000KT 7000 BKN230 OVC260 25/24 Q1009=
05/04/2021 19:30:00Z	 SAID32 WIOO 051930	METAR WIOO 051930Z AUTO 35001KT 5000 BR FEW230 24/24 Q1009=
05/04/2021 20:00:00Z	 SAID32 WIOO 052000	METAR WIOO 052000Z AUTO VRB02KT 6000 BKN210 24/24 Q1008=
05/04/2021 20:30:00Z	 SAID32 WIOO 052030	METAR WIOO 052030Z AUTO 07003KT 5000 NCD 24/24 Q1008=
05/04/2021 21:00:00Z	 SAID32 WIOO 052100	METAR WIOO 052100Z AUTO 11002KT 4400 BR BKN220 24/24 Q1008=
05/04/2021 21:30:00Z	 SAID32 WIOO 052130	METAR WIOO 052130Z AUTO 06002KT 4300 BR BKN220 24/23 Q1008=
05/04/2021 22:00:00Z	 SAID32 WIOO 052200	METAR WIOO 052200Z 00000KT 6000 FEW012 24/23 Q1009 NOSIG=
05/04/2021 22:01:00Z	 SAID32 WIOO 052201 CCA	METAR COR WIOO 052200Z 00000KT 4000 BR FEW012 24/23 Q1009 NOSIG=
05/04/2021 22:30:00Z	 SAID32 WIOO 052230	METAR WIOO 052230Z 00000KT 4000 BR FEW012 24/23 Q1009 NOSIG=
05/04/2021 23:00:00Z	 SAID32 WIOO 052300	METAR WIOO 052300Z 00002KT 3000 BR FEW012 24/23 Q1009 NOSIG=
05/04/2021 23:30:00Z	 SAID32 WIOO 052330	METAR WIOO 052330Z 00000KT 2000 BR SCT012 24/23 Q1009 NOSIG=
06/04/2021 00:00:00Z	 SAID32 WIOO 060000	METAR WIOO 060000Z 00000KT 3000 BR FEW012 24/23 Q1010 NOSIG=
06/04/2021 00:30:00Z	 SAID32 WIOO 060030	METAR WIOO 060030Z 00000KT 4000 BR SCT012 25/24 Q1010 NOSIG=
06/04/2021 01:00:00Z	 SAID32 WIOO 060100	METAR WIOO 060100Z 00000KT 4000 BR SCT012 26/25 Q1011 NOSIG=
06/04/2021 01:30:00Z	 SAID32 WIOO 060130	METAR WIOO 060130Z 07003KT 7000 SCT012 27/25 Q1011 NOSIG=
06/04/2021 02:00:00Z	 SAID32 WIOO 060200	METAR WIOO 060200Z 00000KT 9999 SCT012 28/25 Q1011 NOSIG=
06/04/2021 02:30:00Z	 SAID32 WIOO 060230	METAR WIOO 060230Z 03003KT 9999 SCT011 28/25 Q1011 NOSIG=
06/04/2021 03:00:00Z	 SAID32 WIOO 060300	METAR WIOO 060300Z 07003KT 9999 SCT012 29/25 Q1010 NOSIG=
06/04/2021 03:30:00Z	 SAID32 WIOO 060330	METAR WIOO 060330Z 20006KT 9999 BKN012 30/25 Q1010 NOSIG=
06/04/2021 04:00:00Z	 SAID32 WIOO 060400	METAR WIOO 060400Z 25004KT 9999 BKN012 31/25 Q1010 NOSIG=
06/04/2021 04:30:00Z	 SAID32 WIOO 060430	METAR WIOO 060430Z 23004KT 9999 BKN012 31/24 Q1009 NOSIG=
06/04/2021 05:00:00Z	 SAID32 WIOO 060500	METAR WIOO 060500Z 00000KT 9999 BKN012 32/23 Q1008 NOSIG=
06/04/2021 05:30:00Z	 SAID32 WIOO 060530	METAR WIOO 060530Z 29003KT 9999 BKN012 33/23 Q1008 NOSIG=
06/04/2021 06:00:00Z	 SAID32 WIOO 060600	METAR WIOO 060600Z 18005KT 9999 BKN012 32/24 Q1007 NOSIG=
06/04/2021 06:30:00Z	 SAID32 WIOO 060630	METAR WIOO 060630Z 21004KT 9999 BKN012 32/24 Q1007 NOSIG=
06/04/2021 07:00:00Z	 SAID32 WIOO 060700	METAR WIOO 060700Z 21005KT 9999 SCT012 32/24 Q1006 NOSIG=
06/04/2021 07:30:00Z	 SAID32 WIOO 060730	METAR WIOO 060730Z 14006KT 9999 SCT012 32/25 Q1006 NOSIG=
06/04/2021 08:00:00Z	 SAID32 WIOO 060800	METAR WIOO 060800Z 21007KT 9999 SCT012 31/25 Q1006 NOSIG=
06/04/2021 08:30:00Z	 SAID32 WIOO 060830	METAR WIOO 060830Z 19006KT 9999 SCT012 31/25 Q1006 NOSIG=
06/04/2021 09:00:00Z	 SAID32 WIOO 060900	METAR WIOO 060900Z 20007KT 9999 FEW011CB FEW012 31/25 Q1006 NOSIG=
06/04/2021 09:30:00Z	 SAID32 WIOO 060930	METAR WIOO 060930Z 25005KT 9999 FEW011CB FEW012 32/25 Q1006 NOSIG=
06/04/2021 10:00:00Z	 SAID32 WIOO 061000	METAR WIOO 061000Z 25007KT 9000 FEW012 31/23 Q1006 NOSIG=
06/04/2021 10:30:00Z	 SAID32 WIOO 061030	METAR WIOO 061030Z 26005KT 8000 FEW012 31/24 Q1007 NOSIG=
06/04/2021 11:00:00Z	 SAID32 WIOO 061100	METAR WIOO 061100Z 27005KT 8000 FEW012 29/24 Q1007 NOSIG=
06/04/2021 11:30:00Z	 SAID32 WIOO 061130	METAR WIOO 061130Z 27007KT 7000 FEW012 28/24 Q1008 NOSIG=
06/04/2021 12:00:00Z	 SAID32 WIOO 061200	METAR WIOO 061200Z 26006KT 7000 FEW012 28/25 Q1009 NOSIG=
06/04/2021 12:30:00Z	 SAID32 WIOO 061230	METAR WIOO 061230Z 24003KT 6000 SCT012 27/25 Q1009 NOSIG=
06/04/2021 13:00:00Z	 SAID32 WIOO 061300	METAR WIOO 061300Z 22003KT 6000 SCT012 27/25 Q1010 NOSIG=
06/04/2021 13:30:00Z	 SAID32 WIOO 061330	METAR WIOO 061330Z 31003KT 6000 SCT012 26/25 Q1010 NOSIG=
06/04/2021 14:00:00Z	 SAID32 WIOO 061400	METAR WIOO 061400Z 04004KT 6000 SCT012 27/25 Q1010 NOSIG=
06/04/2021 14:30:00Z	 SAID32 WIOO 061430	METAR WIOO 061430Z 05003KT 6000 SCT012 26/24 Q1010 NOSIG=
06/04/2021 15:00:00Z	 SAID32 WIOO 061500	METAR WIOO 061500Z 03004KT 6000 SCT012 26/24 Q1010 NOSIG=
06/04/2021 15:30:00Z	 SAID32 WIOO 061530	METAR WIOO 061530Z 35003KT 6000 SCT012 25/24 Q1010 NOSIG=
06/04/2021 16:00:00Z	 SAID32 WIOO 061600	METAR WIOO 061600Z 01004KT 6000 SCT012 26/24 Q1010 NOSIG=
06/04/2021 16:30:00Z	 SAID32 WIOO 061630	METAR WIOO 061630Z AUTO 36004KT 9999 OVC100 26/24 Q1010 NOSIG=
06/04/2021 17:00:00Z	 SAID32 WIOO 061700	METAR WIOO 061700Z AUTO 01003KT 9999 OVC095 OVC100 26/24 Q1010 NOSIG=
06/04/2021 17:30:00Z	 SAID32 WIOO 061730	METAR WIOO 061730Z AUTO VRB02KT 9999 OVC095 26/24 Q1009=
06/04/2021 18:00:00Z	 SAID32 WIOO 061800	METAR WIOO 061800Z AUTO 22003KT 9999 FEW043 OVC100 25/24 Q1009=
06/04/2021 18:30:00Z	 SAID32 WIOO 061830	METAR WIOO 061830Z AUTO 22002KT 9999 OVC095 25/24 Q1009=
06/04/2021 19:00:00Z	 SAID32 WIOO 061900	METAR WIOO 061900Z AUTO 22001KT 6000 SCT027 OVC100 25/24 Q1009=
06/04/2021 19:30:00Z	 SAID32 WIOO 061930	METAR WIOO 061930Z AUTO 31001KT 7000 FEW026 SCT090 BKN110 25/24 Q1008=
06/04/2021 20:00:00Z	 SAID32 WIOO 062000	METAR WIOO 062000Z AUTO 33001KT 5000 SCT090 BKN110 BKN140 24/24 Q1008=
06/04/2021 20:30:00Z	 SAID32 WIOO 062030	METAR WIOO 062030Z AUTO 27001KT 4800 BR SCT120 24/24 Q1008=
06/04/2021 21:00:00Z	 SAID32 WIOO 062100	METAR WIOO 062100Z AUTO 24001KT 4700 BR FEW110 24/24 Q1008=
06/04/2021 21:30:00Z	 SAID32 WIOO 062130	METAR WIOO 062130Z AUTO 26001KT 4600 BR NCD 24/24 Q1008=
06/04/2021 22:00:00Z	 SAID32 WIOO 062200	METAR WIOO 062200Z AUTO 00000KT 3700 BR SCT140 24/24 Q1009=
06/04/2021 22:30:00Z	 SAID32 WIOO 062230	METAR WIOO 062230Z 00000KT 2000 BR FEW011 24/24 Q1009 TEMPO TL2330 3000=
06/04/2021 23:00:00Z	 SAID32 WIOO 062300	METAR WIOO 062300Z 00000KT 2000 BR FEW011 24/24 Q1009 TEMPO TL2400 2000=
06/04/2021 23:30:00Z	 SAID32 WIOO 062330	METAR WIOO 062330Z 00000KT 2000 BR FEW011 24/24 Q1010 BECMG AT0000 6000 NSW=
07/04/2021 00:00:00Z	 SAID32 WIOO 070000	METAR WIOO 070000Z 01003KT 2500 BR FEW011 25/25 Q1010 BECMG FM0100 6000 NSW=
07/04/2021 00:30:00Z	 SAID32 WIOO 070030	METAR WIOO 070030Z 04004KT 3000 BR FEW012 26/25 Q1011 BECMG FM0100 6000 NSW=
07/04/2021 01:00:00Z	 SAID32 WIOO 070100	METAR WIOO 070100Z 03003KT 5000 BR FEW012 27/25 Q1011 NOSIG=
07/04/2021 01:30:00Z	 SAID32 WIOO 070130	METAR WIOO 070130Z 01005KT 8000 FEW011 28/25 Q1012 NOSIG=
07/04/2021 02:00:00Z	 SAID32 WIOO 070200	METAR WIOO 070200Z 01005KT 9999 SCT011 29/24 Q1012 NOSIG=
07/04/2021 02:30:00Z	 SAID32 WIOO 070230	METAR WIOO 070230Z 33006KT 9999 SCT011 30/24 Q1011 NOSIG=
07/04/2021 03:00:00Z	 SAID32 WIOO 070300	METAR WIOO 070300Z 01007KT 9999 BKN012 31/25 Q1011 NOSIG=
07/04/2021 03:30:00Z	 SAID32 WIOO 070330	METAR WIOO 070330Z 36004KT 9999 BKN012 31/25 Q1010 NOSIG=
07/04/2021 04:00:00Z	 SAID32 WIOO 070400	METAR WIOO 070400Z 34007KT 9999 BKN012 32/25 Q1010 NOSIG=
07/04/2021 04:30:00Z	 SAID32 WIOO 070430	METAR WIOO 070430Z 36004KT 9999 BKN012 32/25 Q1009 NOSIG=
07/04/2021 05:00:00Z	 SAID32 WIOO 070500	METAR WIOO 070500Z 35004KT 9999 BKN012 32/24 Q1009 NOSIG=
07/04/2021 05:30:00Z	 SAID32 WIOO 070530	METAR WIOO 070530Z 31007KT 9999 FEW011CB BKN012 32/24 Q1008 TEMPO FM0600 FEW010CB BKN011=
07/04/2021 06:00:00Z	 SAID32 WIOO 070600	METAR WIOO 070600Z 24013KT 9999 FEW011CB BKN012 32/24 Q1007 NOSIG=
07/04/2021 07:00:00Z	 SAID32 WIOO 070700	METAR WIOO 070700Z 03005KT 9999 TS FEW011CB BKN012 32/24 Q1006 NOSIG=
07/04/2021 07:30:00Z	 SAID32 WIOO 070730	METAR WIOO 070730Z 02004KT 9999 FEW011CB BKN012 29/24 Q1006 RETS NOSIG=
07/04/2021 08:30:00Z	 SAID32 WIOO 070830	METAR WIOO 070830Z 26007KT 9999 BKN012 29/25 Q1006 NOSIG=
07/04/2021 09:00:00Z	 SAID32 WIOO 070900	METAR WIOO 070900Z 35007KT 9999 BKN012 29/25 Q1006 NOSIG=
07/04/2021 09:30:00Z	 SAID32 WIOO 070930	METAR WIOO 070930Z 29007KT 9999 BKN012 31/25 Q1007 NOSIG=
07/04/2021 10:00:00Z	 SAID32 WIOO 071000	METAR WIOO 071000Z 27004KT 9999 BKN012 29/24 Q1007 NOSIG=
07/04/2021 10:30:00Z	 SAID32 WIOO 071030	METAR WIOO 071030Z 29010KT 9999 BKN012 29/24 Q1007 NOSIG=
07/04/2021 11:00:00Z	 SAID32 WIOO 071100	METAR WIOO 071100Z 27005KT 7000 BKN012 28/25 Q1007 NOSIG=
07/04/2021 11:30:00Z	 SAID32 WIOO 071130	METAR WIOO 071130Z 00000KT 6000 BKN012 28/25 Q1008 NOSIG=
07/04/2021 12:00:00Z	 SAID32 WIOO 071200	METAR WIOO 071200Z 00000KT 6000 BKN012 28/25 Q1008 NOSIG=
07/04/2021 12:30:00Z	 SAID32 WIOO 071230	METAR WIOO 071230Z 00000KT 6000 BKN012 27/25 Q1009 NOSIG=
07/04/2021 13:00:00Z	 SAID32 WIOO 071300	METAR WIOO 071300Z 00000KT69000 BKN012 27/25 Q1009 NOSIG=
07/04/2021 13:01:00Z	 SAID32 WIOO 071301	METAR WIOO 071300Z 00000KT 6000 BKN012 27/25 Q1009 NOSIG=
07/04/2021 13:30:00Z	 SAID32 WIOO 071330	METAR WIOO 071330Z 05004KT 6000 BKN012 27/25 Q1009 NOSIG=
07/04/2021 14:00:00Z	 SAID32 WIOO 071400	METAR WIOO 071400Z 05003KT 6000 BKN012 27/25 Q1010 NOSIG=
07/04/2021 14:30:00Z	 SAID32 WIOO 071430	METAR WIOO 071430Z 00000KT 6000 BKN012 26/25 Q1010 NOSIG=
07/04/2021 15:00:00Z	 SAID32 WIOO 071500	METAR WIOO 071500Z 00000KT 6000 SCT012 26/24 Q1010 NOSIG=
07/04/2021 16:00:00Z	 SAID32 WIOO 071600	METAR WIOO 071600Z 07004KT 6000 SCT012 26/24 Q1010 NOSIG=
07/04/2021 16:30:00Z	 SAID32 WIOO 071630	METAR WIOO 071630Z 07004KT 6000 SCT012 26/24 Q1010 NOSIG=
07/04/2021 17:00:00Z	 SAID32 WIOO 071700	METAR WIOO 071700Z AUTO 06003KT 9999 SCT250 25/24 Q1009=
07/04/2021 17:30:00Z	 SAID32 WIOO 071730	METAR WIOO 071730Z AUTO 04002KT 9999 NCD 25/24 Q1009=
07/04/2021 18:00:00Z	 SAID32 WIOO 071800	METAR WIOO 071800Z AUTO 04001KT 9999 FEW270 24/24 Q1009=
07/04/2021 18:30:00Z	 SAID32 WIOO 071830	METAR WIOO 071830Z AUTO 06001KT 9999 FEW240 24/24 Q1008=
07/04/2021 19:00:00Z	 SAID32 WIOO 071900	METAR WIOO 071900Z AUTO 04001KT 9999 NCD 24/24 Q1008=
07/04/2021 19:30:00Z	 SAID32 WIOO 071930	METAR WIOO 071930Z AUTO 00000KT 9999 NCD 24/24 Q1008=
07/04/2021 20:00:00Z	 SAID32 WIOO 072000	METAR WIOO 072000Z AUTO 07001KT 9999 NCD 24/24 Q1008=
07/04/2021 20:30:00Z	 SAID32 WIOO 072030	METAR WIOO 072030Z AUTO 09001KT 9999 NCD 24/24 Q1008=
07/04/2021 21:00:00Z	 SAID32 WIOO 072100	METAR WIOO 072100Z AUTO 08002KT 9999 NCD 24/24 Q1008=
07/04/2021 21:30:00Z	 SAID32 WIOO 072130	METAR WIOO 072130Z AUTO 06003KT 9999 NCD 24/24 Q1008=
07/04/2021 22:00:00Z	 SAID32 WIOO 072200	METAR WIOO 072200Z AUTO 06002KT 9999 NCD 24/23 Q1008=
07/04/2021 22:30:00Z	 SAID32 WIOO 072230	METAR WIOO 072230Z 00000KT 6000 FEW012 24/23 Q1009 NOSIG=
07/04/2021 23:00:00Z	 SAID32 WIOO 072300	METAR WIOO 072300Z 05003KT 7000 FEW012 24/23 Q1009 NOSIG=
07/04/2021 23:30:00Z	 SAID32 WIOO 072330	METAR WIOO 072330Z 00000KT 5000 BR FEW012 24/23 Q1009 NOSIG=
08/04/2021 00:00:00Z	 SAID32 WIOO 080000	METAR WIOO 080000Z 05003KT 7000 FEW012 24/23 Q1009 NOSIG=
08/04/2021 00:30:00Z	 SAID32 WIOO 080030	METAR WIOO 080030Z 06003KT 8000 FEW012 26/24 Q1010 NOSIG=
08/04/2021 01:00:00Z	 SAID32 WIOO 080100	METAR WIOO 080100Z 01004KT 9000 FEW012 27/25 Q1010 NOSIG=
08/04/2021 01:30:00Z	 SAID32 WIOO 080130	METAR WIOO 080130Z 01005KT 9000 FEW012 28/25 Q1010 NOSIG=
08/04/2021 02:00:00Z	 SAID32 WIOO 080200	METAR WIOO 080200Z 01007KT 9999 FEW012 29/25 Q1010 NOSIG=
08/04/2021 02:30:00Z	 SAID32 WIOO 080230	METAR WIOO 080230Z 36007KT 9999 FEW012 30/25 Q1010 NOSIG=
08/04/2021 03:00:00Z	 SAID32 WIOO 080300	METAR WIOO 080300Z 01006KT 9999 FEW012 31/24 Q1010 NOSIG=
08/04/2021 03:30:00Z	 SAID32 WIOO 080330	METAR WIOO 080330Z 32008KT 9999 FEW012 32/24 Q1009 NOSIG=
08/04/2021 04:00:00Z	 SAID32 WIOO 080400	METAR WIOO 080400Z 36011KT 9999 SCT012 32/24 Q1009 NOSIG=
08/04/2021 04:30:00Z	 SAID32 WIOO 080430	METAR WIOO 080430Z 35008KT 9999 SCT012 32/24 Q1008 NOSIG=
08/04/2021 05:00:00Z	 SAID32 WIOO 080500	METAR WIOO 080500Z 31005KT 9999 SCT012 33/25 Q1008 NOSIG=
08/04/2021 05:30:00Z	 SAID32 WIOO 080530	METAR WIOO 080530Z 29010KT 9999 SCT012 33/25 Q1007 NOSIG=
08/04/2021 06:00:00Z	 SAID32 WIOO 080600	METAR WIOO 080600Z 32010KT 9999 SCT012 33/25 Q1007 NOSIG=
08/04/2021 06:30:00Z	 SAID32 WIOO 080630	METAR WIOO 080630Z 30009KT 9999 BKN012 33/25 Q1006 NOSIG=
08/04/2021 07:00:00Z	 SAID32 WIOO 080700	METAR WIOO 080700Z 31008KT 9999 FEW011CB SCT012 34/25 Q1005 NOSIG=
08/04/2021 07:30:00Z	 SAID32 WIOO 080730	METAR WIOO 080730Z 03010KT 9999 FEW011CB BKN012 32/24 Q1005 NOSIG=
08/04/2021 08:00:00Z	 SAID32 WIOO 080800	METAR WIOO 080800Z 01006KT 9999 SCT012 33/25 Q1005 NOSIG=
08/04/2021 08:30:00Z	 SAID32 WIOO 080830	METAR WIOO 080830Z 35005KT 9999 SCT012 33/26 Q1004 NOSIG=
08/04/2021 09:00:00Z	 SAID32 WIOO 080900	METAR WIOO 080900Z 34004KT 9999 SCT012 33/25 Q1005 NOSIG=
08/04/2021 09:30:00Z	 SAID32 WIOO 080930	METAR WIOO 080930Z 29006KT 9999 SCT012 33/26 Q1005 NOSIG=
08/04/2021 10:00:00Z	 SAID32 WIOO 081000	METAR WIOO 081000Z 26010KT 9999 SCT012 31/26 Q1006 NOSIG=
08/04/2021 10:30:00Z	 SAID32 WIOO 081030	METAR WIOO 081030Z 29009KT 9000 SCT012 31/26 Q1006 NOSIG=
08/04/2021 11:00:00Z	 SAID32 WIOO 081100	METAR WIOO 081100Z 27010KT 6000 SCT012 30/26 Q1006 NOSIG=
08/04/2021 11:30:00Z	 SAID32 WIOO 081130	METAR WIOO 081130Z 28007KT 6000 FEW011CB SCT012 29/26 Q1007 NOSIG=
08/04/2021 12:00:00Z	 SAID32 WIOO 081200	METAR WIOO 081200Z 25004KT 6000 TS FEW011CB BKN012 29/26 Q1007 NOSIG=
08/04/2021 12:30:00Z	 SAID32 WIOO 081230	METAR WIOO 081230Z 25004KT 6000 FEW011CB BKN012 28/26 Q1008 RETS NOSIG=
08/04/2021 13:00:00Z	 SAID32 WIOO 081300	METAR WIOO 081300Z 27005KT 6000 FEW011CB BKN012 28/26 Q1008 NOSIG=
08/04/2021 13:30:00Z	 SAID32 WIOO 081330	METAR WIOO 081330Z 25003KT 6000 FEW011CB BKN012 28/26 Q1008 NOSIG=
08/04/2021 14:00:00Z	 SAID32 WIOO 081400	METAR WIOO 081400Z 26004KT 6000 FEW011CB BKN012 28/26 Q1009 NOSIG=
08/04/2021 14:30:00Z	 SAID32 WIOO 081430	METAR WIOO 081430Z 29004KT 6000 FEW011CB BKN012 28/26 Q1009 NOSIG=
08/04/2021 15:00:00Z	 SAID32 WIOO 081500	METAR WIOO 081500Z 00000KT 6000 FEW011CB BKN012 28/26 Q1009 NOSIG=
08/04/2021 15:30:00Z	 SAID32 WIOO 081530	METAR WIOO 081530Z 00000KT 6000 FEW011 BKN012 28/26 Q1010 NOSIG=
08/04/2021 16:00:00Z	 SAID32 WIOO 081600	METAR WIOO 081600Z 00000KT 6000 FEW011CB BKN012 28/26 Q1010 NOSIG=
08/04/2021 16:30:00Z	 SAID32 WIOO 081630	METAR WIOO 081630Z AUTO 08004KT 8000 FEW012 SCT016 BKN023 27/26 Q1010=
08/04/2021 17:00:00Z	 SAID32 WIOO 081700	METAR WIOO 081700Z AUTO 11004KT 9999 SCT011 BKN013 BKN015 26/25 Q1010=
08/04/2021 17:30:00Z	 SAID32 WIOO 081730	METAR WIOO 081730Z AUTO 10004KT 9999 SCT014 OVC017 BKN020 26/25 Q1009=
08/04/2021 18:00:00Z	 SAID32 WIOO 081800	METAR WIOO 081800Z AUTO 11003KT 9999 SCT017 SCT019 BKN026 25/25 Q1009=
08/04/2021 18:30:00Z	 SAID32 WIOO 081830	METAR WIOO 081830Z AUTO 14003KT 9999 SCT021 SCT029 OVC240 25/24 Q1009=
08/04/2021 19:00:00Z	 SAID32 WIOO 081900	METAR WIOO 081900Z AUTO 13002KT 9999 FEW023 BKN037 BKN220 25/24 Q1009=
08/04/2021 19:30:00Z	 SAID32 WIOO 081930	METAR WIOO 081930Z AUTO 15002KT 9999 BKN022 BKN030 OVC037 25/24 Q1008=
08/04/2021 20:00:00Z	 SAID32 WIOO 082000	METAR WIOO 082000Z AUTO 19002KT 7000 FEW024 25/24 Q1008=
08/04/2021 20:30:00Z	 SAID32 WIOO 082030	METAR WIOO 082030Z AUTO 21002KT 5000 BR FEW021 SCT130 25/24 Q1008=
08/04/2021 21:00:00Z	 SAID32 WIOO 082100	METAR WIOO 082100Z AUTO VRB02KT 6000 BR BKN019 SCT300 OVC310 25/24 Q1008=
08/04/2021 21:30:00Z	 SAID32 WIOO 082130	METAR WIOO 082130Z AUTO 08002KT 7000 2700 BR BKN019 24/24 Q1008=
08/04/2021 22:00:00Z	 SAID32 WIOO 082200	METAR WIOO 082200Z AUTO 05002KT 8000 BR FEW002 24/24 Q1008=
