01/01/2022 00:00:00Z	 SAID32 WIOO 010000	METAR WIOO 010000Z 07004KT 9999 FEW012 24/23 Q1010 NOSIG=
01/01/2022 00:30:00Z	 SAID32 WIOO 010030	METAR WIOO 010030Z 07004KT 9999 FEW012 24/23 Q1011 NOSIG=
01/01/2022 01:00:00Z	 SAID32 WIOO 010100	METAR WIOO 010100Z 08003KT 9999 SCT012 27/24 Q1011 NOSIG=
01/01/2022 01:30:00Z	 SAID32 WIOO 010130	METAR WIOO 010130Z 08005KT 9999 SCT012 28/25 Q1011 NOSIG=
01/01/2022 02:00:00Z	 SAID32 WIOO 010200	METAR WIOO 010200Z 12005KT 9999 SCT012 29/25 Q1011 NOSIG=
01/01/2022 02:30:00Z	 SAID32 WIOO 010230	METAR WIOO 010230Z 17004KT 9999 BKN012 30/25 Q1011 NOSIG=
01/01/2022 03:00:00Z	 SAID32 WIOO 010300	METAR WIOO 010300Z 01003KT 9999 BKN012 30/25 Q1011 NOSIG=
01/01/2022 03:30:00Z	 SAID32 WIOO 010330	METAR WIOO 010330Z 15003KT 9999 BKN012 31/25 Q1011 NOSIG=
01/01/2022 04:00:00Z	 SAID32 WIOO 010400	METAR WIOO 010400Z 13003KT 9999 FEW011CB BKN012 31/24 Q1010 NOSIG=
01/01/2022 04:30:00Z	 SAID32 WIOO 010430	METAR WIOO 010430Z 15004KT 9999 TS FEW011CB BKN012 32/25 Q1010 NOSIG=
01/01/2022 05:00:00Z	 SAID32 WIOO 010500	METAR WIOO 010500Z 33010KT 8000 TS FEW011CB BKN012 30/24 Q1010 TEMPO TL0600 30012KT=
01/01/2022 05:30:00Z	 SAID32 WIOO 010530	METAR WIOO 010530Z 31011KT 5000 -TSRA FEW010CB BKN011 28/26 Q1010 TEMPO TL0630 30012KT 3000 TSRA=
01/01/2022 06:00:00Z	 SAID32 WIOO 010600	METAR WIOO 010600Z 27011KT 1500 TSRA FEW010CB BKN011 25/23 Q1009 TEMPO TL0630 28012KT 1000 TSRA=
01/01/2022 06:30:00Z	 SAID32 WIOO 010630	METAR WIOO 010630Z 21007KT 5000 -TSRA FEW010CB BKN011 25/24 Q1009 TEMPO FM0650 2000 RA=
01/01/2022 07:00:00Z	 SAID32 WIOO 010700	METAR WIOO 010700Z 17003KT 7000 -RA FEW011CB BKN012 26/24 Q1008 RETS NOSIG=
01/01/2022 07:30:00Z	 SAID32 WIOO 010730	METAR WIOO 010730Z 22003KT 7000 -RA BKN012 26/25 Q1008 NOSIG=
01/01/2022 08:00:00Z	 SAID32 WIOO 010800	METAR WIOO 010800Z 20004KT 7000 -RA BKN012 26/24 Q1008 NOSIG=
01/01/2022 08:30:00Z	 SAID32 WIOO 010830	METAR WIOO 010830Z 23003KT 8000 SCT012 26/25 Q1008 RERA NOSIG=
01/01/2022 09:00:00Z	 SAID32 WIOO 010900	METAR WIOO 010900Z 20003KT 8000 SCT012 26/25 Q1008 NOSIG=
01/01/2022 09:30:00Z	 SAID32 WIOO 010930	METAR WIOO 010930Z 22003KT 8000 -RA SCT012 26/25 Q1009 NOSIG=
01/01/2022 10:00:00Z	 SAID32 WIOO 011000	METAR WIOO 011000Z 00000KT 8000 -RA SCT012 26/25 Q1009 NOSIG=
01/01/2022 10:30:00Z	 SAID32 WIOO 011030	METAR WIOO 011030Z 22003KT 7000 -RA SCT012 26/25 Q1009 NOSIG=
01/01/2022 11:00:00Z	 SAID32 WIOO 011100	METAR WIOO 011100Z 00000KT 7000 -RA SCT012 26/25 Q1010 NOSIG=
01/01/2022 11:30:00Z	 SAID32 WIOO 011130	METAR WIOO 011130Z 00000KT 7000 -RA SCT012 26/25 Q1010 NOSIG=
01/01/2022 12:00:00Z	 SAID32 WIOO 011200	METAR WIOO 011200Z 00000KT 7000 SCT012 26/25 Q1011 NOSIG=
01/01/2022 12:30:00Z	 SAID32 WIOO 011230	METAR WIOO 011230Z 00000KT 7000 SCT012 26/25 Q1011 NOSIG=
01/01/2022 13:00:00Z	 SAID32 WIOO 011300	METAR WIOO 011300Z 02004KT 6000 SCT012 26/25 Q1011 NOSIG=
01/01/2022 13:30:00Z	 SAID32 WIOO 011330	METAR WIOO 011330Z 01003KT 6000 SCT012 25/24 Q1012 NOSIG=
01/01/2022 14:00:00Z	 SAID32 WIOO 011400	METAR WIOO 011400Z 00000KT 6000 SCT012 25/24 Q1012 NOSIG=
01/01/2022 14:30:00Z	 SAID32 WIOO 011430	METAR WIOO 011430Z 05003KT 6000 SCT012 25/24 Q1012 NOSIG=
01/01/2022 15:00:00Z	 SAID32 WIOO 011500	METAR WIOO 011500Z 05004KT 6000 BKN012 25/24 Q1012 NOSIG=
01/01/2022 15:30:00Z	 SAID32 WIOO 011530	METAR WIOO 011530Z 02005KT 6000 BKN012 24/23 Q1011 NOSIG=
01/01/2022 16:00:00Z	 SAID32 WIOO 011600	METAR WIOO 011600Z 02003KT 6000 -RA BKN011 24/23 Q1011 NOSIG=
01/01/2022 16:30:00Z	 SAID32 WIOO 011630	METAR WIOO 011630Z 35003KT 6000 BKN011 24/23 Q1011 RERA NOSIG=
01/01/2022 17:00:00Z	 SAID32 WIOO 011700	METAR WIOO 011700Z 00000KT 6000 BKN011 24/23 Q1011 NOSIG=
01/01/2022 17:30:00Z	 SAID32 WIOO 011730	METAR WIOO 011730Z 36003KT 6000 BKN011 24/23 Q1010 NOSIG=
01/01/2022 18:00:00Z	 SAID32 WIOO 011800	METAR WIOO 011800Z 04003KT 6000 BKN011 24/23 Q1010 NOSIG=
01/01/2022 18:30:00Z	 SAID32 WIOO 011830	METAR WIOO 011830Z AUTO 04003KT 9999 OVC150 24/23 Q1009=
01/01/2022 19:00:00Z	 SAID32 WIOO 011900	METAR WIOO 011900Z AUTO 04003KT 9999 OVC150 24/23 Q1009=
01/01/2022 19:30:00Z	 SAID32 WIOO 011930	METAR WIOO 011930Z AUTO 06003KT 9999 SCT003 OVC150 24/24 Q1009=
01/01/2022 20:00:00Z	 SAID32 WIOO 012000	METAR WIOO 012000Z AUTO 09002KT 9000 BKN003 OVC150 24/24 Q1009=
01/01/2022 20:30:00Z	 SAID32 WIOO 012030	METAR WIOO 012030Z AUTO VRB02KT 9000 OVC003 OVC150 24/24 Q1008=
01/01/2022 21:00:00Z	 SAID32 WIOO 012100	METAR WIOO 012100Z AUTO 10002KT 9999 BKN003 OVC150 OVC160 24/24 Q1009=
01/01/2022 21:30:00Z	 SAID32 WIOO 012130	METAR WIOO 012130Z AUTO VRB02KT 2400 BR OVC002 OVC003 24/24 Q1009=
01/01/2022 22:00:00Z	 SAID32 WIOO 012200	METAR WIOO 012200Z 12003KT 6000 BKN009 23/23 Q1009 NOSIG=
01/01/2022 22:30:00Z	 SAID32 WIOO 012230	METAR WIOO 012230Z 15003KT 6000 BKN008 23/23 Q1010 NOSIG=
01/01/2022 23:00:00Z	 SAID32 WIOO 012300	METAR WIOO 012300Z 10003KT 7000 BKN007 23/23 Q1010 NOSIG=
01/01/2022 23:30:00Z	 SAID32 WIOO 012330	METAR WIOO 012330Z 07003KT 7000 BKN006 24/24 Q1010 NOSIG=
02/01/2022 00:00:00Z	 SAID32 WIOO 020000	METAR WIOO 020000Z 08003KT 9000 SCT010 24/23 Q1011 NOSIG=
02/01/2022 00:30:00Z	 SAID32 WIOO 020030	METAR WIOO 020030Z 08003KT 9999 SCT010 25/24 Q1011 NOSIG=
02/01/2022 01:00:00Z	 SAID32 WIOO 020100	METAR WIOO 020100Z 05007KT 9999 SCT011 26/24 Q1011 NOSIG=
02/01/2022 01:30:00Z	 SAID32 WIOO 020130	METAR WIOO 020130Z 08005KT 9999 SCT011 27/24 Q1011 NOSIG=
02/01/2022 02:00:00Z	 SAID32 WIOO 020200	METAR WIOO 020200Z 07005KT 9999 BKN012 28/24 Q1011 NOSIG=
02/01/2022 02:30:00Z	 SAID32 WIOO 020230	METAR WIOO 020230Z 05004KT 9999 BKN011 28/24 Q1011 NOSIG=
02/01/2022 03:00:00Z	 SAID32 WIOO 020300	METAR WIOO 020300Z 04003KT 9999 BKN012 29/24 Q1011 NOSIG=
02/01/2022 03:30:00Z	 SAID32 WIOO 020330	METAR WIOO 020330Z 06003KT 9999 BKN012 29/24 Q1011 NOSIG=
02/01/2022 04:00:00Z	 SAID32 WIOO 020400	METAR WIOO 020400Z 22003KT 9999 BKN012 30/24 Q1011 NOSIG=
02/01/2022 04:30:00Z	 SAID32 WIOO 020430	METAR WIOO 020430Z 36005KT 9999 BKN012 30/24 Q1010 NOSIG=
02/01/2022 05:00:00Z	 SAID32 WIOO 020500	METAR WIOO 020500Z 17003KT 9999 FEW011CB BKN012 31/24 Q1010 TEMPO FM0520 3000 TSRA=
02/01/2022 05:30:00Z	 SAID32 WIOO 020530	METAR WIOO 020530Z 19009KT 2000 -RA FEW011CB BKN012 30/26 Q1009 TEMPO FM0540 27010KT 3000 TSRA=
02/01/2022 06:00:00Z	 SAID32 WIOO 020600	METAR WIOO 020600Z 28010KT 4000 -RA FEW010CB BKN011 27/24 Q1009 TEMPO FM0610 27010KT 3000 TSRA=
02/01/2022 06:30:00Z	 SAID32 WIOO 020630	METAR WIOO 020630Z 26013KT 0800 +TSRA FEW010CB BKN011 25/24 Q1009 TEMPO FM0700 1000 TSRA=
02/01/2022 07:00:00Z	 SAID32 WIOO 020700	METAR WIOO 020700Z 31005KT 4000 -TSRA FEW010CB SCT011 25/24 Q1009 TEMPO FM0730 7000=
02/01/2022 07:30:00Z	 SAID32 WIOO 020730	METAR WIOO 020730Z 26008KT 8000 -RA FEW010CB BKN011 25/24 Q1008 RETS NOSIG=
02/01/2022 08:00:00Z	 SAID32 WIOO 020800	METAR WIOO 020800Z 25008KT 9000 -RA SCT012 25/24 Q1008 NOSIG=
02/01/2022 08:30:00Z	 SAID32 WIOO 020830	METAR WIOO 020830Z 25006KT 9999 -RA 25/24 Q1008 NOSIG=
02/01/2022 09:00:00Z	 SAID32 WIOO 020900	METAR WIOO 020900Z 25004KT 9999 FEW012 26/24 Q1008 RERA NOSIG=
02/01/2022 09:30:00Z	 SAID32 WIOO 020930	METAR WIOO 020930Z 22003KT 9999 FEW012 26/24 Q1008 NOSIG=
02/01/2022 10:00:00Z	 SAID32 WIOO 021000	METAR WIOO 021000Z 24002KT 9999 SCT011 26/24 Q1008 NOSIG=
02/01/2022 10:30:00Z	 SAID32 WIOO 021030	METAR WIOO 021030Z 29003KT 9999 SCT011 26/24 Q1008 NOSIG=
02/01/2022 11:00:00Z	 SAID32 WIOO 021100	METAR WIOO 021100Z 00000KT 8000 FEW012 26/24 Q1009 NOSIG=
02/01/2022 11:30:00Z	 SAID32 WIOO 021130	METAR WIOO 021130Z 00000KT 8000 FEW012 26/24 Q1009 NOSIG=
02/01/2022 12:00:00Z	 SAID32 WIOO 021200	METAR WIOO 021200Z 00000KT 7000 SCT012 26/24 Q1009 NOSIG=
02/01/2022 12:30:00Z	 SAID32 WIOO 021230	METAR WIOO 021230Z 35003KT 7000 SCT012 25/24 Q1010 NOSIG=
02/01/2022 13:00:00Z	 SAID32 WIOO 021300	METAR WIOO 021300Z 00000KT 7000 SCT012 25/24 Q1010 NOSIG=
02/01/2022 13:30:00Z	 SAID32 WIOO 021330	METAR WIOO 021330Z 00000KT 7000 SCT012 25/24 Q1010 NOSIG=
02/01/2022 14:00:00Z	 SAID32 WIOO 021400	METAR WIOO 021400Z 00000KT 6000 -RA SCT012 25/24 Q1010 NOSIG=
02/01/2022 14:30:00Z	 SAID32 WIOO 021430	METAR WIOO 021430Z 00000KT 6000 -RA SCT012 25/24 Q1011 NOSIG=
02/01/2022 15:00:00Z	 SAID32 WIOO 021500	METAR WIOO 021500Z 00000KT 6000 -RA BKN012 25/24 Q1011 NOSIG=
02/01/2022 15:30:00Z	 SAID32 WIOO 021530	METAR WIOO 021530Z 00000KT 6000 -RA SCT012 25/24 Q1011 NOSIG=
02/01/2022 16:00:00Z	 SAID32 WIOO 021600	METAR WIOO 021600Z 00000KT 6000 -RA SCT012 25/24 Q1011 NOSIG=
02/01/2022 16:30:00Z	 SAID32 WIOO 021630	METAR WIOO 021630Z 04003KT 6000 SCT012 25/24 Q1011 RERA NOSIG=
02/01/2022 17:00:00Z	 SAID32 WIOO 021700	METAR WIOO 021700Z 03003KT 6000 SCT012 25/24 Q1011 NOSIG=
02/01/2022 17:30:00Z	 SAID32 WIOO 021730	METAR WIOO 021730Z 04003KT 6000 SCT012 25/24 Q1011 NOSIG=
02/01/2022 18:00:00Z	 SAID32 WIOO 021800	METAR WIOO 021800Z AUTO 06002KT 9999 OVC050 24/24 Q1011=
02/01/2022 18:30:00Z	 SAID32 WIOO 021830	METAR WIOO 021830Z AUTO 05002KT 9999 FEW025 BKN050 BKN055 24/24 Q1010=
02/01/2022 19:00:00Z	 SAID32 WIOO 021900	METAR WIOO 021900Z AUTO 05003KT 9999 FEW027 SCT050 OVC160 24/24 Q1010=
02/01/2022 19:30:00Z	 SAID32 WIOO 021930	METAR WIOO 021930Z AUTO 04003KT 9999 FEW043 OVC160 OVC160 24/24 Q1009=
02/01/2022 20:00:00Z	 SAID32 WIOO 022000	METAR WIOO 022000Z AUTO 04003KT 9999 BKN160 OVC170 OVC180 24/24 Q1009=
02/01/2022 20:30:00Z	 SAID32 WIOO 022030	METAR WIOO 022030Z AUTO 05002KT 9999 FEW130 SCT170 OVC180 24/24 Q1009=
02/01/2022 21:00:00Z	 SAID32 WIOO 022100	METAR WIOO 022100Z AUTO 06001KT 9999 OVC180 24/24 Q1009=
02/01/2022 21:30:00Z	 SAID32 WIOO 022130	METAR WIOO 022130Z AUTO 00000KT 9999 BKN180 24/24 Q1009=
02/01/2022 22:00:00Z	 SAID32 WIOO 022200	METAR WIOO 022200Z AUTO 13001KT 2900 BR NCD 24/24 Q1009=
02/01/2022 22:30:00Z	 SAID32 WIOO 022230	METAR WIOO 022230Z 13003KT 7000 SCT011 24/23 Q1009 NOSIG=
02/01/2022 23:00:00Z	 SAID32 WIOO 022300	METAR WIOO 022300Z 12003KT 6000 SCT011 24/23 Q1009 NOSIG=
02/01/2022 23:30:00Z	 SAID32 WIOO 022330	METAR WIOO 022330Z 08003KT 8000 SCT011 24/23 Q1010 NOSIG=
03/01/2022 00:00:00Z	 SAID32 WIOO 030000	METAR WIOO 030000Z 09003KT 9999 BKN012 24/23 Q1010 NOSIG=
03/01/2022 00:30:00Z	 SAID32 WIOO 030030	METAR WIOO 030030Z 08003KT 9999 SCT012 24/23 Q1010 NOSIG=
03/01/2022 01:00:00Z	 SAID32 WIOO 030100	METAR WIOO 030100Z 05003KT 9999 SCT012 24/23 Q1011 NOSIG=
03/01/2022 01:30:00Z	 SAID32 WIOO 030130	METAR WIOO 030130Z 07003KT 9999 SCT012 25/24 Q1011 NOSIG=
03/01/2022 02:00:00Z	 SAID32 WIOO 030200	METAR WIOO 030200Z 00000KT 9999 SCT012 28/24 Q1011 NOSIG=
03/01/2022 02:30:00Z	 SAID32 WIOO 030230	METAR WIOO 030230Z 36003KT 9999 SCT012 28/24 Q1011 NOSIG=
03/01/2022 03:00:00Z	 SAID32 WIOO 030300	METAR WIOO 030300Z 29005KT 9999 SCT012 28/25 Q1011 NOSIG=
03/01/2022 03:30:00Z	 SAID32 WIOO 030330	METAR WIOO 030330Z 24005KT 9999 SCT012 30/24 Q1011 NOSIG=
03/01/2022 04:00:00Z	 SAID32 WIOO 030400	METAR WIOO 030400Z 22006KT 9999 SCT012 30/24 Q1010 NOSIG=
03/01/2022 04:30:00Z	 SAID32 WIOO 030430	METAR WIOO 030430Z 21004KT 9999 BKN011 30/25 Q1009 NOSIG=
03/01/2022 05:00:00Z	 SAID32 WIOO 030500	METAR WIOO 030500Z 24004KT 9999 BKN011 30/23 Q1009 NOSIG=
03/01/2022 05:30:00Z	 SAID32 WIOO 030530	METAR WIOO 030530Z 31004KT 9999 BKN011 31/24 Q1008 NOSIG=
03/01/2022 06:00:00Z	 SAID32 WIOO 030600	METAR WIOO 030600Z 22004KT 9999 BKN011 31/23 Q1008 NOSIG=
03/01/2022 06:30:00Z	 SAID32 WIOO 030630	METAR WIOO 030630Z 25007KT 9999 BKN011 30/24 Q1008 TEMPO FM0730 4000 RA=
03/01/2022 07:00:00Z	 SAID32 WIOO 030700	METAR WIOO 030700Z 26007KT 9999 SCT012 30/24 Q1007 TEMPO FM0730 4000 RA=
03/01/2022 07:30:00Z	 SAID32 WIOO 030730	METAR WIOO 030730Z 26007KT 9999 SCT012 30/24 Q1007 NOSIG=
03/01/2022 08:00:00Z	 SAID32 WIOO 030800	METAR WIOO 030800Z 25007KT 9999 SCT012 30/24 Q1007 NOSIG=
03/01/2022 08:30:00Z	 SAID32 WIOO 030830	METAR WIOO 030830Z 25007KT 9999 SCT012 30/24 Q1007 NOSIG=
03/01/2022 09:00:00Z	 SAID32 WIOO 030900	METAR WIOO 030900Z 24008KT 9999 FEW011CB SCT012 30/24 Q1007 NOSIG=
03/01/2022 09:30:00Z	 SAID32 WIOO 030930	METAR WIOO 030930Z 24007KT 9999 FEW011CB SCT012 29/24 Q1007 NOSIG=
03/01/2022 10:00:00Z	 SAID32 WIOO 031000	METAR WIOO 031000Z 26008KT 9000 -RA FEW011CB SCT012 29/25 Q1007 NOSIG=
03/01/2022 10:30:00Z	 SAID32 WIOO 031030	METAR WIOO 031030Z 24007KT 8000 FEW011CB SCT012 27/24 Q1008 RERA NOSIG=
03/01/2022 11:00:00Z	 SAID32 WIOO 031100	METAR WIOO 031100Z 24004KT 8000 FEW011CB SCT012 27/24 Q1008 NOSIG=
03/01/2022 11:30:00Z	 SAID32 WIOO 031130	METAR WIOO 031130Z 26005KT 8000 SCT012 26/24 Q1008 NOSIG=
03/01/2022 12:00:00Z	 SAID32 WIOO 031200	METAR WIOO 031200Z 24004KT 8000 SCT012 26/24 Q1009 NOSIG=
03/01/2022 12:30:00Z	 SAID32 WIOO 031230	METAR WIOO 031230Z 00000KT 8000 SCT012 26/24 Q1009 NOSIG=
03/01/2022 13:00:00Z	 SAID32 WIOO 031300	METAR WIOO 031300Z 00000KT 8000 FEW012 25/24 Q1009 NOSIG=
03/01/2022 13:30:00Z	 SAID32 WIOO 031330	METAR WIOO 031330Z 02002KT 8000 FEW012 25/24 Q1010 NOSIG=
03/01/2022 14:00:00Z	 SAID32 WIOO 031400	METAR WIOO 031400Z 00000KT 7000 FEW012 26/25 Q1010 NOSIG=
03/01/2022 14:30:00Z	 SAID32 WIOO 031430	METAR WIOO 031430Z 00000KT 7000 FEW012 26/25 Q1011 NOSIG=
03/01/2022 15:00:00Z	 SAID32 WIOO 031500	METAR WIOO 031500Z 00000KT 7000 FEW012 26/25 Q1011 NOSIG=
03/01/2022 15:30:00Z	 SAID32 WIOO 031530	METAR WIOO 031530Z 01003KT 7000 FEW012 25/24 Q1011 NOSIG=
03/01/2022 16:00:00Z	 SAID32 WIOO 031600	METAR WIOO 031600Z 02002KT 7000 FEW012 25/24 Q1011 NOSIG=
03/01/2022 16:30:00Z	 SAID32 WIOO 031630	METAR WIOO 031630Z 00000KT 7000 SCT012 25/24 Q1010 NOSIG=
03/01/2022 17:00:00Z	 SAID32 WIOO 031700	METAR WIOO 031700Z AUTO VRB01KT 9999 OVC130 25/25 Q1010=
03/01/2022 17:30:00Z	 SAID32 WIOO 031730	METAR WIOO 031730Z AUTO 36002KT 7000 FEW075 OVC140 25/24 Q1010=
03/01/2022 18:00:00Z	 SAID32 WIOO 031800	METAR WIOO 031800Z AUTO 05001KT 9999 FEW070 OVC150 25/25 Q1010=
03/01/2022 18:30:00Z	 SAID32 WIOO 031830	METAR WIOO 031830Z AUTO 01002KT 9000 BKN150 OVC180 25/24 Q1009=
03/01/2022 19:00:00Z	 SAID32 WIOO 031900	METAR WIOO 031900Z AUTO VRB01KT 9999 OVC180 25/24 Q1008=
03/01/2022 19:30:00Z	 SAID32 WIOO 031930	METAR WIOO 031930Z AUTO VRB02KT 9999 OVC180 OVC190 25/24 Q1009=
03/01/2022 20:00:00Z	 SAID32 WIOO 032000	METAR WIOO 032000Z AUTO 07002KT 9999 FEW022 OVC190 25/24 Q1009=
03/01/2022 20:30:00Z	 SAID32 WIOO 032030	METAR WIOO 032030Z AUTO 02001KT 9999 SCT060 OVC190 24/24 Q1009=
03/01/2022 21:00:00Z	 SAID32 WIOO 032100	METAR WIOO 032100Z AUTO 04002KT 9999 BKN180 OVC200 25/24 Q1009=
03/01/2022 21:30:00Z	 SAID32 WIOO 032130	METAR WIOO 032130Z AUTO 36002KT 9999 FEW016 OVC200 24/24 Q1009=
03/01/2022 22:00:00Z	 SAID32 WIOO 032200	METAR WIOO 032200Z 00000KT 7000 SCT012 25/24 Q1009 NOSIG=
03/01/2022 22:30:00Z	 SAID32 WIOO 032230	METAR WIOO 032230Z 00000KT 9999 SCT012 25/24 Q1010 NOSIG=
03/01/2022 23:00:00Z	 SAID32 WIOO 032300	METAR WIOO 032300Z 04002KT 8000 SCT012 25/24 Q1010 NOSIG=
03/01/2022 23:30:00Z	 SAID32 WIOO 032330	METAR WIOO 032330Z 00000KT 8000 FEW012 24/23 Q1010 NOSIG=
04/01/2022 00:00:00Z	 SAID32 WIOO 040000	METAR WIOO 040000Z 00000KT 8000 FEW012 25/24 Q1011 NOSIG=
04/01/2022 00:30:00Z	 SAID32 WIOO 040030	METAR WIOO 040030Z 00000KT 9999 FEW012 25/24 Q1011 NOSIG=
04/01/2022 01:00:00Z	 SAID32 WIOO 040100	METAR WIOO 040100Z 00000KT 9999 FEW012 26/24 Q1012 NOSIG=
04/01/2022 01:30:00Z	 SAID32 WIOO 040130	METAR WIOO 040130Z 07004KT 9999 FEW012 27/25 Q1012 NOSIG=
04/01/2022 02:00:00Z	 SAID32 WIOO 040200	METAR WIOO 040200Z 06003KT 9999 BKN012 28/25 Q1012 NOSIG=
04/01/2022 02:30:00Z	 SAID32 WIOO 040230	METAR WIOO 040230Z 29003KT 9999 BKN011 28/25 Q1012 TEMPO FM0315 3000 -RA=
04/01/2022 03:00:00Z	 SAID32 WIOO 040300	METAR WIOO 040300Z 00000KT 9999 BKN012 28/25 Q1012 NOSIG=
04/01/2022 03:30:00Z	 SAID32 WIOO 040330	METAR WIOO 040330Z 28003KT 9999 BKN012 29/25 Q1011 NOSIG=
04/01/2022 04:00:00Z	 SAID32 WIOO 040400	METAR WIOO 040400Z 00000KT 9999 BKN012 29/25 Q1011 NOSIG=
04/01/2022 04:30:00Z	 SAID32 WIOO 040430	METAR WIOO 040430Z 28003KT 9999 BKN012 30/25 Q1010 NOSIG=
04/01/2022 05:00:00Z	 SAID32 WIOO 040500	METAR WIOO 040500Z 30003KT 9999 TS FEW011CB BKN012 30/24 Q1010 TEMPO FM0600 3000 -TSRA=
04/01/2022 05:30:00Z	 SAID32 WIOO 040530	METAR WIOO 040530Z 21003KT 9999 FEW011CB BKN012 30/24 Q1010 RETS NOSIG=
04/01/2022 06:00:00Z	 SAID32 WIOO 040600	METAR WIOO 040600Z 19005KT 9999 SCT012 30/24 Q1009 NOSIG=
04/01/2022 06:30:00Z	 SAID32 WIOO 040630	METAR WIOO 040630Z 00000KT 9999 SCT011 30/24 Q1009 NOSIG=
04/01/2022 07:00:00Z	 SAID32 WIOO 040700	METAR WIOO 040700Z 30004KT 9999 BKN011 31/25 Q1008 NOSIG=
04/01/2022 07:30:00Z	 SAID32 WIOO 040730	METAR WIOO 040730Z 25007KT 9999 FEW009CB BKN010 31/25 Q1008 NOSIG=
04/01/2022 08:00:00Z	 SAID32 WIOO 040800	METAR WIOO 040800Z 24009KT 9999 FEW010CB BKN011 31/25 Q1008 NOSIG=
04/01/2022 08:30:00Z	 SAID32 WIOO 040830	METAR COR WIOO 040830Z 23013KT 9999 FEW010CB BKN011 31/25 Q1008 NOSIG=
04/01/2022 08:30:00Z	 SAID32 WIOO 040830 CCA	METAR COR WIOO 040830Z 23013KT 9999 FEW010CB BKN011 31/25 Q1008 NOSIG=
04/01/2022 09:00:00Z	 SAID32 WIOO 040900	METAR WIOO 040900Z 25007KT 9999 FEW011CB SCT012 31/23 Q1008 NOSIG=
04/01/2022 09:30:00Z	 SAID32 WIOO 040930	METAR WIOO 040930Z 21010KT 9999 FEW011CB SCT012 30/24 Q1008 NOSIG=
04/01/2022 10:00:00Z	 SAID32 WIOO 041000	METAR WIOO 041000Z 24004KT 9999 FEW011CB SCT012 29/24 Q1008 NOSIG=
04/01/2022 10:30:00Z	 SAID32 WIOO 041030	METAR WIOO 041030Z 24004KT 9999 FEW011CB SCT012 28/24 Q1008 NOSIG=
04/01/2022 11:00:00Z	 SAID32 WIOO 041100	METAR WIOO 041100Z 00000KT 8000 FEW011CB SCT012 28/24 Q1009 NOSIG=
04/01/2022 11:30:00Z	 SAID32 WIOO 041130	METAR WIOO 041130Z 00000KT 6000 TS FEW011CB SCT012 28/24 Q1009 NOSIG=
04/01/2022 12:00:00Z	 SAID32 WIOO 041200	METAR WIOO 041200Z 23004KT 6000 FEW011CB BKN012 28/24 Q1010 NOSIG=
04/01/2022 12:30:00Z	 SAID32 WIOO 041230	METAR WIOO 041230Z 20006KT 4000 -TSRA FEW011CB BKN012 27/25 Q1010 NOSIG=
04/01/2022 13:00:00Z	 SAID32 WIOO 041300	METAR WIOO 041300Z 16004KT 6000 -RA FEW011CB BKN012 26/24 Q1010 RETS NOSIG=
04/01/2022 13:30:00Z	 SAID32 WIOO 041330	METAR WIOO 041330Z 21003KT 6000 SCT012 25/24 Q1010 NOSIG=
04/01/2022 13:30:00Z	 SAID32 WIOO 041330 CCA	METAR COR WIOO 041330Z 21003KT 6000 SCT012 25/24 Q1010 RERA NOSIG=
04/01/2022 14:00:00Z	 SAID32 WIOO 041400	METAR WIOO 041400Z 19003KT 6000 SCT012 25/24 Q1010 NOSIG=
04/01/2022 14:30:00Z	 SAID32 WIOO 041430	METAR WIOO 041430Z 24003KT 6000 FEW012 25/24 Q1011 NOSIG=
04/01/2022 15:00:00Z	 SAID32 WIOO 041500	METAR WIOO 041500Z 22003KT 6000 FEW012 25/24 Q1011 NOSIG=
04/01/2022 15:30:00Z	 SAID32 WIOO 041530	METAR WIOO 041530Z AUTO 33002KT 9999 SCT075 SCT230 24/24 Q1011=
04/01/2022 16:00:00Z	 SAID32 WIOO 041600	METAR WIOO 041600Z AUTO 25001KT 9999 OVC075 25/24 Q1011=
04/01/2022 16:30:00Z	 SAID32 WIOO 041630	METAR WIOO 041630Z AUTO 35001KT 9999 BKN075 25/24 Q1011=
04/01/2022 17:00:00Z	 SAID32 WIOO 041700	METAR WIOO 041700Z AUTO 36001KT 9999 NCD 24/24 Q1010=
04/01/2022 17:30:00Z	 SAID32 WIOO 041730	METAR WIOO 041730Z AUTO VRB01KT 9999 NCD 24/24 Q1010=
04/01/2022 18:00:00Z	 SAID32 WIOO 041800	METAR WIOO 041800Z AUTO VRB02KT 7000 NCD 24/24 Q1010=
04/01/2022 18:30:00Z	 SAID32 WIOO 041830	METAR WIOO 041830Z AUTO 25001KT 8000 NCD 24/24 Q1009=
04/01/2022 19:00:00Z	 SAID32 WIOO 041900	METAR WIOO 041900Z AUTO 19002KT 9999 NCD 24/24 Q1009=
04/01/2022 19:30:00Z	 SAID32 WIOO 041930	METAR WIOO 041930Z AUTO 18001KT 8000 NCD 24/23 Q1009=
04/01/2022 20:00:00Z	 SAID32 WIOO 042000	METAR WIOO 042000Z AUTO 35001KT 6000 FEW180 23/23 Q1009=
04/01/2022 20:30:00Z	 SAID32 WIOO 042030	METAR WIOO 042030Z AUTO 33001KT 8000 NCD 23/23 Q1009=
04/01/2022 21:00:00Z	 SAID32 WIOO 042100	METAR WIOO 042100Z AUTO 17001KT 9999 FEW280 24/23 Q1009=
04/01/2022 21:30:00Z	 SAID32 WIOO 042130	METAR WIOO 042130Z AUTO 17001KT 9999 NCD 24/23 Q1009=
04/01/2022 22:00:00Z	 SAID32 WIOO 042200	METAR WIOO 042200Z 00000KT 6000 FEW012 24/23 Q1009 NOSIG=
04/01/2022 22:30:00Z	 SAID32 WIOO 042230	METAR WIOO 042230Z 06003KT 6000 FEW012 24/23 Q1009 NOSIG=
04/01/2022 23:00:00Z	 SAID32 WIOO 042300	METAR WIOO 042300Z 07003KT 7000 FEW012 24/23 Q1010 NOSIG=
04/01/2022 23:30:00Z	 SAID32 WIOO 042330	METAR WIOO 042330Z 06003KT 7000 FEW012 24/23 Q1010 NOSIG=
05/01/2022 00:00:00Z	 SAID32 WIOO 050000	METAR WIOO 050000Z 05003KT 9999 FEW012 24/23 Q1011 NOSIG=
05/01/2022 00:30:00Z	 SAID32 WIOO 050030	METAR WIOO 050030Z 07003KT 9999 FEW012 25/23 Q1011 NOSIG=
05/01/2022 01:00:00Z	 SAID32 WIOO 050100	METAR WIOO 050100Z 05003KT 9999 FEW012 27/24 Q1011 NOSIG=
05/01/2022 01:30:00Z	 SAID32 WIOO 050130	METAR WIOO 050130Z 00000KT 9999 FEW012 28/24 Q1011 NOSIG=
05/01/2022 02:00:00Z	 SAID32 WIOO 050200	METAR WIOO 050200Z 15003KT 9999 BKN012 29/24 Q1011 NOSIG=
05/01/2022 02:30:00Z	 SAID32 WIOO 050230	METAR WIOO 050230Z 19005KT 9999 BKN011 30/24 Q1011 NOSIG=
05/01/2022 03:00:00Z	 SAID32 WIOO 050300	METAR WIOO 050300Z 20007KT 9999 BKN012 30/25 Q1011 NOSIG=
05/01/2022 03:30:00Z	 SAID32 WIOO 050330	METAR WIOO 050330Z 22006KT 9999 BKN012 31/25 Q1010 NOSIG=
05/01/2022 04:00:00Z	 SAID32 WIOO 050400	METAR WIOO 050400Z 21007KT 9999 BKN012 31/25 Q1010 NOSIG=
05/01/2022 04:30:00Z	 SAID32 WIOO 050430	METAR WIOO 050430Z 18008KT 9999 BKN012 32/25 Q1010 NOSIG=
05/01/2022 05:00:00Z	 SAID32 WIOO 050500	METAR WIOO 050500Z 22010KT 9999 BKN012 32/25 Q1009 NOSIG=
05/01/2022 05:30:00Z	 SAID32 WIOO 050530	METAR WIOO 050530Z 23010KT 9999 BKN012 32/25 Q1009 NOSIG=
05/01/2022 06:00:00Z	 SAID32 WIOO 050600	METAR WIOO 050600Z 21011KT 9999 BKN012 32/25 Q1009 NOSIG=
05/01/2022 06:30:00Z	 SAID32 WIOO 050630	METAR WIOO 050630Z 24010KT 9999 BKN012 32/24 Q1008 NOSIG=
05/01/2022 07:00:00Z	 SAID32 WIOO 050700	METAR WIOO 050700Z 23010KT 9999 SCT012 33/24 Q1007 NOSIG=
05/01/2022 07:30:00Z	 SAID32 WIOO 050730	METAR WIOO 050730Z 22012KT 9999 BKN012 33/24 Q1007 NOSIG=
05/01/2022 08:00:00Z	 SAID32 WIOO 050800	METAR WIOO 050800Z 22010KT 9999 SCT012 33/24 Q1007 NOSIG=
05/01/2022 08:30:00Z	 SAID32 WIOO 050830	METAR WIOO 050830Z 24010KT 9999 SCT012 32/24 Q1007 NOSIG=
05/01/2022 09:00:00Z	 SAID32 WIOO 050900	METAR WIOO 050900Z 25009KT 9999 SCT012 32/25 Q1007 NOSIG=
05/01/2022 09:30:00Z	 SAID32 WIOO 050930	METAR WIOO 050930Z 26010KT 9999 SCT012 31/25 Q1007 NOSIG=
05/01/2022 10:00:00Z	 SAID32 WIOO 051000	METAR WIOO 051000Z 24008KT 9999 SCT012 31/25 Q1008 NOSIG=
05/01/2022 10:30:00Z	 SAID32 WIOO 051030	METAR WIOO 051030Z 27008KT 9999 FEW012 30/25 Q1008 NOSIG=
05/01/2022 11:00:00Z	 SAID32 WIOO 051100	METAR WIOO 051100Z 28006KT 9999 FEW012 29/25 Q1008 NOSIG=
05/01/2022 11:30:00Z	 SAID32 WIOO 051130	METAR WIOO 051130Z 27004KT 8000 FEW012 28/25 Q1008 NOSIG=
05/01/2022 12:00:00Z	 SAID32 WIOO 051200	METAR WIOO 051200Z 26004KT 8000 FEW012 27/25 Q1009 NOSIG=
05/01/2022 12:30:00Z	 SAID32 WIOO 051230	METAR WIOO 051230Z 25003KT 8000 FEW012 27/25 Q1009 NOSIG=
05/01/2022 13:00:00Z	 SAID32 WIOO 051300	METAR WIOO 051300Z 21003KT 7000 FEW012 27/25 Q1010 NOSIG=
05/01/2022 13:30:00Z	 SAID32 WIOO 051330	METAR WIOO 051330Z 25003KT 6000 FEW012 27/25 Q1010 NOSIG=
05/01/2022 14:00:00Z	 SAID32 WIOO 051400	METAR WIOO 051400Z 22003KT 6000 FEW012 26/24 Q1010 NOSIG=
05/01/2022 14:30:00Z	 SAID32 WIOO 051430	METAR WIOO 051430Z 21003KT 6000 FEW012 26/24 Q1010 NOSIG=
05/01/2022 15:00:00Z	 SAID32 WIOO 051500	METAR WIOO 051500Z 00000KT 6000 FEW012 26/24 Q1010 NOSIG=
05/01/2022 15:30:00Z	 SAID32 WIOO 051530	METAR WIOO 051530Z 00000KT 6000 FEW012 26/24 Q1011 NOSIG=
05/01/2022 16:00:00Z	 SAID32 WIOO 051600	METAR WIOO 051600Z 00000KT 6000 FEW012 26/24 Q1011 NOSIG=
05/01/2022 16:30:00Z	 SAID32 WIOO 051630	METAR WIOO 051630Z AUTO 00000KT 9999 NCD 26/25 Q1011 NOSIG=
05/01/2022 17:00:00Z	 SAID32 WIOO 051700	METAR WIOO 051700Z AUTO 01002KT 9999 NCD 26/25 Q1011 NOSIG=
05/01/2022 17:30:00Z	 SAID32 WIOO 051730	METAR WIOO 051730Z AUTO 03003KT 6000 NCD 26/25 Q1011 NOSIG=
05/01/2022 18:00:00Z	 SAID32 WIOO 051800	METAR WIOO 051800Z AUTO 08002KT 9000 NCD 26/25 Q1010 NOSIG=
05/01/2022 18:30:00Z	 SAID32 WIOO 051830	METAR WIOO 051830Z AUTO 10002KT 9000 SCT022 SCT029 25/25 Q1010=
05/01/2022 19:00:00Z	 SAID32 WIOO 051900	METAR WIOO 051900Z AUTO 03005KT 340V060 2100 -RA FEW002 BKN019 BKN021 25/25 Q1010=
05/01/2022 19:30:00Z	 SAID32 WIOO 051930	METAR WIOO 051930Z AUTO 09002KT 9999 FEW027 SCT042 BKN065 25/25 Q1010=
05/01/2022 20:00:00Z	 SAID32 WIOO 052000	METAR WIOO 052000Z AUTO VRB01KT 9999 FEW019 SCT070 25/25 Q1010=
05/01/2022 20:30:00Z	 SAID32 WIOO 052030	METAR WIOO 052030Z AUTO 12001KT 9999 SCT022 SCT030 BKN046 25/25 Q1009=
05/01/2022 21:00:00Z	 SAID32 WIOO 052100	METAR WIOO 052100Z AUTO 00000KT 9999 VCTS FEW021 25/25 Q1010=
05/01/2022 21:30:00Z	 SAID32 WIOO 052130	METAR WIOO 052130Z AUTO VRB02KT 9000 SCT019 BKN080 BKN170 25/25 Q1010=
05/01/2022 22:00:00Z	 SAID32 WIOO 052200	METAR WIOO 052200Z AUTO VRB02KT 9000 VCTS FEW015 SCT080 25/25 Q1011=
05/01/2022 22:30:00Z	 SAID32 WIOO 052230	METAR WIOO 052230Z 12003KT 6000 TS FEW011CB BKN012 25/24 Q1011 NOSIG=
05/01/2022 23:00:00Z	 SAID32 WIOO 052300	METAR WIOO 052300Z 09004KT 3000 - TSRA FEW010CB BKN011 25/24 Q1012 NOSIG=
05/01/2022 23:30:00Z	 SAID32 WIOO 052330	METAR WIOO 052330Z 11003KT 5000 -TSRA FEW010CB BKN011 25/24 Q1011 NOSIG=
06/01/2022 00:00:00Z	 SAID32 WIOO 060000	METAR WIOO 060000Z 07003KT 5000 -RA BKN005 25/25 Q1011 RETS TEMPO FM0045 BKN009=
06/01/2022 00:30:00Z	 SAID32 WIOO 060030	METAR WIOO 060030Z 14006KT 8000 BKN008 25/24 Q1011 TEMPO FM0045 BKN009=
06/01/2022 01:00:00Z	 SAID32 WIOO 060100	METAR WIOO 060100Z 14004KT 9999 SCT009 26/25 Q1012 NOSIG=
06/01/2022 01:30:00Z	 SAID32 WIOO 060130	METAR WIOO 060130Z 12004KT 9999 SCT009 26/25 Q1012 NOSIG=
06/01/2022 02:00:00Z	 SAID32 WIOO 060200	METAR WIOO 060200Z 15006KT 9999 FEW010 27/24 Q1012 NOSIG=
06/01/2022 02:30:00Z	 SAID32 WIOO 060230	METAR WIOO 060230Z 18003KT 9999 FEW011 28/24 Q1012 NOSIG=
06/01/2022 03:00:00Z	 SAID32 WIOO 060300	METAR WIOO 060300Z 13003KT 9999 SCT011 29/25 Q1012 NOSIG=
06/01/2022 03:30:00Z	 SAID32 WIOO 060330	METAR WIOO 060330Z 20004KT 9999 BKN011 29/25 Q1011 NOSIG=
06/01/2022 04:00:00Z	 SAID32 WIOO 060400	METAR WIOO 060400Z 05002KT 9999 BKN011 30/24 Q1011 NOSIG=
06/01/2022 04:30:00Z	 SAID32 WIOO 060430	METAR WIOO 060430Z 08003KT 9999 BKN011 30/25 Q1011 NOSIG=
06/01/2022 05:00:00Z	 SAID32 WIOO 060500	METAR WIOO 060500Z 28002KT 6000 FEW010CB BKN011 30/25 Q1010 TEMPO FM0515 3000 TSRA=
06/01/2022 05:30:00Z	 SAID32 WIOO 060530	METAR WIOO 060530Z 19007KT 8000 FEW010CB BKN011 30/25 Q1010 NOSIG=
06/01/2022 06:00:00Z	 SAID32 WIOO 060600	METAR WIOO 060600Z 24008KT 9000 FEW010CB BKN011 31/25 Q1009 NOSIG=
06/01/2022 06:30:00Z	 SAID32 WIOO 060630	METAR WIOO 060630Z 26007KT 9999 FEW011CB BKN012 31/25 Q1009 NOSIG=
06/01/2022 07:00:00Z	 SAID32 WIOO 060700	METAR WIOO 060700Z 23012KT 9999 BKN012 32/25 Q1009 NOSIG=
06/01/2022 07:30:00Z	 SAID32 WIOO 060730	METAR WIOO 060730Z 27010KT 9999 BKN012 31/25 Q1008 NOSIG=
06/01/2022 08:00:00Z	 SAID32 WIOO 060800	METAR WIOO 060800Z 25008KT 9999 BKN012 31/24 Q1008 NOSIG=
06/01/2022 08:30:00Z	 SAID32 WIOO 060830	METAR WIOO 060830Z 28009KT 9999 BKN012 31/24 Q1008 NOSIG=
06/01/2022 09:00:00Z	 SAID32 WIOO 060900	METAR WIOO 060900Z 28006KT 9999 BKN012 30/24 Q1008 NOSIG=
06/01/2022 09:30:00Z	 SAID32 WIOO 060930	METAR WIOO 060930Z 27009KT 9999 SCT012 30/24 Q1008 NOSIG=
06/01/2022 10:00:00Z	 SAID32 WIOO 061000	METAR WIOO 061000Z 25008KT 9999 SCT012 30/24 Q1009 NOSIG=
06/01/2022 10:30:00Z	 SAID32 WIOO 061030	METAR WIOO 061030Z 27005KT 9999 SCT012 29/24 Q1009 NOSIG=
06/01/2022 11:00:00Z	 SAID32 WIOO 061100	METAR WIOO 061100Z 25005KT 8000 SCT012 28/24 Q1009 NOSIG=
06/01/2022 11:30:00Z	 SAID32 WIOO 061130	METAR WIOO 061130Z 26003KT 8000 SCT012 28/24 Q1009 NOSIG=
06/01/2022 12:00:00Z	 SAID32 WIOO 061200	METAR WIOO 061200Z 24002KT 7000 SCT012 27/24 Q1009 NOSIG=
06/01/2022 12:30:00Z	 SAID32 WIOO 061230	METAR WIOO 061230Z 00000KT 7000 SCT012 27/25 Q1010 NOSIG=
06/01/2022 13:00:00Z	 SAID32 WIOO 061300	METAR WIOO 061300Z 00000KT 7000 SCT012 27/25 Q1010 NOSIG=
06/01/2022 13:30:00Z	 SAID32 WIOO 061330	METAR WIOO 061330Z 00000KT 7000 FEW012 27/25 Q1010 NOSIG=
06/01/2022 14:00:00Z	 SAID32 WIOO 061400	METAR WIOO 061400Z 00000KT 7000 FEW012 27/25 Q1011 NOSIG=
06/01/2022 14:30:00Z	 SAID32 WIOO 061430	METAR WIOO 061430Z 30003KT 7000 FEW012 26/25 Q1011 NOSIG=
06/01/2022 15:00:00Z	 SAID32 WIOO 061500	METAR WIOO 061500Z 00000KT 7000 FEW012 26/25 Q1011 NOSIG=
06/01/2022 15:30:00Z	 SAID32 WIOO 061530	METAR WIOO 061530Z 00000KT 6000 FEW012 26/25 Q1011 NOSIG=
06/01/2022 16:00:00Z	 SAID32 WIOO 061600	METAR WIOO 061600Z 00000KT 6000 SCT012 26/25 Q1011 NOSIG=
06/01/2022 16:30:00Z	 SAID32 WIOO 061630	METAR WIOO 061630Z 00000KT 6000 SCT012 26/25 Q1011 NOSIG=
06/01/2022 17:00:00Z	 SAID32 WIOO 061700	METAR WIOO 061700Z 00000KT 6000 FEW011CB SCT012 26/25 Q1011 NOSIG=
06/01/2022 17:30:00Z	 SAID32 WIOO 061730	METAR WIOO 061730Z 26011KT 0700 +TSRA FEW008CB BKN009 25/24 Q1011 NOSIG=
06/01/2022 18:00:00Z	 SAID32 WIOO 061800	METAR WIOO 061800Z 12003KT 5000 -TSRA FEW008CB BKN009 25/24 Q1011 NOSIG=
06/01/2022 18:30:00Z	 SAID32 WIOO 061830	METAR WIOO 061830Z AUTO 00000KT 9999 -RA FEW019 SCT049 BKN100 25/25 Q1010=
06/01/2022 19:00:00Z	 SAID32 WIOO 061900	METAR WIOO 061900Z AUTO VRB02KT 9999 TS BKN230 25/25 Q1010=
06/01/2022 19:30:00Z	 SAID32 WIOO 061930	METAR WIOO 061930Z AUTO 08002KT 9999 SCT018 SCT019 BKN210 25/25 Q1010=
06/01/2022 20:00:00Z	 SAID32 WIOO 062000	METAR WIOO 062000Z AUTO 08002KT 9999 SCT017 BKN018 BKN022 25/24 Q1010=
06/01/2022 20:30:00Z	 SAID32 WIOO 062030	METAR WIOO 062030Z AUTO VRB02KT 9999 -RA SCT014 BKN018 OVC021 25/24 Q1010=
06/01/2022 21:00:00Z	 SAID32 WIOO 062100	METAR WIOO 062100Z AUTO VRB02KT 9999 -RA FEW014 SCT024 BKN130 25/24 Q1010=
06/01/2022 21:30:00Z	 SAID32 WIOO 062130	METAR WIOO 062130Z AUTO 07004KT 9999 FEW021 SCT030 BKN190 25/24 Q1010=
06/01/2022 22:00:00Z	 SAID32 WIOO 062200	METAR WIOO 062200Z 06003KT 6000 BKN009 25/24 Q1011 RERA NOSIG=
06/01/2022 22:30:00Z	 SAID32 WIOO 062230	METAR WIOO 062230Z 07003KT 6000 BKN010 24/24 Q1011 NOSIG=
06/01/2022 23:00:00Z	 SAID32 WIOO 062300	METAR WIOO 062300Z 00000KT 7000 BKN010 24/23 Q1011 NOSIG=
06/01/2022 23:30:00Z	 SAID32 WIOO 062330	METAR WIOO 062330Z 15003KT 7000 BKN010 25/24 Q1012 NOSIG=
07/01/2022 00:00:00Z	 SAID32 WIOO 070000	METAR WIOO 070000Z 11005KT 8000 BKN011 25/24 Q1012 NOSIG=
07/01/2022 00:30:00Z	 SAID32 WIOO 070030	METAR WIOO 070030Z 14007KT 8000 FEW008CB BKN009 25/25 Q1013 TEMPO FM0100 4000 RA=
07/01/2022 01:00:00Z	 SAID32 WIOO 070100	METAR WIOO 070100Z 17010KT 4000 -RA FEW006CB BKN008 24/23 Q1013 TEMPO FM0200 3000 RA=
07/01/2022 01:30:00Z	 SAID32 WIOO 070130	METAR WIOO 070130Z 15007KT 6000 -RA FEW009 BKN010 24/23 Q1013 TEMPO FM0200 3000 RA=
07/01/2022 02:00:00Z	 SAID32 WIOO 070200 CCA	METAR COR WIOO 070200Z 13003KT 8000 FEW010CB BKN011 24/23 Q1014 RERA NOSIG=
07/01/2022 02:00:00Z	 SAID32 WIOO 070200	METAR WIOO 070200Z 13003KT 8000 FEW010CB BKN011 24/23 Q1014 NOSIG=
07/01/2022 02:30:00Z	 SAID32 WIOO 070230	METAR WIOO 070230Z 21003KT 9999 SCT012 24/23 Q1013 NOSIG=
07/01/2022 03:00:00Z	 SAID32 WIOO 070300	METAR WIOO 070300Z 17003KT 9999 SCT012 25/24 Q1013 NOSIG=
07/01/2022 03:30:00Z	 SAID32 WIOO 070330	METAR WIOO 070330Z 25003KT 9999 SCT010 27/24 Q1012 NOSIG=
07/01/2022 04:00:00Z	 SAID32 WIOO 070400	METAR WIOO 070400Z 33004KT 9999 SCT012 28/25 Q1011 NOSIG=
07/01/2022 04:30:00Z	 SAID32 WIOO 070430	METAR WIOO 070430Z 28004KT 9999 FEW012 29/24 Q1011 NOSIG=
07/01/2022 05:00:00Z	 SAID32 WIOO 070500	METAR WIOO 070500Z 27003KT 9999 FEW012 30/25 Q1011 NOSIG=
07/01/2022 05:30:00Z	 SAID32 WIOO 070530	METAR WIOO 070530Z 26004KT 220V320 9999 FEW024 31/25 Q1010=
07/01/2022 05:30:00Z	 SAID32 WIOO 070530 CCA	METAR COR WIOO 070530Z 25005KT 9999 SCT012 30/24 Q1010 NOSIG=
07/01/2022 06:00:00Z	 SAID32 WIOO 070600	METAR WIOO 070600Z 25007KT 9999 BKN011 30/24 Q1010 NOSIG=
07/01/2022 06:30:00Z	 SAID32 WIOO 070630	METAR WIOO 070630Z 25007KT 9999 BKN011 31/24 Q1010 NOSIG=
07/01/2022 07:00:00Z	 SAID32 WIOO 070700	METAR WIOO 070700Z 26007KT 9999 BKN011 31/24 Q1009 NOSIG=
07/01/2022 07:30:00Z	 SAID32 WIOO 070730	METAR WIOO 070730Z 24006KT 9999 BKN011 31/24 Q1009 NOSIG=
07/01/2022 08:00:00Z	 SAID32 WIOO 070800	METAR WIOO 070800Z 28010KT 9999 BKN012 31/24 Q1009 NOSIG=
07/01/2022 08:30:00Z	 SAID32 WIOO 070830	METAR WIOO 070830Z 25006KT 9999 BKN012 31/24 Q1008 NOSIG=
07/01/2022 09:00:00Z	 SAID32 WIOO 070900	METAR WIOO 070900Z 26006KT 9999 SCT012 31/24 Q1009 NOSIG=
07/01/2022 09:30:00Z	 SAID32 WIOO 070930	METAR WIOO 070930Z 25007KT 9999 SCT012 31/25 Q1009 NOSIG=
07/01/2022 10:00:00Z	 SAID32 WIOO 071000	METAR WIOO 071000Z 24005KT 9999 SCT012 30/24 Q1010 NOSIG=
07/01/2022 10:30:00Z	 SAID32 WIOO 071030	METAR WIOO 071030Z 25005KT 9999 SCT012 29/24 Q1010 NOSIG=
07/01/2022 11:00:00Z	 SAID32 WIOO 071100	METAR WIOO 071100Z 26003KT 8000 SCT012 28/25 Q1010 NOSIG=
07/01/2022 11:30:00Z	 SAID32 WIOO 071130	METAR WIOO 071130Z 25003KT 8000 SCT012 28/25 Q1010 NOSIG=
07/01/2022 12:00:00Z	 SAID32 WIOO 071200	METAR WIOO 071200Z 32002KT 8000 SCT012 27/25 Q1011 NOSIG=
07/01/2022 12:30:00Z	 SAID32 WIOO 071230	METAR WIOO 071230Z 00000KT 8000 SCT012 27/25 Q1011 NOSIG=
07/01/2022 13:00:00Z	 SAID32 WIOO 071300	METAR WIOO 071300Z 00000KT 8000 SCT012 27/25 Q1011 NOSIG=
07/01/2022 13:30:00Z	 SAID32 WIOO 071330	METAR WIOO 071330Z 00000KT 8000 SCT012 27/25 Q1011 NOSIG=
07/01/2022 14:00:00Z	 SAID32 WIOO 071400	METAR WIOO 071400Z 00000KT 7000 SCT012 27/25 Q1012 NOSIG=
07/01/2022 14:30:00Z	 SAID32 WIOO 071430	METAR WIOO 071430Z 00000KT 7000 SCT012 26/25 Q1012 NOSIG=
07/01/2022 15:00:00Z	 SAID32 WIOO 071500	METAR WIOO 071500Z 00000KT 7000 SCT012 26/25 Q1012 NOSIG=
07/01/2022 15:30:00Z	 SAID32 WIOO 071530	METAR WIOO 071530Z 00000KT 5000 HZ SCT012 26/25 Q1012 NOSIG=
07/01/2022 16:00:00Z	 SAID32 WIOO 071600	METAR WIOO 071600Z 00000KT 7000 SCT012 26/24 Q1012 NOSIG=
07/01/2022 16:30:00Z	 SAID32 WIOO 071630	METAR WIOO 071630Z 00000KT 7000 SCT012 26/25 Q1011 NOSIG=
07/01/2022 17:00:00Z	 SAID32 WIOO 071700	METAR WIOO 071700Z AUTO 21001KT 7000 SCT026 BKN230 25/25 Q1011=
07/01/2022 17:30:00Z	 SAID32 WIOO 071730	METAR WIOO 071730Z AUTO 33002KT 8000 SCT025 BKN026 BKN030 25/25 Q1011=
07/01/2022 18:00:00Z	 SAID32 WIOO 071800	METAR WIOO 071800Z AUTO 36001KT 9999 SCT023 BKN030 BKN230 25/24 Q1010=
07/01/2022 18:30:00Z	 SAID32 WIOO 071830	METAR WIOO 071830Z AUTO 00000KT 9999 BKN018 BKN019 BKN023 25/25 Q1010=
07/01/2022 19:00:00Z	 SAID32 WIOO 071900	METAR WIOO 071900Z AUTO 00000KT 3800 BR SCT018 BKN019 BKN024 25/24 Q1010=
07/01/2022 19:30:00Z	 SAID32 WIOO 071930	METAR WIOO 071930Z AUTO 19001KT 8000 SCT021 SCT025 25/24 Q1010=
07/01/2022 20:00:00Z	 SAID32 WIOO 072000	METAR WIOO 072000Z AUTO VRB01KT 8000 FEW021 25/24 Q1010=
07/01/2022 20:30:00Z	 SAID32 WIOO 072030	METAR WIOO 072030Z AUTO 10001KT 6000 FEW020 25/24 Q1010=
07/01/2022 21:00:00Z	 SAID32 WIOO 072100	METAR WIOO 072100Z AUTO 36001KT 7000 FEW018 SCT280 24/24 Q1010=
07/01/2022 21:30:00Z	 SAID32 WIOO 072130	METAR WIOO 072130Z AUTO VRB01KT 8000 BKN018 BKN024 24/24 Q1010=
07/01/2022 22:00:00Z	 SAID32 WIOO 072200	METAR WIOO 072200Z 00000KT 7000 FEW012 24/24 Q1010 NOSIG=
07/01/2022 22:30:00Z	 SAID32 WIOO 072230	METAR WIOO 072230Z 00000KT 6000 SCT012 25/24 Q1010 NOSIG=
07/01/2022 23:00:00Z	 SAID32 WIOO 072300	METAR WIOO 072300Z 08003KT 5000 BR BKN010 25/24 Q1011 NOSIG=
07/01/2022 23:30:00Z	 SAID32 WIOO 072330	METAR WIOO 072330Z 07004KT 5000 BR BKN010 24/24 Q1011 NOSIG=
08/01/2022 00:00:00Z	 SAID32 WIOO 080000	METAR WIOO 080000Z 07005KT 3000 BR BKN006 24/24 Q1012 NOSIG=
08/01/2022 00:30:00Z	 SAID32 WIOO 080030	METAR WIOO 080030Z 05006KT 8000 BKN007 25/24 Q1012 NOSIG=
08/01/2022 01:00:00Z	 SAID32 WIOO 080100	METAR WIOO 080100Z 06006KT 9999 BKN008 25/24 Q1012 NOSIG=
08/01/2022 01:30:00Z	 SAID32 WIOO 080130	METAR WIOO 080130Z 05004KT 9999 BKN008 26/24 Q1012=
08/01/2022 02:00:00Z	 SAID32 WIOO 080200	METAR WIOO 080200Z 08004KT 9999 BKN009 26/24 Q1012 NOSIG=
08/01/2022 02:30:00Z	 SAID32 WIOO 080230	METAR WIOO 080230Z 06005KT 9999 SCT010 27/25 Q1012 NOSIG=
08/01/2022 03:00:00Z	 SAID32 WIOO 080300	METAR WIOO 080300Z 07006KT 9999 SCT011 28/24 Q1012 NOSIG=
08/01/2022 03:30:00Z	 SAID32 WIOO 080330	METAR WIOO 080330Z 06006KT 9999 SCT011 29/24 Q1012 NOSIG=
08/01/2022 04:00:00Z	 SAID32 WIOO 080400	METAR WIOO 080400Z 03004KT 9999 BKN010 30/24 Q1012 NOSIG=
08/01/2022 04:30:00Z	 SAID32 WIOO 080430	METAR WIOO 080430Z 36004KT 9999 BKN010 30/24 Q1011 NOSIG=
08/01/2022 05:00:00Z	 SAID32 WIOO 080500	METAR WIOO 080500Z 28003KT 9999 BKN009 31/24 Q1010=
08/01/2022 05:30:00Z	 SAID32 WIOO 080530	METAR WIOO 080530Z 34006KT 9999 BKN009 31/24 Q1010=
08/01/2022 06:00:00Z	 SAID32 WIOO 080600	METAR WIOO 080600Z 09003KT 9999 BKN009 32/24 Q1009 NOSIG=
08/01/2022 06:30:00Z	 SAID32 WIOO 080630	METAR WIOO 080630Z 33004KT 9999 FEW012 32/24 Q1008 NOSIG=
08/01/2022 07:00:00Z	 SAID32 WIOO 080700	METAR WIOO 080700Z 14003KT 9999 SCT012 32/24 Q1008 NOSIG=
08/01/2022 07:30:00Z	 SAID32 WIOO 080730	METAR WIOO 080730Z 02004KT 9999 SCT012 32/24 Q1007 NOSIG=
08/01/2022 08:00:00Z	 SAID32 WIOO 080800	METAR WIOO 080800Z 12003KT 9999 SCT012 33/24 Q1007 NOSIG=
08/01/2022 08:30:00Z	 SAID32 WIOO 080830	METAR WIOO 080830Z 06003KT 9999 SCT012 33/24 Q1007 NOSIG=
08/01/2022 09:00:00Z	 SAID32 WIOO 080900	METAR WIOO 080900Z 04003KT 9999 BKN012 32/24 Q1007 NOSIG=
08/01/2022 09:30:00Z	 SAID32 WIOO 080930	METAR WIOO 080930Z 26004KT 9999 BKN012 32/24 Q1007 NOSIG=
08/01/2022 10:00:00Z	 SAID32 WIOO 081000	METAR WIOO 081000Z 27006KT 9999 SCT012 31/24 Q1007 NOSIG=
08/01/2022 10:30:00Z	 SAID32 WIOO 081030	METAR WIOO 081030Z 25006KT 9999 FEW012 30/24 Q1008 NOSIG=
08/01/2022 11:00:00Z	 SAID32 WIOO 081100	METAR WIOO 081100Z 26006KT 9000 FEW012 29/25 Q1008 NOSIG=
08/01/2022 11:30:00Z	 SAID32 WIOO 081130	METAR WIOO 081130Z 26003KT 8000 FEW012 28/25 Q1008 NOSIG=
08/01/2022 12:00:00Z	 SAID32 WIOO 081200	METAR WIOO 081200Z 27003KT 8000 FEW012 28/25 Q1009 NOSIG=
08/01/2022 12:30:00Z	 SAID32 WIOO 081230	METAR WIOO 081230Z 22003KT 7000 FEW012 28/25 Q1009 NOSIG=
08/01/2022 13:00:00Z	 SAID32 WIOO 081300	METAR WIOO 081300Z 25003KT 7000 FEW011CB 27/25 Q1010 NOSIG=
08/01/2022 13:30:00Z	 SAID32 WIOO 081330	METAR WIOO 081330Z 21002KT 7000 FEW012 27/25 Q1010 NOSIG=
08/01/2022 14:00:00Z	 SAID32 WIOO 081400	METAR WIOO 081400Z 23002KT 7000 FEW012 26/24 Q1010 NOSIG=
08/01/2022 14:30:00Z	 SAID32 WIOO 081430	METAR WIOO 081430Z 00000KT 7000 FEW012 26/24 Q1010 NOSIG=
08/01/2022 15:00:00Z	 SAID32 WIOO 081500	METAR WIOO 081500Z 17004KT 7000 FEW012 26/24 Q1011 NOSIG=
08/01/2022 15:30:00Z	 SAID32 WIOO 081530	METAR WIOO 081530Z 00000KT 7000 FEW12 26/24 Q1011 NOSIG=
08/01/2022 15:30:00Z	 SAID32 WIOO 081530 CCA	METAR COR WIOO 081530Z 00000KT 7000 FEW012 26/24 Q1011 NOSIG=
08/01/2022 16:00:00Z	 SAID32 WIOO 081600	METAR WIOO 081600Z 00000KT 7000 SCT012 26/24 Q1011 NOSIG=
08/01/2022 16:30:00Z	 SAID32 WIOO 081630	METAR WIOO 081630Z 00000KT 7000 SCT012 25/24 Q1011 NOSIG=
08/01/2022 17:00:00Z	 SAID32 WIOO 081700	METAR WIOO 081700Z 00000KT 7000 SCT012 25/24 Q1011=
08/01/2022 17:30:00Z	 SAID32 WIOO 081730	METAR WIOO 081730Z AUTO 23002KT 9000 NCD 25/25 Q1010=
08/01/2022 18:00:00Z	 SAID32 WIOO 081800	METAR WIOO 081800Z AUTO 36001KT 8000 NCD 25/25 Q1010=
08/01/2022 18:30:00Z	 SAID32 WIOO 081830	METAR WIOO 081830Z AUTO 22003KT 6000 FEW240 25/24 Q1009=
08/01/2022 19:00:00Z	 SAID32 WIOO 081900	METAR WIOO 081900Z AUTO 25001KT 4900 BR FEW240 25/24 Q1009=
08/01/2022 19:30:00Z	 SAID32 WIOO 081930	METAR WIOO 081930Z AUTO 32001KT 6000 FEW240 25/24 Q1009=
08/01/2022 20:00:00Z	 SAID32 WIOO 082000	METAR WIOO 082000Z AUTO 36001KT 6000 BKN021 SCT028 25/24 Q1009=
08/01/2022 20:30:00Z	 SAID32 WIOO 082030	METAR WIOO 082030Z AUTO VRB02KT 6000 BKN022 SCT023 BKN029 25/25 Q1009=
08/01/2022 21:00:00Z	 SAID32 WIOO 082100	METAR WIOO 082100Z AUTO 08003KT 5000 FEW026 BKN240 25/25 Q1009=
08/01/2022 21:30:00Z	 SAID32 WIOO 082130	METAR WIOO 082130Z AUTO 08002KT 9999 SCT024 SCT029 BKN034 25/24 Q1009=
08/01/2022 22:00:00Z	 SAID32 WIOO 082200	METAR WIOO 082200Z 19004KT 7000 SCT012 25/24 Q1009 NOSIG=
08/01/2022 22:30:00Z	 SAID32 WIOO 082230	METAR WIOO 082230Z 04003KT 7000 SCT012 25/24 Q1009 NOSIG=
08/01/2022 23:00:00Z	 SAID32 WIOO 082300	METAR WIOO 082300Z 36003KT 4000 FEW012 24/24 Q1010 NOSIG=
08/01/2022 23:00:00Z	 SAID32 WIOO 082300 CCA	METAR COR WIOO 082300Z 36003KT 4000 HZ FEW012 24/24 Q1010 NOSIG=
08/01/2022 23:30:00Z	 SAID32 WIOO 082330	METAR WIOO 082330Z 04004KT 6000 FEW012 24/24 Q1010 NOSIG=
09/01/2022 00:00:00Z	 SAID32 WIOO 090000	METAR WIOO 090000Z 06004KT 7000 FEW012 25/24 Q1011 NOSIG=
09/01/2022 00:30:00Z	 SAID32 WIOO 090030	METAR WIOO 090030Z 06005KT 4000 BR BKN006 25/24 Q1011 NOSIG=
09/01/2022 01:00:00Z	 SAID32 WIOO 090100	METAR WIOO 090100Z 07004KT 8000 SCT007 26/24 Q1011 NOSIG=
09/01/2022 01:30:00Z	 SAID32 WIOO 090130	METAR WIOO 090130Z 06005KT 9999 SCT008 26/24 Q1011 NOSIG=
09/01/2022 02:00:00Z	 SAID32 WIOO 090200	METAR WIOO 090200Z 03003KT 9999 SCT010 28/25 Q1011 NOSIG=
09/01/2022 02:30:00Z	 SAID32 WIOO 090230	METAR WIOO 090230Z 06003KT 9999 SCT011 29/25 Q1011 NOSIG=
09/01/2022 03:00:00Z	 SAID32 WIOO 090300	METAR WIOO 090300Z 07003KT 9999 BKN012 30/25 Q1011 NOSIG=
09/01/2022 03:30:00Z	 SAID32 WIOO 090330	METAR WIOO 090330Z 36003KT 9999 BKN012 31/24 Q1010 NOSIG=
09/01/2022 04:00:00Z	 SAID32 WIOO 090400	METAR WIOO 090400Z 04003KT 9999 BKN012 32/25 Q1010 NOSIG=
09/01/2022 04:30:00Z	 SAID32 WIOO 090430	METAR WIOO 090430Z 27003KT 9999 BKN012 32/25 Q1009 NOSIG=
09/01/2022 05:00:00Z	 SAID32 WIOO 090500	METAR WIOO 090500Z 07003KT 9999 BKN012 32/24 Q1008 NOSIG=
09/01/2022 05:30:00Z	 SAID32 WIOO 090530	METAR WIOO 090530Z 04004KT 9999 BKN012 32/24 Q1008 NOSIG=
09/01/2022 06:00:00Z	 SAID32 WIOO 090600	METAR WIOO 090600Z 03003KT 9999 BKN012 32/24 Q1007 NOSIG=
09/01/2022 06:30:00Z	 SAID32 WIOO 090630	METAR WIOO 090630Z 22003KT 9999 BKN012 33/24 Q1007 NOSIG=
09/01/2022 07:00:00Z	 SAID32 WIOO 090700	METAR WIOO 090700Z 10003KT 9999 SCT012 33/24 Q1006 NOSIG=
09/01/2022 07:30:00Z	 SAID32 WIOO 090730	METAR WIOO 090730Z 35008KT 9999 SCT012 32/24 Q1005 NOSIG=
09/01/2022 08:00:00Z	 SAID32 WIOO 090800	METAR WIOO 090800Z 28006KT 9999 FEW011CB SCT012 32/25 Q1005 NOSIG=
09/01/2022 08:30:00Z	 SAID32 WIOO 090830	METAR WIOO 090830Z 28011KT 9999 FEW011CB SCT012 33/25 Q1005 NOSIG=
09/01/2022 09:00:00Z	 SAID32 WIOO 090900	METAR WIOO 090900Z 29011KT 9999 FEW011CB SCT012 32/25 Q1006 NOSIG=
09/01/2022 09:30:00Z	 SAID32 WIOO 090930	METAR WIOO 090930Z 28010KT 9999 TS FEW011CB SCT012 32/25 Q1006 NOSIG=
09/01/2022 10:00:00Z	 SAID32 WIOO 091000	METAR WIOO 091000Z 03013KT 9999 FEW011CB SCT012 31/25 Q1007 NOSIG=
09/01/2022 10:30:00Z	 SAID32 WIOO 091030	METAR WIOO 091030Z 03008KT 9999 FEW011CB BKN012 28/25 Q1007 TEMPO FM1100 4000 RA=
09/01/2022 11:00:00Z	 SAID32 WIOO 091100	METAR WIOO 091100Z 04006KT 8000 FEW011CB BKN012 27/24 Q1007 TEMPO FM1130 3000 RA=
09/01/2022 11:30:00Z	 SAID32 WIOO 091130	METAR WIOO 091130Z 09003KT 7000 FEW011CB BKN012 27/24 Q1007 TEMPO FM1200 3000 RA=
09/01/2022 12:00:00Z	 SAID32 WIOO 091200	METAR WIOO 091200Z 04003KT 6000 FEW011CB BKN012 27/25 Q1008 NOSIG=
09/01/2022 12:30:00Z	 SAID32 WIOO 091230	METAR WIOO 091230Z 05005KT 6000 FEW011CB BKN012 26/24 Q1009 NOSIG=
09/01/2022 13:00:00Z	 SAID32 WIOO 091300	METAR WIOO 091300Z 04004KT 6000 FEW011CB BKN012 26/23 Q1009 NOSIG=
09/01/2022 13:30:00Z	 SAID32 WIOO 091330	METAR WIOO 091330Z 19004KT 6000 SCT012 26/23 Q1009 NOSIG=
09/01/2022 14:00:00Z	 SAID32 WIOO 091400	METAR WIOO 091400Z 04004KT 6000 FEW012 26/24 Q1009 NOSIG=
09/01/2022 14:30:00Z	 SAID32 WIOO 091430	METAR WIOO 091430Z 00000KT 6000 FEW012 25/24 Q1009 NOSIG=
09/01/2022 15:00:00Z	 SAID32 WIOO 091500	METAR WIOO 091500Z 00000KT 6000 FEW012 25/23 Q1010 NOSIG=
09/01/2022 15:30:00Z	 SAID32 WIOO 091530	METAR WIOO 091530Z 12004KT 6000 FEW012 25/23 Q1010 NOSIG=
09/01/2022 16:00:00Z	 SAID32 WIOO 091600	METAR WIOO 091600Z 06004KT 6000 FEW012 25/23 Q1010 NOSIG=
09/01/2022 16:30:00Z	 SAID32 WIOO 091630	METAR WIOO 091630Z 07003KT 6000 FEW012 25/23 Q1010 NOSIG=
09/01/2022 17:00:00Z	 SAID32 WIOO 091700	METAR WIOO 091700Z 05003KT 6000 FEW012 25/23 Q1009 NOSIG=
09/01/2022 17:30:00Z	 SAID32 WIOO 091730	METAR WIOO 091730Z 07003KT 6000 FEW012 25/24 Q1009 NOSIG=
09/01/2022 18:00:00Z	 SAID32 WIOO 091800	METAR WIOO 091800Z AUTO 07002KT 9999 OVC190 24/24 Q1008=
09/01/2022 18:30:00Z	 SAID32 WIOO 091830	METAR WIOO 091830Z AUTO 03001KT 9999 BKN190 24/24 Q1008=
09/01/2022 19:00:00Z	 SAID32 WIOO 091900	METAR WIOO 091900Z AUTO 06002KT 9999 NCD 24/24 Q1007=
09/01/2022 19:30:00Z	 SAID32 WIOO 091930	METAR WIOO 091930Z AUTO 36001KT 9999 NCD 24/23 Q1007=
09/01/2022 20:00:00Z	 SAID32 WIOO 092000	METAR WIOO 092000Z AUTO 10001KT 9999 NCD 24/23 Q1007=
09/01/2022 20:30:00Z	 SAID32 WIOO 092030	METAR WIOO 092030Z AUTO 09002KT 9999 NCD 24/23 Q1008=
09/01/2022 21:00:00Z	 SAID32 WIOO 092100	METAR WIOO 092100Z AUTO 06001KT 9999 NCD 24/23 Q1008=
09/01/2022 21:30:00Z	 SAID32 WIOO 092130	METAR WIOO 092130Z AUTO 08002KT 9999 NCD 24/23 Q1008=
09/01/2022 22:00:00Z	 SAID32 WIOO 092200	METAR WIOO 092200Z 07003KT 6000 FEW012 24/23 Q1009 NOSIG=
09/01/2022 22:30:00Z	 SAID32 WIOO 092230	METAR WIOO 092230Z 00000KT 6000 FEW012 24/23 Q1009 NOSIG=
09/01/2022 23:00:00Z	 SAID32 WIOO 092300	METAR WIOO 092300Z 17003KT 8000 FEW012 24/23 Q1010 NOSIG=
09/01/2022 23:30:00Z	 SAID32 WIOO 092330	METAR WIOO 092330Z 00000KT 9999 FEW012 24/23 Q1010 NOSIG=
10/01/2022 00:00:00Z	 SAID32 WIOO 100000	METAR WIOO 100000Z 06003KT 9999 FEW012 24/23 Q1010 NOSIG=
10/01/2022 00:30:00Z	 SAID32 WIOO 100030	METAR WIOO 100030Z 04004KT 9999 FEW012 25/23 Q1011 NOSIG=
10/01/2022 01:00:00Z	 SAID32 WIOO 100100	METAR WIOO 100100Z 05003KT 9999 FEW012 26/24 Q1011 NOSIG=
10/01/2022 01:30:00Z	 SAID32 WIOO 100130	METAR WIOO 100130Z 05005KT 9999 FEW012 27/24 Q1011 NOSIG=
10/01/2022 02:00:00Z	 SAID32 WIOO 100200	METAR WIOO 100200Z 04006KT 9999 FEW012 27/24 Q1011 NOSIG=
10/01/2022 02:30:00Z	 SAID32 WIOO 100230	METAR WIOO 100230Z 05006KT 9999 FEW012 29/24 Q1011 NOSIG=
10/01/2022 03:00:00Z	 SAID32 WIOO 100300	METAR WIOO 100300Z 04007KT 9999 SCT012 30/24 Q1011 NOSIG=
10/01/2022 03:30:00Z	 SAID32 WIOO 100330	METAR WIOO 100330Z 07008KT 9999 BKN012 31/24 Q1011 NOSIG=
10/01/2022 04:00:00Z	 SAID32 WIOO 100400	METAR WIOO 100400Z 05006KT 9999 BKN012 32/25 Q1010 NOSIG=
10/01/2022 04:30:00Z	 SAID32 WIOO 100430	METAR WIOO 100430Z 06007KT 9999 BKN012 32/25 Q1010 NOSIG=
10/01/2022 05:00:00Z	 SAID32 WIOO 100500	METAR WIOO 100500Z 05008KT 9999 BKN012 33/25 Q1009 NOSIG=
10/01/2022 05:30:00Z	 SAID32 WIOO 100530	METAR WIOO 100530Z 02008KT 9999 BKN012 33/25 Q1008 NOSIG=
10/01/2022 06:00:00Z	 SAID32 WIOO 100600	METAR WIOO 100600Z 01008KT 9999 BKN012 34/25 Q1008 NOSIG=
10/01/2022 06:30:00Z	 SAID32 WIOO 100630	METAR WIOO 100630Z 36007KT 9999 FEW011CB BKN012 33/25 Q1007 NOSIG=
10/01/2022 07:00:00Z	 SAID32 WIOO 100700	METAR WIOO 100700Z 01009KT 9999 FEW011CB BKN012 32/24 Q1007 NOSIG=
10/01/2022 07:30:00Z	 SAID32 WIOO 100730	METAR WIOO 100730Z 01005KT 9000 FEW011CB BKN012 33/24 Q1007 TEMPO FM0830 3000 SHRA=
10/01/2022 08:00:00Z	 SAID32 WIOO 100800	METAR WIOO 100800Z 02008KT 7000 TS FEW010CB BKN011 33/24 Q1006 TEMPO FM0830 3000 SHRA=
10/01/2022 08:30:00Z	 SAID32 WIOO 100830	METAR WIOO 100830Z 29017KT 6000 TS FEW010CB BKN011 28/23 Q1007 TEMPO FM0850 1000 +TSRA=
10/01/2022 09:00:00Z	 SAID32 WIOO 100900	METAR WIOO 100900Z 34004KT 4000 TSRA FEW009CB BKN010 27/23 Q1008 TEMPO FM1010 7000 NSW=
10/01/2022 09:30:00Z	 SAID32 WIOO 100930	METAR WIOO 100930Z 23004KT 8000 FEW011CB BKN012 26/24 Q1008 RERA NOSIG=
10/01/2022 10:00:00Z	 SAID32 WIOO 101000	METAR WIOO 101000Z 26003KT 8000 SCT012 26/24 Q1008 NOSIG=
10/01/2022 10:30:00Z	 SAID32 WIOO 101030	METAR WIOO 101030Z 25003KT 6000 SCT012 26/24 Q1008 NOSIG=
10/01/2022 11:00:00Z	 SAID32 WIOO 101100	METAR WIOO 101100Z 20003KT 6000 SCT012 26/24 Q1008 NOSIG=
10/01/2022 11:30:00Z	 SAID32 WIOO 101130	METAR WIOO 101130Z 20003KT 7000 SCT012 26/24 Q1009 NOSIG=
10/01/2022 12:00:00Z	 SAID32 WIOO 101200	METAR WIOO 101200Z 00000KT 7000 SCT012 26/24 Q1009 NOSIG=
10/01/2022 12:30:00Z	 SAID32 WIOO 101230	METAR WIOO 101230Z 00000KT 6000 SCT012 26/24 Q1010 NOSIG=
10/01/2022 13:00:00Z	 SAID32 WIOO 101300	METAR WIOO 101300Z 30003KT 7000 SCT012 25/24 Q1010 NOSIG=
10/01/2022 13:30:00Z	 SAID32 WIOO 101330	METAR WIOO 101330Z 33003KT 6000 SCT012 25/24 Q1010 NOSIG=
10/01/2022 14:00:00Z	 SAID32 WIOO 101400	METAR WIOO 101400Z 00000KT 6000 SCT012 26/24 Q1010 NOSIG=
10/01/2022 14:30:00Z	 SAID32 WIOO 101430	METAR WIOO 101430Z 00000KT 6000 FEW011CB SCT012 26/24 Q1010 NOSIG=
10/01/2022 15:00:00Z	 SAID32 WIOO 101500	METAR WIOO 101500Z 00000KT 6000 FEW011CB SCT012 26/24 Q1010 NOSIG=
10/01/2022 15:30:00Z	 SAID32 WIOO 101530	METAR WIOO 101530Z 00000KT 6000 FEW011CB BKN012 25/24 Q1010 NOSIG=
10/01/2022 16:00:00Z	 SAID32 WIOO 101600	METAR WIOO 101600Z 31303KT 6000 SCT012 25/24 Q1010=
10/01/2022 16:30:00Z	 SAID32 WIOO 101630	METAR WIOO 101630Z 00000KT 6000 SCT012 25/24 Q1010 NOSIG=
10/01/2022 17:00:00Z	 SAID32 WIOO 101700	METAR WIOO 101700Z 00000KT 6000 FEW011CB SCT012 25/24 Q1010 NOSIG=
10/01/2022 17:30:00Z	 SAID32 WIOO 101730	METAR WIOO 101730Z AUTO 33003KT 8000 NCD 24/24 Q1010=
10/01/2022 18:00:00Z	 SAID32 WIOO 101800	METAR WIOO 101800Z AUTO 02002KT 8000 NCD 25/24 Q1009=
10/01/2022 18:30:00Z	 SAID32 WIOO 101830	METAR WIOO 101830Z AUTO 36001KT 9000 FEW050 BKN055 25/24 Q1009=
10/01/2022 19:00:00Z	 SAID32 WIOO 101900	METAR WIOO 101900Z AUTO 00000KT 6000 FEW060 25/24 Q1009 NOSIG=
10/01/2022 19:30:00Z	 SAID32 WIOO 101930	METAR WIOO 101930Z AUTO 17001KT 5000 SCT200 25/24 Q1009 NOSIG=
10/01/2022 20:00:00Z	 SAID32 WIOO 102000	METAR WIOO 102000Z AUTO 16001KT 5000 FEW044 BKN047 BKN055 25/24 Q1009 NOSIG=
10/01/2022 20:30:00Z	 SAID32 WIOO 102030	METAR WIOO 102030Z AUTO 18002KT 5000 FEW033 BKN041 BKN055 24/24 Q1009 NOSIG=
10/01/2022 21:00:00Z	 SAID32 WIOO 102100	METAR WIOO 102100Z AUTO 08002KT 5000 OVC036 BKN043 OVC048 25/24 Q1009=
10/01/2022 21:30:00Z	 SAID32 WIOO 102130	METAR WIOO 102130Z AUTO VRB01KT 8000 BKN041 BKN050 OVC060 24/24 Q1010=
10/01/2022 22:00:00Z	 SAID32 WIOO 102200	METAR WIOO 102200Z AUTO VRB02KT 7000 BKN041 BKN042 BKN050 24/24 Q1010=
10/01/2022 22:30:00Z	 SAID32 WIOO 102230	METAR WIOO 102230Z AUTO VRB01KT 6000 VCTS OVC095 24/24 Q1011=
10/01/2022 23:00:00Z	 SAID32 WIOO 102300	METAR WIOO 102300Z 00000KT 7000 FEW011CB SCT012 25/24 Q1011 NOSIG=
10/01/2022 23:30:00Z	 SAID32 WIOO 102330	METAR WIOO 102330Z 08002KT 5000 HZ SCT012 25/24 Q1011 NOSIG=
11/01/2022 00:00:00Z	 SAID32 WIOO 110000	METAR WIOO 110000Z 07002KT 5000 BR SCT012 25/24 Q1012 NOSIG=
11/01/2022 00:30:00Z	 SAID32 WIOO 110030	METAR WIOO 110030Z 00000KT 9000 SCT012 25/24 Q1012 NOSIG=
11/01/2022 01:00:00Z	 SAID32 WIOO 110100	METAR WIOO 110100Z 00000KT 9999 SCT012 25/24 Q1012 NOSIG=
11/01/2022 01:30:00Z	 SAID32 WIOO 110130	METAR WIOO 110130Z 02003KT 9999 SCT012 27/25 Q1012 NOSIG=
11/01/2022 02:00:00Z	 SAID32 WIOO 110200	METAR WIOO 110200Z 06002KT 9999 SCT012 27/25 Q1013 NOSIG=
11/01/2022 02:30:00Z	 SAID32 WIOO 110230	METAR WIOO 110230Z 02003KT 9999 BKN012 29/26 Q1012 NOSIG=
11/01/2022 03:00:00Z	 SAID32 WIOO 110300	METAR WIOO 110300Z 33004KT 9999 BKN012 29/25 Q1012 TEMPO FM0330 FEW010CB BKN011=
11/01/2022 03:30:00Z	 SAID32 WIOO 110330	METAR WIOO 110330Z 32007KT 9999 FEW011CB BKN012 30/26 Q1012 TEMPO FM0400 30010KT=
11/01/2022 04:00:00Z	 SAID32 WIOO 110400	METAR WIOO 110400Z 33008KT 9999 FEW011CB BKN012 30/25 Q1011 TEMPO FM0430 30010KT=
11/01/2022 04:30:00Z	 SAID32 WIOO 110430	METAR WIOO 110430Z 36004KT 9999 FEW011CB BKN012 30/24 Q1011 TEMPO FM0500 36010KT=
11/01/2022 05:00:00Z	 SAID32 WIOO 110500	METAR WIOO 110500Z 34009G19KT 6000 FEW011CB BKN012 30/25 Q1011 TEMPO FM0515 36015KT 2000 TSRA=
11/01/2022 05:30:00Z	 SAID32 WIOO 110530	METAR WIOO 110530Z 33013KT 5000 -RA FEW010CB BKN011 26/24 Q1010 TEMPO FM0600 36010KT 3000 RA=
11/01/2022 06:00:00Z	 SAID32 WIOO 110600	METAR WIOO 110600Z 30006KT 1500 RA FEW006CB BKN007 24/24 Q1010 TEMPO TL0700 30010KT 2000 RA FEW007CB BKN008=
11/01/2022 06:30:00Z	 SAID32 WIOO 110630	METAR WIOO 110630Z 23005KT 8000 FEW009CB BKN010 24/24 Q1009 RERA NOSIG=
11/01/2022 07:00:00Z	 SAID32 WIOO 110700	METAR WIOO 110700Z 26005KT 9999 SCT011 25/24 Q1009 NOSIG=
11/01/2022 07:30:00Z	 SAID32 WIOO 110730	METAR WIOO 110730Z 23004KT 9999 SCT012 25/24 Q1009 NOSIG=
11/01/2022 08:00:00Z	 SAID32 WIOO 110800	METAR WIOO 110800Z 28004KT 9999 SCT012 26/25 Q1009 NOSIG=
11/01/2022 08:30:00Z	 SAID32 WIOO 110830	METAR WIOO 110830Z 32005KT 9999 BKN012 27/25 Q1009 NOSIG=
11/01/2022 09:00:00Z	 SAID32 WIOO 110900	METAR WIOO 110900Z 34009KT 8000 -RA BKN012 27/24 Q1009 NOSIG=
11/01/2022 09:30:00Z	 SAID32 WIOO 110930	METAR WIOO 110930Z 34005KT 8000 -RA BKN012 27/24 Q1009 NOSIG=
11/01/2022 10:00:00Z	 SAID32 WIOO 111000	METAR WIOO 111000Z 36005KT 8000 -RA BKN012 26/24 Q1010 NOSIG=
11/01/2022 10:30:00Z	 SAID32 WIOO 111030	METAR WIOO 111030Z 01004KT 8000 -RA BKN012 26/24 Q1010 NOSIG=
11/01/2022 11:00:00Z	 SAID32 WIOO 111100	METAR WIOO 111100Z 01003KT 8000 SCT012 26/24 Q1010 NOSIG=
11/01/2022 11:30:00Z	 SAID32 WIOO 111130	METAR WIOO 111130Z 02003KT 7000 BKN012 26/24 Q1010 NOSIG=
11/01/2022 12:00:00Z	 SAID32 WIOO 111200	METAR WIOO 111200Z 01003KT 6000 -RA BKN012 25/24 Q1010 NOSIG=
11/01/2022 12:30:00Z	 SAID32 WIOO 111230	METAR WIOO 111230Z 02003KT 6000 -RA BKN012 25/24 Q1011 NOSIG=
11/01/2022 13:00:00Z	 SAID32 WIOO 111300	METAR WIOO 111300Z 01003KT 6000 -RA BKN012 25/24 Q1011 NOSIG=
11/01/2022 13:30:00Z	 SAID32 WIOO 111330	METAR WIOO 111330Z 00000KT 6000 -RA BKN011 25/24 Q1011 NOSIG=
11/01/2022 14:00:00Z	 SAID32 WIOO 111400	METAR WIOO 111400Z 06003KT 6000 -RA BKN011 25/24 Q1012 NOSIG=
11/01/2022 14:30:00Z	 SAID32 WIOO 111430	METAR WIOO 111430Z 00000KT 6000 BKN011 25/24 Q1012 RERA NOSIG=
11/01/2022 15:00:00Z	 SAID32 WIOO 111500	METAR WIOO 111500Z 00000KT 6000 BKN011 25/24 Q1012 NOSIG=
11/01/2022 15:30:00Z	 SAID32 WIOO 111530	METAR WIOO 111530Z 07003KT 6000 BKN011 25/24 Q1012 NOSIG=
11/01/2022 16:00:00Z	 SAID32 WIOO 111600	METAR WIOO 111600Z 08003KT 6000 BKN011 25/24 Q1012 NOSIG=
11/01/2022 16:30:00Z	 SAID32 WIOO 111630	METAR WIOO 111630Z 00000KT 6000 BKN011 25/24 Q1012 NOSIG=
11/01/2022 17:00:00Z	 SAID32 WIOO 111700	METAR WIOO 111700Z 12003KT 6000 BKN010 25/24 Q1011 NOSIG=
11/01/2022 17:30:00Z	 SAID32 WIOO 111730	METAR WIOO 111730Z 15003KT 6000 BKN009 25/24 Q1011 NOSIG=
11/01/2022 18:00:00Z	 SAID32 WIOO 111800	METAR WIOO 111800Z 12005KT 6000 BKN010 25/24 Q1011 NOSIG=
11/01/2022 18:30:00Z	 SAID32 WIOO 111830	METAR WIOO 111830Z AUTO VRB02KT 7000 FEW004 OVC160 24/24 Q1010=
11/01/2022 19:00:00Z	 SAID32 WIOO 111900	METAR WIOO 111900Z AUTO VRB02KT 5000 OVC160 OVC170 24/23 Q1010=
11/01/2022 19:30:00Z	 SAID32 WIOO 111930	METAR WIOO 111930Z AUTO 09002KT 9000 SCT034 BKN035 BKN044 24/23 Q1010=
11/01/2022 20:00:00Z	 SAID32 WIOO 112000	METAR WIOO 112000Z AUTO 06002KT 9999 FEW035 SCT037 BKN042 24/23 Q1010=
11/01/2022 20:30:00Z	 SAID32 WIOO 112030	METAR WIOO 112030Z AUTO 09002KT 9999 SCT038 BKN040 BKN047 24/23 Q1010=
11/01/2022 21:00:00Z	 SAID32 WIOO 112100	METAR WIOO 112100Z AUTO 11002KT 9999 FEW039 SCT055 OVC065 24/23 Q1010=
11/01/2022 21:30:00Z	 SAID32 WIOO 112130	METAR WIOO 112130Z AUTO 09001KT 9999 BKN038 BKN043 BKN050 24/23 Q1010=
11/01/2022 22:00:00Z	 SAID32 WIOO 112200	METAR WIOO 112200Z AUTO 08002KT 9999 FEW004 OVC041 OVC060 24/23 Q1010=
11/01/2022 22:30:00Z	 SAID32 WIOO 112230	METAR WIOO 112230Z 00000KT 6000 BKN009 24/23 Q1011 NOSIG=
11/01/2022 23:00:00Z	 SAID32 WIOO 112300	METAR WIOO 112300Z 00000KT 7000 -RA SCT010 24/23 Q1011 NOSIG=
11/01/2022 23:30:00Z	 SAID32 WIOO 112330	METAR WIOO 112330Z 16002KT 7000 -RA FEW007 24/23 Q1011 NOSIG=
12/01/2022 00:00:00Z	 SAID32 WIOO 120000	METAR COR WIOO 120000Z 00000KT 8000 FEW009 24/23 Q1012 RERA NOSIG=
12/01/2022 00:30:00Z	 SAID32 WIOO 120030	METAR WIOO 120030Z 15002KT 9000 FEW010 24/23 Q1012 NOSIG=
12/01/2022 01:00:00Z	 SAID32 WIOO 120100	METAR WIOO 120100Z 07003KT 9999 FEW010 25/23 Q1012 NOSIG=
12/01/2022 01:30:00Z	 SAID32 WIOO 120130	METAR WIOO 120130Z 00000KT 9999 FEW010 26/23 Q1013 NOSIG=
12/01/2022 02:00:00Z	 SAID32 WIOO 120200	METAR WIOO 120200Z 22002KT 9999 SCT011 27/24 Q1013 NOSIG=
12/01/2022 02:30:00Z	 SAID32 WIOO 120230	METAR WIOO 120230Z 00000KT 9999 SCT011 28/24 Q1013 NOSIG=
12/01/2022 03:00:00Z	 SAID32 WIOO 120300	METAR WIOO 120300Z 06004KT 9999 SCT012 28/24 Q1013 NOSIG=
12/01/2022 03:30:00Z	 SAID32 WIOO 120330	METAR WIOO 120330Z 34004KT 9999 SCT012 29/24 Q1012 NOSIG=
12/01/2022 04:00:00Z	 SAID32 WIOO 120400	METAR WIOO 120400Z 36008KT 9999 SCT012 29/24 Q1012 NOSIG=
12/01/2022 04:30:00Z	 SAID32 WIOO 120430	METAR WIOO 120430Z 02008KT 9999 SCT012 29/24 Q1011 NOSIG=
12/01/2022 05:00:00Z	 SAID32 WIOO 120500	METAR WIOO 120500Z 02006KT 9999 FEW011CB BKN012 30/24 Q1011 NOSIG=
12/01/2022 05:30:00Z	 SAID32 WIOO 120530	METAR WIOO 120530Z 02006KT 9999 FEW011CB BKN012 30/25 Q1011 NOSIG=
12/01/2022 06:00:00Z	 SAID32 WIOO 120600	METAR WIOO 120600Z 36009KT 9999 FEW011CB BKN012 30/24 Q1010 NOSIG=
12/01/2022 06:30:00Z	 SAID32 WIOO 120630	METAR WIOO 120630Z 35006KT 9000 FEW010CB BKN011 28/24 Q1009 NOSIG=
12/01/2022 07:00:00Z	 SAID32 WIOO 120700	METAR WIOO 120700Z 32006KT 9000 -RA FEW010CB BKN011 28/24 Q1009 TEMPO TL0730 34010KT=
12/01/2022 07:30:00Z	 SAID32 WIOO 120730	METAR WIOO 120730Z 33006KT 9000 FEW011CB SCT012 29/25 Q1009 RERA NOSIG=
12/01/2022 08:00:00Z	 SAID32 WIOO 120800	METAR WIOO 120800Z 33006KT 9999 SCT012 29/24 Q1008 NOSIG=
12/01/2022 08:30:00Z	 SAID32 WIOO 120830	METAR WIOO 120830Z 31005KT 9999 SCT012 29/24 Q1008 NOSIG=
12/01/2022 09:00:00Z	 SAID32 WIOO 120900	METAR WIOO 120900Z 36008KT 9999 SCT012 29/24 Q1008 NOSIG=
12/01/2022 09:30:00Z	 SAID32 WIOO 120930	METAR WIOO 120930Z 35006KT 9000 SCT012 28/25 Q1008 NOSIG=
12/01/2022 10:00:00Z	 SAID32 WIOO 121000	METAR WIOO 121000Z 03005KT 9000 SCT012 28/24 Q1008 NOSIG=
12/01/2022 10:30:00Z	 SAID32 WIOO 121030	METAR WIOO 121030Z 36007KT 8000 -RA BKN012 27/25 Q1009 NOSIG=
12/01/2022 11:00:00Z	 SAID32 WIOO 121100	METAR WIOO 121100Z 02006KT 8000 -RA SCT012 26/24 Q1009 NOSIG=
12/01/2022 11:00:00Z	 SAID32 WIOO 121100 CCA	METAR COR WIOO 121100Z 02006KT 8000 -RA BKN012 26/24 Q1009 NOSIG=
12/01/2022 11:30:00Z	 SAID32 WIOO 121130	METAR WIOO 121130Z 01004KT 8000 -RA BKN012 25/24 Q1010 NOSIG=
12/01/2022 12:00:00Z	 SAID32 WIOO 121200	METAR WIOO 121200Z 36005KT 8000 BKN012 25/24 Q1011 NOSIG=
12/01/2022 12:30:00Z	 SAID32 WIOO 121230	METAR WIOO 121230Z 01004KT 8000 BKN012 25/24 Q1011 NOSIG=
12/01/2022 13:00:00Z	 SAID32 WIOO 121300	METAR WIOO 121300Z 36003KT 8000 BKN012 25/24 Q1011 NOSIG=
12/01/2022 13:30:00Z	 SAID32 WIOO 121330	METAR WIOO 121330Z 00000KT 7000 BKN012 25/24 Q1012 NOSIG=
12/01/2022 14:00:00Z	 SAID32 WIOO 121400	METAR WIOO 121400Z 00000KT 7000 BKN012 25/24 Q1012 NOSIG=
12/01/2022 14:30:00Z	 SAID32 WIOO 121430	METAR WIOO 121430Z 00000KT 7000 BKN012 25/24 Q1012 NOSIG=
12/01/2022 15:00:00Z	 SAID32 WIOO 121500	METAR WIOO 121500Z 00000KT 7000 SCT012 25/24 Q1012 NOSIG=
12/01/2022 15:30:00Z	 SAID32 WIOO 121530	METAR WIOO 121530Z 00000KT 7000 SCT012 25/24 Q1012 NOSIG=
12/01/2022 16:00:00Z	 SAID32 WIOO 121600	METAR WIOO 121600Z 00000KT 6000 SCT012 25/24 Q1012 NOSIG=
12/01/2022 16:30:00Z	 SAID32 WIOO 121630	METAR WIOO 121630Z 05003KT 6000 SCT012 25/24 Q1012 NOSIG=
12/01/2022 17:00:00Z	 SAID32 WIOO 121700	METAR WIOO 121700Z AUTO 05002KT 9999 SCT200 OVC230 24/24 Q1011=
12/01/2022 17:30:00Z	 SAID32 WIOO 121730	METAR WIOO 121730Z AUTO 04002KT 9999 OVC170 OVC180 24/24 Q1011=
12/01/2022 18:00:00Z	 SAID32 WIOO 121800	METAR WIOO 121800Z AUTO 31002KT 9999 OVC180 24/24 Q1011=
12/01/2022 18:30:00Z	 SAID32 WIOO 121830	METAR WIOO 121830Z AUTO 32001KT 9999 FEW130 OVC170 24/24 Q1010=
12/01/2022 19:00:00Z	 SAID32 WIOO 121900	METAR WIOO 121900Z AUTO VRB01KT 9999 -RA FEW037 SCT055 BKN140 24/24 Q1010=
12/01/2022 19:30:00Z	 SAID32 WIOO 121930	METAR WIOO 121930Z AUTO 19002KT 6000 -RA BKN040 SCT041 OVC160 24/24 Q1010=
12/01/2022 20:00:00Z	 SAID32 WIOO 122000	METAR WIOO 122000Z AUTO VRB02KT 3900 BR FEW041 SCT070 BKN180 24/24 Q1010=
12/01/2022 20:30:00Z	 SAID32 WIOO 122030	METAR WIOO 122030Z AUTO 10002KT 6000 OVC055 OVC060 24/24 Q1010=
12/01/2022 21:00:00Z	 SAID32 WIOO 122100	METAR WIOO 122100Z AUTO VRB02KT 6000 FEW003 OVC055 OVC060 24/24 Q1010=
12/01/2022 21:30:00Z	 SAID32 WIOO 122130	METAR WIOO 122130Z AUTO 09002KT 6000 BKN003 BKN060 OVC075 24/24 Q1010=
12/01/2022 22:00:00Z	 SAID32 WIOO 122200	METAR WIOO 122200Z 10003KT 4000 BR BKN010 24/24 Q1011 NOSIG=
12/01/2022 22:30:00Z	 SAID32 WIOO 122230	METAR WIOO 122230Z 14004KT 4000 BR BKN010 24/24 Q1011 NOSIG=
12/01/2022 23:00:00Z	 SAID32 WIOO 122300	METAR WIOO 122300Z 07003KT 7000 SCT011 24/23 Q1011 NOSIG=
12/01/2022 23:30:00Z	 SAID32 WIOO 122330	METAR WIOO 122330Z 11003KT 8000 SCT012 25/23 Q1012 NOSIG=
13/01/2022 00:00:00Z	 SAID32 WIOO 130000	METAR WIOO 130000Z 05003KT 9999 FEW012 25/24 Q1012 NOSIG=
13/01/2022 00:30:00Z	 SAID32 WIOO 130030	METAR WIOO 130030Z 07004KT 9999 FEW012 25/24 Q1012 NOSIG=
13/01/2022 01:00:00Z	 SAID32 WIOO 130100	METAR WIOO 130100Z 05005KT 9999 FEW012 26/24 Q1012 NOSIG=
13/01/2022 01:30:00Z	 SAID32 WIOO 130130	METAR WIOO 130130Z 06006KT 9999 SCT012 27/24 Q1012 NOSIG=
13/01/2022 02:00:00Z	 SAID32 WIOO 130200	METAR WIOO 130200Z 07007KT 9999 SCT011 28/25 Q1012 NOSIG=
13/01/2022 02:30:00Z	 SAID32 WIOO 130230	METAR WIOO 130230Z 01009KT 9999 BKN011 29/25 Q1012 NOSIG=
13/01/2022 03:00:00Z	 SAID32 WIOO 130300	METAR WIOO 130300Z 36008KT 9999 BKN011 29/25 Q1012 NOSIG=
13/01/2022 03:30:00Z	 SAID32 WIOO 130330	METAR WIOO 130330Z 36013KT 9999 BKN011 29/25 Q1012 NOSIG=
13/01/2022 04:00:00Z	 SAID32 WIOO 130400	METAR WIOO 130400Z 35009KT 9999 BKN012 29/25 Q1011 NOSIG=
13/01/2022 04:30:00Z	 SAID32 WIOO 130430	METAR WIOO 130430Z 34009KT 9999 BKN012 30/24 Q1011 NOSIG=
13/01/2022 05:00:00Z	 SAID32 WIOO 130500	METAR WIOO 130500Z 32012KT 9999 BKN012 30/25 Q1011 NOSIG=
13/01/2022 05:30:00Z	 SAID32 WIOO 130530	METAR WIOO 130530Z 34009KT 9999 BKN012 30/25 Q1010 NOSIG=
13/01/2022 06:00:00Z	 SAID32 WIOO 130600	METAR WIOO 130600Z 34008KT 9999 FEW010CB BKN011 30/25 Q1010 NOSIG=
13/01/2022 06:30:00Z	 SAID32 WIOO 130630	METAR WIOO 130630Z 34005KT 9999 FEW010CB BKN011 28/24 Q1009 NOSIG=
13/01/2022 07:00:00Z	 SAID32 WIOO 130700	METAR WIOO 130700Z 33010KT 9999 FEW010CB BKN011 30/24 Q1009 NOSIG=
13/01/2022 07:30:00Z	 SAID32 WIOO 130730	METAR WIOO 130730Z 32008KT 9999 FEW011CB BKN012 29/24 Q1008 NOSIG=
13/01/2022 08:00:00Z	 SAID32 WIOO 130800	METAR WIOO 130800Z 34008KT 9999 FEW011CB BKN012 28/24 Q1008 NOSIG=
13/01/2022 08:30:00Z	 SAID32 WIOO 130830	METAR WIOO 130830Z 34005KT 9999 BKN012 28/24 Q1008 NOSIG=
13/01/2022 09:00:00Z	 SAID32 WIOO 130900	METAR WIOO 130900Z 33006KT 9999 SCT012 28/24 Q1008 NOSIG=
13/01/2022 09:30:00Z	 SAID32 WIOO 130930	METAR WIOO 130930Z 30004KT 9999 BKN012 28/24 Q1008 NOSIG=
13/01/2022 10:00:00Z	 SAID32 WIOO 131000	METAR WIOO 131000Z 29005KT 9999 SCT012 28/24 Q1008 NOSIG=
13/01/2022 10:30:00Z	 SAID32 WIOO 131030	METAR WIOO 131030Z 28003KT 7000 -RA SCT011 27/24 Q1009 NOSIG=
13/01/2022 11:00:00Z	 SAID32 WIOO 131100	METAR WIOO 131100Z 28003KT 6000 -RA SCT010 27/24 Q1009 NOSIG=
13/01/2022 11:30:00Z	 SAID32 WIOO 131130	METAR WIOO 131130Z 29003KT 7000 FEW011 27/24 Q1010 RERA NOSIG=
13/01/2022 12:00:00Z	 SAID32 WIOO 131200	METAR WIOO 131200Z 00000KT 7000 FEW011 27/24 Q1010 NOSIG=
13/01/2022 12:30:00Z	 SAID32 WIOO 131230	METAR WIOO 131230Z 00000KT 7000 FEW012 27/24 Q1011 NOSIG=
13/01/2022 13:00:00Z	 SAID32 WIOO 131300	METAR WIOO 131300Z 06003KT 6000 -RA SCT012 26/24 Q1011 NOSIG=
13/01/2022 13:30:00Z	 SAID32 WIOO 131330	METAR WIOO 131330Z 03002KT 6000 -RA BKN012 26/24 Q1011 NOSIG=
13/01/2022 14:00:00Z	 SAID32 WIOO 131400	METAR WIOO 131400Z 06002KT 6000 -RA BKN012 26/25 Q1012 NOSIG=
13/01/2022 14:30:00Z	 SAID32 WIOO 131430	METAR WIOO 131430Z 04003KT 6000 -RA BKN012 25/24 Q1012 NOSIG=
13/01/2022 15:00:00Z	 SAID32 WIOO 131500	METAR WIOO 131500Z 04003KT 6000 SCT012 25/24 Q1012 NOSIG=
13/01/2022 15:30:00Z	 SAID32 WIOO 131530	METAR WIOO 131530Z 15003KT 6000 SCT012 25/24 Q1012 NOSIG=
13/01/2022 16:00:00Z	 SAID32 WIOO 131600	METAR WIOO 131600Z 17003KT 6000 SCT012 25/24 Q1012 NOSIG=
13/01/2022 16:30:00Z	 SAID32 WIOO 131630	METAR WIOO 131630Z 19002KT 6000 SCT012 25/24 Q1012 NOSIG=
13/01/2022 17:00:00Z	 SAID32 WIOO 131700	METAR WIOO 131700Z AUTO VRB02KT 3900 BR BKN002 SCT004 BKN048 24/24 Q1011=
13/01/2022 17:30:00Z	 SAID32 WIOO 131730	METAR WIOO 131730Z AUTO VRB01KT 7000 SCT002 BKN160 OVC190 24/24 Q1011=
13/01/2022 18:00:00Z	 SAID32 WIOO 131800	METAR WIOO 131800Z AUTO 10002KT 4600 BR BKN002 OVC070 24/24 Q1011=
13/01/2022 18:30:00Z	 SAID32 WIOO 131830	METAR WIOO 131830Z AUTO 09002KT 9999 SCT003 SCT004 OVC070 24/24 Q1011=
13/01/2022 19:00:00Z	 SAID32 WIOO 131900	METAR WIOO 131900Z AUTO 13003KT 9999 SCT075 BKN120 BKN200 24/24 Q1010=
13/01/2022 19:30:00Z	 SAID32 WIOO 131930	METAR WIOO 131930Z AUTO 10002KT 9999 SCT080 SCT150 24/23 Q1010=
13/01/2022 20:00:00Z	 SAID32 WIOO 132000	METAR WIOO 132000Z AUTO VRB01KT 9999 BKN150 OVC170 OVC240 24/23 Q1010=
13/01/2022 20:30:00Z	 SAID32 WIOO 132030	METAR WIOO 132030Z AUTO 36001KT 9999 BKN150 OVC160 OVC170 24/23 Q1010=
13/01/2022 21:00:00Z	 SAID32 WIOO 132100	METAR WIOO 132100Z AUTO 03001KT 9999 SCT130 OVC140 OVC160 24/23 Q1010=
13/01/2022 21:30:00Z	 SAID32 WIOO 132130	METAR WIOO 132130Z AUTO VRB01KT 9999 -RA FEW070 BKN130 OVC150 24/23 Q1010=
13/01/2022 22:00:00Z	 SAID32 WIOO 132200	METAR WIOO 132200Z 00000KT 6000 SCT012 24/23 Q1010 NOSIG=
13/01/2022 22:30:00Z	 SAID32 WIOO 132230	METAR WIOO 132230Z 00000KT 6000 SCT012 24/23 Q1010 NOSIG=
13/01/2022 23:00:00Z	 SAID32 WIOO 132300	METAR WIOO 132300Z 19003KT 6000 SCT012 24/23 Q1011 NOSIG=
13/01/2022 23:30:00Z	 SAID32 WIOO 132330	METAR WIOO 132330Z 00000KT 7000 FEW012 24/23 Q1011 NOSIG=
14/01/2022 00:00:00Z	 SAID32 WIOO 140000	METAR WIOO 140000Z 05003KT 9999 FEW012 24/23 Q1012 NOSIG=
14/01/2022 00:30:00Z	 SAID32 WIOO 140030	METAR WIOO 140030Z 06004KT 9999 SCT013 24/23 Q1012 NOSIG=
14/01/2022 01:00:00Z	 SAID32 WIOO 140100	METAR WIOO 140100Z 11003KT 9999 SCT012 25/23 Q1013 NOSIG=
14/01/2022 01:30:00Z	 SAID32 WIOO 140130	METAR WIOO 140130Z 12004KT 9999 SCT008 26/24 Q1013 NOSIG=
14/01/2022 02:00:00Z	 SAID32 WIOO 140200	METAR WIOO 140200Z 14004KT 9999 SCT009 26/24 Q1013 NOSIG=
14/01/2022 02:30:00Z	 SAID32 WIOO 140230	METAR WIOO 140230Z 09004KT 9999 BKN010 27/24 Q1013 NOSIG=
14/01/2022 03:00:00Z	 SAID32 WIOO 140300	METAR WIOO 140300Z 08005KT 9999 BKN011 27/24 Q1013 NOSIG=
14/01/2022 03:30:00Z	 SAID32 WIOO 140330	METAR WIOO 140330Z 04004KT 9999 BKN011 28/24 Q1012 NOSIG=
14/01/2022 04:00:00Z	 SAID32 WIOO 140400	METAR WIOO 140400Z 05003KT 9999 BKN012 28/23 Q1012 NOSIG=
14/01/2022 04:30:00Z	 SAID32 WIOO 140430	METAR WIOO 140430Z 06003KT 9999 BKN012 29/24 Q1011 NOSIG=
14/01/2022 05:00:00Z	 SAID32 WIOO 140500	METAR WIOO 140500Z 05005KT 9999 BKN012 30/24 Q1011 NOSIG=
14/01/2022 05:30:00Z	 SAID32 WIOO 140530	METAR WIOO 140530Z 10003KT 9999 FEW011CB BKN012 30/24 Q1010 TEMPO FM0600 3000 RA=
14/01/2022 06:00:00Z	 SAID32 WIOO 140600	METAR WIOO 140600Z 02004KT 9999 FEW011CB BKN012 31/23 Q1010 TEMPO FM0615 3000 RA=
14/01/2022 06:30:00Z	 SAID32 WIOO 140630	METAR WIOO 140630Z 34005KT 8000 -RA FEW011CB BKN012 30/24 Q1010 NOSIG=
14/01/2022 07:00:00Z	 SAID32 WIOO 140700	METAR WIOO 140700Z 00000KT 9999 FEW011CB BKN012 30/24 Q1009 RERA NOSIG=
14/01/2022 07:30:00Z	 SAID32 WIOO 140730	METAR WIOO 140730Z 34012KT 8000 TS FEW010CB BKN011 30/24 Q1009 TEMPO FM0740 31010KT 3000 TSRA=
14/01/2022 08:00:00Z	 SAID32 WIOO 140800	METAR WIOO 140800Z 35008KT 8000 -RA BKN012 28/26 Q1008 RETS NOSIG=
14/01/2022 08:30:00Z	 SAID32 WIOO 140830	METAR WIOO 140830Z 32006KT 9999 BKN012 29/25 Q1008 NOSIG=
14/01/2022 09:00:00Z	 SAID32 WIOO 140900	METAR WIOO 140900Z 31007KT 9999 BKN012 29/25 Q1008 NOSIG=
14/01/2022 09:30:00Z	 SAID32 WIOO 140930	METAR WIOO 140930Z 31006KT 9999 BKN012 29/25 Q1008 NOSIG=
14/01/2022 10:00:00Z	 SAID32 WIOO 141000	METAR WIOO 141000Z 29005KT 9999 FEW011CB BKN012 29/26 Q1008 NOSIG=
14/01/2022 10:30:00Z	 SAID32 WIOO 141030	METAR WIOO 141030Z 28006KT 8000 FEW011CB BKN012 28/26 Q1009 NOSIG=
14/01/2022 11:00:00Z	 SAID32 WIOO 141100	METAR WIOO 141100Z 32006KT 7000 FEW011CB BKN012 27/25 Q1009 NOSIG=
14/01/2022 11:30:00Z	 SAID32 WIOO 141130	METAR WIOO 141130Z 34005KT 6000 BKN012 27/25 Q1009 NOSIG=
14/01/2022 12:00:00Z	 SAID32 WIOO 141200	METAR WIOO 141200Z 32003KT 6000 BKN012 27/24 Q1010 NOSIG=
14/01/2022 12:30:00Z	 SAID32 WIOO 141230	METAR WIOO 141230Z 31003KT 6000 BKN012 26/24 Q1010 NOSIG=
14/01/2022 13:00:00Z	 SAID32 WIOO 141300	METAR WIOO 141300Z 31003KT 6000 BKN012 26/24 Q1011 NOSIG=
14/01/2022 13:30:00Z	 SAID32 WIOO 141330	METAR WIOO 141330Z 31003KT 6000 BKN012 25/24 Q1011 NOSIG=
14/01/2022 14:00:00Z	 SAID32 WIOO 141400	METAR WIOO 141400Z 34003KT 6000 -TSRA FEW010CB BKN011 25/24 Q1011 NOSIG=
14/01/2022 14:30:00Z	 SAID32 WIOO 141430	METAR WIOO 141430Z 30002KT 6000 -RA FEW011CB BKN012 25/24 Q1011 NOSIG=
14/01/2022 14:30:00Z	 SAID32 WIOO 141430 CCA	METAR COR WIOO 141430Z 30002KT 6000 -RA FEW011CB BKN012 25/24 Q1011 RETS NOSIG=
14/01/2022 15:00:00Z	 SAID32 WIOO 141500	METAR WIOO 141500Z 00000KT 6000 -RA FEW011CB BKN012 26/24 Q1011 NOSIG=
14/01/2022 15:30:00Z	 SAID32 WIOO 141530	METAR WIOO 141530Z 12002KT 6000 -RA BKN012 25/24 Q1011 NOSIG=
14/01/2022 16:00:00Z	 SAID32 WIOO 141600	METAR WIOO 141600Z 09002KT 6000 -RA BKN011 25/24 Q1011 NOSIG=
14/01/2022 16:30:00Z	 SAID32 WIOO 141630	METAR WIOO 141630Z AUTO 11002KT 9000 -RA FEW045 SCT050 BKN160 25/24 Q1011=
14/01/2022 17:00:00Z	 SAID32 WIOO 141700	METAR WIOO 141700Z AUTO 00000KT 9999 -RA NCD 25/24 Q1010=
14/01/2022 17:30:00Z	 SAID32 WIOO 141730	METAR WIOO 141730Z AUTO 00000KT 4200 BR FEW026 BKN046 OVC190 24/24 Q1010=
14/01/2022 18:00:00Z	 SAID32 WIOO 141800	METAR WIOO 141800Z AUTO 16001KT 6000 FEW005 BKN024 OVC025 25/25 Q1010=
14/01/2022 18:30:00Z	 SAID32 WIOO 141830	METAR WIOO 141830Z AUTO 17002KT 5000 SCT003 OVC023 25/24 Q1010=
14/01/2022 19:00:00Z	 SAID32 WIOO 141900	METAR WIOO 141900Z AUTO 21002KT 5000 FEW003 BKN035 BKN049 24/24 Q1010=
14/01/2022 19:30:00Z	 SAID32 WIOO 141930	METAR WIOO 141930Z AUTO 23002KT 5000 -RA FEW029 SCT032 BKN038 24/24 Q1010=
14/01/2022 20:00:00Z	 SAID32 WIOO 142000	METAR WIOO 142000Z AUTO 27002KT 6000 BKN034 SCT036 OVC047 24/24 Q1010=
14/01/2022 20:30:00Z	 SAID32 WIOO 142030	METAR WIOO 142030Z AUTO 22003KT 5000 BKN003 BKN004 BKN044 24/24 Q1010=
14/01/2022 21:00:00Z	 SAID32 WIOO 142100	METAR WIOO 142100Z AUTO 23002KT 8000 OVC003 BKN048 OVC070 24/24 Q1010=
14/01/2022 21:30:00Z	 SAID32 WIOO 142130	METAR WIOO 142130Z AUTO 24003KT 9999 SCT003 BKN028 OVC049 24/24 Q1010=
14/01/2022 22:00:00Z	 SAID32 WIOO 142200	METAR WIOO 142200Z 21004KT 6000 SCT007 24/23 Q1011 NOSIG=
14/01/2022 22:30:00Z	 SAID32 WIOO 142230	METAR WIOO 142230Z 00000KT 6000 SCT010 24/23 Q1011 NOSIG=
14/01/2022 23:00:00Z	 SAID32 WIOO 142300	METAR WIOO 142300Z 00000KT 4000 -RA FEW010 24/23 Q1011 NOSIG=
14/01/2022 23:30:00Z	 SAID32 WIOO 142330	METAR WIOO 142330Z 05004KT 5000 FEW010CB FEW011 24/24 Q1011 NOSIG=
15/01/2022 00:00:00Z	 SAID32 WIOO 150000	METAR WIOO 150000Z 05003KT 9000 FEW010CB FEW011 24/24 Q1011 RERA NOSIG=
15/01/2022 00:30:00Z	 SAID32 WIOO 150030	METAR WIOO 150030Z 36003KT 9000 FEW011 25/24 Q1012 NOSIG=
15/01/2022 01:00:00Z	 SAID32 WIOO 150100	METAR WIOO 150100Z 03005KT 9999 FEW011 25/24 Q1012 NOSIG=
15/01/2022 01:30:00Z	 SAID32 WIOO 150130	METAR WIOO 150130Z 06005KT 9999 FEW011 26/25 Q1012 NOSIG=
15/01/2022 02:00:00Z	 SAID32 WIOO 150200	METAR WIOO 150200Z 06007KT 9999 BKN010 26/25 Q1012 NOSIG=
15/01/2022 02:30:00Z	 SAID32 WIOO 150230	METAR WIOO 150230Z 07006KT 9999 BKN010 26/25 Q1012 NOSIG=
15/01/2022 03:00:00Z	 SAID32 WIOO 150300	METAR WIOO 150300Z 08005KT 9999 BKN011 27/24 Q1011 NOSIG=
15/01/2022 03:30:00Z	 SAID32 WIOO 150330	METAR WIOO 150330Z 15003KT 9999 BKN011 27/24 Q1011 NOSIG=
15/01/2022 04:00:00Z	 SAID32 WIOO 150400	METAR WIOO 150400Z 00000KT 9999 BKN011 27/24 Q1011 NOSIG=
15/01/2022 04:30:00Z	 SAID32 WIOO 150430	METAR WIOO 150430Z 24003KT 9999 BKN011 27/25 Q1011 NOSIG=
15/01/2022 05:00:00Z	 SAID32 WIOO 150500	METAR WIOO 150500Z 23003KT 9999 BKN011 28/25 Q1010 NOSIG=
15/01/2022 05:30:00Z	 SAID32 WIOO 150530	METAR WIOO 150530Z 27007KT 9999 BKN011 29/24 Q1010 NOSIG=
15/01/2022 06:00:00Z	 SAID32 WIOO 150600	METAR WIOO 150600Z 29007KT 9999 SCT012 28/24 Q1009 NOSIG=
15/01/2022 06:30:00Z	 SAID32 WIOO 150630	METAR WIOO 150630Z 29005KT 9999 SCT012 29/24 Q1009 NOSIG=
15/01/2022 07:00:00Z	 SAID32 WIOO 150700	METAR WIOO 150700Z 22009KT 9999 SCT012 29/23 Q1009 NOSIG=
15/01/2022 07:30:00Z	 SAID32 WIOO 150730	METAR WIOO 150730Z 26007KT 9999 SCT012 30/24 Q1009 NOSIG=
15/01/2022 08:00:00Z	 SAID32 WIOO 150800	METAR WIOO 150800Z 27006KT 9999 FEW012 30/24 Q1008 NOSIG=
15/01/2022 08:30:00Z	 SAID32 WIOO 150830	METAR WIOO 150830Z 25007KT 9999 FEW012 30/24 Q1008 NOSIG=
15/01/2022 09:00:00Z	 SAID32 WIOO 150900	METAR WIOO 150900Z 26008KT 9999 FEW012 30/23 Q1008 NOSIG=
15/01/2022 09:30:00Z	 SAID32 WIOO 150930	METAR WIOO 150930Z 27009KT 9999 SCT012 29/24 Q1009 NOSIG=
15/01/2022 10:00:00Z	 SAID32 WIOO 151000	METAR WIOO 151000Z 25006KT 9999 SCT012 29/24 Q1009 NOSIG=
15/01/2022 10:30:00Z	 SAID32 WIOO 151030	METAR WIOO 151030Z 27006KT 9999 SCT012 28/25 Q1009 NOSIG=
15/01/2022 11:00:00Z	 SAID32 WIOO 151100	METAR WIOO 151100Z 27004KT 7000 SCT011 28/25 Q1009 NOSIG=
15/01/2022 11:30:00Z	 SAID32 WIOO 151130	METAR WIOO 151130Z 26004KT 7000 SCT011 27/25 Q1009 NOSIG=
15/01/2022 12:00:00Z	 SAID32 WIOO 151200	METAR WIOO 151200Z 25004KT 7000 SCT012 27/25 Q1010 NOSIG=
15/01/2022 12:30:00Z	 SAID32 WIOO 151230	METAR WIOO 151230Z 25004KT 7000 SCT012 27/25 Q1010 NOSIG=
15/01/2022 13:00:00Z	 SAID32 WIOO 151300	METAR WIOO 151300Z 24003KT 7000 SCT012 27/25 Q1010 NOSIG=
15/01/2022 13:30:00Z	 SAID32 WIOO 151330	METAR WIOO 151330Z 34003KT 7000 SCT012 26/25 Q1010 NOSIG=
15/01/2022 14:00:00Z	 SAID32 WIOO 151400	METAR WIOO 151400Z 33004KT 7000 SCT012 26/24 Q1011 NOSIG=
15/01/2022 14:30:00Z	 SAID32 WIOO 151430	METAR WIOO 151430Z 32004KT 7000 SCT012 26/24 Q1011 NOSIG=
15/01/2022 15:00:00Z	 SAID32 WIOO 151500	METAR WIOO 151500Z 35007KT 7000 SCT012 26/24 Q1011 NOSIG=
15/01/2022 15:30:00Z	 SAID32 WIOO 151530	METAR WIOO 151530Z AUTO 34004KT 9999 SCT044 BKN180 26/24 Q1011=
15/01/2022 16:00:00Z	 SAID32 WIOO 151600	METAR WIOO 151600Z AUTO 36002KT 9000 FEW046 SCT180 26/25 Q1011=
15/01/2022 16:30:00Z	 SAID32 WIOO 151630	METAR WIOO 151630Z AUTO VRB01KT 9000 NCD 26/25 Q1011=
15/01/2022 17:00:00Z	 SAID32 WIOO 151700	METAR WIOO 151700Z AUTO 36001KT 7000 FEW190 SCT230 25/25 Q1011=
15/01/2022 17:30:00Z	 SAID32 WIOO 151730	METAR WIOO 151730Z AUTO 36001KT 6000 FEW190 25/25 Q1011=
15/01/2022 18:00:00Z	 SAID32 WIOO 151800	METAR WIOO 151800Z AUTO 36001KT 5000 BKN170 25/25 Q1010=
15/01/2022 18:30:00Z	 SAID32 WIOO 151830	METAR WIOO 151830Z AUTO VRB02KT 6000 OVC160 25/25 Q1010=
15/01/2022 19:00:00Z	 SAID32 WIOO 151900	METAR WIOO 151900Z AUTO 01003KT 6000 SCT130 BKN160 25/25 Q1010=
15/01/2022 19:30:00Z	 SAID32 WIOO 151930	METAR WIOO 151930Z AUTO 03003KT 5000 SCT170 SCT190 25/25 Q1010=
15/01/2022 20:00:00Z	 SAID32 WIOO 152000	METAR WIOO 152000Z AUTO 02002KT 5000 FEW180 25/25 Q1010=
15/01/2022 20:30:00Z	 SAID32 WIOO 152030	METAR WIOO 152030Z AUTO 02002KT 4200 BR FEW037 25/24 Q1010=
15/01/2022 21:00:00Z	 SAID32 WIOO 152100	METAR WIOO 152100Z AUTO 03003KT 6000 FEW160 25/24 Q1010=
15/01/2022 21:30:00Z	 SAID32 WIOO 152130	METAR WIOO 152130Z AUTO VRB01KT 7000 BKN170 25/24 Q1010=
15/01/2022 22:00:00Z	 SAID32 WIOO 152200	METAR WIOO 152200Z 00000KT 6000 SCT011 25/24 Q1010 NOSIG=
15/01/2022 22:30:00Z	 SAID32 WIOO 152230	METAR WIOO 152230Z 00000KT 6000 SCT011 25/24 Q1010 NOSIG=
15/01/2022 23:00:00Z	 SAID32 WIOO 152300	METAR WIOO 152300Z 33005KT 1600 BR BKN008 24/23 Q1010 NOSIG=
15/01/2022 23:30:00Z	 SAID32 WIOO 152330	METAR WIOO 152330Z 04002KT 2500 BR SCT008 25/24 Q1010 TEMPO AT0000 4000=
16/01/2022 00:00:00Z	 SAID32 WIOO 160000	METAR WIOO 160000Z 01003KT 2700 BR FEW010 25/24 Q1011 TEMPO FM0100 4000=
16/01/2022 00:30:00Z	 SAID32 WIOO 160030	METAR WIOO 160030Z 03004KT 3500 BR FEW010 25/24 Q1011 TEMPO FM0100 4000=
16/01/2022 01:00:00Z	 SAID32 WIOO 160100	METAR WIOO 160100Z 36004KT 6000 FEW011 26/24 Q1011 NOSIG=
16/01/2022 01:30:00Z	 SAID32 WIOO 160130	METAR WIOO 160130Z 35003KT 8000 FEW012 26/24 Q1011 NOSIG=
16/01/2022 02:00:00Z	 SAID32 WIOO 160200	METAR WIOO 160200Z 05002KT 9999 FEW012 27/24 Q1011 NOSIG=
16/01/2022 02:30:00Z	 SAID32 WIOO 160230	METAR WIOO 160230Z 32002KT 9999 FEW012 27/24 Q1011 NOSIG=
16/01/2022 03:00:00Z	 SAID32 WIOO 160300	METAR WIOO 160300Z 35003KT 9999 FEW012 28/24 Q1011 NOSIG=
16/01/2022 03:30:00Z	 SAID32 WIOO 160330	METAR WIOO 160330Z 08004KT 9999 FEW012 29/24 Q1010 NOSIG=
16/01/2022 04:00:00Z	 SAID32 WIOO 160400	METAR WIOO 160400Z 00000KT 9999 FEW012 29/23 Q1010 NOSIG=
16/01/2022 04:30:00Z	 SAID32 WIOO 160430	METAR WIOO 160430Z 34003KT 9999 SCT012 30/23 Q1010 NOSIG=
16/01/2022 05:00:00Z	 SAID32 WIOO 160500	METAR WIOO 160500Z 33004KT 9999 BKN012 30/23 Q1010 NOSIG=
16/01/2022 05:30:00Z	 SAID32 WIOO 160530	METAR WIOO 160530Z 36003KT 9999 BKN012 31/24 Q1009 NOSIG=
16/01/2022 06:00:00Z	 SAID32 WIOO 160600	METAR WIOO 160600Z 34005KT 9999 BKN012 31/24 Q1009 NOSIG=
16/01/2022 06:30:00Z	 SAID32 WIOO 160630	METAR WIOO 160630Z 36005KT 9999 BKN012 31/24 Q1008 NOSIG=
16/01/2022 07:00:00Z	 SAID32 WIOO 160700	METAR WIOO 160700Z 35004KT 9999 BKN012 31/24 Q1008 NOSIG=
16/01/2022 07:30:00Z	 SAID32 WIOO 160730	METAR WIOO 160730Z 34005KT 9999 BKN012 32/24 Q1008 NOSIG=
16/01/2022 08:00:00Z	 SAID32 WIOO 160800	METAR WIOO 160800Z 26003KT 9999 BKN012 31/25 Q1008 NOSIG=
16/01/2022 08:30:00Z	 SAID32 WIOO 160830	METAR WIOO 160830Z 31003KT 9999 FEW011CB BKN012 31/25 Q1007 NOSIG=
16/01/2022 09:00:00Z	 SAID32 WIOO 160900	METAR WIOO 160900Z 35004KT 8000 -RA FEW011CB BKN012 30/26 Q1007 NOSIG=
16/01/2022 09:30:00Z	 SAID32 WIOO 160930	METAR WIOO 160930Z 36006KT 5000 -TSRA FEW010CB BKN011 28/26 Q1008 TEMPO TL1015 5000 TSRA=
16/01/2022 10:00:00Z	 SAID32 WIOO 161000	METAR WIOO 161000Z 01010KT 8000 -TSRA FEW010CB BKN011 26/24 Q1008 TEMPO TL1015 5000 TSRA=
16/01/2022 10:30:00Z	 SAID32 WIOO 161030	METAR WIOO 161030Z 04003KT 8000 TSRA FEW010CB BKN011 26/25 Q1009 TEMPO TL1130 3000 TSRA=
16/01/2022 11:00:00Z	 SAID32 WIOO 161100	METAR WIOO 161100Z 25003KT 8000 -TSRA FEW010CB BKN011 26/25 Q1009 TEMPO TL1130 3000 TSRA=
16/01/2022 11:30:00Z	 SAID32 WIOO 161130	METAR WIOO 161130Z 24003KT 8000 -TSRA FEW010CB BKN011 26/25 Q1009 NOSIG=
16/01/2022 12:00:00Z	 SAID32 WIOO 161200	METAR WIOO 161200Z 24004KT 8000 FEW010CB BKN011 26/25 Q1009 RERA NOSIG=
16/01/2022 12:30:00Z	 SAID32 WIOO 161230	METAR WIOO 161230Z 21005KT 8000 TS FEW010CB BKN011 26/25 Q1010 NOSIG=
16/01/2022 13:00:00Z	 SAID32 WIOO 161300	METAR WIOO 161300Z 22006KT 7000 -TSRA FEW010CB BKN011 26/25 Q1010 NOSIG=
16/01/2022 13:30:00Z	 SAID32 WIOO 161330	METAR WIOO 161330Z 24003KT 7000 TS FEW010CB BKN011 26/25 Q1010 NOSIG=
16/01/2022 14:00:00Z	 SAID32 WIOO 161400	METAR WIOO 161400Z 00000KT 7000 TS FEW010CB BKN011 26/25 Q1011 NOSIG=
16/01/2022 14:30:00Z	 SAID32 WIOO 161430	METAR WIOO 161430Z 00000KT 7000 FEW010CB BKN011 26/25 Q1011 RETS NOSIG=
16/01/2022 15:00:00Z	 SAID32 WIOO 161500	METAR WIOO 161500Z 36003KT 7000 FEW011CB SCT012 26/25 Q1011 NOSIG=
16/01/2022 15:30:00Z	 SAID32 WIOO 161530	METAR WIOO 161530Z 00000KT 7000 FEW011CB SCT012 25/24 Q1011 NOSIG=
16/01/2022 16:00:00Z	 SAID32 WIOO 161600	METAR WIOO 161600Z 00000KT 7000 SCT012 25/24 Q1011 NOSIG=
16/01/2022 16:30:00Z	 SAID32 WIOO 161630	METAR WIOO 161630Z 00000KT 6000 SCT012 25/24 Q1011 NOSIG=
16/01/2022 17:00:00Z	 SAID32 WIOO 161700	METAR WIOO 161700Z 00000KT 6000 SCT012 25/24 Q1011 NOSIG=
16/01/2022 17:30:00Z	 SAID32 WIOO 161730	METAR WIOO 161730Z AUTO 32002KT 6000 SCT034 BKN048 24/24 Q1010=
16/01/2022 18:00:00Z	 SAID32 WIOO 161800	METAR WIOO 161800Z AUTO 32003KT 4200 BR FEW036 SCT041 BKN048 24/24 Q1010=
16/01/2022 18:30:00Z	 SAID32 WIOO 161830	METAR WIOO 161830Z AUTO 32002KT 7000 FEW050 24/24 Q1009=
16/01/2022 19:00:00Z	 SAID32 WIOO 161900	METAR WIOO 161900Z AUTO 30002KT 7000 NCD 24/24 Q1009=
16/01/2022 19:30:00Z	 SAID32 WIOO 161930	METAR WIOO 161930Z AUTO 30002KT 9000 FEW030 SCT040 24/24 Q1009=
16/01/2022 20:00:00Z	 SAID32 WIOO 162000	METAR WIOO 162000Z AUTO 33003KT 7000 FEW029 24/24 Q1009=
16/01/2022 20:30:00Z	 SAID32 WIOO 162030	METAR WIOO 162030Z AUTO 05002KT 9000 FEW030 SCT250 24/24 Q1009=
16/01/2022 21:00:00Z	 SAID32 WIOO 162100	METAR WIOO 162100Z AUTO 07002KT 6000 FEW015 25/24 Q1009=
16/01/2022 21:30:00Z	 SAID32 WIOO 162130	METAR WIOO 162130Z AUTO 03002KT 9999 BKN015 SCT016 24/24 Q1009=
16/01/2022 22:00:00Z	 SAID32 WIOO 162200	METAR WIOO 162200Z 00000KT 7000 SCT012 25/24 Q1009 NOSIG=
16/01/2022 22:30:00Z	 SAID32 WIOO 162230	METAR WIOO 162230Z 00000KT 7000 SCT012 24/24 Q1009 NOSIG=
16/01/2022 23:00:00Z	 SAID32 WIOO 162300	METAR WIOO 162300Z 00000KT 7000 SCT012 24/24 Q1009 NOSIG=
16/01/2022 23:30:00Z	 SAID32 WIOO 162330	METAR WIOO 162330Z 00000KT 7000 SCT012 24/23 Q1009 NOSIG=
17/01/2022 00:00:00Z	 SAID32 WIOO 170000	METAR WIOO 170000Z 00000KT 8000 FEW012 25/24 Q1010 NOSIG=
17/01/2022 00:30:00Z	 SAID32 WIOO 170030	METAR WIOO 170030Z 00000KT 9999 FEW012 25/24 Q1011 NOSIG=
17/01/2022 01:00:00Z	 SAID32 WIOO 170100	METAR WIOO 170100Z 35003KT 9999 FEW012 26/24 Q1011 NOSIG=
17/01/2022 01:30:00Z	 SAID32 WIOO 170130	METAR WIOO 170130Z 36005KT 9999 SCT011 27/24 Q1011 NOSIG=
17/01/2022 02:00:00Z	 SAID32 WIOO 170200	METAR WIOO 170200Z 02004KT 9999 SCT011 28/25 Q1011 NOSIG=
17/01/2022 02:30:00Z	 SAID32 WIOO 170230	METAR WIOO 170230Z 36004KT 9999 SCT011 29/25 Q1011 NOSIG=
17/01/2022 03:00:00Z	 SAID32 WIOO 170300	METAR WIOO 170300Z 01004KT 9999 SCT011 29/24 Q1011 NOSIG=
17/01/2022 03:30:00Z	 SAID32 WIOO 170330	METAR WIOO 170330Z 35006KT 9999 SCT011 30/25 Q1010 NOSIG=
17/01/2022 04:00:00Z	 SAID32 WIOO 170400	METAR WIOO 170400Z 01005KT 9999 SCT012 30/24 Q1011 NOSIG=
17/01/2022 04:30:00Z	 SAID32 WIOO 170430	METAR WIOO 170430Z 36006KT 9999 BKN012 31/24 Q1010 NOSIG=
17/01/2022 05:00:00Z	 SAID32 WIOO 170500	METAR WIOO 170500Z 36008KT 9999 BKN012 31/24 Q1010 NOSIG=
17/01/2022 05:30:00Z	 SAID32 WIOO 170530	METAR WIOO 170530Z 34006KT 9999 BKN012 31/24 Q1009 NOSIG=
17/01/2022 06:00:00Z	 SAID32 WIOO 170600	METAR WIOO 170600Z 02004KT 9999 BKN012 32/24 Q1008 NOSIG=
17/01/2022 06:30:00Z	 SAID32 WIOO 170630	METAR WIOO 170630Z 28004KT 9999 FEW011CB BKN012 31/24 Q1008 TEMPO FM0700 4000 RA=
17/01/2022 07:00:00Z	 SAID32 WIOO 170700	METAR WIOO 170700Z 34007KT 9999 FEW011CB BKN012 30/25 Q1007 TEMPO FM0730 4000 RA=
17/01/2022 07:30:00Z	 SAID32 WIOO 170730	METAR WIOO 170730Z 28010KT 9999 FEW011CB SCT012 30/25 Q1007 NOSIG=
17/01/2022 08:00:00Z	 SAID32 WIOO 170800	METAR WIOO 170800Z 30010KT 9999 FEW011CB SCT012 30/25 Q1006 NOSIG=
17/01/2022 08:30:00Z	 SAID32 WIOO 170830	METAR WIOO 170830Z 28012KT 9999 FEW011CB SCT012 30/25 Q1006 NOSIG=
17/01/2022 09:00:00Z	 SAID32 WIOO 170900	METAR WIOO 170900Z 30013KT 9999 FEW011CN SCT012 30/25 Q1006 NOSIG=
17/01/2022 09:00:00Z	 SAID32 WIOO 170900 CCA	METAR COR WIOO 170900Z 30013KT 9999 FEW011CB SCT012 30/25 Q1006 NOSIG=
17/01/2022 09:30:00Z	 SAID32 WIOO 170930	METAR WIOO 170930Z 30010KT 9999 FEW011CN SCT012 30/25 Q1007 NOSIG=
17/01/2022 09:30:00Z	 SAID32 WIOO 170930 CCA	METAR COR WIOO 170930Z 30010KT 9999 FEW011CB SCT012 30/25 Q1007 NOSIG=
17/01/2022 10:00:00Z	 SAID32 WIOO 171000	METAR WIOO 171000Z 29011KT 9999 FEW011 SCT012 30/25 Q1007 NOSIG=
17/01/2022 10:30:00Z	 SAID32 WIOO 171030	METAR WIOO 171030Z 29007KT 9999 FEW011CB BKN012 30/25 Q1008 NOSIG=
17/01/2022 11:00:00Z	 SAID32 WIOO 171100	METAR WIOO 171100Z 35012KT 8000 -RA FEW010CB BKN011 27/24 Q1008 NOSIG=
17/01/2022 11:30:00Z	 SAID32 WIOO 171130	METAR WIOO 171130Z 01005KT 7000 FEW010CB SCT011 26/24 Q1009 RERA NOSIG=
17/01/2022 12:00:00Z	 SAID32 WIOO 171200	METAR WIOO 171200Z 01003KT 7000 SCT012 26/25 Q1009 NOSIG=
17/01/2022 12:30:00Z	 SAID32 WIOO 171230	METAR WIOO 171230Z 02002KT 7000 SCT012 26/25 Q1010 NOSIG=
17/01/2022 13:00:00Z	 SAID32 WIOO 171300	METAR WIOO 171300Z 02003KT 7000 SCT012 26/24 Q1010 NOSIG=
17/01/2022 13:30:00Z	 SAID32 WIOO 171330	METAR WIOO 171330Z 00000KT 6000 SCT012 26/24 Q1010 NOSIG=
17/01/2022 14:00:00Z	 SAID32 WIOO 171400	METAR WIOO 171400Z 00000KT 6000 SCT012 26/24 Q1010 NOSIG=
17/01/2022 14:30:00Z	 SAID32 WIOO 171430	METAR WIOO 171430Z 00000KT 6000 SCT012 25/24 Q1010 NOSIG=
17/01/2022 15:00:00Z	 SAID32 WIOO 171500	METAR WIOO 171500Z 00000KT 6000 SCT012 26/24 Q1011 NOSIG=
17/01/2022 15:30:00Z	 SAID32 WIOO 171530	METAR WIOO 171530Z 05003KT 6000 SCT012 26/24 Q1010 NOSIG=
17/01/2022 16:00:00Z	 SAID32 WIOO 171600	METAR WIOO 171600Z 05003KT 6000 SCT012 25/24 Q1010 NOSIG=
17/01/2022 16:30:00Z	 SAID32 WIOO 171630	METAR WIOO 171630Z 00000KT 6000 SCT012 25/24 Q1011 NOSIG=
17/01/2022 17:00:00Z	 SAID32 WIOO 171700	METAR WIOO 171700Z 00000KT 6000 SCT012 25/24 Q1010 NOSIG=
17/01/2022 17:30:00Z	 SAID32 WIOO 171730	METAR WIOO 171730Z 00000KT 6000 SCT012 25/24 Q1010 NOSIG=
17/01/2022 18:00:00Z	 SAID32 WIOO 171800	METAR WIOO 171800Z 00000KT 6000 SCT012 25/24 Q1010 NOSIG=
17/01/2022 18:30:00Z	 SAID32 WIOO 171830	METAR WIOO 171830Z AUTO 00000KT 7000 FEW060 24/24 Q1010 NOSIG=
17/01/2022 19:00:00Z	 SAID32 WIOO 171900	METAR WIOO 171900Z AUTO VRB01KT 5000 FEW120 SCT130 24/24 Q1009=
17/01/2022 19:30:00Z	 SAID32 WIOO 171930	METAR WIOO 171930Z AUTO 00000KT 5000 FEW065 BKN130 24/24 Q1009 NOSIG=
17/01/2022 20:00:00Z	 SAID32 WIOO 172000	METAR WIOO 172000Z AUTO 21002KT 5000 BKN110 24/24 Q1009 NOSIG=
17/01/2022 20:30:00Z	 SAID32 WIOO 172030	METAR WIOO 172030Z AUTO VRB01KT 4900 BR FEW080 BKN110 24/24 Q1009 NOSIG=
17/01/2022 21:00:00Z	 SAID32 WIOO 172100	METAR WIOO 172100Z AUTO VRB01KT 7000 FEW140 24/24 Q1009 NOSIG=
17/01/2022 21:30:00Z	 SAID32 WIOO 172130	METAR WIOO 172130Z AUTO 09002KT 8000 NCD 24/23 Q1009 NOSIG=
17/01/2022 22:00:00Z	 SAID32 WIOO 172200	METAR WIOO 172200Z 06003KT 6000 SCT012 24/23 Q1009 NOSIG=
17/01/2022 22:30:00Z	 SAID32 WIOO 172230	METAR WIOO 172230Z 04003KT 6000 SCT012 24/23 Q1009 NOSIG=
17/01/2022 23:00:00Z	 SAID32 WIOO 172300	METAR WIOO 172300Z 02003KT 5000 BR SCT012 24/23 Q1009 NOSIG=
17/01/2022 23:30:00Z	 SAID32 WIOO 172330	METAR WIOO 172330Z 00000KT 6000 SCT010 24/23 Q1010 NOSIG=
18/01/2022 00:00:00Z	 SAID32 WIOO 180000	METAR WIOO 180000Z 01003KT 7000 SCT010 24/24 Q1010 NOSIG=
18/01/2022 00:30:00Z	 SAID32 WIOO 180030	METAR WIOO 180030Z 04005KT 9999 SCT010 25/24 Q1010 NOSIG=
18/01/2022 01:00:00Z	 SAID32 WIOO 180100	METAR WIOO 180100Z 02006KT 9999 SCT011 26/24 Q1011 NOSIG=
18/01/2022 01:30:00Z	 SAID32 WIOO 180130	METAR WIOO 180130Z 01007KT 9999 BKN011 27/24 Q1011 NOSIG=
18/01/2022 02:00:00Z	 SAID32 WIOO 180200	METAR WIOO 180200Z 02007KT 9999 BKN011 28/24 Q1010 NOSIG=
18/01/2022 02:30:00Z	 SAID32 WIOO 180230	METAR WIOO 180230Z 02010KT 9999 BKN011 29/24 Q1011 NOSIG=
18/01/2022 03:00:00Z	 SAID32 WIOO 180300	METAR WIOO 180300Z 34010KT 9999 SCT012 30/24 Q1010 NOSIG=
18/01/2022 03:30:00Z	 SAID32 WIOO 180330	METAR WIOO 180330Z 34010KT 9999 SCT012 30/24 Q1010 NOSIG=
18/01/2022 04:00:00Z	 SAID32 WIOO 180400	METAR WIOO 180400Z 36010KT 9999 SCT012 31/23 Q1010 NOSIG=
18/01/2022 04:30:00Z	 SAID32 WIOO 180430	METAR WIOO 180430Z 35009KT 9999 FEW012 32/24 Q1009 NOSIG=
18/01/2022 05:00:00Z	 SAID32 WIOO 180500	METAR WIOO 180500Z 34010KT 9999 SCT012 32/23 Q1009 NOSIG=
18/01/2022 05:30:00Z	 SAID32 WIOO 180530	METAR WIOO 180530Z 35008KT 9999 SCT012 33/24 Q1008 NOSIG=
18/01/2022 06:00:00Z	 SAID32 WIOO 180600	METAR WIOO 180600Z 36011KT 9999 BKN012 33/23 Q1008 NOSIG=
18/01/2022 06:30:00Z	 SAID32 WIOO 180630	METAR WIOO 180630Z 32012KT 7000 -RA FEW011CB BKN012 30/24 Q1007 NOSIG=
18/01/2022 07:00:00Z	 SAID32 WIOO 180700	METAR WIOO 180700Z 33003KT 9999 FEW011CB BKN012 30/24 Q1007 NOSIG=
18/01/2022 07:30:00Z	 SAID32 WIOO 180730	METAR WIOO 180730Z 02014KT 5000 -RA FEW010CB BKN011 30/24 Q1006 TEMPO FM0745 1000 +RA=
18/01/2022 08:00:00Z	 SAID32 WIOO 180800	METAR WIOO 180800Z 15005KT 9999 FEW011CB BKN012 29/24 Q1006 RERA NOSIG=
18/01/2022 08:30:00Z	 SAID32 WIOO 180830	METAR WIOO 180830Z 17005KT 9999 FEW011CB BKN012 28/23 Q1005 NOSIG=
18/01/2022 09:00:00Z	 SAID32 WIOO 180900	METAR WIOO 180900Z 20004KT 9999 FEW011CB BKN012 28/24 Q1006 NOSIG=
18/01/2022 09:30:00Z	 SAID32 WIOO 180930	METAR WIOO 180930Z 19004KT 9999 FEW011CB SCT012 28/25 Q1006 NOSIG=
18/01/2022 10:00:00Z	 SAID32 WIOO 181000	METAR WIOO 181000Z 33006KT 9999 SCT012 29/23 Q1006 NOSIG=
18/01/2022 10:30:00Z	 SAID32 WIOO 181030	METAR WIOO 181030Z 31004KT 9999 FEW012 29/24 Q1006 NOSIG=
18/01/2022 11:00:00Z	 SAID32 WIOO 181100	METAR WIOO 181100Z 28004KT 8000 FEW012 28/25 Q1007 NOSIG=
18/01/2022 11:30:00Z	 SAID32 WIOO 181130	METAR WIOO 181130Z 29004KT 7000 FEW012 28/25 Q1007 NOSIG=
18/01/2022 12:00:00Z	 SAID32 WIOO 181200	METAR WIOO 181200Z 35003KT 7000 FEW012 28/25 Q1007 NOSIG=
18/01/2022 12:30:00Z	 SAID32 WIOO 181230	METAR WIOO 181230Z 01003KT 7000 FEW012 27/25 Q1008 NOSIG=
18/01/2022 13:00:00Z	 SAID32 WIOO 181300	METAR WIOO 181300Z 36004KT 9999 FEW012 27/23 Q1008 NOSIG=
18/01/2022 13:30:00Z	 SAID32 WIOO 181330	METAR WIOO 181330Z 01004KT 7000 FEW012 27/23 Q1009 NOSIG=
18/01/2022 14:00:00Z	 SAID32 WIOO 181400	METAR WIOO 181400Z 36003KT 7000 FEW012 27/23 Q1009 NOSIG=
18/01/2022 14:30:00Z	 SAID32 WIOO 181430	METAR WIOO 181430Z 02003KT 7000 FEW012 26/23 Q1009 NOSIG=
18/01/2022 15:00:00Z	 SAID32 WIOO 181500	METAR WIOO 181500Z 01003KT 7000 FEW012 26/23 Q1009 NOSIG=
18/01/2022 15:30:00Z	 SAID32 WIOO 181530	METAR WIOO 181530Z 36003KT 7000 FEW012 26/23 Q1010 NOSIG=
18/01/2022 16:00:00Z	 SAID32 WIOO 181600	METAR WIOO 181600Z 31003KT 7000 FEW012 26/23 Q1010 NOSIG=
18/01/2022 16:30:00Z	 SAID32 WIOO 181630	METAR WIOO 181630Z 33005KT 7000 FEW012 25/23 Q1010 NOSIG=
18/01/2022 17:00:00Z	 SAID32 WIOO 181700	METAR WIOO 181700Z 35005KT 7000 FEW012 25/23 Q1009 NOSIG=
18/01/2022 17:30:00Z	 SAID32 WIOO 181730	METAR WIOO 181730Z 36004KT 7000 FEW012 25/23 Q1009 NOSIG=
18/01/2022 18:00:00Z	 SAID32 WIOO 181800	METAR WIOO 181800Z AUTO 02002KT 9999 NCD 25/23 Q1009=
18/01/2022 18:30:00Z	 SAID32 WIOO 181830	METAR WIOO 181830Z AUTO VRB01KT 9999 SCT210 24/23 Q1009 NOSIG=
18/01/2022 19:00:00Z	 SAID32 WIOO 181900	METAR WIOO 181900Z AUTO 32001KT 9999 BKN210 24/23 Q1008 NOSIG=
18/01/2022 19:30:00Z	 SAID32 WIOO 181930	METAR WIOO 181930Z AUTO 25001KT 9999 NCD 23/23 Q1008 NOSIG=
18/01/2022 20:00:00Z	 SAID32 WIOO 182000	METAR WIOO 182000Z AUTO 00000KT 9000 NCD 23/23 Q1008 NOSIG=
18/01/2022 20:30:00Z	 SAID32 WIOO 182030	METAR WIOO 182030Z AUTO 36001KT 9999 NCD 23/23 Q1007=
18/01/2022 21:00:00Z	 SAID32 WIOO 182100	METAR WIOO 182100Z AUTO 00000KT 9000 NCD 23/23 Q1007=
18/01/2022 21:30:00Z	 SAID32 WIOO 182130	METAR WIOO 182130Z AUTO 36001KT 5000 NCD 22/22 Q1007=
18/01/2022 22:00:00Z	 SAID32 WIOO 182200	METAR WIOO 182200Z 00000KT 3000 BR FEW007 23/22 Q1008 NOSIG=
18/01/2022 22:30:00Z	 SAID32 WIOO 182230	METAR WIOO 182230Z 00000KT 4000 BR FEW010 23/22 Q1008 NOSIG=
18/01/2022 23:00:00Z	 SAID32 WIOO 182300	METAR WIOO 182300Z 00000KT 3000 BR FEW010 23/22 Q1008 TEMPO FM2330 5000=
18/01/2022 23:30:00Z	 SAID32 WIOO 182330	METAR WIOO 182330Z 00000KT 4000 BR FEW010 23/22 Q1008 NOSIG=
19/01/2022 00:00:00Z	 SAID32 WIOO 190000	METAR WIOO 190000Z 01002KT 9999 FEW011 24/23 Q1009 NOSIG=
19/01/2022 00:30:00Z	 SAID32 WIOO 190030	METAR WIOO 190030Z 36002KT 9999 FEW012 25/24 Q1009 NOSIG=
19/01/2022 01:00:00Z	 SAID32 WIOO 190100	METAR WIOO 190100Z 02004KT 9999 FEW012 26/24 Q1009 NOSIG=
19/01/2022 01:30:00Z	 SAID32 WIOO 190130	METAR WIOO 190130Z 36005KT 9999 FEW012 27/24 Q1009 NOSIG=
19/01/2022 02:00:00Z	 SAID32 WIOO 190200	METAR WIOO 190200Z 03003KT 9999 FEW012 28/24 Q1010 NOSIG=
19/01/2022 02:30:00Z	 SAID32 WIOO 190230	METAR WIOO 190230Z 36009KT 9999 FEW012 29/24 Q1010 NOSIG=
19/01/2022 03:00:00Z	 SAID32 WIOO 190300	METAR WIOO 190300Z 36006KT 9999 FEW012 29/24 Q1009 NOSIG=
19/01/2022 03:30:00Z	 SAID32 WIOO 190330	METAR WIOO 190330Z 01006KT 9999 SCT012 30/24 Q1009 NOSIG=
19/01/2022 04:00:00Z	 SAID32 WIOO 190400	METAR WIOO 190400Z 01006KT 9999 BKN012 31/23 Q1009 NOSIG=
19/01/2022 04:30:00Z	 SAID32 WIOO 190430	METAR WIOO 190430Z 34007KT 9999 BKN012 30/23 Q1009 NOSIG=
19/01/2022 05:00:00Z	 SAID32 WIOO 190500	METAR WIOO 190500Z 35006KT 9999 BKN012 31/24 Q1008 NOSIG=
19/01/2022 05:30:00Z	 SAID32 WIOO 190530	METAR WIOO 190530Z 36007KT 9999 BKN012 32/25 Q1008 NOSIG=
19/01/2022 06:00:00Z	 SAID32 WIOO 190600	METAR WIOO 190600Z 36008KT 9999 BKN012 32/24 Q1007 NOSIG=
19/01/2022 06:30:00Z	 SAID32 WIOO 190630	METAR WIOO 190630Z 02006KT 9999 BKN012 32/24 Q1007 NOSIG=
19/01/2022 07:00:00Z	 SAID32 WIOO 190700	METAR WIOO 190700Z 36006KT 8000 FEW011CB BKN012 31/23 Q1006 TEMPO FM0720 36016KT=
19/01/2022 07:30:00Z	 SAID32 WIOO 190730	METAR WIOO 190730Z 28010KT 8000 FEW011CB BKN012 29/26 Q1006 NOSIG=
19/01/2022 08:00:00Z	 SAID32 WIOO 190800	METAR WIOO 190800Z 27010KT 9999 FEW011CB BKN012 30/25 Q1005 NOSIG=
19/01/2022 08:30:00Z	 SAID32 WIOO 190830	METAR WIOO 190830Z 28012KT 9999 FEW011CB BKN012 30/25 Q1005 NOSIG=
19/01/2022 09:00:00Z	 SAID32 WIOO 190900	METAR WIOO 190900Z 33012KT 6000 -RA FEW010CB BKN011 29/24Q1006 TEMPO FM0910 34012G22KT 3000 TSRA=
19/01/2022 09:30:00Z	 SAID32 WIOO 190930	METAR WIOO 190930Z 01016KT 3000 -TSRA FEW009CB BKN010 25/24 Q1006 NOSIG=
19/01/2022 10:00:00Z	 SAID32 WIOO 191000	METAR WIOO 191000Z 02003KT 7000 -RA FEW011CB BKN012 24/24 Q1007 NOSIG=
19/01/2022 10:30:00Z	 SAID32 WIOO 191030	METAR WIOO 191030Z 05004KT 7000 -RA BKN012 25/24 Q1006 NOSIG=
19/01/2022 11:00:00Z	 SAID32 WIOO 191100	METAR WIOO 191100Z 01003KT 7000 SCT012 25/23 Q1007 RERA NOSIG=
19/01/2022 11:30:00Z	 SAID32 WIOO 191130	METAR WIOO 191130Z 00000KT 7000 SCT012 25/23 Q1007 NOSIG=
19/01/2022 12:00:00Z	 SAID32 WIOO 191200	METAR WIOO 191200Z 00000KT 7000 SCT012 25/23 Q1007 NOSIG=
19/01/2022 12:30:00Z	 SAID32 WIOO 191230	METAR WIOO 191230Z 20003KT 7000 SCT012 25/24 Q1008 NOSIG=
19/01/2022 13:00:00Z	 SAID32 WIOO 191300	METAR WIOO 191300Z 00000KT 6000 SCT012 25/24 Q1008 NOSIG=
19/01/2022 13:30:00Z	 SAID32 WIOO 191330	METAR WIOO 191330Z 00000KT 6000 SCT012 24/23 Q1009 NOSIG=
19/01/2022 14:00:00Z	 SAID32 WIOO 191400	METAR WIOO 191400Z 00000KT 6000 BKN012 24/23 Q1009 NOSIG=
19/01/2022 14:30:00Z	 SAID32 WIOO 191430	METAR WIOO 191430Z 00000KT 6000 BKN012 24/23 Q1009 NOSIG=
19/01/2022 15:00:00Z	 SAID32 WIOO 191500	METAR WIOO 191500Z 00000KT 6000 BKN012 24/23 Q1010 NOSIG=
19/01/2022 15:30:00Z	 SAID32 WIOO 191530	METAR WIOO 191530Z 00000KT 6000 BKN012 24/23 Q1010 NOSIG=
19/01/2022 16:00:00Z	 SAID32 WIOO 191600	METAR WIOO 191600Z 00000KT 6000 BKN012 24/23 Q1010 NOSIG=
19/01/2022 16:30:00Z	 SAID32 WIOO 191630	METAR WIOO 191630Z AUTO VRB01KT 7000 BKN050 BKN065 OVC075 24/24 Q1010=
19/01/2022 17:00:00Z	 SAID32 WIOO 191700	METAR WIOO 191700Z AUTO 30005KT 7000 -RA SCT007 OVC050 25/24 Q1010=
19/01/2022 17:30:00Z	 SAID32 WIOO 191730	METAR WIOO 191730Z AUTO 31009KT 2700 RA BKN006 BKN007 BKN019 24/24 Q1010=
19/01/2022 18:00:00Z	 SAID32 WIOO 191800	METAR WIOO 191800Z AUTO 30007KT 4800 -RA SCT006 SCT007 BKN027 24/24 Q1010=
19/01/2022 18:30:00Z	 SAID32 WIOO 191830	METAR WIOO 191830Z AUTO 30005KT 5000 -RA FEW008 SCT034 BKN046 24/24 Q1009=
19/01/2022 19:00:00Z	 SAID32 WIOO 191900	METAR WIOO 191900Z AUTO 28004KT 8000 -RA FEW039 SCT040 BKN050 24/23 Q1009=
19/01/2022 19:30:00Z	 SAID32 WIOO 191930	METAR WIOO 191930Z AUTO 33004KT 8000 -RA FEW037 SCT050 BKN065 23/23 Q1008=
19/01/2022 20:00:00Z	 SAID32 WIOO 192000	METAR WIOO 192000Z AUTO VRB01KT 9999 -RA FEW045 SCT055 BKN070 23/23 Q1008=
19/01/2022 20:30:00Z	 SAID32 WIOO 192030	METAR WIOO 192030Z AUTO 28002KT 9999 -RA FEW045 SCT055 BKN060 23/23 Q1008=
19/01/2022 21:00:00Z	 SAID32 WIOO 192100	METAR WIOO 192100Z AUTO 34002KT 9999 OVC060 24/23 Q1008=
19/01/2022 21:30:00Z	 SAID32 WIOO 192130	METAR WIOO 192130Z AUTO VRB02KT 9999 OVC065 24/24 Q1008=
19/01/2022 22:00:00Z	 SAID32 WIOO 192200	METAR WIOO 192200Z AUTO 36002KT 9999 OVC070 24/24 Q1008=
19/01/2022 22:30:00Z	 SAID32 WIOO 192230	METAR WIOO 192230Z 02003KT 6000 BKN011 24/23 Q1008 NOSIG=
19/01/2022 23:00:00Z	 SAID32 WIOO 192300	METAR WIOO 192300Z 01003KT 7000 SCT012 24/23 Q1009 NOSIG=
19/01/2022 23:30:00Z	 SAID32 WIOO 192330	METAR WIOO 192330Z 00000KT 7000 FEW012 24/23 Q1009 NOSIG=
20/01/2022 00:00:00Z	 SAID32 WIOO 200000	METAR WIOO 200000Z 00000KT 8000 FEW012 24/23 Q1010 NOSIG=
20/01/2022 00:30:00Z	 SAID32 WIOO 200030	METAR WIOO 200030Z 28003KT 9000 FEW012 24/23 Q1010 NOSIG=
20/01/2022 01:00:00Z	 SAID32 WIOO 200100	METAR WIOO 200100Z 32004KT 9999 SCT013 25/24 Q1010 NOSIG=
20/01/2022 01:30:00Z	 SAID32 WIOO 200130	METAR WIOO 200130Z 34005KT 9999 FEW013 26/24 Q1011 NOSIG=
20/01/2022 02:00:00Z	 SAID32 WIOO 200200	METAR WIOO 200200Z 33005KT 9999 FEW013 26/24 Q1011 NOSIG=
20/01/2022 02:30:00Z	 SAID32 WIOO 200230	METAR WIOO 200230Z 33006KT 9999 FEW013 27/24 Q1011 NOSIG=
20/01/2022 03:00:00Z	 SAID32 WIOO 200300	METAR WIOO 200300Z 34008KT 9999 BKN012 28/24 Q1011 NOSIG=
20/01/2022 03:30:00Z	 SAID32 WIOO 200330	METAR WIOO 200330Z 36004KT 9999 BKN012 28/24 Q1011 NOSIG=
20/01/2022 04:00:00Z	 SAID32 WIOO 200400	METAR WIOO 200400Z 33005KT 9999 BKN012 28/25 Q1010 NOSIG=
20/01/2022 04:30:00Z	 SAID32 WIOO 200430	METAR WIOO 200430Z 31009KT 9999 BKN012 29/24 Q1010 NOSIG=
20/01/2022 05:00:00Z	 SAID32 WIOO 200500	METAR WIOO 200500Z 28010KT 9999 SCT012 30/24 Q1010 NOSIG=
20/01/2022 05:30:00Z	 SAID32 WIOO 200530	METAR WIOO 200530Z 27012KT 9999 SCT012 30/24 Q1009 NOSIG=
20/01/2022 06:00:00Z	 SAID32 WIOO 200600	METAR WIOO 200600Z 28009KT 9999 BKN012 31/23 Q1008 NOSIG=
20/01/2022 06:30:00Z	 SAID32 WIOO 200630	METAR WIOO 200630Z 32008KT 9999 BKN012 31/24 Q1008 NOSIG=
20/01/2022 07:00:00Z	 SAID32 WIOO 200700	METAR WIOO 200700Z 27010KT 9999 BKN012 31/24 Q1007 NOSIG=
20/01/2022 07:30:00Z	 SAID32 WIOO 200730	METAR WIOO 200730Z 27008KT 9999 BKN012 30/24 Q1007 NOSIG=
20/01/2022 08:00:00Z	 SAID32 WIOO 200800	METAR WIOO 200800Z 27010KT 9999 BKN012 30/24 Q1007 NOSIG=
20/01/2022 08:30:00Z	 SAID32 WIOO 200830	METAR WIOO 200830Z 27010KT 9999 BKN012 30/24 Q1007 NOSIG=
20/01/2022 09:00:00Z	 SAID32 WIOO 200900	METAR WIOO 200900Z 30008KT 9999 BKN012 29/24 Q1007 NOSIG=
20/01/2022 09:30:00Z	 SAID32 WIOO 200930	METAR WIOO 200930Z 28005KT 9999 BKN012 28/24 Q1007 NOSIG=
20/01/2022 10:00:00Z	 SAID32 WIOO 201000	METAR WIOO 201000Z 28005KT 9999 SCT012 28/24 Q1007 NOSIG=
20/01/2022 10:30:00Z	 SAID32 WIOO 201030	METAR WIOO 201030Z 29003KT 9999 SCT012 28/25 Q1008 NOSIG=
20/01/2022 11:00:00Z	 SAID32 WIOO 201100	METAR WIOO 201100Z 28004KT 9999 SCT012 27/24 Q1008 NOSIG=
20/01/2022 11:30:00Z	 SAID32 WIOO 201130	METAR WIOO 201130Z 31002KT 7000 SCT012 26/24 Q1008 NOSIG=
20/01/2022 12:00:00Z	 SAID32 WIOO 201200	METAR WIOO 201200Z 33003KT 7000 SCT 26/24 Q1009 NOSIG=
20/01/2022 12:00:00Z	 SAID32 WIOO 201200 CCA	METAR COR WIOO 201200Z 33003KT 7000 SCT012 26/24 Q1009 NOSIG=
20/01/2022 12:30:00Z	 SAID32 WIOO 201230	METAR WIOO 201230Z 32003KT 7000 SCT012 26/24 Q1009 NOSIG=
20/01/2022 13:00:00Z	 SAID32 WIOO 201300	METAR WIOO 201300Z 33004KT 6000 SCT012 26/24 Q1009 NOSIG=
20/01/2022 13:30:00Z	 SAID32 WIOO 201330	METAR WIOO 201330Z 32003KT 6000 SCT012 26/24 Q1010 NOSIG=
20/01/2022 14:00:00Z	 SAID32 WIOO 201400	METAR WIOO 201400Z 31004KT 6000 SCT012 26/24 Q1010 NOSIG=
20/01/2022 14:30:00Z	 SAID32 WIOO 201430	METAR WIOO 201430Z 30004KT 7000 SCT012 26/24 Q1010 NOSIG=
20/01/2022 15:00:00Z	 SAID32 WIOO 201500	METAR WIOO 201500Z 32003KT 6000 SCT012 25/24 Q1010 NOSIG=
20/01/2022 15:30:00Z	 SAID32 WIOO 201530	METAR WIOO 201530Z 00000KT 6000 SCT012 25/24 Q1011 NOSIG=
20/01/2022 16:00:00Z	 SAID32 WIOO 201600	METAR WIOO 201600Z 00000KT 6000 SCT012 25/24 Q1011 NOSIG=
20/01/2022 16:30:00Z	 SAID32 WIOO 201630	METAR WIOO 201630Z 06003KT 6000 SCT012 25/24 Q1010 NOSIG=
20/01/2022 17:00:00Z	 SAID32 WIOO 201700	METAR WIOO 201700Z AUTO 05002KT 9999 NCD 25/24 Q1010=
20/01/2022 17:30:00Z	 SAID32 WIOO 201730	METAR WIOO 201730Z AUTO 07002KT 9999 NCD 25/24 Q1010=
20/01/2022 18:00:00Z	 SAID32 WIOO 201800	METAR WIOO 201800Z AUTO 08002KT 9999 FEW018 SCT200 BKN240 25/24 Q1009=
20/01/2022 18:30:00Z	 SAID32 WIOO 201830	METAR WIOO 201830Z AUTO 07002KT 9999 OVC017 BKN018 OVC200 25/24 Q1009=
20/01/2022 19:00:00Z	 SAID32 WIOO 201900	METAR WIOO 201900Z AUTO 06002KT 9999 SCT021 SCT027 OVC200 25/24 Q1009=
20/01/2022 19:30:00Z	 SAID32 WIOO 201930	METAR WIOO 201930Z AUTO 04002KT 9999 OVC200 24/24 Q1009=
20/01/2022 20:00:00Z	 SAID32 WIOO 202000	METAR WIOO 202000Z AUTO 05003KT 9999 OVC200 24/24 Q1008=
20/01/2022 20:30:00Z	 SAID32 WIOO 202030	METAR WIOO 202030Z AUTO 05003KT 9999 OVC200 24/24 Q1008=
20/01/2022 21:00:00Z	 SAID32 WIOO 202100	METAR WIOO 202100Z AUTO 07002KT 9999 OVC200 24/24 Q1008=
20/01/2022 21:30:00Z	 SAID32 WIOO 202130	METAR WIOO 202130Z AUTO 08003KT 7000 BKN002 SCT003 OVC200 24/24 Q1009=
20/01/2022 22:00:00Z	 SAID32 WIOO 202200	METAR WIOO 202200Z 09002KT 7000 SCT011 24/24 Q1009 NOSIG=
20/01/2022 22:30:00Z	 SAID32 WIOO 202230	METAR WIOO 202230Z 07003KT 7000 SCT011 24/24 Q1009 NOSIG=
20/01/2022 23:00:00Z	 SAID32 WIOO 202300	METAR WIOO 202300Z 06003KT 7000 SCT011 24/23 Q1009 NOSIG=
20/01/2022 23:30:00Z	 SAID32 WIOO 202330	METAR WIOO 202330Z 06003KT 6000 SCT007 24/23 Q1010 NOSIG=
21/01/2022 00:00:00Z	 SAID32 WIOO 210000	METAR WIOO 210000Z 00000KT 8000 SCT008 24/23 Q1010 NOSIG=
21/01/2022 00:30:00Z	 SAID32 WIOO 210030	METAR WIOO 210030Z 07003KT 9999 FEW010 24/23 Q1011 NOSIG=
21/01/2022 01:00:00Z	 SAID32 WIOO 210100	METAR WIOO 210100Z 07004KT 9999 FEW011 25/24 Q1011 NOSIG=
21/01/2022 01:30:00Z	 SAID32 WIOO 210130	METAR WIOO 210130Z 09003KT 9999 FEW011 26/24 Q1011 NOSIG=
21/01/2022 02:00:00Z	 SAID32 WIOO 210200	METAR WIOO 210200Z 08003KT 9999 FEW011 26/24 Q1011 NOSIG=
21/01/2022 02:30:00Z	 SAID32 WIOO 210230	METAR WIOO 210230Z 07004KT 9999 FEW011 27/24 Q1011 NOSIG=
21/01/2022 03:00:00Z	 SAID32 WIOO 210300	METAR WIOO 210300Z 02006KT 9999 SCT012 28/24 Q1011 NOSIG=
21/01/2022 03:30:00Z	 SAID32 WIOO 210330	METAR WIOO 210330Z 36004KT 9999 SCT012 29/24 Q1011 NOSIG=
21/01/2022 04:00:00Z	 SAID32 WIOO 210400	METAR WIOO 210400Z 36005KT 9999 BKN012 30/24 Q1011 NOSIG=
21/01/2022 04:30:00Z	 SAID32 WIOO 210430	METAR WIOO 210430Z 02003KT 9999 BKN012 31/24 Q1010 NOSIG=
21/01/2022 05:00:00Z	 SAID32 WIOO 210500	METAR WIOO 210500Z 33005KT 9999 BKN012 31/23 Q1010 NOSIG=
21/01/2022 05:30:00Z	 SAID32 WIOO 210530	METAR WIOO 210530Z 33005KT 9999 BKN012 31/23 Q1010 NOSIG=
21/01/2022 06:00:00Z	 SAID32 WIOO 210600	METAR WIOO 210600Z 36003KT 9999 BKN012 31/23 Q1009 NOSIG=
21/01/2022 06:30:00Z	 SAID32 WIOO 210630	METAR WIOO 210630Z 33003KT 9999 FEW011CB SCT012 32/23 Q1008 NOSIG=
21/01/2022 07:00:00Z	 SAID32 WIOO 210700	METAR WIOO 210700Z 31006KT 9999 FEW011CB SCT012 33/23 Q1008 NOSIG=
21/01/2022 07:30:00Z	 SAID32 WIOO 210730	METAR WIOO 210730Z 29008KT 9999 FEW011CB SCT012 33/23 Q1007 NOSIG=
21/01/2022 08:00:00Z	 SAID32 WIOO 210800	METAR WIOO 210800Z 29010KT 9999 FEW011CB SCT012 32/24 Q1007 NOSIG=
21/01/2022 08:30:00Z	 SAID32 WIOO 210830	METAR WIOO 210830Z 27010KT 9999 FEW011CB SCT012 32/24 Q1007 NOSIG=
21/01/2022 09:00:00Z	 SAID32 WIOO 210900	METAR WIOO 210900Z 27008KT 9999 FEW012 31/22 Q1007 NOSIG=
21/01/2022 09:30:00Z	 SAID32 WIOO 210930	METAR WIOO 210930Z 27010KT 9999 FEW012 30/23 Q1007 NOSIG=
21/01/2022 10:00:00Z	 SAID32 WIOO 211000	METAR WIOO 211000Z 27006KT 9999 FEW012 29/23 Q1007 NOSIG=
21/01/2022 10:30:00Z	 SAID32 WIOO 211030	METAR WIOO 211030Z 27007KT 9999 FEW012 28/23 Q1008 NOSIG=
21/01/2022 11:00:00Z	 SAID32 WIOO 211100	METAR WIOO 211100Z 28005KT 9999 FEW012 28/24 Q1008 NOSIG=
21/01/2022 11:30:00Z	 SAID32 WIOO 211130	METAR WIOO 211130Z 30005KT 8000 FEW012 27/24 Q1008 NOSIG=
21/01/2022 12:00:00Z	 SAID32 WIOO 211200	METAR WIOO 211200Z 29004KT 9999 FEW012 27/24 Q1008 NOSIG=
21/01/2022 12:30:00Z	 SAID32 WIOO 211230	METAR WIOO 211230Z 28003KT 8000 FEW012 26/24 Q1009 NOSIG=
21/01/2022 13:00:00Z	 SAID32 WIOO 211300	METAR WIOO 211300Z 28004KT 8000 FEW012 26/23 Q1009 NOSIG=
21/01/2022 13:30:00Z	 SAID32 WIOO 211330	METAR WIOO 211330Z 32003KT 6000 FEW012 25/24 Q1009 NOSIG=
21/01/2022 14:00:00Z	 SAID32 WIOO 211400	METAR WIOO 211400Z 31003KT 6000 FEW012 25/24 Q1010 NOSIG=
21/01/2022 14:30:00Z	 SAID32 WIOO 211430	METAR WIOO 211430Z 32004KT 6000 FEW012 25/24 Q1010 NOSIG=
21/01/2022 15:00:00Z	 SAID32 WIOO 211500	METAR WIOO 211500Z 31006KT 6000 FEW012 25/24 Q1010 NOSIG=
21/01/2022 15:30:00Z	 SAID32 WIOO 211530	METAR WIOO 211530Z 31004KT 6000 FEW012 25/24 Q1010 NOSIG=
21/01/2022 16:00:00Z	 SAID32 WIOO 211600	METAR WIOO 211600Z 31003KT 6000 FEW012 25/24 Q1010 NOSIG=
21/01/2022 16:30:00Z	 SAID32 WIOO 211630	METAR WIOO 211630Z 00000KT 6000 FEW012 25/24 Q1010 NOSIG=
21/01/2022 17:00:00Z	 SAID32 WIOO 211700	METAR WIOO 211700Z 00000KT 6000 FEW012 25/24 Q1010 NOSIG=
21/01/2022 17:30:00Z	 SAID32 WIOO 211730	METAR WIOO 211730Z 00000KT 6000 FEW012 25/24 Q1010 NOSIG=
21/01/2022 18:00:00Z	 SAID32 WIOO 211800	METAR WIOO 211800Z 00000KT 6000 FEW012 25/24 Q1009 NOSIG=
21/01/2022 18:30:00Z	 SAID32 WIOO 211830	METAR WIOO 211830Z AUTO 36001KT 7000 NCD 24/23 Q1009=
21/01/2022 19:00:00Z	 SAID32 WIOO 211900	METAR WIOO 211900Z AUTO 25001KT 5000 NCD 23/23 Q1009=
21/01/2022 19:30:00Z	 SAID32 WIOO 211930	METAR WIOO 211930Z AUTO 00000KT 5000 NCD 23/23 Q1009=
21/01/2022 20:00:00Z	 SAID32 WIOO 212000	METAR WIOO 212000Z AUTO 00000KT 5000 NCD 23/23 Q1009=
21/01/2022 20:30:00Z	 SAID32 WIOO 212030	METAR WIOO 212030Z AUTO 06002KT 4300 BR NCD 23/23 Q1009=
21/01/2022 21:00:00Z	 SAID32 WIOO 212100	METAR WIOO 212100Z AUTO 09003KT 4600 BR SCT002 23/23 Q1009=
21/01/2022 21:30:00Z	 SAID32 WIOO 212130	METAR WIOO 212130Z AUTO 08002KT 5000 BKN002 23/23 Q1009=
21/01/2022 22:00:00Z	 SAID32 WIOO 212200	METAR WIOO 212200Z AUTO 08001KT 3500 BR OVC002 23/23 Q1009=
21/01/2022 22:30:00Z	 SAID32 WIOO 212230	METAR WIOO 212230Z AUTO 06001KT 6000 FEW002 23/22 Q1009=
21/01/2022 23:00:00Z	 SAID32 WIOO 212300	METAR WIOO 212300Z 00000KT 4000 BR SCT010 23/23 Q1009 NOSIG=
21/01/2022 23:30:00Z	 SAID32 WIOO 212330	METAR WIOO 212330Z 00000KT 7000 FEW011 23/23 Q1009 NOSIG=
22/01/2022 00:00:00Z	 SAID32 WIOO 220000	METAR WIOO 220000Z 06003KT 9999 FEW012 24/23 Q1010 NOSIG=
22/01/2022 00:30:00Z	 SAID32 WIOO 220030	METAR WIOO 220030Z 05003KT 9999 FEW012 25/24 Q1010 NOSIG=
22/01/2022 01:00:00Z	 SAID32 WIOO 220100	METAR WIOO 220100Z 07003KT 9999 FEW012 26/24 Q1010 NOSIG=
22/01/2022 01:30:00Z	 SAID32 WIOO 220130	METAR WIOO 220130Z 01003KT 9999 FEW012 27/24 Q1010 NOSIG=
22/01/2022 02:00:00Z	 SAID32 WIOO 220200	METAR WIOO 220200Z 06003KT 9999 FEW012 28/23 Q1010 NOSIG=
22/01/2022 02:30:00Z	 SAID32 WIOO 220230	METAR WIOO 220230Z 08003KT 9999 SCT012 29/23 Q1010 NOSIG=
22/01/2022 03:00:00Z	 SAID32 WIOO 220300	METAR WIOO 220300Z 04003KT 9999 SCT012 29/23 Q1010 NOSIG=
22/01/2022 03:30:00Z	 SAID32 WIOO 220330	METAR WIOO 220330Z 33005KT 9999 BKN012 30/22 Q1010 NOSIG=
22/01/2022 04:00:00Z	 SAID32 WIOO 220400	METAR WIOO 220400Z 34005KT 9999 BKN012 31/22 Q1009 NOSIG=
22/01/2022 04:30:00Z	 SAID32 WIOO 220430	METAR WIOO 220430Z 30006KT 9999 BKN012 31/22 Q1009 NOSIG=
22/01/2022 05:00:00Z	 SAID32 WIOO 220500	METAR WIOO 220500Z 31003KT 9999 BKN012 32/22 Q1009 NOSIG=
22/01/2022 05:30:00Z	 SAID32 WIOO 220530	METAR WIOO 220530Z 33007KT 9999 BKN012 32/22 Q1008 NOSIG=
22/01/2022 06:00:00Z	 SAID32 WIOO 220600	METAR WIOO 220600Z 32004KT 9999 BKN012 32/22 Q1008 NOSIG=
22/01/2022 06:30:00Z	 SAID32 WIOO 220630	METAR WIOO 220630Z 28008KT 9999 BKN012 32/24 Q1007 NOSIG=
22/01/2022 07:00:00Z	 SAID32 WIOO 220700	METAR WIOO 220700Z 29005KT 9999 BKN012 32/23 Q1006 NOSIG=
22/01/2022 07:30:00Z	 SAID32 WIOO 220730	METAR WIOO 220730Z 28011KT 9999 BKN012 32/24 Q1006 NOSIG=
22/01/2022 08:00:00Z	 SAID32 WIOO 220800	METAR WIOO 220800Z 23007KT 9999 BKN012 31/24 Q1005 NOSIG=
22/01/2022 08:30:00Z	 SAID32 WIOO 220830	METAR WIOO 220830Z 25010KT 9999 BKN012 31/24 Q1005 NOSIG=
22/01/2022 09:00:00Z	 SAID32 WIOO 220900	METAR WIOO 220900Z 26012KT 9000 FEW011CB BKN012 31/24 Q1006 TEMPO FM0930 7000 TS=
22/01/2022 09:30:00Z	 SAID32 WIOO 220930	METAR WIOO 220930Z 29012KT 9000 FEW011CB BKN012 31/24 Q1006 NOSIG=
22/01/2022 10:00:00Z	 SAID32 WIOO 221000	METAR WIOO 221000Z 27014KT 8000 FEW011CB BKN012 30/24 Q1006 NOSIG=
22/01/2022 10:30:00Z	 SAID32 WIOO 221030	METAR WIOO 221030Z 29010KT 8000 FEW011CB BKN012 29/24 Q1007 NOSIG=
22/01/2022 11:00:00Z	 SAID32 WIOO 221100	METAR WIOO 221100Z 30007KT 6000 -RA FEW011CB BKN012 28/24 Q1007 NOSIG=
22/01/2022 11:30:00Z	 SAID32 WIOO 221130	METAR WIOO 221130Z 32004KT 6000 -RA FEW011CB BKN012 27/25 Q1007 NOSIG=
22/01/2022 12:00:00Z	 SAID32 WIOO 221200	METAR WIOO 221200Z 32003KT 6000 FEW011CB BKN012 26/24 Q1007 RERA NOSIG=
22/01/2022 12:30:00Z	 SAID32 WIOO 221230	METAR WIOO 221230Z 33003KT 6000 FEW011CB BKN012 26/24 Q1008 NOSIG=
22/01/2022 13:00:00Z	 SAID32 WIOO 221300	METAR WIOO 221300Z 26003KT 7000 BKN012 26/24 Q1008 NOSIG=
22/01/2022 13:30:00Z	 SAID32 WIOO 221330	METAR WIOO 221330Z 28003KT 7000 BKN012 26/24 Q1008 NOSIG=
22/01/2022 14:00:00Z	 SAID32 WIOO 221400	METAR WIOO 221400Z 24003KT 7000 SCT012 26/24 Q1009 NOSIG=
22/01/2022 14:30:00Z	 SAID32 WIOO 221430	METAR WIOO 221430Z 29002KT 7000 SCT012 26/24 Q1009 NOSIG=
22/01/2022 15:00:00Z	 SAID32 WIOO 221500	METAR WIOO 221500Z 27003KT 7000 FEW012 26/24 Q1009 NOSIG=
22/01/2022 15:30:00Z	 SAID32 WIOO 221530	METAR WIOO 221530Z 21002KT 7000 FEW012 26/24 Q1009 NOSIG=
22/01/2022 16:00:00Z	 SAID32 WIOO 221600	METAR WIOO 221600Z 00000KT 7000 FEW012 26/24 Q1009 NOSIG=
22/01/2022 16:30:00Z	 SAID32 WIOO 221630	METAR WIOO 221630Z 00000KT 7000 FEW012 26/24 Q1009 NOSIG=
22/01/2022 17:00:00Z	 SAID32 WIOO 221700	METAR WIOO 221700Z 00000KT 7000 FEW012 26/24 Q1009 NOSIG=
22/01/2022 17:30:00Z	 SAID32 WIOO 221730	METAR WIOO 221730Z 00000KT 7000 FEW012 26/24 Q1009 NOSIG=
22/01/2022 18:00:00Z	 SAID32 WIOO 221800	METAR WIOO 221800Z AUTO 34001KT 6000 FEW039 25/24 Q1008=
22/01/2022 18:30:00Z	 SAID32 WIOO 221830	METAR WIOO 221830Z AUTO 00000KT 8000 NCD 24/24 Q1008=
22/01/2022 19:00:00Z	 SAID32 WIOO 221900	METAR WIOO 221900Z AUTO 19002KT 7000 NCD 24/24 Q1008=
22/01/2022 19:30:00Z	 SAID32 WIOO 221930	METAR WIOO 221930Z AUTO 19002KT 5000 SCT026 SCT065 24/24 Q1008=
22/01/2022 20:00:00Z	 SAID32 WIOO 222000	METAR WIOO 222000Z AUTO 36001KT 3700 BR FEW025 24/24 Q1008=
22/01/2022 20:30:00Z	 SAID32 WIOO 222030	METAR WIOO 222030Z AUTO 01001KT 5000 SCT026 BKN030 OVC042 24/24 Q1008=
22/01/2022 21:00:00Z	 SAID32 WIOO 222100	METAR WIOO 222100Z AUTO 32002KT 5000 BKN030 BKN032 OVC041 24/24 Q1008=
22/01/2022 21:30:00Z	 SAID32 WIOO 222130	METAR WIOO 222130Z AUTO 08001KT 4500 BR OVC032 BKN034 24/24 Q1008=
22/01/2022 22:00:00Z	 SAID32 WIOO 222200	METAR WIOO 222200Z AUTO 00000KT 3500 BR BKN032 24/24 Q1008=
22/01/2022 22:30:00Z	 SAID32 WIOO 222230	METAR WIOO 222230Z 06003KT 3000 BR FEW012 24/24 Q1008 NOSIG=
22/01/2022 23:00:00Z	 SAID32 WIOO 222300	METAR WIOO 222300Z 07003KT 0300 FG VV003 24/24 Q1009 TEMPO FM2330 0800=
22/01/2022 23:30:00Z	 SAID32 WIOO 222330	METAR WIOO 222330Z 08003KT 0150 FG VV0200 24/24 Q1009 TEMPO TL2400 0800=
22/01/2022 23:30:00Z	 SAID32 WIOO 222330 CCA	METAR COR WIOO 222330Z 08003KT 0150 FG VV002 24/24 Q1009 TEMPO TL2400 0800=
23/01/2022 00:00:00Z	 SAID32 WIOO 230000	METAR WIOO 230000Z 05003KT 0400 FG VV0300 24/24 Q1009 TEMPO FM0100 4000 BR=
23/01/2022 00:00:00Z	 SAID32 WIOO 230000 CCA	METAR COR WIOO 230000Z 05003KT 0400 FG VV003 24/24 Q1009 TEMPO FM0100 4000 BR=
23/01/2022 00:30:00Z	 SAID32 WIOO 230030	METAR WIOO 230030Z 04003KT 0600 FG OVC003 25/24 Q1010 TEMPO FM0100 4000 BR=
23/01/2022 01:00:00Z	 SAID32 WIOO 230100	METAR WIOO 230100Z 35005KT 9000 SCT007 26/25 Q1010 NOSIG=
23/01/2022 01:30:00Z	 SAID32 WIOO 230130	METAR WIOO 230130Z 03004KT 9999 BKN010 27/25 Q1010 NOSIG=
23/01/2022 02:00:00Z	 SAID32 WIOO 230200	METAR WIOO 230200Z 36006KT 9999 BKN011 28/25 Q1010 NOSIG=
23/01/2022 02:30:00Z	 SAID32 WIOO 230230	METAR WIOO 230230Z 36006KT 9999 BKN012 29/25 Q1010 NOSIG=
23/01/2022 03:00:00Z	 SAID32 WIOO 230300	METAR WIOO 230300Z 33006KT 9999 BKN012 29/24 Q1010 NOSIG=
23/01/2022 03:30:00Z	 SAID32 WIOO 230330	METAR WIOO 230330Z 35007KT 9999 BKN012 30/25 Q1010 NOSIG=
23/01/2022 04:00:00Z	 SAID32 WIOO 230400	METAR WIOO 230400Z 36005KT 9999 BKN012 30/25 Q1009 NOSIG=
23/01/2022 04:30:00Z	 SAID32 WIOO 230430	METAR WIOO 230430Z 35004KT 9999 BKN012 31/25 Q1009 NOSIG=
23/01/2022 05:00:00Z	 SAID32 WIOO 230500	METAR WIOO 230500Z 31004KT 9999 BKN012 31/25 Q1008 NOSIG=
23/01/2022 05:30:00Z	 SAID32 WIOO 230530	METAR WIOO 230530Z 32005KT 9999 BKN012 32/25 Q1008 NOSIG=
23/01/2022 06:00:00Z	 SAID32 WIOO 230600	METAR WIOO 230600Z 32007KT 9999 BKN012 32/25 Q1007 NOSIG=
23/01/2022 06:30:00Z	 SAID32 WIOO 230630	METAR WIOO 230630Z 03004KT 9999 FEW011CB BKN012 32/24 Q1007 NOSIG=
23/01/2022 07:00:00Z	 SAID32 WIOO 230700	METAR WIOO 230700Z 29009KT 9000 FEW011CB BKN012 32/24 Q1007 NOSIG=
23/01/2022 07:30:00Z	 SAID32 WIOO 230730	METAR WIOO 230730Z 22005KT 3000 RA FEW010CB BKN011 29/26 Q1006 TEMPO FM0735 8000 NSW=
23/01/2022 08:00:00Z	 SAID32 WIOO 230800	METAR WIOO 230800Z 28003KT 1500 TSRA FEW009CB BKN010 28/26 Q1006 TEMPO TL0810 2000 RA=
23/01/2022 08:30:00Z	 SAID32 WIOO 230830	METAR WIOO 230830Z 26010KT 6000 -RA FEW010CB BKN011 28/26 Q1006 NOSIG=
23/01/2022 09:00:00Z	 SAID32 WIOO 230900	METAR WIOO 230900Z 29009KT 7000 FEW010CB BKN011 29/25 Q1006 RERA NOSIG=
23/01/2022 09:30:00Z	 SAID32 WIOO 230930	METAR WIOO 230930Z 27008KT 6000 -RA FEW010CB BKN011 28/26 Q1006 NOSIG=
23/01/2022 10:00:00Z	 SAID32 WIOO 231000	METAR WIOO 231000Z 29008KT 9999 SCT011 28/25 Q1007 NOSIG=
23/01/2022 10:30:00Z	 SAID32 WIOO 231030	METAR WIOO 231030Z 28007KT 9999 SCT011 28/25 Q1007 NOSIG=
23/01/2022 11:00:00Z	 SAID32 WIOO 231100	METAR WIOO 231100Z 27007KT 8000 BKN012 27/25 Q1007 NOSIG=
23/01/2022 11:30:00Z	 SAID32 WIOO 231130	METAR WIOO 231130Z 26004KT 7000 SCT012 27/25 Q1007 NOSIG=
23/01/2022 12:00:00Z	 SAID32 WIOO 231200	METAR WIOO 231200Z 24004KT 7000 SCT012 27/24 Q1008 NOSIG=
23/01/2022 12:30:00Z	 SAID32 WIOO 231230	METAR WIOO 231230Z 24004KT 7000 SCT012 26/24 Q1008 NOSIG=
23/01/2022 13:00:00Z	 SAID32 WIOO 231300	METAR WIOO 231300Z 27003KT 7000 SCT012 26/24 Q1008 NOSIG=
23/01/2022 13:30:00Z	 SAID32 WIOO 231330	METAR WIOO 231330Z 28003KT 7000 SCT012 26/24 Q1009 NOSIG=
23/01/2022 14:00:00Z	 SAID32 WIOO 231400	METAR WIOO 231400Z 27007KT 6000 FEW011CB SCT012 26/24 Q1009 NOSIG=
23/01/2022 14:30:00Z	 SAID32 WIOO 231430	METAR WIOO 231430Z 28005KT 6000 FEW011CB SCT012 26/24 Q1009 NOSIG=
23/01/2022 15:00:00Z	 SAID32 WIOO 231500	METAR WIOO 231500Z 27005KT 6000 FEW011CB SCT012 26/24 Q1009 NOSIG=
23/01/2022 15:30:00Z	 SAID32 WIOO 231530	METAR WIOO 231530Z 30004KT 6000 BKN012 26/24 Q1009 NOSIG=
23/01/2022 16:00:00Z	 SAID32 WIOO 231600	METAR WIOO 231600Z AUTO VRB02KT 9999 FEW019 SCT024 25/25 Q1009=
23/01/2022 16:30:00Z	 SAID32 WIOO 231630	METAR WIOO 231630Z AUTO 28002KT 9999 FEW023 SCT034 25/25 Q1009=
23/01/2022 17:00:00Z	 SAID32 WIOO 231700	METAR WIOO 231700Z AUTO 28001KT 9999 FEW019 25/25 Q1009=
23/01/2022 17:30:00Z	 SAID32 WIOO 231730	METAR WIOO 231730Z AUTO 28001KT 9999 NCD 25/25 Q1008=
23/01/2022 18:00:00Z	 SAID32 WIOO 231800	METAR WIOO 231800Z AUTO 31001KT 7000 FEW020 25/24 Q1008=
23/01/2022 18:30:00Z	 SAID32 WIOO 231830	METAR WIOO 231830Z AUTO 01002KT 8000 FEW020 SCT046 25/24 Q1008=
23/01/2022 19:00:00Z	 SAID32 WIOO 231900	METAR WIOO 231900Z AUTO 36001KT 7000 NCD 24/24 Q1008=
23/01/2022 19:30:00Z	 SAID32 WIOO 231930	METAR WIOO 231930Z AUTO 00000KT 6000 NCD 24/24 Q1008=
23/01/2022 20:00:00Z	 SAID32 WIOO 232000	METAR WIOO 232000Z AUTO 00000KT 6000 SCT019 SCT028 24/24 Q1008=
23/01/2022 20:30:00Z	 SAID32 WIOO 232030	METAR WIOO 232030Z AUTO 36001KT 6000 BKN018 SCT020 BKN023 24/24 Q1008=
23/01/2022 21:00:00Z	 SAID32 WIOO 232100	METAR WIOO 232100Z AUTO 36001KT 7000 SCT018 BKN023 BKN032 25/24 Q1008=
23/01/2022 21:30:00Z	 SAID32 WIOO 232130	METAR WIOO 232130Z AUTO 35001KT 7000 FEW018 24/24 Q1008=
23/01/2022 22:00:00Z	 SAID32 WIOO 232200	METAR WIOO 232200Z 00000KT 6000 SCT010 25/24 Q1008 NOSIG=
23/01/2022 22:30:00Z	 SAID32 WIOO 232230	METAR WIOO 232230Z 00000KT 6000 SCT010 24/23 Q1008 NOSIG=
23/01/2022 23:00:00Z	 SAID32 WIOO 232300	METAR WIOO 232300Z 00000KT 4000 BR FEW011 24/23 Q1008 NOSIG=
23/01/2022 23:30:00Z	 SAID32 WIOO 232330	METAR WIOO 232330Z 03003KT 4000 BR FEW012 24/24 Q1008 TEMPO TL2350 5000 BR=
24/01/2022 00:00:00Z	 SAID32 WIOO 240000	METAR WIOO 240000Z 03003KT 5000 FEW012 25/24 Q1009 NOSIG=
24/01/2022 00:30:00Z	 SAID32 WIOO 240030	METAR WIOO 240030Z 01003KT 6000 FEW011 25/24 Q1009 NOSIG=
24/01/2022 01:00:00Z	 SAID32 WIOO 240100	METAR WIOO 240100Z 02004KT 6000 FEW012 26/25 Q1009 NOSIG=
24/01/2022 01:30:00Z	 SAID32 WIOO 240130	METAR WIOO 240130Z 36005KT 8000 FEW012 26/24 Q1009 NOSIG=
24/01/2022 02:00:00Z	 SAID32 WIOO 240200	METAR WIOO 240200Z 36006KT 9000 SCT012 27/25 Q1010 NOSIG=
24/01/2022 02:30:00Z	 SAID32 WIOO 240230	METAR WIOO 240230Z 02005KT 9999 BKN012 28/25 Q1009 NOSIG=
24/01/2022 03:00:00Z	 SAID32 WIOO 240300	METAR WIOO 240300Z 32005KT 9999 BKN012 29/25 Q1009 NOSIG=
24/01/2022 03:30:00Z	 SAID32 WIOO 240330	METAR WIOO 240330Z 36004KT 9999 BKN012 29/26 Q1009 NOSIG=
24/01/2022 04:00:00Z	 SAID32 WIOO 240400	METAR WIOO 240400Z 36005KT 9999 BKN012 29/25 Q1009 NOSIG=
24/01/2022 04:30:00Z	 SAID32 WIOO 240430	METAR WIOO 240430Z 36008KT 9999 BKN012 29/25 Q1008 NOSIG=
24/01/2022 05:00:00Z	 SAID32 WIOO 240500	METAR WIOO 240500Z 31007KT 9999 BKN012 30/24 Q1008 NOSIG=
24/01/2022 05:30:00Z	 SAID32 WIOO 240530	METAR WIOO 240530Z 31006KT 9999 BKN012 31/24 Q1008 NOSIG=
24/01/2022 06:00:00Z	 SAID32 WIOO 240600	METAR WIOO 240600Z 31006KT 9999 SCT012 31/22 Q1007 NOSIG=
24/01/2022 06:30:00Z	 SAID32 WIOO 240630	METAR WIOO 240630Z 33003KT 9999 BKN012 32/23 Q1007 NOSIG=
24/01/2022 07:00:00Z	 SAID32 WIOO 240700	METAR WIOO 240700Z 31007KT 9999 BKN012 32/23 Q1007 NOSIG=
24/01/2022 07:30:00Z	 SAID32 WIOO 240730	METAR WIOO 240730Z 30006KT 9999 BKN012 32/23 Q1006 NOSIG=
24/01/2022 08:00:00Z	 SAID32 WIOO 240800	METAR WIOO 240800Z 29006KT 9999 BKN012 32/23 Q1006 NOSIG=
24/01/2022 08:30:00Z	 SAID32 WIOO 240830	METAR WIOO 240830Z 26010KT 9999 SCT012 32/25 Q1006 NOSIG=
24/01/2022 09:00:00Z	 SAID32 WIOO 240900	METAR WIOO 240900Z 27011KT 9999 FEW011CB SCT012 30/25 Q1006 NOSIG=
24/01/2022 09:30:00Z	 SAID32 WIOO 240930	METAR WIOO 240930Z 28012KT 9999 SCT012 29/25 Q1006 NOSIG=
24/01/2022 10:00:00Z	 SAID32 WIOO 241000	METAR WIOO 241000Z 27009KT 9999 SCT012 29/25 Q1006 NOSIG=
24/01/2022 10:30:00Z	 SAID32 WIOO 241030	METAR WIOO 241030Z 28008KT 9999 SCT012 29/25 Q1007 NOSIG=
24/01/2022 11:00:00Z	 SAID32 WIOO 241100	METAR WIOO 241100Z 28004KT 9999 FEW012 28/25 Q1007 NOSIG=
24/01/2022 11:30:00Z	 SAID32 WIOO 241130	METAR WIOO 241130Z 30005KT 8000 FEW012 27/25 Q1007 NOSIG=
24/01/2022 12:00:00Z	 SAID32 WIOO 241200	METAR WIOO 241200Z 28005KT 8000 FEW012 27/25 Q1008 NOSIG=
24/01/2022 12:30:00Z	 SAID32 WIOO 241230	METAR WIOO 241230Z 30003KT 6000 FEW012 26/24 Q1008 NOSIG=
24/01/2022 13:00:00Z	 SAID32 WIOO 241300	METAR WIOO 241300Z 31004KT 6000 FEW012 26/24 Q1008 NOSIG=
24/01/2022 13:30:00Z	 SAID32 WIOO 241330	METAR WIOO 241330Z 32005KT 6000 FEW012 26/24 Q1008 NOSIG=
24/01/2022 14:00:00Z	 SAID32 WIOO 241400	METAR WIOO 241400Z 33004KT 6000 FEW012 26/24 Q1009 NOSIG=
24/01/2022 14:30:00Z	 SAID32 WIOO 241430	METAR WIOO 241430Z 33005KT 6000 FEW012 26/24 Q1009 NOSIG=
24/01/2022 15:00:00Z	 SAID32 WIOO 241500	METAR WIOO 241500Z 32005KT 6000 FEW012 25/23 Q1009 NOSIG=
24/01/2022 15:30:00Z	 SAID32 WIOO 241530	METAR WIOO 241530Z 31004KT 6000 FEW012 25/24 Q1009 NOSIG=
24/01/2022 16:00:00Z	 SAID32 WIOO 241600	METAR WIOO 241600Z 33003KT 6000 FEW012 25/24 Q1009 NOSIG=
24/01/2022 16:30:00Z	 SAID32 WIOO 241630	METAR WIOO 241630Z 30002KT 6000 FEW012 25/24 Q1009 NOSIG=
24/01/2022 17:00:00Z	 SAID32 WIOO 241700	METAR WIOO 241700Z 28002KT 6000 FEW012 25/24 Q1009 NOSIG=
24/01/2022 17:30:00Z	 SAID32 WIOO 241730	METAR WIOO 241730Z 00000KT 6000 FEW012 25/24 Q1009 NOSIG=
24/01/2022 18:00:00Z	 SAID32 WIOO 241800	METAR WIOO 241800Z AUTO 24001KT 6000 NCD 24/24 Q1008=
24/01/2022 18:30:00Z	 SAID32 WIOO 241830	METAR WIOO 241830Z AUTO 34001KT 5000 NCD 24/24 Q1008=
24/01/2022 19:00:00Z	 SAID32 WIOO 241900	METAR WIOO 241900Z AUTO 03001KT 4800 BR NCD 24/24 Q1007=
24/01/2022 19:30:00Z	 SAID32 WIOO 241930	METAR WIOO 241930Z AUTO 06002KT 4300 BR NCD 24/24 Q1007=
24/01/2022 20:00:00Z	 SAID32 WIOO 242000	METAR WIOO 242000Z AUTO 04002KT 4000 BR NCD 23/23 Q1007=
24/01/2022 20:30:00Z	 SAID32 WIOO 242030	METAR WIOO 242030Z AUTO 07002KT 4600 BR NCD 24/23 Q1007=
24/01/2022 21:00:00Z	 SAID32 WIOO 242100	METAR WIOO 242100Z AUTO 05003KT 6000 NCD 24/23 Q1007=
24/01/2022 21:30:00Z	 SAID32 WIOO 242130	METAR WIOO 242130Z AUTO 03003KT 6000 NCD 23/23 Q1008=
24/01/2022 22:00:00Z	 SAID32 WIOO 242200	METAR WIOO 242200Z AUTO 04003KT 7000 FEW003 23/23 Q1008=
24/01/2022 22:30:00Z	 SAID32 WIOO 242230	METAR WIOO 242230Z 02003KT 6000 SCT009 23/23 Q1008 NOSIG=
24/01/2022 23:00:00Z	 SAID32 WIOO 242300	METAR WIOO 242300Z 03003KT 2000 BR BKN006 23/23 Q1008 TEMPO FM2310 0500 FG=
24/01/2022 23:30:00Z	 SAID32 WIOO 242330	METAR WIOO 242330Z 00000KT 1500 BR BKN005 23/23 Q1009 TEMPO FM0000 3000=
25/01/2022 00:00:00Z	 SAID32 WIOO 250000	METAR WIOO 250000Z 06003KT 1500 BR BKN005 24/23 Q1010 TEMPO FM0100 4000=
25/01/2022 00:30:00Z	 SAID32 WIOO 250030	METAR WIOO 250030Z 06004KT 8000 BKN007 24/23 Q1010 NOSIG=
25/01/2022 01:00:00Z	 SAID32 WIOO 250100	METAR WIOO 250100Z 35004KT 9999 SCT011 25/24 Q1010 NOSIG=
25/01/2022 01:30:00Z	 SAID32 WIOO 250130	METAR WIOO 250130Z 02006KT 9999 FEW012 27/24 Q1010 NOSIG=
25/01/2022 02:00:00Z	 SAID32 WIOO 250200	METAR WIOO 250200Z 36003KT 9999 FEW012 28/24 Q1010 NOSIG=
25/01/2022 02:30:00Z	 SAID32 WIOO 250230	METAR WIOO 250230Z 34006KT 9999 SCT012 29/24 Q1010 NOSIG=
25/01/2022 03:00:00Z	 SAID32 WIOO 250300	METAR WIOO 250300Z 34006KT 9999 SCT012 30/24 Q1009 NOSIG=
25/01/2022 03:30:00Z	 SAID32 WIOO 250330	METAR WIOO 250330Z 02009KT 9999 BKN012 31/24 Q1009 NOSIG=
25/01/2022 04:00:00Z	 SAID32 WIOO 250400	METAR WIOO 250400Z 33010KT 9999 BKN012 31/24 Q1009 NOSIG=
25/01/2022 04:30:00Z	 SAID32 WIOO 250430	METAR WIOO 250430Z 32010KT 9999 BKN012 31/24 Q1008 NOSIG=
25/01/2022 05:00:00Z	 SAID32 WIOO 250500	METAR WIOO 250500Z 32008KT 9999 BKN012 32/24 Q1008 NOSIG=
25/01/2022 05:30:00Z	 SAID32 WIOO 250530	METAR WIOO 250530Z 32009KT 9999 BKN012 32/24 Q1008 NOSIG=
25/01/2022 06:00:00Z	 SAID32 WIOO 250600	METAR WIOO 250600Z 33012KT 9999 BKN012 32/24 Q1007 NOSIG=
25/01/2022 06:30:00Z	 SAID32 WIOO 250630	METAR WIOO 250630Z 30007KT 9999 BKN012 32/25 Q1006 NOSIG=
25/01/2022 07:00:00Z	 SAID32 WIOO 250700	METAR WIOO 250700Z 32008KT 9999 FEW011CB BKN012 32/25 Q1006 NOSIG=
25/01/2022 07:30:00Z	 SAID32 WIOO 250730	METAR WIOO 250730Z 27013KT 9999 FEW011CB BKN012 32/25 Q1006 TEMPO TL0830 30012KT=
25/01/2022 08:00:00Z	 SAID32 WIOO 250800	METAR WIOO 250800Z 32008KT 6000 -RA FEW010CB BKN011 29/26 Q1006 TEMPO FM0820 30010KT 3000 RA=
25/01/2022 08:30:00Z	 SAID32 WIOO 250830	METAR WIOO 250830Z 30010KT 9999 FEW011CB BKN012 29/26 Q1006 NOSIG=
25/01/2022 09:00:00Z	 SAID32 WIOO 250900	METAR WIOO 250900Z 29008KT 9999 FEW011CB BKN012 29/25 Q1006 NOSIG=
25/01/2022 09:30:00Z	 SAID32 WIOO 250930	METAR WIOO 250930Z 30008KT 9999 FEW011CB BKN012 28/25 Q1006 NOSIG=
25/01/2022 10:00:00Z	 SAID32 WIOO 251000	METAR WIOO 251000Z 28007KT 9999 SCT012 28/25 Q1006 NOSIG=
25/01/2022 10:30:00Z	 SAID32 WIOO 251030	METAR WIOO 251030Z 28005KT 9999 SCT012 27/24 Q1007 NOSIG=
25/01/2022 11:00:00Z	 SAID32 WIOO 251100	METAR WIOO 251100Z 30007KT 8000 SCT012 27/24 Q1007 NOSIG=
25/01/2022 11:30:00Z	 SAID32 WIOO 251130	METAR WIOO 251130Z 29005KT 8000 SCT012 27/25 Q1007 NOSIG=
25/01/2022 12:00:00Z	 SAID32 WIOO 251200	METAR WIOO 251200Z 31007KT 8000 SCT012 27/25 Q1007 NOSIG=
25/01/2022 12:30:00Z	 SAID32 WIOO 251230	METAR WIOO 251230Z 31005KT 8000 SCT012 26/24 Q1007 NOSIG=
25/01/2022 13:00:00Z	 SAID32 WIOO 251300	METAR WIOO 251300Z 00000KT 8000 SCT012 26/24 Q1008 NOSIG=
25/01/2022 13:30:00Z	 SAID32 WIOO 251330	METAR WIOO 251330Z 00000KT 7000 SCT012 26/24 Q1009 NOSIG=
25/01/2022 14:00:00Z	 SAID32 WIOO 251400	METAR WIOO 251400Z 08003KT 6000 SCT012 26/24 Q1009 NOSIG=
25/01/2022 14:30:00Z	 SAID32 WIOO 251430	METAR WIOO 251430Z 02003KT 7000 SCT012 26/24 Q1010 NOSIG=
25/01/2022 15:00:00Z	 SAID32 WIOO 251500	METAR WIOO 251500Z 00000KT 7000 FEW012 26/24 Q1010 NOSIG=
25/01/2022 15:30:00Z	 SAID32 WIOO 251530	METAR WIOO 251530Z 00000KT 7000 FEW012 26/24 Q1010 NOSIG=
25/01/2022 16:00:00Z	 SAID32 WIOO 251600	METAR WIOO 251600Z 05003KT 6000 FEW012 26/24 Q1010 NOSIG=
25/01/2022 16:30:00Z	 SAID32 WIOO 251630	METAR WIOO 251630Z 06003KT 6000 SCT012 25/24 Q1010 NOSIG=
25/01/2022 17:00:00Z	 SAID32 WIOO 251700	METAR WIOO 251700Z 00000KT 6000 FEW012 25/24 Q1009 NOSIG=
25/01/2022 17:30:00Z	 SAID32 WIOO 251730	METAR WIOO 251730Z 00000KT 6000 FEW012 25/24 Q1009 NOSIG=
25/01/2022 18:00:00Z	 SAID32 WIOO 251800	METAR WIOO 251800Z AUTO 35001KT 4200 BR NCD 24/24 Q1009=
25/01/2022 18:30:00Z	 SAID32 WIOO 251830	METAR WIOO 251830Z AUTO 33001KT 4600 BR NCD 24/24 Q1008=
25/01/2022 19:00:00Z	 SAID32 WIOO 251900	METAR WIOO 251900Z AUTO 30002KT 5000 NCD 23/23 Q1008=
25/01/2022 19:30:00Z	 SAID32 WIOO 251930	METAR WIOO 251930Z AUTO VRB01KT 5000 NCD 23/23 Q1008=
25/01/2022 20:00:00Z	 SAID32 WIOO 252000	METAR WIOO 252000Z AUTO 00000KT 3700 BR NCD 23/23 Q1008=
25/01/2022 20:30:00Z	 SAID32 WIOO 252030	METAR WIOO 252030Z AUTO 20001KT 3300 BR FEW025 23/23 Q1008=
25/01/2022 21:00:00Z	 SAID32 WIOO 252100	METAR WIOO 252100Z AUTO 20001KT 2900 BR NCD 23/23 Q1008=
25/01/2022 21:30:00Z	 SAID32 WIOO 252130	METAR WIOO 252130Z AUTO 00000KT 3000 BR NCD 23/23 Q1008=
25/01/2022 22:00:00Z	 SAID32 WIOO 252200	METAR WIOO 252200Z AUTO 05001KT 2900 BR NCD 23/22 Q1008=
25/01/2022 22:30:00Z	 SAID32 WIOO 252230	METAR WIOO 252230Z 04002KT 3000 BR FEW012 23/22 Q1009 NOSIG=
25/01/2022 23:00:00Z	 SAID32 WIOO 252300	METAR WIOO 252300Z 00000KT 1500 BR FEW012 23/22 Q1009 TEMPO FM0000 6000=
25/01/2022 23:30:00Z	 SAID32 WIOO 252330	METAR WIOO 252330Z 00000KT 3000 BR FEW011 23/22 Q1009 NOSIG=
25/01/2022 23:30:00Z	 SAID32 WIOO 252330 CCA	METAR COR WIOO 252330Z 00000KT 3000 BR FEW011 23/22 Q1009 BECMG FM0000 6000 NSW=
26/01/2022 00:00:00Z	 SAID32 WIOO 260000	METAR WIOO 260000Z 00000KT 4000 BR FEW011 23/23 Q1009 NOSIG=
26/01/2022 00:30:00Z	 SAID32 WIOO 260030	METAR WIOO 260030Z 02003KT 8000 FEW012 25/23 Q1010 NOSIG=
26/01/2022 01:00:00Z	 SAID32 WIOO 260100	METAR WIOO 260100Z 35003KT 9000 FEW012 26/24 Q1010 NOSIG=
26/01/2022 01:30:00Z	 SAID32 WIOO 260130	METAR WIOO 260130Z 01004KT 9000 FEW012 27/24 Q1010 NOSIG=
26/01/2022 02:00:00Z	 SAID32 WIOO 260200	METAR WIOO 260200Z 35005KT 9999 FEW012 28/24 Q1010 NOSIG=
26/01/2022 02:30:00Z	 SAID32 WIOO 260230	METAR WIOO 260230Z 01010KT 9999 SCT012 29/24 Q1010 NOSIG=
26/01/2022 03:00:00Z	 SAID32 WIOO 260300	METAR WIOO 260300Z 36007KT 9999 SCT012 29/24 Q1010 NOSIG=
26/01/2022 03:30:00Z	 SAID32 WIOO 260330	METAR WIOO 260330Z 06007KT 9999 BKN012 30/24 Q1010 NOSIG=
26/01/2022 04:00:00Z	 SAID32 WIOO 260400	METAR WIOO 260400Z 02006KT 9999 BKN012 31/24 Q1009 NOSIG=
26/01/2022 04:30:00Z	 SAID32 WIOO 260430	METAR WIOO 260430Z 36006KT 9999 BKN012 31/24 Q1009 NOSIG=
26/01/2022 05:00:00Z	 SAID32 WIOO 260500	METAR WIOO 260500Z 34007KT 9999 BKN012 32/24 Q1008 NOSIG=
26/01/2022 05:30:00Z	 SAID32 WIOO 260530	METAR WIOO 260530Z 34008KT 9999 BKN012 32/24 Q1008 NOSIG=
26/01/2022 05:30:00Z	 SAID32 WIOO 260530 CCA	METAR COR WIOO 260530Z 34008KT 9999 BKN012 32/24 Q1008 TEMPO FM0630 FEW011CB BKN012=
26/01/2022 06:00:00Z	 SAID32 WIOO 260600	METAR WIOO 260600Z 35007KT 9999 BKN012 32/24 Q1007 TEMPO FM0630 FEW011CB BKN012=
26/01/2022 06:30:00Z	 SAID32 WIOO 260630	METAR WIOO 260630Z 30022KT 5000 -RA FEW010CB BKN011 32/24 Q1007 TEMPO FM0700 3000 RA FEW010CB BKN011=
26/01/2022 07:00:00Z	 SAID32 WIOO 260700	METAR WIOO 260700Z 21005KT 8000 FEW010CB BKN011 26/23 Q1007 RERA NOSIG=
26/01/2022 07:30:00Z	 SAID32 WIOO 260730	METAR WIOO 260730Z 29006KT 9999 FEW011CB BKN012 28/25 Q1006 NOSIG=
26/01/2022 08:00:00Z	 SAID32 WIOO 260800	METAR WIOO 260800Z 27011KT 9999 BKN012 31/26 Q1006 NOSIG=
26/01/2022 08:30:00Z	 SAID32 WIOO 260830	METAR COR WIOO 260830Z 27012KT 9999 FEW011CB BKN012 31/26 Q1006 TEMPO FM0900 28008G18KT 4000 RA=
26/01/2022 09:00:00Z	 SAID32 WIOO 260900	METAR WIOO 260900Z 32012KT 9999 TS FEW011CB BKN012 30/25 Q1006 NOSIG=
26/01/2022 09:30:00Z	 SAID32 WIOO 260930	METAR WIOO 260930Z 02010KT 7000 -TSRA FEW010CB BKN011 28/25 Q1007 TEMPO FM0940 3000 TSRA=
26/01/2022 10:00:00Z	 SAID32 WIOO 261000	METAR WIOO 261000Z 36005KT 6000 -RA FEW010CB BKN011 26/24 Q1007 RETS NOSIG=
26/01/2022 10:30:00Z	 SAID32 WIOO 261030	METAR COR WIOO 261030Z 01004KT 6000 BKN012 26/24 Q1007 RERA NOSIG=
26/01/2022 11:00:00Z	 SAID32 WIOO 261100	METAR WIOO 261100Z 04004KT 6000 BKN012 26/24 Q1008 NOSIG=
26/01/2022 11:30:00Z	 SAID32 WIOO 261130	METAR WIOO 261130Z 36003KT 6000 BKN012 25/24 Q1008 NOSIG=
26/01/2022 12:00:00Z	 SAID32 WIOO 261200	METAR WIOO 261200Z 36004KT 6000 BKN012 25/24 Q1008 NOSIG=
26/01/2022 12:30:00Z	 SAID32 WIOO 261230	METAR WIOO 261230Z 02002KT 6000 BKN012 25/24 Q1008 NOSIG=
26/01/2022 13:00:00Z	 SAID32 WIOO 261300	METAR WIOO 261300Z 36002KT 6000 BKN012 25/24 Q1009 NOSIG=
26/01/2022 13:30:00Z	 SAID32 WIOO 261330	METAR WIOO 261330Z 00000KT 6000 BKN012 25/24 Q1009 NOSIG=
26/01/2022 14:00:00Z	 SAID32 WIOO 261400	METAR WIOO 261400Z 34002KT 6000 SCT012 25/24 Q1009 NOSIG=
26/01/2022 14:30:00Z	 SAID32 WIOO 261430	METAR WIOO 261430Z 00000KT 6000 SCT012 26/25 Q1010 NOSIG=
26/01/2022 15:00:00Z	 SAID32 WIOO 261500	METAR WIOO 261500Z 31003KT 6000 SCT012 26/25 Q1010 NOSIG=
26/01/2022 15:30:00Z	 SAID32 WIOO 261530	METAR WIOO 261530Z 00000KT 6000 SCT011 NOSIG=
26/01/2022 15:30:00Z	 SAID32 WIOO 261530 CCA	METAR COR WIOO 261530Z 00000KT 6000 SCT012 26/25 Q1010 NOSIG=
26/01/2022 16:00:00Z	 SAID32 WIOO 261600	METAR WIOO 261600Z 00000KT 6000 SCT012 26/25 Q1010 NOSIG=
26/01/2022 16:30:00Z	 SAID32 WIOO 261630	METAR WIOO 261630Z 00000KT 6000 SCT012 26/25 Q1010 NOSIG=
26/01/2022 17:00:00Z	 SAID32 WIOO 261700	METAR WIOO 261700Z AUTO 00000KT 3900 BR BKN110 OVC210 25/25 Q1010 NOSIG=
26/01/2022 17:30:00Z	 SAID32 WIOO 261730	METAR WIOO 261730Z AUTO 34003KT 6000 OVC110 25/24 Q1009=
26/01/2022 18:00:00Z	 SAID32 WIOO 261800	METAR WIOO 261800Z AUTO 01004KT 9000 OVC110 OVC210 25/24 Q1009=
26/01/2022 18:30:00Z	 SAID32 WIOO 261830	METAR WIOO 261830Z AUTO 04002KT 5000 OVC110 25/24 Q1009=
26/01/2022 19:00:00Z	 SAID32 WIOO 261900	METAR WIOO 261900Z AUTO 03001KT 4100 BR BKN110 OVC230 24/24 Q1008=
26/01/2022 19:30:00Z	 SAID32 WIOO 261930	METAR WIOO 261930Z AUTO 03003KT 4300 BR FEW230 24/24 Q1008=
26/01/2022 20:00:00Z	 SAID32 WIOO 262000	METAR WIOO 262000Z AUTO 04002KT 4500 BR NCD 24/24 Q1008=
26/01/2022 20:30:00Z	 SAID32 WIOO 262030	METAR WIOO 262030Z AUTO 04003KT 4000 BR NCD 24/24 Q1008=
26/01/2022 21:00:00Z	 SAID32 WIOO 262100	METAR WIOO 262100Z AUTO VRB02KT 1800 BR OVC002 24/23 Q1008=
26/01/2022 21:30:00Z	 SAID32 WIOO 262130	METAR WIOO 262130Z AUTO 05002KT 0200 R15/0275N FG OVC002 23/23 Q1008=
26/01/2022 22:00:00Z	 SAID32 WIOO 262200	METAR WIOO 262200Z 07002KT 0350 FG OVC002 23/23 Q1008 NOSIG=
26/01/2022 22:30:00Z	 SAID32 WIOO 262230	METAR WIOO 262230Z 08002KT 0800 FG BKN003 23/23 Q1008 TEMPO TL2300 0500 FG=
26/01/2022 23:00:00Z	 SAID32 WIOO 262300	METAR WIOO 262300Z 06002KT 0350 FG VV003 23/23 Q1008 TEMPO TL2350 0500 FG=
26/01/2022 23:30:00Z	 SAID32 WIOO 262330	METAR WIOO 262330Z 00000KT 0150 FG VV003 23/23 Q1009 NOSIG=
27/01/2022 00:00:00Z	 SAID32 WIOO 270000	METAR WIOO 270000Z 00000KT 0400 FG VV002 23/23 Q1009 BECMG FM0100 4000 BR=
27/01/2022 00:30:00Z	 SAID32 WIOO 270030	METAR WIOO 270030Z 05003KT 0900 FG VV003 24/24 Q1010 BECMG FM0100 4000 BR=
27/01/2022 01:00:00Z	 SAID32 WIOO 270100	METAR WIOO 270100Z 05003KT 2000 BR VV002 24/23 Q1010 BECMG FM0200 6000=
27/01/2022 01:30:00Z	 SAID32 WIOO 270130	METAR WIOO 270130Z 07003KT 5000 SCT004 26/24 Q1011 BECMG FM0200 6000=
27/01/2022 02:00:00Z	 SAID32 WIOO 270200	METAR WIOO 270200Z 04005KT 9999 FEW012 26/24 Q1011 NOSIG=
27/01/2022 02:30:00Z	 SAID32 WIOO 270230	METAR WIOO 270230Z 02003KT 9999 FEW011 27/24 Q1011 NOSIG=
27/01/2022 03:00:00Z	 SAID32 WIOO 270300	METAR WIOO 270300Z 30003KT 9999 FEW012 28/24 Q1011 NOSIG=
27/01/2022 03:30:00Z	 SAID32 WIOO 270330	METAR WIOO 270330Z 33005KT 9999 FEW012 29/23 Q1010 NOSIG=
27/01/2022 04:00:00Z	 SAID32 WIOO 270400	METAR WIOO 270400Z 36005KT 9999 BKN012 30/24 Q1010 NOSIG=
27/01/2022 04:30:00Z	 SAID32 WIOO 270430	METAR WIOO 270430Z 36003KT 9999 BKN012 30/24 Q1010 NOSIG=
27/01/2022 05:00:00Z	 SAID32 WIOO 270500	METAR WIOO 270500Z 36006KT 9999 BKN012 31/23 Q1009 NOSIG=
27/01/2022 05:30:00Z	 SAID32 WIOO 270530	METAR WIOO 270530Z 35004KT 9999 BKN012 31/23 Q1009 NOSIG=
27/01/2022 06:00:00Z	 SAID32 WIOO 270600	METAR WIOO 270600Z 06006KT 9999 BKN012 32/23 Q1008 NOSIG=
27/01/2022 06:30:00Z	 SAID32 WIOO 270630	METAR WIOO 270630Z 08007KT 9999 BKN012 32/24 Q1008 NOSIG=
27/01/2022 07:00:00Z	 SAID32 WIOO 270700	METAR WIOO 270700Z 09003KT 9000 FEW011CB BKN012 32/23 Q1007 TEMPO FM0730 4000 RA=
27/01/2022 07:30:00Z	 SAID32 WIOO 270730	METAR WIOO 270730Z 10006KT 8000 FEW011CB BKN012 31/24 Q1007 TEMPO FM0800 2000 RA=
27/01/2022 08:00:00Z	 SAID32 WIOO 270800	METAR WIOO 270800Z 25022KT 0700 +RA FEW008CB BKN009 26/24 Q1007 TEMPO TL0900 3000 RA=
27/01/2022 08:30:00Z	 SAID32 WIOO 270830	METAR WIOO 270830Z 25007KT 3000 -RA FEW009CB BKN010 25/23 Q1007 RETS BECMG FM0930 6000 NSW=
27/01/2022 09:00:00Z	 SAID32 WIOO 270900	METAR WIOO 270900Z 27005KT 7000 -RA FEW010CB BKN011 25/23 Q1006 NOSIG=
27/01/2022 09:30:00Z	 SAID32 WIOO 270930	METAR WIOO 270930Z 32004KT 8000 FEW010CB BKN011 26/24 Q1007 RERA NOSIG=
27/01/2022 10:00:00Z	 SAID32 WIOO 271000	METAR WIOO 271000Z 02006KT 3000 -TSRA FEW009CB BKN010 26/22 Q1007 TEMPO TL1100 1000 RA=
27/01/2022 10:30:00Z	 SAID32 WIOO 271030	METAR WIOO 271030Z 26004KT 4000 -RA FEW009CB BKN010 25/23 Q1007 RETS TL1100 1000 RA=
27/01/2022 11:00:00Z	 SAID32 WIOO 271100	METAR WIOO 271100Z 00000KT 6000 BKN010 24/23 Q1008 NOSIG=
27/01/2022 11:30:00Z	 SAID32 WIOO 271130	METAR WIOO 271130Z 03002KT 6000 BKN011 24/23 Q1007 NOSIG=
27/01/2022 12:00:00Z	 SAID32 WIOO 271200	METAR WIOO 271200Z 11002KT 6000 -RA BKN011 24/23 Q1008 NOSIG=
27/01/2022 12:30:00Z	 SAID32 WIOO 271230	METAR WIOO 271230Z 10002KT 6000 SCT012 24/23 Q1008 RERA NOSIG=
27/01/2022 13:00:00Z	 SAID32 WIOO 271300	METAR WIOO 271300Z 00000KT 6000 SCT012 24/22 Q1009 NOSIG=
27/01/2022 13:30:00Z	 SAID32 WIOO 271330	METAR WIOO 271330Z 16003KT 6000 SCT012 24/23 Q1009 NOSIG=
27/01/2022 14:00:00Z	 SAID32 WIOO 271400	METAR WIOO 271400Z 20002KT 6000 SCT012 24/23 Q1010 NOSIG=
27/01/2022 14:30:00Z	 SAID32 WIOO 271430	METAR WIOO 271430Z 34001KT 6000 SCT012 24/23 Q1010 NOSIG=
27/01/2022 15:00:00Z	 SAID32 WIOO 271500	METAR WIOO 271500Z 03002KT 6000 SCT012 24/23 Q1010 NOSIG=
27/01/2022 15:30:00Z	 SAID32 WIOO 271530	METAR WIOO 271530Z 04004KT 6000 SCT012 24/23 Q1010 NOSIG=
27/01/2022 16:00:00Z	 SAID32 WIOO 271600	METAR WIOO 271600Z 03002KT 6000 BKN011 24/23 Q1010 NOSIG=
27/01/2022 16:30:00Z	 SAID32 WIOO 271630	METAR WIOO 271630Z 02001KT 6000 BKN011 24/23 Q1010 NOSIG=
27/01/2022 17:00:00Z	 SAID32 WIOO 271700	METAR WIOO 271700Z AUTO 06002KT 9999 FEW014 SCT023 BKN044 23/23 Q1010=
27/01/2022 17:30:00Z	 SAID32 WIOO 271730	METAR WIOO 271730Z AUTO 05001KT 9999 FEW019 OVC046 OVC240 23/23 Q1010=
27/01/2022 18:00:00Z	 SAID32 WIOO 271800	METAR WIOO 271800Z AUTO 36001KT 9999 BKN042 OVC044 OVC240 24/23 Q1009=
27/01/2022 18:30:00Z	 SAID32 WIOO 271830	METAR WIOO 271830Z AUTO VRB01KT 9999 OVC044 BKN045 BKN170 24/23 Q1009=
27/01/2022 19:00:00Z	 SAID32 WIOO 271900	METAR WIOO 271900Z AUTO 04003KT 9999 FEW014 BKN042 OVC050 24/23 Q1009=
27/01/2022 19:30:00Z	 SAID32 WIOO 271930	METAR WIOO 271930Z AUTO 05004KT 9999 SCT012 SCT013 BKN049 23/23 Q1009=
27/01/2022 20:00:00Z	 SAID32 WIOO 272000	METAR WIOO 272000Z AUTO 05003KT 9999 FEW042 SCT048 OVC170 23/23 Q1009=
27/01/2022 20:30:00Z	 SAID32 WIOO 272030	METAR WIOO 272030Z AUTO 04002KT 9999 BKN160 OVC190 23/23 Q1009=
27/01/2022 21:00:00Z	 SAID32 WIOO 272100	METAR WIOO 272100Z AUTO 36001KT 9999 OVC160 OVC190 23/23 Q1009=
27/01/2022 21:30:00Z	 SAID32 WIOO 272130	METAR WIOO 272130Z AUTO VRB01KT 9999 OVC160 23/23 Q1009=
27/01/2022 22:00:00Z	 SAID32 WIOO 272200	METAR WIOO 272200Z AUTO 02002KT 9999 OVC160 23/23 Q1009=
27/01/2022 22:30:00Z	 SAID32 WIOO 272230	METAR WIOO 272230Z 00000KT 6000 SCT012 23/22 Q1009 NOSIG=
27/01/2022 23:00:00Z	 SAID32 WIOO 272300	METAR WIOO 272300Z 00000KT 6000 SCT012 23/22 Q1009 NOSIG=
27/01/2022 23:30:00Z	 SAID32 WIOO 272330	METAR WIOO 272330Z 00000KT 6000 FEW012 24/23 Q1010 NOSIG=
28/01/2022 00:00:00Z	 SAID32 WIOO 280000	METAR WIOO 280000Z 03003KT 7000 FEW012 24/23 Q1010 NOSIG=
28/01/2022 00:30:00Z	 SAID32 WIOO 280030	METAR WIOO 280030Z 05003KT 9000 FEW012 24/23 Q1011 NOSIG=
28/01/2022 01:00:00Z	 SAID32 WIOO 280100	METAR WIOO 280100Z 04003KT 9999 FEW012 25/23 Q1011 NOSIG=
28/01/2022 01:30:00Z	 SAID32 WIOO 280130	METAR WIOO 280130Z 03003KT 9999 FEW012 26/23 Q1011 NOSIG=
28/01/2022 02:00:00Z	 SAID32 WIOO 280200	METAR WIOO 280200Z 06003KT 9999 FEW012 27/23 Q1012 NOSIG=
28/01/2022 02:30:00Z	 SAID32 WIOO 280230	METAR WIOO 280230Z 03004KT 9999 FEW012 28/24 Q1012 NOSIG=
28/01/2022 03:00:00Z	 SAID32 WIOO 280300	METAR WIOO 280300Z 05005KT 9999 SCT012 29/24 Q1011 NOSIG=
28/01/2022 03:30:00Z	 SAID32 WIOO 280330	METAR WIOO 280330Z 33003KT 9999 SCT012 30/25 Q1011 NOSIG=
28/01/2022 04:00:00Z	 SAID32 WIOO 280400	METAR WIOO 280400Z 36007KT 9999 SCT012 30/24 Q1011 NOSIG=
28/01/2022 04:30:00Z	 SAID32 WIOO 280430	METAR WIOO 280430Z 32008KT 9999 BKN012 30/25 Q1011 NOSIG=
28/01/2022 05:00:00Z	 SAID32 WIOO 280500	METAR WIOO 280500Z 35006KT 9999 BKN012 30/24 Q1010 NOSIG=
28/01/2022 05:30:00Z	 SAID32 WIOO 280530	METAR WIOO 280530Z 34003KT 9999 BKN012 30/23 Q1010 NOSIG=
28/01/2022 06:00:00Z	 SAID32 WIOO 280600	METAR WIOO 280600Z 34006KT 9999 BKN012 31/23 Q1010 NOSIG=
28/01/2022 06:30:00Z	 SAID32 WIOO 280630	METAR WIOO 280630Z 29006KT 9999 FEW011CB BKN012 31/23 Q1010 NOSIG=
28/01/2022 07:00:00Z	 SAID32 WIOO 280700	METAR WIOO 280700Z 21004KT 9999 FEW011CB BKN012 30/25 Q1008 NOSIG=
28/01/2022 07:30:00Z	 SAID32 WIOO 280730	METAR WIOO 280730Z 28012KT 9999 FEW011CB BKN012 30/25 Q1008 NOSIG=
28/01/2022 08:00:00Z	 SAID32 WIOO 280800	METAR WIOO 280800Z 28012KT 9999 FEW011CB BKN012 30/25 Q1007 NOSIG=
28/01/2022 08:30:00Z	 SAID32 WIOO 280830	METAR WIOO 280830Z 28008KT 8000 FEW011CB BKN012 30/25 Q1007 NOSIG=
28/01/2022 09:00:00Z	 SAID32 WIOO 280900	METAR WIOO 280900Z 28011KT 8000 FEW011CB BKN012 29/24 Q1007 NOSIG=
28/01/2022 09:30:00Z	 SAID32 WIOO 280930	METAR WIOO 280930Z 29007KT 9000 FEW011CB BKN012 28/25 Q1007 NOSIG=
28/01/2022 10:00:00Z	 SAID32 WIOO 281000	METAR WIOO 281000Z 29006KT 9999 SCT012 28/25 Q1008 NOSIG=
28/01/2022 10:30:00Z	 SAID32 WIOO 281030	METAR WIOO 281030Z 29006KT 9999 FEW012 28/25 Q1008 NOSIG=
28/01/2022 11:00:00Z	 SAID32 WIOO 281100	METAR WIOO 281100Z 28006KT 9999 FEW012 27/25 Q1008 NOSIG=
28/01/2022 11:30:00Z	 SAID32 WIOO 281130	METAR WIOO 281130Z 25003KT 8000 SCT012 27/25 Q1009 NOSIG=
28/01/2022 12:00:00Z	 SAID32 WIOO 281200	METAR WIOO 281200Z 25003KT 8000 SCT012 27/25 Q1009 NOSIG=
28/01/2022 12:30:00Z	 SAID32 WIOO 281230	METAR WIOO 281230Z 29003KT 8000 SCT012 27/25 Q1009 NOSIG=
28/01/2022 13:00:00Z	 SAID32 WIOO 281300	METAR WIOO 281300Z 00000KT 8000 SCT012 26/25 Q1010 NOSIG=
28/01/2022 13:30:00Z	 SAID32 WIOO 281330	METAR WIOO 281330Z 00000KT 8000 SCT012 26/25 Q1011 NOSIG=
28/01/2022 14:00:00Z	 SAID32 WIOO 281400	METAR WIOO 281400Z 00000KT 8000 SCT012 26/25 Q1011 NOSIG=
28/01/2022 14:30:00Z	 SAID32 WIOO 281430	METAR WIOO 281430Z 28002KT 8000 SCT012 26/25 Q1011 NOSIG=
28/01/2022 15:00:00Z	 SAID32 WIOO 281500	METAR WIOO 281500Z 00000KT 8000 SCT012 26/25 Q1011 NOSIG=
28/01/2022 15:30:00Z	 SAID32 WIOO 281530	METAR WIOO 281530Z 00000KT 8000 SCT012 25/24 Q1011 NOSIG=
28/01/2022 16:00:00Z	 SAID32 WIOO 281600	METAR WIOO 281600Z 00000KT 7000 SCT012 25/24 Q1011=
28/01/2022 16:30:00Z	 SAID32 WIOO 281630	METAR WIOO 281630Z AUTO 23001KT 6000 FEW240 25/24 Q1011=
28/01/2022 17:00:00Z	 SAID32 WIOO 281700	METAR WIOO 281700Z AUTO 36001KT 6000 FEW037 25/24 Q1011=
28/01/2022 17:30:00Z	 SAID32 WIOO 281730	METAR WIOO 281730Z AUTO 29001KT 6000 NCD 24/24 Q1010=
28/01/2022 18:00:00Z	 SAID32 WIOO 281800	METAR WIOO 281800Z AUTO 30001KT 7000 BKN150 24/24 Q1010=
28/01/2022 18:30:00Z	 SAID32 WIOO 281830	METAR WIOO 281830Z AUTO 35001KT 7000 BKN030 OVC150 24/24 Q1010=
28/01/2022 19:00:00Z	 SAID32 WIOO 281900	METAR WIOO 281900Z AUTO 01001KT 8000 FEW029 OVC150 24/24 Q1009=
28/01/2022 19:30:00Z	 SAID32 WIOO 281930	METAR WIOO 281930Z AUTO 32001KT 6000 BKN032 SCT033 OVC150 24/24 Q1009=
28/01/2022 20:00:00Z	 SAID32 WIOO 282000	METAR WIOO 282000Z AUTO 33001KT 5000 SCT033 OVC150 24/24 Q1009=
28/01/2022 20:30:00Z	 SAID32 WIOO 282030	METAR WIOO 282030Z AUTO 36001KT 6000 SCT031 OVC150 24/24 Q1009=
28/01/2022 21:00:00Z	 SAID32 WIOO 282100	METAR WIOO 282100Z AUTO 10001KT 5000 FEW024 OVC029 BKN030 24/24 Q1009=
28/01/2022 21:30:00Z	 SAID32 WIOO 282130	METAR WIOO 282130Z AUTO 05002KT 6000 OVC024 BKN025 OVC031 25/24 Q1009=
28/01/2022 22:00:00Z	 SAID32 WIOO 282200	METAR WIOO 282200Z 00000KT 6000 SCT012 25/24 Q1009 NOSIG=
28/01/2022 22:30:00Z	 SAID32 WIOO 282230	METAR WIOO 282230Z 00000KT 6000 SCT012 25/24 Q1009 NOSIG=
28/01/2022 23:00:00Z	 SAID32 WIOO 282300	METAR WIOO 282300Z 32002KT 4000 BR 24/24 Q1009 NOSIG=
28/01/2022 23:30:00Z	 SAID32 WIOO 282330	METAR WIOO 282330Z 05003KT 8000 SCT012 25/24 Q1009 NOSIG=
29/01/2022 00:00:00Z	 SAID32 WIOO 290000	METAR WIOO 290000Z 03003KT 8000 SCT012 25/24 Q1010 NOSIG=
29/01/2022 00:30:00Z	 SAID32 WIOO 290030	METAR WIOO 290030Z 06004KT 9999 SCT012 26/25 Q1011 NOSIG=
29/01/2022 01:00:00Z	 SAID32 WIOO 290100	METAR WIOO 290100Z 02003KT 9999 SCT012 27/24 Q1011 NOSIG=
29/01/2022 01:30:00Z	 SAID32 WIOO 290130	METAR WIOO 290130Z 06004KT 9999 SCT012 27/24 Q1011 NOSIG=
29/01/2022 02:00:00Z	 SAID32 WIOO 290200	METAR WIOO 290200Z 03004KT 9999 SCT012 27/24 Q1011 NOSIG=
29/01/2022 02:30:00Z	 SAID32 WIOO 290230	METAR WIOO 290230Z 07002KT 9999 SCT012 28/25 Q1011 NOSIG=
29/01/2022 03:00:00Z	 SAID32 WIOO 290300	METAR WIOO 290300Z 00000KT 9999 SCT011 28/24 Q1011 NOSIG=
29/01/2022 03:30:00Z	 SAID32 WIOO 290330	METAR WIOO 290330Z 07003KT 9999 SCT011 29/25 Q1010 NOSIG=
29/01/2022 04:00:00Z	 SAID32 WIOO 290400	METAR WIOO 290400Z 15003KT 9999 BKN011 30/24 Q1010 NOSIG=
29/01/2022 04:30:00Z	 SAID32 WIOO 290430	METAR WIOO 290430Z 00000KT 9999 BKN011 31/25 Q1010 NOSIG=
29/01/2022 05:00:00Z	 SAID32 WIOO 290500	METAR WIOO 290500Z 06004KT 9999 BKN012 32/24 Q1009 NOSIG=
29/01/2022 05:30:00Z	 SAID32 WIOO 290530	METAR WIOO 290530Z 00000KT 9999 SCT012 32/24 Q1009 NOSIG=
29/01/2022 06:00:00Z	 SAID32 WIOO 290600	METAR WIOO 290600Z 32004KT 9999 BKN011 32/24 Q1009 NOSIG=
29/01/2022 06:30:00Z	 SAID32 WIOO 290630	METAR WIOO 290630Z 05003KT 9999 BKN012 32/24 Q1008 NOSIG=
29/01/2022 07:00:00Z	 SAID32 WIOO 290700	METAR WIOO 290700Z 07005KT 9999 BKN012 32/24 Q1008 NOSIG=
29/01/2022 07:30:00Z	 SAID32 WIOO 290730	METAR WIOO 290730Z 09003KT 9999 BKN012 31/24 Q1007 NOSIG=
29/01/2022 08:00:00Z	 SAID32 WIOO 290800	METAR WIOO 290800Z 24004KT 9999 BKN012 31/25 Q1007 NOSIG=
29/01/2022 08:30:00Z	 SAID32 WIOO 290830	METAR WIOO 290830Z 27006KT 9999 SCT012 31/25 Q1007 NOSIG=
29/01/2022 09:00:00Z	 SAID32 WIOO 290900	METAR WIOO 290900Z 28005KT 9999 SCT012 31/25 Q1007 NOSIG=
29/01/2022 09:30:00Z	 SAID32 WIOO 290930	METAR WIOO 290930Z 29006KT 9999 SCT012 31/25 Q1007 NOSIG=
29/01/2022 10:00:00Z	 SAID32 WIOO 291000	METAR WIOO 291000Z 28007KT 9999 SCT012 30/25 Q1007 NOSIG=
29/01/2022 10:30:00Z	 SAID32 WIOO 291030	METAR WIOO 291030Z 27006KT 9999 SCT012 29/25 Q1007 NOSIG=
29/01/2022 11:00:00Z	 SAID32 WIOO 291100	METAR WIOO 291100Z 28006KT8000 SCT012 29/25 Q1008 NOSIG=
29/01/2022 11:30:00Z	 SAID32 WIOO 291130	METAR WIOO 291130Z 29005KT 7000 SCT012 28/25 Q1008 NOSIG=
29/01/2022 12:00:00Z	 SAID32 WIOO 291200	METAR WIOO 291200Z 26004KT 7000 SCT012 27/24 Q1008 NOSIG=
29/01/2022 12:30:00Z	 SAID32 WIOO 291230	METAR WIOO 291230Z 25002KT 6000 SCT012 27/25 Q1009 NOSIG=
29/01/2022 13:00:00Z	 SAID32 WIOO 291300	METAR WIOO 291300Z 24003KT 6000 SCT012 26/25 Q1009 NOSIG=
29/01/2022 13:30:00Z	 SAID32 WIOO 291330	METAR WIOO 291330Z 28003KT 6000 FEW012 26/25 Q1009 NOSIG=
29/01/2022 14:00:00Z	 SAID32 WIOO 291400	METAR WIOO 291400Z 00000KT 6000 FEW012 26/24 Q1010 NOSIG=
29/01/2022 14:30:00Z	 SAID32 WIOO 291430	METAR WIOO 291430Z 00000KT 6000 FEW012 26/24 Q1010 NOSIG=
29/01/2022 15:00:00Z	 SAID32 WIOO 291500	METAR WIOO 291500Z 00000KT 6000 FEW012 26/24 Q1010 NOSIG=
29/01/2022 15:30:00Z	 SAID32 WIOO 291530	METAR WIOO 291530Z 00000KT 4000 BR FEW012 26/24 Q1010 NOSIG=
29/01/2022 16:00:00Z	 SAID32 WIOO 291600	METAR WIOO 291600Z 00000KT 5000 BR FEW012 26/24 Q1010 NOSIG=
29/01/2022 16:30:00Z	 SAID32 WIOO 291630	METAR WIOO 291630Z 00000KT 4400 BR FEW012 26/25 Q1010 NOSIG=
29/01/2022 17:00:00Z	 SAID32 WIOO 291700	METAR WIOO 291700Z 00000KT 4000 HZ SCT012 25/24 Q1010 NOSIG=
29/01/2022 17:30:00Z	 SAID32 WIOO 291730	METAR WIOO 291730Z 00000KT 4000 HZ FEW012 25/24 Q1010 NOSIG=
29/01/2022 18:00:00Z	 SAID32 WIOO 291800	METAR WIOO 291800Z 00000KT 4000 BR FEW012 25/24 Q1009 NOSIG=
29/01/2022 18:30:00Z	 SAID32 WIOO 291830	METAR WIOO 291830Z AUTO 33003KT 2500 BR OVC028 BKN170 24/24 Q1009=
29/01/2022 19:00:00Z	 SAID32 WIOO 291900	METAR WIOO 291900Z AUTO 30001KT 3500 BR OVC027 SCT170 BKN220 24/24 Q1009=
29/01/2022 19:30:00Z	 SAID32 WIOO 291930	METAR WIOO 291930Z AUTO 00000KT 2900 BR SCT027 OVC030 OVC170 24/24 Q1008=
29/01/2022 20:00:00Z	 SAID32 WIOO 292000	METAR WIOO 292000Z AUTO 08001KT 3000 BR SCT032 OVC170 25/25 Q1008=
29/01/2022 20:30:00Z	 SAID32 WIOO 292030	METAR WIOO 292030Z AUTO 08001KT 3300 BR BKN170 OVC220 25/24 Q1009=
29/01/2022 21:00:00Z	 SAID32 WIOO 292100	METAR WIOO 292100Z AUTO 00000KT 3500 BR OVC170 25/24 Q1009=
29/01/2022 21:30:00Z	 SAID32 WIOO 292130	METAR WIOO 292130Z AUTO VRB01KT 3600 BR SCT170 OVC230 24/24 Q1009=
29/01/2022 22:00:00Z	 SAID32 WIOO 292200	METAR WIOO 292200Z 00000KT 4000 BR FEW012 25/24 Q1009 NOSIG=
29/01/2022 22:30:00Z	 SAID32 WIOO 292230	METAR WIOO 292230Z 00000KT 4000 BR FEW012 25/24 Q1009 NOSIG=
29/01/2022 23:00:00Z	 SAID32 WIOO 292300	METAR WIOO 292300Z 06002KT 2000 BR FEW012 25/24 Q1010 NOSIG=
29/01/2022 23:30:00Z	 SAID32 WIOO 292330	METAR WIOO 292330Z 06002KT 3000 BR SCT012 25/24 Q1010 TEMPO FM0000 5000=
30/01/2022 00:00:00Z	 SAID32 WIOO 300000	METAR WIOO 300000Z 09003KT 2500 BR SCT010 25/24 Q1010 TEMPO FM0100 4000=
30/01/2022 00:30:00Z	 SAID32 WIOO 300030	METAR WIOO 300030Z 05003KT 5000 BR SCT011 25/24 Q1011 NOSIG=
30/01/2022 01:00:00Z	 SAID32 WIOO 300100	METAR WIOO 300100Z 02004KT 8000 SCT012 26/25 Q1011 NOSIG=
30/01/2022 01:30:00Z	 SAID32 WIOO 300130	METAR WIOO 300130Z 01003KT 9000 SCT012 27/25 Q1011 NOSIG=
30/01/2022 02:00:00Z	 SAID32 WIOO 300200	METAR WIOO 300200Z 34004KT 9999 FEW012 28/25 Q1011 NOSIG=
30/01/2022 02:30:00Z	 SAID32 WIOO 300230	METAR WIOO 300230Z 32006KT 9999 SCT012 29/25 Q1011 NOSIG=
30/01/2022 03:00:00Z	 SAID32 WIOO 300300	METAR WIOO 300300Z 31004KT 9999 BKN012 30/24 Q1011 NOSIG=
30/01/2022 03:30:00Z	 SAID32 WIOO 300330	METAR WIOO 300330Z 28005KT 9999 BKN012 30/24 Q1011 NOSIG=
30/01/2022 04:00:00Z	 SAID32 WIOO 300400	METAR WIOO 300400Z 25005KT 9999 BKN012 31/23 Q1011 NOSIG=
30/01/2022 04:30:00Z	 SAID32 WIOO 300430	METAR WIOO 300430Z 20005KT 9999 BKN012 31/24 Q1010 NOSIG=
30/01/2022 05:00:00Z	 SAID32 WIOO 300500	METAR WIOO 300500Z 22006KT 9999 BKN012 31/23 Q1010 NOSIG=
30/01/2022 05:30:00Z	 SAID32 WIOO 300530	METAR WIOO 300530Z 31005KT 9999 BKN012 32/23 Q1010 NOSIG=
30/01/2022 06:00:00Z	 SAID32 WIOO 300600	METAR WIOO 300600Z 28007KT 9999 SCT012 32/23 Q1009 NOSIG=
30/01/2022 06:30:00Z	 SAID32 WIOO 300630	METAR WIOO 300630Z 24005KT 9999 SCT012 31/24 Q1008 NOSIG=
30/01/2022 07:00:00Z	 SAID32 WIOO 300700	METAR WIOO 300700Z 26007KT 9999 SCT012 31/24 Q1008 NOSIG=
30/01/2022 07:30:00Z	 SAID32 WIOO 300730	METAR WIOO 300730Z 24008KT 9999 SCT012 30/24 Q1007 NOSIG=
30/01/2022 08:00:00Z	 SAID32 WIOO 300800	METAR WIOO 300800Z 27007KT 9999 SCT012 31/24 Q1007 NOSIG=
30/01/2022 08:30:00Z	 SAID32 WIOO 300830	METAR WIOO 300830Z 27005KT 9999 SCT012 30/24 Q1007 NOSIG=
30/01/2022 09:00:00Z	 SAID32 WIOO 300900	METAR WIOO 300900Z 27007KT 9999 SCT012 30/24 Q1007 NOSIG=
30/01/2022 09:30:00Z	 SAID32 WIOO 300930	METAR WIOO 300930Z 27004KT 9999 SCT012 30/24 Q1007 NOSIG=
30/01/2022 10:00:00Z	 SAID32 WIOO 301000	METAR WIOO 301000Z 27006KT 9999 SCT012 29/24 Q1007 NOSIG=
30/01/2022 10:30:00Z	 SAID32 WIOO 301030	METAR WIOO 301030Z 29005KT 8000 SCT012 28/24 Q1007 NOSIG=
30/01/2022 11:00:00Z	 SAID32 WIOO 301100	METAR WIOO 301100Z 28006KT 8000 SCT012 28/24 Q1007 NOSIG=
30/01/2022 11:30:00Z	 SAID32 WIOO 301130	METAR WIOO 301130Z 00000KT 7000 SCT012 27/24 Q1008 NOSIG=
30/01/2022 12:00:00Z	 SAID32 WIOO 301200	METAR WIOO 301200Z 29003KT 6000 SCT012 26/24 Q1008 NOSIG=
30/01/2022 12:30:00Z	 SAID32 WIOO 301230	METAR WIOO 301230Z 28004KT 6000 SCT012 26/24 Q1008 NOSIG=
30/01/2022 13:00:00Z	 SAID32 WIOO 301300	METAR WIOO 301300Z 00000KT 6000 SCT012 26/24 Q1009 NOSIG=
30/01/2022 13:30:00Z	 SAID32 WIOO 301330	METAR WIOO 301330Z 00000KT 6000 SCT012 26/24 Q1009 NOSIG=
30/01/2022 14:00:00Z	 SAID32 WIOO 301400	METAR WIOO 301400Z 00000KT 6000 FEW012 26/24 Q1010 NOSIG=
30/01/2022 14:30:00Z	 SAID32 WIOO 301430	METAR WIOO 301430Z 00000KT 6000 FEW012 265/24 Q1010 NOSIG=
30/01/2022 15:00:00Z	 SAID32 WIOO 301500	METAR WIOO 301500Z 00000KT 6000 FEW012 26/24 Q1010 NOSIG=
30/01/2022 15:30:00Z	 SAID32 WIOO 301530	METAR WIOO 301530Z AUTO 32001KT 5000 SCT190 25/24 Q1010=
30/01/2022 16:00:00Z	 SAID32 WIOO 301600	METAR WIOO 301600Z AUTO 36001KT 5000 FEW018 BKN190 25/24 Q1010=
30/01/2022 16:30:00Z	 SAID32 WIOO 301630	METAR WIOO 301630Z AUTO 00000KT 5000 FEW018 BKN200 BKN200 25/24 Q1010=
30/01/2022 17:00:00Z	 SAID32 WIOO 301700	METAR WIOO 301700Z AUTO 00000KT 4700 BR OVC190 25/24 Q1010=
30/01/2022 17:30:00Z	 SAID32 WIOO 301730	METAR WIOO 301730Z AUTO 00000KT 3600 BR FEW024 BKN200 OVC230 24/24 Q1009=
30/01/2022 18:00:00Z	 SAID32 WIOO 301800	METAR WIOO 301800Z AUTO 24001KT 3000 BR OVC024 OVC025 24/24 Q1009=
30/01/2022 18:30:00Z	 SAID32 WIOO 301830	METAR WIOO 301830Z AUTO 00000KT 3300 BR OVC023 OVC024 24/24 Q1009=
30/01/2022 19:00:00Z	 SAID32 WIOO 301900	METAR WIOO 301900Z AUTO 02001KT 3700 BR FEW180 SCT210 24/24 Q1008=
30/01/2022 19:30:00Z	 SAID32 WIOO 301930	METAR WIOO 301930Z AUTO 34001KT 3900 BR SCT024 SCT200 24/24 Q1008=
30/01/2022 20:00:00Z	 SAID32 WIOO 302000	METAR WIOO 302000Z AUTO 31001KT 4100 BR FEW025 SCT200 BKN210 24/24 Q1008=
30/01/2022 20:30:00Z	 SAID32 WIOO 302030	METAR WIOO 302030Z AUTO 04001KT 1700 BR SCT029 BKN210 BKN320 23/23 Q1008=
30/01/2022 21:00:00Z	 SAID32 WIOO 302100	METAR WIOO 302100Z AUTO 36001KT 4300 BR NCD 23/23 Q1008=
30/01/2022 21:30:00Z	 SAID32 WIOO 302130	METAR WIOO 302130Z AUTO 01002KT 0600 R15/0800N FG BKN027 23/23 Q1008=
30/01/2022 22:00:00Z	 SAID32 WIOO 302200	METAR WIOO 302200Z AUTO 03003KT 8000 FEW027 24/24 Q1008=
30/01/2022 22:30:00Z	 SAID32 WIOO 302230	METAR WIOO 302230Z 05003KT 7000 FEW012 24/23 Q1009 NOSIG=
30/01/2022 23:00:00Z	 SAID32 WIOO 302300	METAR WIOO 302300Z 00000KT 3000 BR FEW011 24/23 Q1009 NOSIG=
30/01/2022 23:30:00Z	 SAID32 WIOO 302330	METAR WIOO 302330Z 00000KT 4500 BR FEW011 24/23 Q1009 NOSIG=
31/01/2022 00:00:00Z	 SAID32 WIOO 310000	METAR WIOO 310000Z 10003KT 3000 BR SCT009 24/23 Q1010 TEMPO TL0100 1500 BR=
31/01/2022 00:30:00Z	 SAID32 WIOO 310030	METAR WIOO 310030Z 08003KT 5000 BR SCT009 24/23 Q1010 BECMG FM0100 8000 NSW=
31/01/2022 01:00:00Z	 SAID32 WIOO 310100	METAR WIOO 310100Z 05003KT 9999 FEW011 26/24 Q1010 NOSIG=
31/01/2022 01:30:00Z	 SAID32 WIOO 310130	METAR WIOO 310130Z 00000KT 9999 FEW012 27/24 Q1011 NOSIG=
31/01/2022 02:00:00Z	 SAID32 WIOO 310200	METAR WIOO 310200Z 06003KT 9999 FEW012 28/24 Q1011 NOSIG=
31/01/2022 02:30:00Z	 SAID32 WIOO 310230	METAR WIOO 310230Z 01004KT 9999 SCT012 29/24 Q1010 NOSIG=
31/01/2022 03:00:00Z	 SAID32 WIOO 310300	METAR WIOO 310300Z 06004KT 9999 BKN012 30/25 Q1010 NOSIG=
31/01/2022 03:30:00Z	 SAID32 WIOO 310330	METAR WIOO 310330Z 23003KT 9999 BKN012 30/24 Q1010 NOSIG=
31/01/2022 04:00:00Z	 SAID32 WIOO 310400	METAR WIOO 310400Z 18003KT 9999 BKN012 31/24 Q1010 NOSIG=
31/01/2022 04:30:00Z	 SAID32 WIOO 310430	METAR WIOO 310430Z 15003KT 9999 BKN012 31/23 Q1010 NOSIG=
31/01/2022 05:00:00Z	 SAID32 WIOO 310500	METAR WIOO 310500Z 20003KT 9999 BKN012 32/23 Q1009 NOSIG=
31/01/2022 05:30:00Z	 SAID32 WIOO 310530	METAR WIOO 310530Z 29004KT 9999 BKN012 32/23 Q1009 NOSIG=
31/01/2022 06:00:00Z	 SAID32 WIOO 310600	METAR WIOO 310600Z 02003KT 9999 BKN012 32/23 Q1008 NOSIG=
31/01/2022 06:30:00Z	 SAID32 WIOO 310630	METAR WIOO 310630Z 25006KT 9999 SCT012 32/23 Q1008 NOSIG=
31/01/2022 07:00:00Z	 SAID32 WIOO 310700	METAR WIOO 310700Z 25005KT 9999 SCT012 32/22 Q1007 NOSIG=
31/01/2022 07:30:00Z	 SAID32 WIOO 310730	METAR WIOO 310730Z 22010KT 8000 SCT012 32/22 Q1007 NOSIG=
31/01/2022 08:00:00Z	 SAID32 WIOO 310800	METAR WIOO 310800Z 22011KT 7000 SCT012 32/22 Q1007 NOSIG=
31/01/2022 08:30:00Z	 SAID32 WIOO 310830	METAR WIOO 310830Z 26009KT 8000 SCT012 32/23 Q1006 NOSIG=
31/01/2022 09:00:00Z	 SAID32 WIOO 310900	METAR WIOO 310900Z 26006KT 9999 FEW012 32/22 Q1006 NOSIG=
31/01/2022 09:30:00Z	 SAID32 WIOO 310930	METAR WIOO 310930Z 23008KT 7000 FEW012 30/23 Q1006 NOSIG=
31/01/2022 10:00:00Z	 SAID32 WIOO 311000	METAR WIOO 311000Z 23008KT 5000 FU FEW012 30/23 Q1007 NOSIG=
31/01/2022 10:30:00Z	 SAID32 WIOO 311030	METAR WIOO 311030Z 24008KT 5000 FU FEW013 28/23 Q1007 TEMPO FM1100 4000 FU=
31/01/2022 11:00:00Z	 SAID32 WIOO 311100	METAR WIOO 311100Z 26008KT 7000 SCT013 27/23 Q1008 NOSIG=
31/01/2022 11:30:00Z	 SAID32 WIOO 311130	METAR WIOO 311130Z 27004KT 6000 SCT012 27/24 Q1008 NOSIG=
31/01/2022 12:00:00Z	 SAID32 WIOO 311200	METAR WIOO 311200Z 27004KT 6000 SCT012 27/24 Q1008 NOSIG=
31/01/2022 12:30:00Z	 SAID32 WIOO 311230	METAR WIOO 311230Z 28003KT 6000 SCT012 26/24 Q1009 NOSIG=
31/01/2022 13:00:00Z	 SAID32 WIOO 311300	METAR WIOO 311300Z 25004KT 6000 SCT012 26/24 Q1009 NOSIG=
31/01/2022 13:30:00Z	 SAID32 WIOO 311330	METAR WIOO 311330Z 32003KT 6000 SCT012 26/24 Q1009 NOSIG=
31/01/2022 14:00:00Z	 SAID32 WIOO 311400	METAR WIOO 311400Z 00000KT 6000 SCT012 26/24 Q1009 NOSIG=
31/01/2022 14:30:00Z	 SAID32 WIOO 311430	METAR WIOO 311430Z 05003KT 3000 BR SCT012 26/24 Q1009 NOSIG=
31/01/2022 15:00:00Z	 SAID32 WIOO 311500	METAR WIOO 311500Z 04003KT 3000 BR SCT012 26/24 Q1009 NOSIG=
31/01/2022 15:30:00Z	 SAID32 WIOO 311530	METAR WIOO 311530Z 00000KT 4000 BR SCT012 25/24 Q1009 NOSIG=
31/01/2022 16:00:00Z	 SAID32 WIOO 311600	METAR WIOO 311600Z 20004KT 4000 SCT012 25/24 Q1009 NOSIG=
31/01/2022 16:00:00Z	 SAID32 WIOO 311600 CCA	METAR COR WIOO 311600Z 20004KT 4000 BR SCT012 25/24 Q1009 NOSIG=
31/01/2022 16:30:00Z	 SAID32 WIOO 311630	METAR WIOO 311630Z AUTO 24002KT 2600 BR NCD 23/23 Q1009=
31/01/2022 17:00:00Z	 SAID32 WIOO 311700	METAR WIOO 311700Z AUTO VRB01KT 1900 BR BKN018 BKN220 23/23 Q1009=
31/01/2022 17:30:00Z	 SAID32 WIOO 311730	METAR WIOO 311730Z AUTO 36001KT 0550 R15/0800N FG BKN003 BKN019 23/22 Q1009=
31/01/2022 18:00:00Z	 SAID32 WIOO 311800	METAR WIOO 311800Z AUTO 02001KT 1900 BR SCT003 BKN020 BKN021 23/23 Q1009=
31/01/2022 18:30:00Z	 SAID32 WIOO 311830	METAR WIOO 311830Z AUTO 32001KT 2100 BR SCT003 SCT020 OVC200 22/22 Q1008=
31/01/2022 19:00:00Z	 SAID32 WIOO 311900	METAR WIOO 311900Z AUTO 00000KT 2700 BR FEW002 BKN200 23/22 Q1008=
31/01/2022 19:30:00Z	 SAID32 WIOO 311930	METAR WIOO 311930Z AUTO 20002KT 2100 BR NCD 22/22 Q1008=
31/01/2022 20:00:00Z	 SAID32 WIOO 312000	METAR WIOO 312000Z AUTO 05001KT 2100 BR NCD 22/22 Q1008=
31/01/2022 20:30:00Z	 SAID32 WIOO 312030	METAR WIOO 312030Z AUTO 36001KT 2200 BR NCD 22/22 Q1008=
31/01/2022 21:00:00Z	 SAID32 WIOO 312100	METAR WIOO 312100Z AUTO 01001KT 0800 R15/1100D FG VV002 22/22 Q1007=
