01/05/2021 00:00:00Z	 SAID34 WIJJ 010000	METAR WIJJ 010000Z 16002KT 4000 HZ FEW013 24/23 Q1010 NOSIG=
01/05/2021 00:30:00Z	 SAID34 WIJJ 010030	METAR WIJJ 010030Z 16001KT 8000 NSC 25/24 Q1010 NOSIG=
01/05/2021 01:00:00Z	 SAID34 WIJJ 010100	METAR WIJJ 010100Z 15003KT 090V190 9999 NSC 26/24 Q1010 NOSIG=
01/05/2021 01:30:00Z	 SAID34 WIJJ 010130	METAR WIJJ 010130Z 15004KT 120V180 9999 NSC 27/24 Q1011 NOSIG=
01/05/2021 02:00:00Z	 SAID34 WIJJ 010200	METAR WIJJ 010200Z 17004KT 9999 FEW015 28/24 Q1011 NOSIG=
01/05/2021 02:30:00Z	 SAID34 WIJJ 010230	METAR WIJJ 010230Z 19003KT 9999 SCT015 28/25 Q1011 NOSIG=
01/05/2021 03:00:00Z	 SAID34 WIJJ 010300	METAR WIJJ 010300Z 22006KT 9999 BKN015 29/23 Q1011 NOSIG=
01/05/2021 03:30:00Z	 SAID34 WIJJ 010330	METAR WIJJ 010330Z AUTO 18004KT 130V240 9999 FEW030 SCT036 30/24 Q1011=
01/05/2021 04:00:00Z	 SAID34 WIJJ 010400	METAR WIJJ 010400Z 15005KT 070V200 9999 BKN016 31/24 Q1010 NOSIG=
01/05/2021 04:30:00Z	 SAID34 WIJJ 010430	METAR WIJJ 010430Z 16004KT 110V240 9999 BKN016 30/24 Q1010 NOSIG=
01/05/2021 05:00:00Z	 SAID34 WIJJ 010500	METAR WIJJ 010500Z 14003KT 080V190 9999 FEW015CB BKN016 30/23 Q1010 NOSIG RMK CB TO N AND SE=
01/05/2021 05:30:00Z	 SAID34 WIJJ 010530	METAR WIJJ 010530Z 11004KT 080V150 9999 BKN016 31/24 Q1009 NOSIG=
01/05/2021 06:00:00Z	 SAID34 WIJJ 010600	METAR WIJJ 010600Z 13002KT 9999 SCT016 31/23 Q1009 NOSIG=
01/05/2021 06:30:00Z	 SAID34 WIJJ 010630	METAR WIJJ 010630Z 17004KT 110V210 9999 SCT017 32/23 Q1008 NOSIG=
01/05/2021 07:00:00Z	 SAID34 WIJJ 010700	METAR WIJJ 010700Z 16006KT 070V220 9999 VCTS FEW016CB BKN017 31/24 Q1008 NOSIG RMK CB TO ALQDS=
01/05/2021 07:30:00Z	 SAID34 WIJJ 010730	METAR WIJJ 010730Z 10011KT 070V160 9999 TS SCT014CB BKN015 29/24 Q1008 TEMPO 5000 TSRA SCT013CB BKN014 RMK CB TO NW-NE=
01/05/2021 08:00:00Z	 SAID34 WIJJ 010800	METAR WIJJ 010800Z 08007KT 7000 -RA FEW013CB BKN014 25/24 Q1008 NOSIG RMK CB TO NW-E=
01/05/2021 08:30:00Z	 SAID34 WIJJ 010830	METAR WIJJ 010830Z 03002KT 7000 VCTS RA FEW014CB SCT015 26/24 Q1007 NOSIG RMK CB TO SW-NW=
01/05/2021 09:00:00Z	 SAID34 WIJJ 010900	METAR WIJJ 010900Z 03006KT 8000 -RA FEW015CB SCT016 27/25 Q1008 NOSIG RMK CB TO W=
01/05/2021 09:30:00Z	 SAID34 WIJJ 010930	METAR WIJJ 010930Z 26003KT 9999 SCT017 27/25 Q1008 NOSIG RMK RERA=
01/05/2021 10:00:00Z	 SAID34 WIJJ 011000	METAR WIJJ 011000Z 22002KT 9999 FEW016CB SCT017 27/25 Q1008 NOSIG RMK CB TO N AND NW=
01/05/2021 10:30:00Z	 SAID34 WIJJ 011030	METAR WIJJ 011030Z 36005KT 9999 FEW017 27/25 Q1008 NOSIG=
01/05/2021 11:00:00Z	 SAID34 WIJJ 011100	METAR WIJJ 011100Z 32004KT 9999 SCT017 27/25 Q1008 NOSIG=
01/05/2021 11:30:00Z	 SAID34 WIJJ 011130	METAR WIJJ 011130Z 30004KT 9999 FEW016CB 26/25 Q1009 NOSIG RMK CB TO N AND W=
01/05/2021 12:00:00Z	 SAID34 WIJJ 011200	METAR WIJJ 011200Z 33002KT 9999 FEW016CB SCT017 27/24 Q1009 NOSIG RMK CB TO N=
01/05/2021 12:30:00Z	 SAID34 WIJJ 011230	METAR WIJJ 011230Z 00000KT 9999 FEW015CB 26/24 Q1009 NOSIG RMK CB TO S=
01/05/2021 13:00:00Z	 SAID34 WIJJ 011300	METAR WIJJ 011300Z 17002KT 9999 FEW015CB 26/24 Q1010 NOSIG RMK CB TO W=
01/05/2021 13:30:00Z	 SAID34 WIJJ 011330	METAR WIJJ 011330Z 22002KT 9999 FEW016 26/24 Q1010 NOSIG=
01/05/2021 14:00:00Z	 SAID34 WIJJ 011400	METAR WIJJ 011400Z 27002KT 9999 FEW016 26/25 Q1010 NOSIG=
01/05/2021 14:30:00Z	 SAID34 WIJJ 011430	METAR WIJJ 011430Z 00000KT 9999 FEW016 26/25 Q1010 NOSIG=
01/05/2021 15:00:00Z	 SAID34 WIJJ 011500	METAR WIJJ 011500Z 00000KT 9999 FEW016 26/25 Q1010 NOSIG=
01/05/2021 15:30:00Z	 SAID34 WIJJ 011530	METAR WIJJ 011530Z 08002KT 9999 FEW016 26/25 Q1010 NOSIG=
01/05/2021 16:00:00Z	 SAID34 WIJJ 011600	METAR WIJJ 011600Z 06002KT 8000 HZ FEW016 26/24 Q1011 NOSIG=
01/05/2021 16:30:00Z	 SAID34 WIJJ 011630	METAR WIJJ 011630Z 13003KT 1800 BR FEW010 25/24 Q1011=
01/05/2021 17:00:00Z	 SAID34 WIJJ 011700	METAR WIJJ 011700Z 17002KT 2500 BR FEW016 25/24 Q1011 NOSIG=
01/05/2021 17:30:00Z	 SAID34 WIJJ 011730	METAR WIJJ 011730Z 00000KT 3100 BR FEW016 25/24 Q1010=
01/05/2021 18:00:00Z	 SAID34 WIJJ 011800	METAR WIJJ 011800Z 22002KT 2300 BR FEW016 25/24 Q1010=
01/05/2021 18:30:00Z	 SAID34 WIJJ 011830	METAR WIJJ 011830Z 25002KT 2800 BR FEW016 25/24 Q1009=
01/05/2021 19:00:00Z	 SAID34 WIJJ 011900	METAR WIJJ 011900Z 28002KT 3300 BR VV005 24/24 Q1009 NOSIG=
01/05/2021 19:30:00Z	 SAID34 WIJJ 011930	METAR WIJJ 011930Z 24002KT 3600 BR FEW016 25/24 Q1009=
01/05/2021 20:00:00Z	 SAID34 WIJJ 012000	METAR WIJJ 012000Z 21002KT 4000 BR FEW016 25/24 Q1009=
01/05/2021 20:30:00Z	 SAID34 WIJJ 012030	METAR WIJJ 012030Z 17003KT 4400 BR FEW016 24/23 Q1008=
01/05/2021 21:00:00Z	 SAID34 WIJJ 012100	METAR WIJJ 012100Z 18002KT 3300 BR FEW016 24/23 Q1008=
01/05/2021 21:30:00Z	 SAID34 WIJJ 012130	METAR WIJJ 012130Z 17002KT 3900 BR FEW016 24/23 Q1009=
01/05/2021 22:00:00Z	 SAID34 WIJJ 012200	METAR WIJJ 012200Z 16002KT 6000 FEW016 24/23 Q1009 NOSIG=
01/05/2021 22:30:00Z	 SAID34 WIJJ 012230	METAR WIJJ 012230Z 18002KT 6000 FEW016 24/23 Q1009 NOSIG=
01/05/2021 23:00:00Z	 SAID34 WIJJ 012300	METAR WIJJ 012300Z 14003KT 5000 BR FEW015CB FEW016 24/23 Q1009 NOSIG RMK CB TO E=
01/05/2021 23:30:00Z	 SAID34 WIJJ 012330	METAR WIJJ 012330Z 13003KT 3900 BR FEW015CB FEW016 24/23 Q1010 RMK CB TO E=
02/05/2021 00:00:00Z	 SAID34 WIJJ 020000	METAR WIJJ 020000Z 13002KT 4500 BR VV005 24/23 Q1010 RMK CB TO E=
02/05/2021 00:30:00Z	 SAID34 WIJJ 020030	METAR WIJJ 020030Z 19004KT 9999 FEW017CB 26/25 Q1010 NOSIG RMK CB TO NE=
02/05/2021 01:00:00Z	 SAID34 WIJJ 020100	METAR WIJJ 020100Z 17006KT 9999 FEW015CB SCT017 26/25 Q1011 NOSIG RMK CB TO NE AND SE=
02/05/2021 01:30:00Z	 SAID34 WIJJ 020130	METAR WIJJ 020130Z 15003KT 9999 SCT017 28/25 Q1011 NOSIG=
02/05/2021 02:00:00Z	 SAID34 WIJJ 020200	METAR WIJJ 020200Z 12005KT 9999 FEW015CB SCT017 28/25 Q1011 NOSIG RMK CB TO E=
02/05/2021 02:30:00Z	 SAID34 WIJJ 020230	METAR WIJJ 020230Z 12006KT 9999 FEW015CB 28/25 Q1012 NOSIG RMK CB TO SE=
02/05/2021 03:00:00Z	 SAID34 WIJJ 020300	METAR WIJJ 020300Z 07012KT 9999 FEW013CB BKN015 27/24 Q1012 TEMPO 5000 -TSRA SCT013CB BKN014 RMK CB IN APCH=
02/05/2021 03:30:00Z	 SAID34 WIJJ 020330	METAR WIJJ 020330Z 05003KT 9999 FEW013CB SCT015 27/24 Q1011 NOSIG RMK CB TO N=
02/05/2021 04:00:00Z	 SAID34 WIJJ 020400	METAR WIJJ 020400Z 00000KT 9999 FEW015CB SCT017 27/24 Q1011 NOSIG RMK CB TO NW AND N=
02/05/2021 04:30:00Z	 SAID34 WIJJ 020430	METAR WIJJ 020430Z 01003KT 9999 FEW015CB SCT017 27/24 Q1010 NOSIG RMK CB TO NW AND N=
02/05/2021 05:00:00Z	 SAID34 WIJJ 020500	METAR WIJJ 020500Z 08002KT 9999 SCT015 28/24 Q1010 NOSIG=
02/05/2021 05:30:00Z	 SAID34 WIJJ 020530	METAR WIJJ 020530Z 00000KT 9999 SCT015 28/24 Q1009 NOSIG=
02/05/2021 06:00:00Z	 SAID34 WIJJ 020600	METAR WIJJ 020600Z 14002KT 9999 BKN015 28/24 Q1008 NOSIG=
02/05/2021 06:30:00Z	 SAID34 WIJJ 020630	METAR WIJJ 020630Z 04002KT 9999 BKN015 28/24 Q1008 NOSIG=
02/05/2021 07:00:00Z	 SAID34 WIJJ 020700	METAR WIJJ 020700Z 14005KT 9999 BKN015 30/25 Q1007 NOSIG=
02/05/2021 08:00:00Z	 SAID34 WIJJ 020800	METAR WIJJ 020800Z 13005KT 9999 BKN015 31/25 Q1007 NOSIG=
02/05/2021 08:30:00Z	 SAID34 WIJJ 020830	METAR WIJJ 020830Z 10003KT 9999 SCT015 32/24 Q1007 NOSIG=
02/05/2021 09:00:00Z	 SAID34 WIJJ 020900	METAR WIJJ 020900Z 35008KT 9999 FEW015CB SCT017 32/25 Q1007 NOSIG RMK CB TO SE AND N=
02/05/2021 09:30:00Z	 SAID34 WIJJ 020930	METAR WIJJ 020930Z 35008KT 9999 FEW015CB SCT017 32/25 Q1007 NOSIG RMK CB TO SE AND SW=
02/05/2021 10:00:00Z	 SAID34 WIJJ 021000	METAR WIJJ 021000Z 03004KT 9999 FEW015CB SCT017 31/25 Q1007 NOSIG RMK CB TO SE AND SW=
02/05/2021 10:30:00Z	 SAID34 WIJJ 021030	METAR WIJJ 021030Z 04004KT 9999 FEW017 30/24 Q1007 NOSIG=
02/05/2021 11:00:00Z	 SAID34 WIJJ 021100	METAR WIJJ 021100Z 03003KT 9999 FEW017 30/24 Q1007 NOSIG=
02/05/2021 11:30:00Z	 SAID34 WIJJ 021130	METAR WIJJ 021130Z 04002KT 9999 FEW015CB 29/25 Q1008 NOSIG RMK CB TO SE=
02/05/2021 12:00:00Z	 SAID34 WIJJ 021200	METAR WIJJ 021200Z 07002KT 9999 FEW017 30/26 Q1008 NOSIG=
02/05/2021 12:30:00Z	 SAID34 WIJJ 021230	METAR WIJJ 021230Z 19003KT 9999 FEW017 29/26 Q1008 NOSIG=
02/05/2021 13:00:00Z	 SAID34 WIJJ 021300	METAR WIJJ 021300Z 12003KT 9999 FEW017 28/26 Q1009 NOSIG=
02/05/2021 13:30:00Z	 SAID34 WIJJ 021330	METAR WIJJ 021330Z AUTO ///// //// ////// ///// Q////=
02/05/2021 14:00:00Z	 SAID34 WIJJ 021400	METAR WIJJ 021400Z 14003KT 9999 FEW017 28/26 Q1010 NOSIG=
02/05/2021 15:00:00Z	 SAID34 WIJJ 021500	METAR WIJJ 021500Z 14004KT 9999 FEW017 27/26 Q1010 NOSIG=
02/05/2021 15:30:00Z	 SAID34 WIJJ 021530	METAR WIJJ 021530Z 14003KT 9999 FEW017 27/26 Q1010 NOSIG=
02/05/2021 16:00:00Z	 SAID34 WIJJ 021600	METAR WIJJ 021600Z 15003KT 9999 FEW017 26/25 Q1010 NOSIG=
02/05/2021 16:30:00Z	 SAID34 WIJJ 021630	METAR WIJJ 021630Z 13003KT 9999 FEW017 26/25 Q1010 NOSIG=
02/05/2021 17:00:00Z	 SAID34 WIJJ 021700	METAR WIJJ 021700Z 16003KT 9999 FEW017 25/25 Q1009 NOSIG=
02/05/2021 17:30:00Z	 SAID34 WIJJ 021730	METAR WIJJ 021730Z 14002KT 9999 FEW017 25/25 Q1009 NOSIG=
02/05/2021 18:00:00Z	 SAID34 WIJJ 021800	METAR WIJJ 021800Z 00000KT 9999 FEW017 25/25 Q1008 NOSIG=
02/05/2021 18:30:00Z	 SAID34 WIJJ 021830	METAR WIJJ 021830Z 15003KT 9999 FEW017 25/25 Q1008 NOSIG=
02/05/2021 19:00:00Z	 SAID34 WIJJ 021900	METAR WIJJ 021900Z 11002KT 9999 FEW017 25/24 Q1007 NOSIG=
02/05/2021 19:30:00Z	 SAID34 WIJJ 021930	METAR WIJJ 021930Z 00000KT 9999 FEW017 25/25 Q1007 NOSIG=
02/05/2021 20:00:00Z	 SAID34 WIJJ 022000	METAR WIJJ 022000Z 00000KT 9999 FEW017 25/24 Q1007 NOSIG=
02/05/2021 20:30:00Z	 SAID34 WIJJ 022030	METAR WIJJ 022030Z 00000KT 9999 FEW017 24/24 Q1007 NOSIG=
02/05/2021 21:00:00Z	 SAID34 WIJJ 022100	METAR WIJJ 022100Z 00000KT 9999 FEW017 24/24 Q1007 NOSIG=
02/05/2021 21:30:00Z	 SAID34 WIJJ 022130	METAR WIJJ 022130Z 25002KT 9999 FEW017 24/24 Q1007 NOSIG=
02/05/2021 22:00:00Z	 SAID34 WIJJ 022200	METAR WIJJ 022200Z 20002KT 9999 FEW016 24/24 Q1007 NOSIG=
02/05/2021 22:30:00Z	 SAID34 WIJJ 022230	METAR WIJJ 022230Z 00000KT 9999 FEW016 24/24 Q1007 NOSIG=
02/05/2021 23:00:00Z	 SAID34 WIJJ 022300	METAR WIJJ 022300Z 00000KT 9999 FEW016 24/24 Q1008 NOSIG=
02/05/2021 23:30:00Z	 SAID34 WIJJ 022330	METAR WIJJ 022330Z 22002KT 9999 FEW016 24/24 Q1008 NOSIG=
03/05/2021 00:00:00Z	 SAID34 WIJJ 030000	METAR WIJJ 030000Z 20002KT 9999 FEW016 24/24 Q1008 NOSIG=
03/05/2021 00:30:00Z	 SAID34 WIJJ 030030	METAR WIJJ 030030Z AUTO 21003KT 170V230 9000 NCD 25/24 Q1008=
03/05/2021 01:00:00Z	 SAID34 WIJJ 030100	METAR WIJJ 030100Z 16002KT CAVOK 26/24 Q1009 NOSIG=
03/05/2021 01:30:00Z	 SAID34 WIJJ 030130	METAR WIJJ 030130Z 16003KT CAVOK 27/24 Q1009 NOSIG=
03/05/2021 02:00:00Z	 SAID34 WIJJ 030200	METAR WIJJ 030200Z 14003KT 9999 FEW014 28/24 Q1009 NOSIG=
03/05/2021 02:30:00Z	 SAID34 WIJJ 030230	METAR WIJJ 030230Z 14004KT 9999 SCT014 29/24 Q1009 NOSIG=
03/05/2021 03:00:00Z	 SAID34 WIJJ 030300	METAR WIJJ 030300Z 14007KT 9999 SCT015 30/25 Q1008 NOSIG=
03/05/2021 03:30:00Z	 SAID34 WIJJ 030330	METAR WIJJ 030330Z 13004KT 090V200 9999 SCT015 30/25 Q1008 NOSIG=
03/05/2021 04:00:00Z	 SAID34 WIJJ 030400	METAR WIJJ 030400Z 19005KT 140V220 9999 SCT015 31/25 Q1008 NOSIG=
03/05/2021 04:30:00Z	 SAID34 WIJJ 030430	METAR WIJJ 030430Z 13005KT 100V160 9999 SCT015 31/25 Q1007 NOSIG=
03/05/2021 05:00:00Z	 SAID34 WIJJ 030500	METAR WIJJ 030500Z 16004KT 9999 SCT015 31/25 Q1007 NOSIG=
03/05/2021 05:30:00Z	 SAID34 WIJJ 030530	METAR WIJJ 030530Z 16006KT 9999 SCT015 32/25 Q1006 NOSIG=
03/05/2021 06:00:00Z	 SAID34 WIJJ 030600	METAR WIJJ 030600Z 15005KT 120V190 9999 SCT015 32/24 Q1006 NOSIG=
03/05/2021 06:30:00Z	 SAID34 WIJJ 030630	METAR WIJJ 030630Z 16006KT 110V200 9999 SCT015 32/24 Q1005 NOSIB=
03/05/2021 07:00:00Z	 SAID34 WIJJ 030700	METAR WIJJ 030700Z 15007KT 120V180 9999 SCT015 33/24 Q1005 NOSIG=
03/05/2021 07:30:00Z	 SAID34 WIJJ 030730	METAR WIJJ 030730Z 17004KT 120V180 9999 SCT015 32/24 Q1004 NOSIG=
03/05/2021 08:00:00Z	 SAID34 WIJJ 030800	METAR WIJJ 030800Z 15004KT 9999 SCT015 32/24 Q1004 NOSIG=
03/05/2021 08:30:00Z	 SAID34 WIJJ 030830	METAR WIJJ 030830Z 15002KT 8000 -RA BKN015 32/23 Q1004 NOSIG=
03/05/2021 09:00:00Z	 SAID34 WIJJ 030900	METAR WIJJ 030900Z 33004KT 9999 -RA BKN015 30/23 Q1005 NOSIG=
03/05/2021 09:10:00Z	 SAID34 WIJJ 030910	METAR WIJJ 030910Z 06006KT 9999 BKN015 30/25 Q1005 NOSIG=
03/05/2021 09:30:00Z	 SAID34 WIJJ 030930	METAR WIJJ 030930Z 06006KT 9999 BKN015 30/25 Q1005 NOSIG=
03/05/2021 10:00:00Z	 SAID34 WIJJ 031000	METAR WIJJ 031000Z 02004KT 9000 -RA SCT015 30/24 Q1005 NOSIG=
03/05/2021 10:30:00Z	 SAID34 WIJJ 031030	METAR WIJJ 031030Z 02003KT 9999 SCT015 29/24 Q1005 RERA NOSIG=
03/05/2021 11:00:00Z	 SAID34 WIJJ 031100	METAR WIJJ 031100Z 35003KT 9999 SCT015 29/25 Q1005 NOSIG=
03/05/2021 11:30:00Z	 SAID34 WIJJ 031130	METAR WIJJ 031130Z 01002KT 9999 SCT015 29/24 Q1006 NOSIG=
03/05/2021 12:00:00Z	 SAID34 WIJJ 031200	METAR WIJJ 031200Z 36002KT 9999 SCT015 29/25 Q1006 NOSIG=
03/05/2021 12:30:00Z	 SAID34 WIJJ 031230	METAR WIJJ 031230Z 32005KT 9999 FEW016 28/25 Q1007 NOSIG=
03/05/2021 13:00:00Z	 SAID34 WIJJ 031300	METAR WIJJ 031300Z 04002KT 9999 FEW016 28/25 Q1007 NOSIG=
03/05/2021 13:30:00Z	 SAID34 WIJJ 031330	METAR WIJJ 031330Z 06002KT 9999 FEW016 28/25 Q1007 NOSIG=
03/05/2021 14:00:00Z	 SAID34 WIJJ 031400	METAR WIJJ 031400Z 15003KT 9999 FEW016 27/25 Q1008 NOSIG=
03/05/2021 14:30:00Z	 SAID34 WIJJ 031430	METAR WIJJ 031430Z 16003KT 9999 FEW016 27/25 Q1008 NOSIG=
03/05/2021 15:00:00Z	 SAID34 WIJJ 031500	METAR WIJJ 031500Z 24001KT 9999 FEW016 27/25 Q1008 NOSIG=
03/05/2021 15:30:00Z	 SAID34 WIJJ 031530	METAR WIJJ 031530Z 25004KT 9999 FEW016 27/25 Q1008 NOSIG=
03/05/2021 16:00:00Z	 SAID34 WIJJ 031600	METAR WIJJ 031600Z 23003KT 9999 FEW016 26/24 Q1008 NOSIG=
03/05/2021 16:30:00Z	 SAID34 WIJJ 031630	METAR WIJJ 031630Z 34001KT 9999 FEW016 26/24 Q1007 NOSIG=
03/05/2021 17:00:00Z	 SAID34 WIJJ 031700	METAR WIJJ 031700Z 00000KT 9999 FEW016 26/24 Q1007 NOSIG=
03/05/2021 17:30:00Z	 SAID34 WIJJ 031730	METAR WIJJ 031730Z 30001KT 9000 FEW016 26/24 Q1007 NOSIG=
03/05/2021 18:00:00Z	 SAID34 WIJJ 031800	METAR WIJJ 031800Z 31002KT 9999 NSC 26/24 Q1007 NOSIG=
03/05/2021 18:30:00Z	 SAID34 WIJJ 031830	METAR WIJJ 031830Z 33003KT 9999 NSC 26/24 Q1006 NOSIG=
03/05/2021 19:00:00Z	 SAID34 WIJJ 031900	METAR WIJJ 031900Z 22001KT 9999 NSC 25/24 Q1006 NOSIG=
03/05/2021 19:30:00Z	 SAID34 WIJJ 031930	METAR WIJJ 031930Z 30001KT 9000 NSC 25/24 Q1006 NOSIG=
03/05/2021 20:00:00Z	 SAID34 WIJJ 032000	METAR WIJJ 032000Z 00000KT 9000 FEW016 25/24 Q1006 NOSIG=
03/05/2021 20:30:00Z	 SAID34 WIJJ 032030	METAR WIJJ 032030Z 26001KT 9000 FEW016 25/24 Q1006 NOSIG=
03/05/2021 21:00:00Z	 SAID34 WIJJ 032100	METAR WIJJ 032100Z 29001KT 8000 NSC 25/24 Q1006 NOSIG=
03/05/2021 21:30:00Z	 SAID34 WIJJ 032130	METAR WIJJ 032130Z 32001KT 8000 NSC 25/24 Q1006 NOSIG=
03/05/2021 22:00:00Z	 SAID34 WIJJ 032200	METAR WIJJ 032200Z 32001KT 8000 FEW015CB 25/24 Q1006 NOSIG RMK CB TO S=
03/05/2021 22:30:00Z	 SAID34 WIJJ 032230	METAR WIJJ 032230Z 16002KT 7000 NSC 25/24 Q1007 NOSIG=
03/05/2021 23:00:00Z	 SAID34 WIJJ 032300	METAR WIJJ 032300Z 18002KT 3500 BR FEW016CB 25/24 Q1007 NOSIG RMK CB TO SE=
03/05/2021 23:30:00Z	 SAID34 WIJJ 032330	METAR WIJJ 032330Z 16002KT 4000 BR FEW015 25/24 Q1007 NOSIG=
04/05/2021 00:00:00Z	 SAID34 WIJJ 040000	METAR WIJJ 040000Z 13002KT 7000 FEW015 25/24 Q1007 NOSIG=
04/05/2021 00:30:00Z	 SAID34 WIJJ 040030	METAR WIJJ 040030Z AUTO ///// //// ////// ///// Q////=
04/05/2021 01:00:00Z	 SAID34 WIJJ 040100	METAR WIJJ 040100Z 00000KT 8000 FEW016 27/25 Q1008 NOSIG=
04/05/2021 01:30:00Z	 SAID34 WIJJ 040130	METAR WIJJ 040130Z 00000KT 8000 FEW016 29/25 Q1008 NOSIG=
04/05/2021 02:00:00Z	 SAID34 WIJJ 040200	METAR WIJJ 040200Z 20002KT 9000 FEW016 29/26 Q1008 NOSIG=
04/05/2021 02:30:00Z	 SAID34 WIJJ 040230	METAR WIJJ 040230Z 20003KT 9999 FEW018 29/26 Q1008 NOSIG=
04/05/2021 03:00:00Z	 SAID34 WIJJ 040300	METAR WIJJ 040300Z 34002KT 9999 SCT018 30/24 Q1008 NOSIG=
04/05/2021 03:30:00Z	 SAID34 WIJJ 040330	METAR WIJJ 040330Z 00000KT 9999 FEW018 31/24 Q1007 NOSIG=
04/05/2021 04:00:00Z	 SAID34 WIJJ 040400	METAR WIJJ 040400Z 23002KT 9999 SCT018 31/25 Q1007 NOSIG=
04/05/2021 04:30:00Z	 SAID34 WIJJ 040430	METAR WIJJ 040430Z 26004KT 9999 SCT018 30/25 Q1007 NOSIG=
04/05/2021 05:00:00Z	 SAID34 WIJJ 040500	METAR WIJJ 040500Z 27003KT 9999 SCT018 31/25 Q1007 NOSIG=
04/05/2021 05:30:00Z	 SAID34 WIJJ 040530	METAR WIJJ 040530Z 29004KT 9999 SCT018 32/25 Q1006 NOSIG=
04/05/2021 06:00:00Z	 SAID34 WIJJ 040600	METAR WIJJ 040600Z 23004KT 9999 FEW018 32/25 Q1005 NOSIG=
04/05/2021 06:30:00Z	 SAID34 WIJJ 040630	METAR WIJJ 040630Z 27004KT 9999 FEW015CB FEW016 33/25 Q1005 NOSIG RMK CB TO NE AND E=
04/05/2021 07:00:00Z	 SAID34 WIJJ 040700	METAR WIJJ 040700Z 31005KT 9999 FEW015CB FEW016 34/25 Q1004 NOSIG=
04/05/2021 07:04:00Z	 SAID34 WIJJ 040704	METAR WIJJ 040704Z 29005KT 9999 FEW015CB FEW016 34/25 Q1004 RMK CB TO E=
04/05/2021 08:00:00Z	 SAID34 WIJJ 040800	METAR WIJJ 040800Z 31006KT 9999 FEW015CB FEW016 34/25 Q1003 NOSIG RMK CB TO E=
04/05/2021 08:30:00Z	 SAID34 WIJJ 040830	METAR WIJJ 040830Z 19003KT 9999 FEW015CB FEW016 33/25 Q1003 NOSIG RMK CB TO E=
04/05/2021 09:00:00Z	 SAID34 WIJJ 040900	METAR WIJJ 040900Z 07008KT 0450 -TSRA FEW010CB SCT011 29/27 Q1003 TEMPO 3000 TSRA FEW010CB OVC010 RMK CB ALL RWY=
04/05/2021 09:30:00Z	 SAID34 WIJJ 040930	METAR WIJJ 040930Z 04004KT 9000 FEW015CB SCT016 27/24 Q1004 RMK CB TO W=
04/05/2021 10:00:00Z	 SAID34 WIJJ 041000	METAR WIJJ 041000Z 36003KT 9000 FEW015CB SCT016 28/26 Q1005 NOSIG RMK CB TO W=
04/05/2021 10:30:00Z	 SAID34 WIJJ 041030	METAR WIJJ 041030Z 26002KT 9000 FEW015CB SCT016 27/25 Q1005 NOSIG RMK CB TO W=
04/05/2021 11:00:00Z	 SAID34 WIJJ 041100	METAR WIJJ 041100Z 23005KT 9000 FEW015CB SCT016 28/26 Q1005 NOSIG RMK CB TO W=
04/05/2021 11:30:00Z	 SAID34 WIJJ 041130	METAR WIJJ 041130Z 19005KT 8000 -RA FEW014CB SCT015 27/25 Q1006 RMK CB TO SW=
04/05/2021 12:00:00Z	 SAID34 WIJJ 041200	METAR WIJJ 041200Z 19004KT 9999 FEW015CB FEW016 27/25 Q1006 NOSIG RMK CB TO W=
04/05/2021 12:30:00Z	 SAID34 WIJJ 041230	METAR WIJJ 041230Z 00000KT 9999 SCT017 26/26 Q1007 NOSIG=
04/05/2021 13:00:00Z	 SAID34 WIJJ 041300	METAR WIJJ 041300Z 28002KT 9999 SCT017 27/24 Q1008 NOSIG=
04/05/2021 13:30:00Z	 SAID34 WIJJ 041330	METAR WIJJ 041330Z 32002KT 9999 SCT017 26/25 Q1008 NOSIG=
04/05/2021 14:00:00Z	 SAID34 WIJJ 041400	METAR WIJJ 041400Z 27002KT 9999 SCT017 27/25 Q1008 NOSIG=
04/05/2021 14:30:00Z	 SAID34 WIJJ 041430	METAR WIJJ 041430Z 31003KT 9999 SCT017 26/25 Q1008 NOSIG=
04/05/2021 15:00:00Z	 SAID34 WIJJ 041500	METAR WIJJ 041500Z 31002KT 9999 SCT017 27/25 Q1008 NOSIG=
04/05/2021 15:30:00Z	 SAID34 WIJJ 041530	METAR WIJJ 041530Z 28002KT 9999 SCT017 26/25 Q1008 NOSIG=
04/05/2021 16:00:00Z	 SAID34 WIJJ 041600	METAR WIJJ 041600Z 32003KT 9999 SCT017 26/25 Q1008 NOSIG=
04/05/2021 16:30:00Z	 SAID34 WIJJ 041630	METAR WIJJ 041630Z 31003KT 9999 SCT017 26/25 Q1008 NOSIG=
04/05/2021 17:00:00Z	 SAID34 WIJJ 041700	METAR WIJJ 041700Z 32002KT 9999 SCT017 26/25 Q1008 NOSIG=
04/05/2021 17:30:00Z	 SAID34 WIJJ 041730	METAR WIJJ 041730Z 33002KT 7000 SCT017 25/25 Q1007 NOSIG=
04/05/2021 18:00:00Z	 SAID34 WIJJ 041800	METAR WIJJ 041800Z 31003KT 5000 HZ SCT017 26/25 Q1007 NOSIG=
04/05/2021 18:30:00Z	 SAID34 WIJJ 041830	METAR WIJJ 041830Z 25004KT 8000 SCT017 26/25 Q1007 NOSIG=
04/05/2021 19:00:00Z	 SAID34 WIJJ 041900	METAR WIJJ 041900Z 26002KT 7000 SCT017 26/25 Q1007 NOSIG=
04/05/2021 19:30:00Z	 SAID34 WIJJ 041930	METAR WIJJ 041930Z 00000KT 7000 SCT017 26/25 Q1007 NOSIG=
04/05/2021 20:00:00Z	 SAID34 WIJJ 042000	METAR WIJJ 042000Z 27002KT 8000 SCT017 26/25 Q1006 NOSIG=
04/05/2021 20:30:00Z	 SAID34 WIJJ 042030	METAR WIJJ 042030Z 25002KT 8000 SCT017 26/25 Q1006 NOSIG=
04/05/2021 21:00:00Z	 SAID34 WIJJ 042100	METAR WIJJ 042100Z 24004KT 7000 SCT017 25/25 Q1006 NOSIG=
04/05/2021 21:30:00Z	 SAID34 WIJJ 042130	METAR WIJJ 042130Z 20005KT 6000 SCT017 25/25 Q1006 NOSIG=
04/05/2021 22:00:00Z	 SAID34 WIJJ 042200	METAR WIJJ 042200Z 19004KT 8000 SCT017 25/24 Q1007 NOSIG=
04/05/2021 22:30:00Z	 SAID34 WIJJ 042230	METAR WIJJ 042230Z 18003KT 8000 SCT017 24/24 Q1007 NOSIG=
04/05/2021 23:00:00Z	 SAID34 WIJJ 042300	METAR WIJJ 042300Z 16003KT 4000 HZ SCT017 24/24 Q1008 NOSIG=
04/05/2021 23:30:00Z	 SAID34 WIJJ 042330	METAR WIJJ 042330Z 16003KT 4300 HZ FEW017 24/24 Q1008 NOSIG=
05/05/2021 00:00:00Z	 SAID34 WIJJ 050000	METAR WIJJ 050000Z 18003KT 2800 BR SCT017 25/24 Q1008 NOSIG=
05/05/2021 00:30:00Z	 SAID34 WIJJ 050030	METAR WIJJ 050030Z 19003KT 150V240 6000 SCT016 25/24 Q1008 NOSIG=
05/05/2021 01:00:00Z	 SAID34 WIJJ 050100	METAR WIJJ 050100Z 19004KT 150V220 9999 SCT016 26/24 Q1008 NOSIG=
05/05/2021 01:30:00Z	 SAID34 WIJJ 050130	METAR WIJJ 050130Z 23003KT 200V270 9999 SCT015 26/24 Q1008 NOSIG=
05/05/2021 02:00:00Z	 SAID34 WIJJ 050200	METAR WIJJ 050200Z 25004KT 220V290 9999 SCT015 27/24 Q1008 NOSIG=
05/05/2021 02:30:00Z	 SAID34 WIJJ 050230	METAR WIJJ 050230Z 24002KT 9999 FEW015 29/24 Q1009 NOSIG=
05/05/2021 03:00:00Z	 SAID34 WIJJ 050300	METAR WIJJ 050300Z 20004KT 9999 SCT016 29/25 Q1009 NOSIG=
05/05/2021 03:30:00Z	 SAID34 WIJJ 050330	METAR WIJJ 050330Z 13004KT 9999 SCT016 30/25 Q1009 NOSIG=
05/05/2021 04:00:00Z	 SAID34 WIJJ 050400	METAR WIJJ 050400Z 17003KT 9999 BKN015 31/25 Q1008 NOSIG=
05/05/2021 04:30:00Z	 SAID34 WIJJ 050430	METAR WIJJ 050430Z 13005KT 9999 BKN015 31/26 Q1008 NOSIG=
05/05/2021 05:00:00Z	 SAID34 WIJJ 050500	METAR WIJJ 050500Z 17004KT 9999 BKN015 32/26 Q1008 NOSIG=
05/05/2021 05:30:00Z	 SAID34 WIJJ 050530	METAR WIJJ 050530Z 16002KT 9999 BKN015 31/25 Q1007 NOSIG=
05/05/2021 06:00:00Z	 SAID34 WIJJ 050600	METAR WIJJ 050600Z 14002KT 9999 BKN015 31/25 Q1006 NOSIG=
05/05/2021 06:30:00Z	 SAID34 WIJJ 050630	METAR WIJJ 050630Z 11004KT 9999 BKN015 32/26 Q1006 NOSIG=
05/05/2021 07:00:00Z	 SAID34 WIJJ 050700	METAR WIJJ 050700Z 13004KT 9999 SCT016 31/25 Q1006 NOSIG=
05/05/2021 07:30:00Z	 SAID34 WIJJ 050730	METAR WIJJ 050730Z 11005KT 9999 SCT016 32/25 Q1005 NOSIG=
05/05/2021 08:00:00Z	 SAID34 WIJJ 050800	METAR COR WIJJ 050800Z 17003KT 9999 SCT016 32/25 Q1005 NOSIG=
05/05/2021 08:30:00Z	 SAID34 WIJJ 050830	METAR WIJJ 050830Z 18002KT 9999 SCT016 31/25 Q1004 NOSIG=
05/05/2021 09:00:00Z	 SAID34 WIJJ 050900	METAR WIJJ 050900Z 15004KT 9999 SCT017 31/25 Q1004 NOSIG=
05/05/2021 09:30:00Z	 SAID34 WIJJ 050930	METAR WIJJ 050930Z 00000KT 9999 SCT017 31/25 Q1004 NOSIG=
05/05/2021 10:00:00Z	 SAID34 WIJJ 051000	METAR WIJJ 051000Z 31003KT 9999 SCT016 31/25 Q1004 NOSIG=
05/05/2021 10:30:00Z	 SAID34 WIJJ 051030	METAR WIJJ 051030Z 32003KT 9999 SCT016 31/25 Q1005 NOSIG=
05/05/2021 11:00:00Z	 SAID34 WIJJ 051100	METAR WIJJ 051100Z 30002KT 9999 SCT015 31/25 Q1006 NOSIG=
05/05/2021 11:30:00Z	 SAID34 WIJJ 051130	METAR WIJJ 051130Z 25002KT 9000 SCT015 30/25 Q1006 NOSIG=
05/05/2021 12:00:00Z	 SAID34 WIJJ 051200	METAR WIJJ 051200Z 23003KT 9999 SCT016 30/26 Q1006 NOSIG=
05/05/2021 12:30:00Z	 SAID34 WIJJ 051230	METAR WIJJ 051230Z 23003KT 9999 SCT016 29/25 Q1007 NOSIG=
05/05/2021 13:00:00Z	 SAID34 WIJJ 051300	METAR WIJJ 051300Z 25004KT 9999 SCT016 29/25 Q1007 NOSIG=
05/05/2021 13:30:00Z	 SAID34 WIJJ 051330	METAR WIJJ 051330Z 36006KT 9999 -TS SCT015CB 29/25 Q1008 NOSIG RMK CB TO W-N=
05/05/2021 14:00:00Z	 SAID34 WIJJ 051400	METAR WIJJ 051400Z 01002KT 9999 -TS SCT015CB 27/25 Q1008 NOSIG RMK CB TO N-SE=
05/05/2021 14:16:00Z	 SAID34 WIJJ 051416	METAR WIJJ 051416Z 03002KT 9999 -TS FEW015CB 26/24 Q1009 NOSIG RMK CB TO N=
05/05/2021 14:30:00Z	 SAID34 WIJJ 051430	METAR WIJJ 051430Z 03002KT 9999 -TS FEW015CB 26/24 Q1009 NOSIG RMK CB TO N=
05/05/2021 15:00:00Z	 SAID34 WIJJ 051500	METAR WIJJ 051500Z 35003KT 9999 FEW015CB SCT016 27/24 Q1009 NOSIG RMK CB TO E=
05/05/2021 15:30:00Z	 SAID34 WIJJ 051530	METAR WIJJ 051530Z 17002KT 9999 -TS SCT015CB 26/24 Q1010 NOSIG RMK CB TO NE-SE=
05/05/2021 15:40:00Z	 SAID34 WIJJ 051540	METAR WIJJ 051540Z 03003KT 9999 -TS FEW015CB SCT016 26/24 Q1010 NOSIG RMK CB TO NE=
05/05/2021 16:00:00Z	 SAID34 WIJJ 051600	METAR WIJJ 051600Z 03003KT 9999 -TS FEW015CB SCT016 26/24 Q1010 NOSIG RMK CB TO NE=
05/05/2021 16:30:00Z	 SAID34 WIJJ 051630	METAR WIJJ 051630Z 36002KT 9999 -TSRA FEW014CB SCT015 26/24 Q1009 NOSIG RMK CB TO E=
05/05/2021 17:00:00Z	 SAID34 WIJJ 051700	METAR WIJJ 051700Z 04002KT 9999 -RA FEW014CB SCT015 26/24 Q1009 NOSIG RMK CB TO S=
05/05/2021 17:30:00Z	 SAID34 WIJJ 051730	METAR WIJJ 051730Z 15002KT 9000 -RA FEW014CB SCT015 26/24 Q1008 NOSIG RMK CB TO S=
05/05/2021 18:00:00Z	 SAID34 WIJJ 051800	METAR WIJJ 051800Z 10001KT 9999 -RA SCT014 26/25 Q1008 NOSIG=
05/05/2021 18:30:00Z	 SAID34 WIJJ 051830	METAR WIJJ 051830Z 18002KT 9999 SCT014 26/25 Q1008 RERA NOSIG=
05/05/2021 19:00:00Z	 SAID34 WIJJ 051900	METAR WIJJ 051900Z 21003KT 9999 SCT013 26/25 Q1008 NOSIG=
05/05/2021 19:30:00Z	 SAID34 WIJJ 051930	METAR WIJJ 051930Z 19002KT 9999 SCT013 26/25 Q1007 NOSIG=
05/05/2021 20:00:00Z	 SAID34 WIJJ 052000	METAR WIJJ 052000Z 25001KT 9999 SCT013 26/25 Q1007 NOSIG=
05/05/2021 20:30:00Z	 SAID34 WIJJ 052030	METAR WIJJ 052030Z 15002KT 9999 SCT013 25/24 Q1007 NOSIG=
05/05/2021 21:00:00Z	 SAID34 WIJJ 052100	METAR WIJJ 052100Z 21001KT 9999 SCT013 26/24 Q1007 NOSIG=
05/05/2021 21:30:00Z	 SAID34 WIJJ 052130	METAR WIJJ 052130Z 21002KT 9999 SCT013 25/24 Q1008 NOSIG=
05/05/2021 22:00:00Z	 SAID34 WIJJ 052200	METAR WIJJ 052200Z 30002KT 9999 FEW013 26/24 Q1008 NOSIG=
05/05/2021 22:30:00Z	 SAID34 WIJJ 052230	METAR WIJJ 052230Z 33001KT 9000 SCT013 25/24 Q1008 NOSIG=
05/05/2021 23:00:00Z	 SAID34 WIJJ 052300	METAR WIJJ 052300Z 19002KT 5000 HZ BKN013 26/25 Q1008 NOSIG=
05/05/2021 23:30:00Z	 SAID34 WIJJ 052330	METAR WIJJ 052330Z 14002KT 3700 -RA BKN013 25/25 Q1008 NOSIG=
06/05/2021 00:00:00Z	 SAID34 WIJJ 060000	METAR WIJJ 060000Z 12001KT 2000 -TSRA SCT005CB SCT008 26/25 Q1009 NOSIG RMK CB TO NW-E=
06/05/2021 00:30:00Z	 SAID34 WIJJ 060030	METAR WIJJ 060030Z 10001KT 3500 TS FEW006 FEW013 25/25 Q1009 OSIG RMK RERA=
06/05/2021 01:00:00Z	 SAID34 WIJJ 060100	METAR WIJJ 060100Z 28002KT 5000 VCTS FEW006CB BKN012 26/25 Q1010 NOSIG RMK CB TO N AND NW=
06/05/2021 01:30:00Z	 SAID34 WIJJ 060130	METAR WIJJ 060130Z 24002KT 7000 BKN015 27/25 Q1011 NOSIG RMK RETS=
06/05/2021 02:00:00Z	 SAID34 WIJJ 060200	METAR WIJJ 060200Z 22003KT 180V290 8000 BKN014 28/25 Q1011 NOSIG=
06/05/2021 02:30:00Z	 SAID34 WIJJ 060230	METAR WIJJ 060230Z AUTO ///// //// ////// ///// Q////=
06/05/2021 03:00:00Z	 SAID34 WIJJ 060300	METAR WIJJ 060300Z 27002KT 9000 FEW013CB BKN014 27/25 Q1011 NOSIG RMK CB TO N AND NE=
06/05/2021 03:30:00Z	 SAID34 WIJJ 060330	METAR WIJJ 060330Z 29003KT 9999 FEW014CB SCT015 28/25 Q1011 NOSIG RMK CB TO N=
06/05/2021 04:00:00Z	 SAID34 WIJJ 060400	METAR WIJJ 060400Z 33002KT 9999 BKN015 29/26 Q1010 NOSIG=
06/05/2021 04:30:00Z	 SAID34 WIJJ 060430	METAR WIJJ 060430Z 23004KT 9999 BKN015 29/25 Q1010 NOSIG=
06/05/2021 05:00:00Z	 SAID34 WIJJ 060500	METAR WIJJ 060500Z 29003KT 9999 BKN015 29/26 Q1010 NOSIG=
06/05/2021 05:30:00Z	 SAID34 WIJJ 060530	METAR WIJJ 060530Z 30005KT 9999 FEW015CB BKN016 29/26 Q1009 NOSIG RMK CB TO N AND S=
06/05/2021 06:00:00Z	 SAID34 WIJJ 060600	METAR WIJJ 060600Z 30005KT 9999 BKN016 30/25 Q1009 NOSIG=
06/05/2021 06:30:00Z	 SAID34 WIJJ 060630	METAR WIJJ 060630Z 36004KT 9999 BKN016 30/26 Q1008 NOSIG=
06/05/2021 07:00:00Z	 SAID34 WIJJ 060700	METAR WIJJ 060700Z 34006KT 9999 BKN015 30/26 Q1008 NOSIG=
06/05/2021 07:30:00Z	 SAID34 WIJJ 060730	METAR WIJJ 060730Z 32006KT 9999 BKN015 29/26 Q1007 NOSIG=
06/05/2021 08:00:00Z	 SAID34 WIJJ 060800	METAR WIJJ 060800Z 34007KT 9999 SCT015 29/26 Q1007 NOSIG=
06/05/2021 09:00:00Z	 SAID34 WIJJ 060900	METAR WIJJ 060900Z 34007KT 9999 BKN015 29/25 Q1007 NOSIG=
06/05/2021 09:30:00Z	 SAID34 WIJJ 060930	METAR WIJJ 060930Z 32005KT 9999 FEW015 28/25 Q1007 NOSIG=
06/05/2021 10:00:00Z	 SAID34 WIJJ 061000	METAR WIJJ 061000Z 32005KT 9999 FEW017 28/25 Q1007 NOSIG=
06/05/2021 10:30:00Z	 SAID34 WIJJ 061030	METAR WIJJ 061030Z 36004KT 9999 NSC 28/25 Q1007 NOSIG=
06/05/2021 11:00:00Z	 SAID34 WIJJ 061100	METAR WIJJ 061100Z 35004KT 9999 FEW017 27/25 Q1007 NOSIG=
06/05/2021 11:30:00Z	 SAID34 WIJJ 061130	METAR WIJJ 061130Z 33004KT 9999 FEW017 27/25 Q1008 NOSIG=
06/05/2021 12:00:00Z	 SAID34 WIJJ 061200	METAR WIJJ 061200Z 01002KT 9000 FEW017 27/25 Q1008 NOSIG=
06/05/2021 12:30:00Z	 SAID34 WIJJ 061230	METAR WIJJ 061230Z 30001KT 9999 FEW016 27/25 Q1009 NOSIG=
06/05/2021 13:00:00Z	 SAID34 WIJJ 061300	METAR WIJJ 061300Z 32002KT 9999 FEW016 27/25 Q1010 NOSIG=
06/05/2021 13:30:00Z	 SAID34 WIJJ 061330	METAR WIJJ 061330Z 22003KT 9999 FEW016 26/24 Q1010 NOSIG=
06/05/2021 14:00:00Z	 SAID34 WIJJ 061400	METAR WIJJ 061400Z 24003KT 9999 FEW016 26/25 Q1011 NOSIG=
06/05/2021 14:30:00Z	 SAID34 WIJJ 061430	METAR WIJJ 061430Z 27002KT 9999 FEW016 26/25 Q1011 NOSIG=
06/05/2021 15:00:00Z	 SAID34 WIJJ 061500	METAR WIJJ 061500Z 25004KT 9999 FEW016 26/25 Q1011 NOSIG=
06/05/2021 15:30:00Z	 SAID34 WIJJ 061530	METAR WIJJ 061530Z 26006KT 9999 FEW016 26/25 Q1011 NOSIG=
06/05/2021 16:00:00Z	 SAID34 WIJJ 061600	METAR WIJJ 061600Z 22002KT 9999 FEW016 26/24 Q1011 NOSIG=
06/05/2021 16:30:00Z	 SAID34 WIJJ 061630	METAR WIJJ 061630Z 09003KT 9999 FEW016 26/24 Q1011 NOSIG=
06/05/2021 17:00:00Z	 SAID34 WIJJ 061700	METAR WIJJ 061700Z 13002KT 8000 FEW016 25/24 Q1011 NOSIG=
06/05/2021 17:30:00Z	 SAID34 WIJJ 061730	METAR WIJJ 061730Z 11002KT 8000 FEW016 25/24 Q1010 NOSIG=
06/05/2021 18:00:00Z	 SAID34 WIJJ 061800	METAR WIJJ 061800Z 00000KT 5000 HZ SCT015 25/24 Q1010 NOSIG=
06/05/2021 18:30:00Z	 SAID34 WIJJ 061830	METAR WIJJ 061830Z 00000KT 5000 HZ SCT015 25/24 Q1009 NOSIG=
06/05/2021 19:00:00Z	 SAID34 WIJJ 061900	METAR WIJJ 061900Z 13002KT 4000 HZ FEW016 25/24 Q1000 NOSIG=
06/05/2021 19:30:00Z	 SAID34 WIJJ 061930	METAR WIJJ 061930Z 14002KT 4000 HZ FEW014 25/24 Q1009 NOSIG=
06/05/2021 20:00:00Z	 SAID34 WIJJ 062000	METAR WIJJ 062000Z 00000KT 2000 HZ SCT018 25/24 Q1008 NOSIG=
06/05/2021 20:30:00Z	 SAID34 WIJJ 062030	METAR WIJJ 062030Z 00000KT 2300 FEW015 25/24 Q1008 NOSIG=
06/05/2021 21:00:00Z	 SAID34 WIJJ 062100	METAR WIJJ 062100Z 25002KT 2500 HZ FEW015 25/24 Q1008 NOSIG=
06/05/2021 21:30:00Z	 SAID34 WIJJ 062130	METAR WIJJ 062130Z 25001KT 1500 BR SCT010 25/24 Q1008 NOSIG=
06/05/2021 22:00:00Z	 SAID34 WIJJ 062200	METAR WIJJ 062200Z 20001KT 1800 BR SCT010 25/24 Q1008=
06/05/2021 22:30:00Z	 SAID34 WIJJ 062230	METAR WIJJ 062230Z 22002KT 1200 BR SCT013 25/24 Q1008=
06/05/2021 23:00:00Z	 SAID34 WIJJ 062300	METAR WIJJ 062300Z 24002KT 0550 BR SCT016 25/24 Q1009 BECMG FM0100 12006KT 4000 BR=
06/05/2021 23:30:00Z	 SAID34 WIJJ 062330	METAR WIJJ 062330Z 13001KT 1800 BR BKN015 25/24 Q1009=
07/05/2021 00:00:00Z	 SAID34 WIJJ 070000	METAR WIJJ 070000Z 11002KT 1300 BR BKN010 25/24 Q1010=
07/05/2021 00:30:00Z	 SAID34 WIJJ 070030	METAR WIJJ 070030Z 16003KT 2400 BR BKN008 25/25 Q1010 NOSIG=
07/05/2021 01:00:00Z	 SAID34 WIJJ 070100	METAR WIJJ 070100Z 22003KT 3200 BR BKN010 26/25 Q1010 NOSIG=
07/05/2021 01:30:00Z	 SAID34 WIJJ 070130	METAR WIJJ 070130Z 22005KT 4200 BR BKN010 26/25 Q1011 NOSIG=
07/05/2021 02:00:00Z	 SAID34 WIJJ 070200	METAR WIJJ 070200Z 20004KT 5000 HZ BKN010 26/25 Q1011 NOSIG=
07/05/2021 02:30:00Z	 SAID34 WIJJ 070230	METAR WIJJ 070230Z 21005KT 7000 SCT013 27/25 Q1011 NOSIG=
07/05/2021 03:00:00Z	 SAID34 WIJJ 070300	METAR WIJJ 070300Z 09002KT 8000 BKN013 28/25 Q1011 NOSIG=
07/05/2021 03:30:00Z	 SAID34 WIJJ 070330	METAR WIJJ 070330Z 00000KT 9000 BKN013 28/26 Q1011 NOSIG=
07/05/2021 04:00:00Z	 SAID34 WIJJ 070400	METAR WIJJ 070400Z 17002KT 9999 BKN015 29/25 Q1011 NOSIG=
07/05/2021 04:30:00Z	 SAID34 WIJJ 070430	METAR WIJJ 070430Z 19003KT 9999 BKN015 30/26 Q1010 NOSIG=
07/05/2021 05:00:00Z	 SAID34 WIJJ 070500	METAR WIJJ 070500Z 30003KT 9999 BKN015 31/26 Q1010 NOSIG=
07/05/2021 05:30:00Z	 SAID34 WIJJ 070530	METAR WIJJ 070530Z 06003KT 9999 BKN015 31/25 Q1009 NOSIG=
07/05/2021 06:00:00Z	 SAID34 WIJJ 070600	METAR WIJJ 070600Z 09003KT 9999 FEW015CB SCT017 31/25 Q1008 NOSIG RMK CB TO SW AND N=
07/05/2021 06:30:00Z	 SAID34 WIJJ 070630	METAR WIJJ 070630Z 04009KT 4000 RA BKN010 27/24 Q1008 TEMPO TL0650 3000 RA=
07/05/2021 07:00:00Z	 SAID34 WIJJ 070700	METAR COR WIJJ 070700Z 32003KT 9999 FEW013CB SCT015 27/24 Q1007 RERA NOSIG RMK CB TO S-NW=
07/05/2021 07:30:00Z	 SAID34 WIJJ 070730	METAR WIJJ 070730Z 30004KT 9999 FEW013CB SCT015 28/25 Q1007 NOSIG RMK CB TO S-W=
07/05/2021 08:00:00Z	 SAID34 WIJJ 070800	METAR WIJJ 070800Z 32002KT 9999 TS FEW015CB SCT017 29/25 Q1007 NOSIG RMK CB TO SE AND SW=
07/05/2021 08:30:00Z	 SAID34 WIJJ 070830	METAR WIJJ 070830Z 10008KT 9999 TS FEW015CB SCT017 29/26 Q1007 NOSIG RMK CB IN APCH=
07/05/2021 09:00:00Z	 SAID34 WIJJ 070900	METAR WIJJ 070900Z 08003KT 9999 -RA SCT015 28/25 Q1007 NOSIG=
07/05/2021 09:30:00Z	 SAID34 WIJJ 070930	METAR WIJJ 070930Z 06002KT 9999 SCT015 28/26 Q1007 RERA NOSIG=
07/05/2021 10:00:00Z	 SAID34 WIJJ 071000	METAR WIJJ 071000Z 11003KT 9999 FEW015CB SCT017 28/26 Q1007 NOSIG RMK CB TO S AND NW=
07/05/2021 10:30:00Z	 SAID34 WIJJ 071030	METAR WIJJ 071030Z 09002KT 9999 FEW015CB SCT017 28/26 Q1007 NOSIG RMK CB TO S AND NW=
07/05/2021 11:00:00Z	 SAID34 WIJJ 071100	METAR WIJJ 071100Z 00000KT 9999 FEW015CB SCT017 28/26 Q1008 NOSIG RMK CB TO SE AND W=
07/05/2021 11:30:00Z	 SAID34 WIJJ 071130	METAR WIJJ 071130Z 00000KT 9999 FEW015CB SCT017 27/27 Q1008 NOSIG RMK CB TO W AND NW=
07/05/2021 12:00:00Z	 SAID34 WIJJ 071200	METAR WIJJ 071200Z 19003KT 9999 VCTS FEW015CB SCT017 27/26 Q1009 NOSIG RMK CB TO W AND NW=
07/05/2021 12:30:00Z	 SAID34 WIJJ 071230	METAR WIJJ 071230Z 23004KT 6000 SCT017 26/26 Q1009 NOSIG=
07/05/2021 13:00:00Z	 SAID34 WIJJ 071300	METAR WIJJ 071300Z 24002KT 8000 SCT017 26/25 Q1010 NOSIG=
07/05/2021 13:30:00Z	 SAID34 WIJJ 071330	METAR WIJJ 071330Z 25004KT 7000 SCT017 26/25 Q1010 NOSIG=
07/05/2021 14:00:00Z	 SAID34 WIJJ 071400	METAR WIJJ 071400Z 28002KT 7000 SCT017 26/25 Q1011 NOSIG=
07/05/2021 14:30:00Z	 SAID34 WIJJ 071430	METAR WIJJ 071430Z 26002KT 7000 SCT017 26/24 Q1011 NOSIG=
07/05/2021 15:00:00Z	 SAID34 WIJJ 071500	METAR WIJJ 071500Z 25002KT 7000 SCT017 26/24 Q1011 NOSIG=
07/05/2021 15:30:00Z	 SAID34 WIJJ 071530	METAR WIJJ 071530Z 23002KT 7000 SCT017 25/25 Q1011 NOSIG=
07/05/2021 16:00:00Z	 SAID34 WIJJ 071600	METAR WIJJ 071600Z 00000KT 6000 SCT017 25/24 Q1010 NOSIG=
07/05/2021 16:30:00Z	 SAID34 WIJJ 071630	METAR WIJJ 071630Z 00000KT 6000 SCT017 25/24 Q1010 NOSIG=
07/05/2021 17:00:00Z	 SAID34 WIJJ 071700	METAR WIJJ 071700Z 00000KT 5000 HZ SCT017 25/24 Q1010 NOSIG=
07/05/2021 17:30:00Z	 SAID34 WIJJ 071730	METAR WIJJ 071730Z 14002KT 2500 BR SCT017 24/24 Q1009 NOSIG=
07/05/2021 18:00:00Z	 SAID34 WIJJ 071800	METAR WIJJ 071800Z 00000KT 3000 HZ SCT017 24/24 Q1009 NOSIG=
07/05/2021 18:30:00Z	 SAID34 WIJJ 071830	METAR WIJJ 071830Z 00000KT 3000 HZ SCT017 24/24 Q1009 NOSIG=
07/05/2021 19:00:00Z	 SAID34 WIJJ 071900	METAR WIJJ 071900Z 00000KT 2500 BR SCT016 24/24 Q1008 NOSIG=
07/05/2021 19:30:00Z	 SAID34 WIJJ 071930	METAR WIJJ 071930Z 00000KT 2500 BR SCT016 24/24 Q1008=
07/05/2021 20:00:00Z	 SAID34 WIJJ 072000	METAR WIJJ 072000Z 00000KT 5000 HZ SCT016 24/24 Q1008=
07/05/2021 20:30:00Z	 SAID34 WIJJ 072030	METAR WIJJ 072030Z 00000KT 6000 SCT016 24/24 Q1008=
07/05/2021 21:00:00Z	 SAID34 WIJJ 072100	METAR WIJJ 072100Z 26003KT 9000 SCT016 24/24 Q1008 NOSIG=
07/05/2021 21:30:00Z	 SAID34 WIJJ 072130	METAR WIJJ 072130Z 00000KT 9000 SCT016 24/24 Q1007 NOSIG=
07/05/2021 22:00:00Z	 SAID34 WIJJ 072200	METAR WIJJ 072200Z AUTO 19002KT 7000 SCT240 24/24 Q1007=
07/05/2021 22:30:00Z	 SAID34 WIJJ 072230	METAR WIJJ 072230Z 20002KT 4000 HZ SCT016 24/23 Q1008 NOSIG=
07/05/2021 23:00:00Z	 SAID34 WIJJ 072300	METAR WIJJ 072300Z 20002KT 4000 HZ FEW015 24/23 Q1008 NOSIG=
07/05/2021 23:30:00Z	 SAID34 WIJJ 072330	METAR WIJJ 072330Z 00000KT 2500 BR FEW015 24/24 Q1008 NOSIG=
08/05/2021 00:00:00Z	 SAID34 WIJJ 080000	METAR WIJJ 080000Z 22002KT 4000 HZ FEW015 24/24 Q1009 NOSIG=
08/05/2021 00:30:00Z	 SAID34 WIJJ 080030	METAR WIJJ 080030Z 19002KT 4000 HZ FEW016 25/24 Q1009 NOSIG=
08/05/2021 01:00:00Z	 SAID34 WIJJ 080100	METAR WIJJ 080100Z 21003KT 150V230 CAVOK 27/25 Q1009 NOSIG=
08/05/2021 01:30:00Z	 SAID34 WIJJ 080130	METAR WIJJ 080130Z 13002KT 9999 FEW016 28/25 Q1009 NOSIG=
08/05/2021 02:00:00Z	 SAID34 WIJJ 080200	METAR WIJJ 080200Z 19004KT 9999 SCT015 29/24 Q1010 NOSIG=
08/05/2021 02:30:00Z	 SAID34 WIJJ 080230	METAR WIJJ 080230Z 19004KT 9999 SCT015 29/25 Q1010 NOSIG=
08/05/2021 03:00:00Z	 SAID34 WIJJ 080300	METAR WIJJ 080300Z 19004KT 9999 SCT015 30/25 Q1010 NOSIG=
08/05/2021 03:30:00Z	 SAID34 WIJJ 080330	METAR WIJJ 080330Z 21002KT 9999 SCT015 31/25 Q1010 NOSIG=
08/05/2021 04:00:00Z	 SAID34 WIJJ 080400	METAR WIJJ 080400Z 21004KT 9999 SCT015 32/25 Q1009 NOSIG=
08/05/2021 04:30:00Z	 SAID34 WIJJ 080430	METAR WIJJ 080430Z 21002KT 9999 SCT015 32/25 Q1009 NOSIG=
08/05/2021 05:00:00Z	 SAID34 WIJJ 080500	METAR WIJJ 080500Z 23005KT 9999 SCT015 32/25 Q1008 NOSIG=
08/05/2021 05:30:00Z	 SAID34 WIJJ 080530	METAR WIJJ 080530Z 17002KT 9999 FEW015CB SCT016 32/25 Q1008 NOSIG RMK CB TO E=
08/05/2021 06:00:00Z	 SAID34 WIJJ 080600	METAR WIJJ 080600Z 15003KT 120V190 9999 FEW015CB BKN016 32/24 Q1007 NOSIG RMK CB TO NE=
08/05/2021 06:30:00Z	 SAID34 WIJJ 080630	METAR WIJJ 080630Z 08002KT 9999 -RA FEW015CB SCT016 31/24 Q1007 NOSIG RMK CB TO NE=
08/05/2021 07:00:00Z	 SAID34 WIJJ 080700	METAR WIJJ 080700Z 32005KT 260V050 4000 -RA FEW015CB SCT016 29/25 Q1007 NOSIG RMK CB TO N=
08/05/2021 07:30:00Z	 SAID34 WIJJ 080730	METAR WIJJ 080730Z 25008KT 9999 SCT015 28/24 Q1006 RERA NOSIG=
08/05/2021 08:00:00Z	 SAID34 WIJJ 080800	METAR WIJJ 080800Z 28002KT 9999 FEW015CB FEW016 29/24 Q1006 NOSIG RMK CB TO S=
08/05/2021 08:30:00Z	 SAID34 WIJJ 080830	METAR WIJJ 080830Z 30003KT 9999 FEW015CB SCT016 30/24 Q1006 NOSIG RMK SB TO SE=
08/05/2021 09:00:00Z	 SAID34 WIJJ 080900	METAR WIJJ 080900Z 10006KT 9999 SCT015 31/24 Q1006 NOSIG=
08/05/2021 09:30:00Z	 SAID34 WIJJ 080930	METAR WIJJ 080930Z 09004KT 9999 FEW015CB 30/25 Q1006 NOSIG RMK CB TO N=
08/05/2021 10:00:00Z	 SAID34 WIJJ 081000	METAR WIJJ 081000Z 09003KT 9999 FEW015CB FEW016 31/25 Q1006 NOSIG RMK CB TO N=
08/05/2021 10:30:00Z	 SAID34 WIJJ 081030	METAR WIJJ 081030Z 02002KT 9999 FEW015CB 30/25 Q1007 NOSIG RMK CB TO N=
08/05/2021 11:00:00Z	 SAID34 WIJJ 081100	METAR WIJJ 081100Z 35003KT 9999 SCT015 30/25 Q1007 NOSIG=
08/05/2021 11:30:00Z	 SAID34 WIJJ 081130	METAR WIJJ 081130Z 35002KT 9999 FEW015 29/25 Q1007 NOSIG=
08/05/2021 12:00:00Z	 SAID34 WIJJ 081200	METAR WIJJ 081200Z 05002KT 9999 SCT015 29/25 Q1008 NOSIG=
08/05/2021 12:30:00Z	 SAID34 WIJJ 081230	METAR WIJJ 081230Z 35003KT 9999 FEW015 28/25 Q1008 NOSIG=
08/05/2021 13:00:00Z	 SAID34 WIJJ 081300	METAR WIJJ 081300Z 02002KT 9999 FEW016CB 28/25 Q1009 NOSIG RMK CB TO S=
08/05/2021 13:30:00Z	 SAID34 WIJJ 081330	METAR WIJJ 081330Z 08001KT 9999 FEW016 28/25 Q1009 NOSIG=
08/05/2021 14:00:00Z	 SAID34 WIJJ 081400	METAR WIJJ 081400Z 04002KT 9999 FEW016 27/25 Q1009 NOSIG=
08/05/2021 14:30:00Z	 SAID34 WIJJ 081430	METAR WIJJ 081430Z 01002KT 9999 FEW016 27/25 Q1010 NOSIG=
08/05/2021 15:00:00Z	 SAID34 WIJJ 081500	METAR WIJJ 081500Z 35002KT 9999 FEW016 27/25 Q1010 NOSIG=
08/05/2021 15:30:00Z	 SAID34 WIJJ 081530	METAR WIJJ 081530Z 03002KT 9999 FEW016 27/25 Q1009 NOSIG=
08/05/2021 16:00:00Z	 SAID34 WIJJ 081600	METAR WIJJ 081600Z 02002KT 9999 FEW016 27/25 Q1009 NOSIG=
08/05/2021 16:30:00Z	 SAID34 WIJJ 081630	METAR WIJJ 081630Z 35002KT 9999 FEW016 27/25 Q1009 NOSIG=
08/05/2021 17:00:00Z	 SAID34 WIJJ 081700	METAR WIJJ 081700Z 03002KT 9999 FEW016 27/25 Q1009 NOSIG=
08/05/2021 17:30:00Z	 SAID34 WIJJ 081730	METAR WIJJ 081730Z 08001KT 9999 FEW016 26/25 Q1009 NOOSIG=
08/05/2021 18:00:00Z	 SAID34 WIJJ 081800	METAR WIJJ 081800Z 11004KT 9000 FEW016 26/25 Q1008 NOSIG=
08/05/2021 18:30:00Z	 SAID34 WIJJ 081830	METAR WIJJ 081830Z 19001KT 9000 FEW016 26/25 Q1008 NOSIG=
08/05/2021 19:00:00Z	 SAID34 WIJJ 081900	METAR WIJJ 081900Z 19001KT 9000 FEW016 26/25 Q1007 NOSIG=
08/05/2021 19:30:00Z	 SAID34 WIJJ 081930	METAR WIJJ 081930Z 15002KT 9999 FEW016 25/24 Q1007 NOSIG=
08/05/2021 20:00:00Z	 SAID34 WIJJ 082000	METAR WIJJ 082000Z 15002KT 9999 FEW016 25/24 Q1007 NOSIG=
08/05/2021 20:30:00Z	 SAID34 WIJJ 082030	METAR WIJJ 082030Z 18002KT 9999 FEW015 25/24 Q1007 NOSIG=
08/05/2021 21:00:00Z	 SAID34 WIJJ 082100	METAR WIJJ 082100Z 14004KT 7000 FEW015 25/24 Q1007 NOSIG=
08/05/2021 21:30:00Z	 SAID34 WIJJ 082130	METAR WIJJ 082130Z 13003KT 5000 HZ FEW015 25/24 Q1007 NOSIG=
08/05/2021 22:00:00Z	 SAID34 WIJJ 082200	METAR WIJJ 082200Z 17001KT 2500 BR FEW015 25/24 Q1007 NOSIG=
08/05/2021 22:30:00Z	 SAID34 WIJJ 082230	METAR WIJJ 082230Z 15002KT 2500 BR FEW015 25/24 Q1007 NOSIG=
08/05/2021 23:00:00Z	 SAID34 WIJJ 082300	METAR WIJJ 082300Z 15002KT 0500 FG FEW015 24/24 Q1008 NOSIG=
08/05/2021 23:30:00Z	 SAID34 WIJJ 082330	METAR WIJJ 082330Z 14004KT 0600 FG FEW015 25/24 Q1008 NOSIG=
09/05/2021 00:00:00Z	 SAID34 WIJJ 090000	METAR WIJJ 090000Z 15004KT 0200 FG FEW015 25/24 Q1008 NOSIG=
09/05/2021 00:30:00Z	 SAID34 WIJJ 090030	METAR WIJJ 090030Z 16005KT 1300 BR BKN010 25/25 Q1009 BECMG FM0130 5000 BR=
09/05/2021 01:00:00Z	 SAID34 WIJJ 090100	METAR WIJJ 090100Z 16005KT 7000 FEW010 26/25 Q1009 NOSIG=
09/05/2021 01:30:00Z	 SAID34 WIJJ 090130	METAR WIJJ 090130Z 16004KT 9000 FEW010 28/25 Q1009 NOSIG=
09/05/2021 02:00:00Z	 SAID34 WIJJ 090200	METAR WIJJ 090200Z 18003KT 9999 FEW016 28/26 Q1009 NOSIG=
09/05/2021 02:30:00Z	 SAID34 WIJJ 090230	METAR WIJJ 090230Z 16004KT 9999 SCT018 30/26 Q1010 NOSIG=
09/05/2021 03:00:00Z	 SAID34 WIJJ 090300	METAR WIJJ 090300Z 15004KT 9999 SCT017 29/26 Q1010 NOSIG=
09/05/2021 03:30:00Z	 SAID34 WIJJ 090330	METAR WIJJ 090330Z 20004KT 9999 FEW018 30/26 Q1010 NOSIG=
09/05/2021 04:00:00Z	 SAID34 WIJJ 090400	METAR WIJJ 090400Z 16003KT 9999 FEW015CB SCT016 30/26 Q1009 NOSIG RMK CB TO N=
09/05/2021 04:30:00Z	 SAID34 WIJJ 090430	METAR WIJJ 090430Z 22003KT 9999 FEW015CB SCT016 30/26 Q1009 NOSIG RMK CB TO N=
09/05/2021 05:00:00Z	 SAID34 WIJJ 090500	METAR WIJJ 090500Z 32002KT 9999 SCT018TCU 31/25 Q1008 NOSIG=
09/05/2021 05:30:00Z	 SAID34 WIJJ 090530	METAR WIJJ 090530Z 22004KT 9999 SCT018TCU 31/25 Q1008 NOSIG=
09/05/2021 06:00:00Z	 SAID34 WIJJ 090600	METAR WIJJ 090600Z 18002KT 9999 FEW018 32/25 Q1007 NOSIG=
09/05/2021 06:30:00Z	 SAID34 WIJJ 090630	METAR WIJJ 090630Z 25003KT 9999 FEW018 32/25 Q1007 NOSIG=
09/05/2021 07:00:00Z	 SAID34 WIJJ 090700	METAR WIJJ 090700Z 14003KT 9999 FEW018 32/25 Q1006 NOSIG=
09/05/2021 07:30:00Z	 SAID34 WIJJ 090730	METAR WIJJ 090730Z 13003KT 9999 FEW018TCU 32/25 Q1006 NOSIG=
09/05/2021 08:00:00Z	 SAID34 WIJJ 090800	METAR WIJJ 090800Z 05002KT 9999 FEW015CB FEW016 33/26 Q1005 NOSIG RMK CB TO E=
09/05/2021 08:30:00Z	 SAID34 WIJJ 090830	METAR WIJJ 090830Z 36004KT 9999 FEW015CB FEW016 32/26 Q1005 NOSIG RMK CB TO E AND SE=
09/05/2021 09:00:00Z	 SAID34 WIJJ 090900	METAR WIJJ 090900Z 03008KT 9999 FEW015CB FEW016 33/26 Q1005 NOSIG RMK CB TO E=
09/05/2021 09:30:00Z	 SAID34 WIJJ 090930	METAR WIJJ 090930Z 02006KT 9999 FEW015CB FEW016 30/25 Q1005 NOSIG RMK CB TO E=
09/05/2021 10:00:00Z	 SAID34 WIJJ 091000	METAR WIJJ 091000Z 04007KT 9999 FEW015CB FEW016 30/26 Q1005 NOSIG RMK CB TO S=
09/05/2021 10:30:00Z	 SAID34 WIJJ 091030	METAR WIJJ 091030Z 03005KT 9999 FEW015CB FEW016 29/25 Q1006 NOSIG RMK CB TO S=
09/05/2021 11:00:00Z	 SAID34 WIJJ 091100	METAR WIJJ 091100Z 05004KT 9999 FEW015CB FEW016 29/26 Q1006 NOSIG RMK CB TO S=
09/05/2021 11:30:00Z	 SAID34 WIJJ 091130	METAR WIJJ 091130Z AUTO ///// //// ////// ///// Q////=
09/05/2021 12:00:00Z	 SAID34 WIJJ 091200	METAR WIJJ 091200Z 04002KT 9999 FEW015CB FEW016 29/26 Q1007 NOSIG RMK CB TO W=
09/05/2021 12:30:00Z	 SAID34 WIJJ 091230	METAR WIJJ 091230Z 07002KT 9999 SCT017 28/26 Q1008 NOSIG=
09/05/2021 13:00:00Z	 SAID34 WIJJ 091300	METAR WIJJ 091300Z 08002KT 9999 SCT017 28/26 Q1008 NOSIG=
09/05/2021 13:30:00Z	 SAID34 WIJJ 091330	METAR WIJJ 091330Z 03002KT 9999 SCT017 28/26 Q1008 NOSIG=
09/05/2021 14:00:00Z	 SAID34 WIJJ 091400	METAR WIJJ 091400Z 04002KT 9999 SCT017 28/25 Q1008 NOSIG=
09/05/2021 14:30:00Z	 SAID34 WIJJ 091430	METAR WIJJ 091430Z 02002KT 9999 SCT017 28/25 Q1008 NOSIG=
09/05/2021 15:00:00Z	 SAID34 WIJJ 091500	METAR WIJJ 091500Z 04003KT 9999 SCT017 27/25 Q1008 NOSIG=
09/05/2021 15:30:00Z	 SAID34 WIJJ 091530	METAR WIJJ 091530Z 07004KT 9999 SCT017 27/26 Q1009 NOSIG=
09/05/2021 16:00:00Z	 SAID34 WIJJ 091600	METAR WIJJ 091600Z 00000KT 9999 SCT017 27/25 Q1009 NOSIG=
09/05/2021 16:30:00Z	 SAID34 WIJJ 091630	METAR WIJJ 091630Z 00000KT 9999 SCT017 26/25 Q1009 NOSIG=
09/05/2021 17:00:00Z	 SAID34 WIJJ 091700	METAR WIJJ 091700Z 00000KT 9999 SCT017 26/25 Q1009 NOSIG=
09/05/2021 17:30:00Z	 SAID34 WIJJ 091730	METAR WIJJ 091730Z 34002KT 9999 SCT017 26/25 Q1008 NOSIG=
09/05/2021 18:30:00Z	 SAID34 WIJJ 091830	METAR WIJJ 091830Z 13003KT 9999 SCT017 26/25 Q1008 NOSIG=
09/05/2021 19:00:00Z	 SAID34 WIJJ 091900	METAR WIJJ 091900Z 18002KT 9999 SCT017 26/25 Q1008 NOSIG=
09/05/2021 19:30:00Z	 SAID34 WIJJ 091930	METAR WIJJ 091930Z 18002KT 9999 SCT017 26/25 Q1008 NOSIG=
09/05/2021 20:00:00Z	 SAID34 WIJJ 092000	METAR WIJJ 092000Z 17002KT 9999 SCT017 25/24 Q1007 NOSIG=
09/05/2021 20:30:00Z	 SAID34 WIJJ 092030	METAR WIJJ 092030Z 17002KT 9999 SCT017 25/24 Q1007 NOSIG=
09/05/2021 21:00:00Z	 SAID34 WIJJ 092100	METAR WIJJ 092100Z 17002KT 9999 SCT017 25/24 Q1007 NOSIG=
09/05/2021 21:30:00Z	 SAID34 WIJJ 092130	METAR WIJJ 092130Z 16004KT 9999 SCT017 25/24 Q1007 NOSIG=
09/05/2021 22:00:00Z	 SAID34 WIJJ 092200	METAR WIJJ 092200Z 16004KT 9999 SCT017 25/25 Q1007 NOSIG=
09/05/2021 22:30:00Z	 SAID34 WIJJ 092230	METAR WIJJ 092230Z 16003KT 9999 SCT017 25/25 Q1007 NOSIG=
09/05/2021 23:00:00Z	 SAID34 WIJJ 092300	METAR WIJJ 092300Z 18002KT 8000 SCT017 25/24 Q1007 NOSIG=
09/05/2021 23:30:00Z	 SAID34 WIJJ 092330	METAR WIJJ 092330Z 15003KT 9000 SCT017 25/24 Q1008 NOSIG=
10/05/2021 00:00:00Z	 SAID34 WIJJ 100000	METAR WIJJ 100000Z 15002KT 9000 SCT017 26/25 Q1008 NOSIG=
10/05/2021 00:30:00Z	 SAID34 WIJJ 100030	METAR WIJJ 100030Z 17003KT 6000 FEW017 26/25 Q1008 NOSIG=
10/05/2021 01:00:00Z	 SAID34 WIJJ 100100	METAR WIJJ 100100Z 14005KT 9999 FEW017 28/25 Q1009 NOSIG=
10/05/2021 01:30:00Z	 SAID34 WIJJ 100130	METAR WIJJ 100130Z 19005KT 9999 SCT016 28/25 Q1009 NOSIG=
10/05/2021 02:00:00Z	 SAID34 WIJJ 100200	METAR WIJJ 100200Z 20005KT 9999 SCT015 29/26 Q1009 NOSIG=
10/05/2021 02:30:00Z	 SAID34 WIJJ 100230	METAR WIJJ 100230Z 19005KT 9999 BKN015 30/25 Q1009 NOSIG=
10/05/2021 03:00:00Z	 SAID34 WIJJ 100300	METAR WIJJ 100300Z 22005KT 9999 BKN016 31/26 Q1009 NOSIG=
10/05/2021 03:30:00Z	 SAID34 WIJJ 100330	METAR WIJJ 100330Z 14004KT 9999 BKN016 31/26 Q1009 NOSIG=
10/05/2021 04:00:00Z	 SAID34 WIJJ 100400	METAR WIJJ 100400Z 13003KT 9999 BKN017 32/25 Q1008 NOSIG=
10/05/2021 04:30:00Z	 SAID34 WIJJ 100430	METAR WIJJ 100430Z 13002KT 9999 BKN017 32/25 Q1008 NOSIG=
10/05/2021 05:00:00Z	 SAID34 WIJJ 100500	METAR WIJJ 100500Z 13003KT 9999 SCT017 33/25 Q1007 NOSIG=
10/05/2021 06:00:00Z	 SAID34 WIJJ 100600	METAR WIJJ 100600Z 09004KT 030V170 9999 BKN017 33/25 Q1006 NOSIG=
10/05/2021 06:30:00Z	 SAID34 WIJJ 100630	METAR WIJJ 100630Z 08005KT 9999 BKN017 33/25 Q1006 NOSIG=
10/05/2021 07:00:00Z	 SAID34 WIJJ 100700	METAR WIJJ 100700Z 16005KT 9999 BKN017 33/25 Q1005 NOSIG=
10/05/2021 07:30:00Z	 SAID34 WIJJ 100730	METAR WIJJ 100730Z 14004KT 080V240 9999 SCT017 34/25 Q1005 NOSIG=
10/05/2021 08:00:00Z	 SAID34 WIJJ 100800	METAR WIJJ 100800Z 16004KT 120V260 9999 SCT017 34/25 Q1004 NOSIG=
10/05/2021 08:30:00Z	 SAID34 WIJJ 100830	METAR WIJJ 100830Z 18005KT 130V230 9999 SCT017 33/23 Q1004 NOSIG=
10/05/2021 09:00:00Z	 SAID34 WIJJ 100900	METAR WIJJ 100900Z 12004KT 080V140 9999 SCT017 34/25 Q1004 NOSIG=
10/05/2021 10:00:00Z	 SAID34 WIJJ 101000	METAR WIJJ 101000Z 14003KT 130V190 9999 SCT017 33/25 Q1004 NOSIG=
10/05/2021 10:30:00Z	 SAID34 WIJJ 101030	METAR WIJJ 101030Z 15003KT 9999 SCT017 32/25 Q1005 NOSIG=
10/05/2021 11:00:00Z	 SAID34 WIJJ 101100	METAR WIJJ 101100Z 10003KT 9999 FEW017 32/25 Q1005 NOSIG=
10/05/2021 11:30:00Z	 SAID34 WIJJ 101130	METAR WIJJ 101130Z 11003KT 090V150 9000 FEW017 31/26 Q1005 NOSIG=
10/05/2021 12:00:00Z	 SAID34 WIJJ 101200	METAR WIJJ 101200Z 05006KT 020V100 9999 FEW017 30/25 Q1006 NOSIG=
10/05/2021 12:30:00Z	 SAID34 WIJJ 101230	METAR WIJJ 101230Z 02004KT 9999 FEW017 30/25 Q1006 NOSIG=
10/05/2021 13:00:00Z	 SAID34 WIJJ 101300	METAR WIJJ 101300Z 35003KT 9999 FEW017 29/25 Q1007 NOSIG=
10/05/2021 13:30:00Z	 SAID34 WIJJ 101330	METAR WIJJ 101330Z 02003KT 9999 FEW017 29/25 Q1007 NOSIG=
10/05/2021 14:00:00Z	 SAID34 WIJJ 101400	METAR WIJJ 101400Z 06002KT 9999 FEW015 29/25 Q1008 NOSIG=
10/05/2021 14:30:00Z	 SAID34 WIJJ 101430	METAR WIJJ 101430Z 05002KT 9999 FEW015 28/25 Q1008 NOSIG=
10/05/2021 15:00:00Z	 SAID34 WIJJ 101500	METAR WIJJ 101500Z 08002KT 9999 SCT015 28/25 Q1008 NOSIG=
10/05/2021 15:30:00Z	 SAID34 WIJJ 101530	METAR WIJJ 101530Z 35002KT 9999 FEW015 28/25 Q1008 NOSIG=
10/05/2021 16:00:00Z	 SAID34 WIJJ 101600	METAR WIJJ 101600Z 02002KT 9999 FEW015 28/25 Q1009 NOSIG=
10/05/2021 16:30:00Z	 SAID34 WIJJ 101630	METAR WIJJ 101630Z 02001KT 9999 FEW014 28/25 Q1008 NOSIG=
10/05/2021 17:00:00Z	 SAID34 WIJJ 101700	METAR WIJJ 101700Z 02001KT 9999 SCT014 28/25 Q1008 NOSIG=
10/05/2021 17:30:00Z	 SAID34 WIJJ 101730	METAR WIJJ 101730Z 05002KT 9999 FEW013CB 28/24 Q1009 NOSIG=
10/05/2021 18:00:00Z	 SAID34 WIJJ 101800	METAR WIJJ 101800Z 06002KT 9999 FEW014 28/25 Q1007 NOSIG=
10/05/2021 18:30:00Z	 SAID34 WIJJ 101830	METAR WIJJ 101830Z 10002KT 9999 SCT014 28/25 Q1007 NOSIG=
10/05/2021 19:00:00Z	 SAID34 WIJJ 101900	METAR WIJJ 101900Z 14002KT 9999 SCT013 27/25 Q1007 NOSIG=
10/05/2021 19:30:00Z	 SAID34 WIJJ 101930	METAR WIJJ 101930Z 14002KT 9999 SCT013 27/25 Q1007 NOSIG=
10/05/2021 20:00:00Z	 SAID34 WIJJ 102000	METAR WIJJ 102000Z 14003KT 9999 SCT013 27/25 Q1007 NOSIG=
10/05/2021 20:30:00Z	 SAID34 WIJJ 102030	METAR WIJJ 102030Z 10003KT 9999 SCT013 27/25 Q1006 NOSIG=
10/05/2021 21:00:00Z	 SAID34 WIJJ 102100	METAR WIJJ 102100Z 08002KT 9999 SCT013 27/25 Q1006 NOSIG=
10/05/2021 21:30:00Z	 SAID34 WIJJ 102130	METAR WIJJ 102130Z 16002KT 9999 SCT013 27/25 Q1006 NOSIG=
10/05/2021 22:00:00Z	 SAID34 WIJJ 102200	METAR WIJJ 102200Z 14003KT 9999 SCT013 26/25 Q1007 NOSIG=
10/05/2021 22:30:00Z	 SAID34 WIJJ 102230	METAR WIJJ 102230Z 16003KT 9999 SCT013 26/25 Q1007 NOSIG=
10/05/2021 23:00:00Z	 SAID34 WIJJ 102300	METAR WIJJ 102300Z 19003KT 9999 SCT013 26/25 Q1007 NOSIG=
10/05/2021 23:30:00Z	 SAID34 WIJJ 102330	METAR WIJJ 102330Z 17001KT 9000 FEW013CB SCT014 26/25 Q1008 NOSIG RMK CB TO NE=
11/05/2021 00:00:00Z	 SAID34 WIJJ 110000	METAR WIJJ 110000Z 18003KT 9000 FEW013CB FEW014 26/25 Q1008 NOSIG RMK CB TO NE=
11/05/2021 00:30:00Z	 SAID34 WIJJ 110030	METAR WIJJ 110030Z 10003KT 9000 FEW015CB 26/25 Q1008 NOSIG RMK CB TO SW=
11/05/2021 01:00:00Z	 SAID34 WIJJ 110100	METAR WIJJ 110100Z 14006KT 9999 VCTS FEW014CB FEW015 27/25 Q1008 NOSIG RMK CB TO NE=
11/05/2021 01:30:00Z	 SAID34 WIJJ 110130	METAR WIJJ 110130Z 14005KT 9999 FEW014CB FEW015 28/25 Q1009 NOSIG RMK CB TO NE=
11/05/2021 02:00:00Z	 SAID34 WIJJ 110200	METAR WIJJ 110200Z 14005KT 9999 FEW014CB SCT015 29/25 Q1009 NOSIG RMK CB TO NE=
11/05/2021 02:30:00Z	 SAID34 WIJJ 110230	METAR WIJJ 110230Z 10004KT 9999 FEW014CB SCT015 30/25 Q1009 NOSIG RMK CB TO NE AND W=
11/05/2021 03:00:00Z	 SAID34 WIJJ 110300	METAR WIJJ 110300Z 13006KT 9999 FEW015 31/26 Q1009 NOSIG=
11/05/2021 03:30:00Z	 SAID34 WIJJ 110330	METAR WIJJ 110330Z 09005KT 9999 FEW015CB BKN016 31/26 Q1009 NOSIG RMK CB TO NW=
11/05/2021 04:00:00Z	 SAID34 WIJJ 110400	METAR WIJJ 110400Z 10004KT 9999 FEW015CB BKN016 32/26 Q1008 NOSIG RMK CB TO N=
11/05/2021 04:30:00Z	 SAID34 WIJJ 110430	METAR COR WIJJ 110430Z 12004KT 9999 SCT017 32/26 Q1008 NOSIG=
11/05/2021 05:00:00Z	 SAID34 WIJJ 110500	METAR WIJJ 110500Z 06006KT 9999 SCT017 32/26 Q1007 NOSIG=
11/05/2021 06:00:00Z	 SAID34 WIJJ 110600	METAR WIJJ 110600Z 09006KT 9999 SCT017 33/26 Q1006 NOSIG=
11/05/2021 06:30:00Z	 SAID34 WIJJ 110630	METAR WIJJ 110630Z 11009KT 9999 FEW016CB BKN017 33/25 Q1006 NOSIG RMK CB TO NW=
11/05/2021 07:00:00Z	 SAID34 WIJJ 110700	METAR WIJJ 110700Z 11007KT 050V140 9999 FEW016CB BKN017 32/25 Q1005 NOSIG RMK CB TO W AND NW=
11/05/2021 07:30:00Z	 SAID34 WIJJ 110730	METAR WIJJ 110730Z 11004KT 9999 VCTS FEW016CB SCT017 33/26 Q1005 NOSIG RMK CB TO NW=
11/05/2021 08:00:00Z	 SAID34 WIJJ 110800	METAR WIJJ 110800Z 09005KT 9999 VCTS FEW016CB SCT017 33/25 Q1004 NOSIG RMK CB TO S AND NW=
11/05/2021 08:30:00Z	 SAID34 WIJJ 110830	METAR WIJJ 110830Z 03002KT 9999 VCTS FEW016CB SCT017 33/26 Q1005 NOSIG RMK CB TO SE AND NW=
11/05/2021 09:00:00Z	 SAID34 WIJJ 110900	METAR WIJJ 110900Z 06002KT 9999 VCTS FEW014CB SCT015 32/25 Q1005 NOSIG RMK CB TO SE AND W=
11/05/2021 09:30:00Z	 SAID34 WIJJ 110930	METAR WIJJ 110930Z 06005KT 8000 TS FEW014CB BKN015 30/25 Q1005 NOSIG RMK CB TO ALQDS=
11/05/2021 10:00:00Z	 SAID34 WIJJ 111000	METAR WIJJ 111000Z 32006KT 8000 VCTS FEW012CB BKN013 28/25 Q1006 NOSIG RMK CB TO ALQDS=
11/05/2021 10:30:00Z	 SAID34 WIJJ 111030	METAR WIJJ 111030Z 35006KT 8000 TSRA FEW012CB SCT013 26/25 Q1005 NOSIG RMK CB TO ALQDS=
11/05/2021 11:00:00Z	 SAID34 WIJJ 111100	METAR WIJJ 111100Z 18001KT 9999 FEW014CB FEW015 26/25 Q1005 NOSIG RMK RETS=
11/05/2021 11:30:00Z	 SAID34 WIJJ 111130	METAR WIJJ 111130Z 30002KT 9999 FEW014CB FEW015 26/25 Q1005 RMK CB TO NW=
11/05/2021 12:00:00Z	 SAID34 WIJJ 111200	METAR WIJJ 111200Z 29002KT 9999 FEW014CB FEW015 27/25 Q1006 NOSIG RMK CB TO W=
11/05/2021 12:30:00Z	 SAID34 WIJJ 111230	METAR WIJJ 111230Z 27003KT 9999 FEW015 27/25 Q1006 NOSIG=
11/05/2021 13:00:00Z	 SAID34 WIJJ 111300	METAR WIJJ 111300Z 28003KT 9999 FEW015 27/26 Q1007 NOSIG=
11/05/2021 13:30:00Z	 SAID34 WIJJ 111330	METAR WIJJ 111330Z 32003KT 9999 FEW015 27/26 Q1007 NOSIG=
11/05/2021 14:00:00Z	 SAID34 WIJJ 111400	METAR WIJJ 111400Z 31002KT 9999 SCT016 28/26 Q1007 NOSIG=
11/05/2021 14:30:00Z	 SAID34 WIJJ 111430	METAR WIJJ 111430Z 32003KT 9999 SCT016 27/26 Q1008 NOSIG=
11/05/2021 15:00:00Z	 SAID34 WIJJ 111500	METAR WIJJ 111500Z 30003KT 9999 SCT016 27/26 Q1008 NOSIG=
11/05/2021 15:30:00Z	 SAID34 WIJJ 111530	METAR WIJJ 111530Z 30002KT 9999 SCT016 27/26 Q1008 NOSIG=
11/05/2021 16:00:00Z	 SAID34 WIJJ 111600	METAR WIJJ 111600Z 26002KT 9999 SCT016 27/25 Q1008 NOSIG=
11/05/2021 16:30:00Z	 SAID34 WIJJ 111630	METAR WIJJ 111630Z 32001KT 9999 SCT016 27/25 Q1008 NOSIG=
11/05/2021 17:00:00Z	 SAID34 WIJJ 111700	METAR WIJJ 111700Z 28002KT 9999 -RA SCT016 27/26 Q1007 NOSIG=
11/05/2021 17:30:00Z	 SAID34 WIJJ 111730	METAR WIJJ 111730Z 15003KT 4000 -RA FEW015CB SCT016 27/26 Q1007 RMK CB TO SW=
11/05/2021 18:00:00Z	 SAID34 WIJJ 111800	METAR WIJJ 111800Z 22002KT 5000 HZ SCT016 27/26 Q1007 NOSIG=
11/05/2021 18:30:00Z	 SAID34 WIJJ 111830	METAR WIJJ 111830Z 21002KT 8000 FEW015CB SCT016 27/26 Q1006 NOSIG RMK CB TO SW=
11/05/2021 19:00:00Z	 SAID34 WIJJ 111900	METAR WIJJ 111900Z 25002KT 8000 FEW015CB SCT016 27/26 Q1006 RMK CB TO W=
11/05/2021 19:30:00Z	 SAID34 WIJJ 111930	METAR WIJJ 111930Z 00000KT 8000 HZ FEW015CB SCT016 26/25 Q1006 NOSIG RMK CB TO W=
11/05/2021 20:00:00Z	 SAID34 WIJJ 112000	METAR WIJJ 112000Z 18002KT 6000 FEW016 27/26 Q1006 NOSIG=
11/05/2021 20:30:00Z	 SAID34 WIJJ 112030	METAR WIJJ 112030Z 00000KT 6000 SCT016 26/25 Q1006 NOSIG=
11/05/2021 21:00:00Z	 SAID34 WIJJ 112100	METAR WIJJ 112100Z 16002KT 4000 FEW018 26/25 Q1006 NOSIG=
11/05/2021 21:30:00Z	 SAID34 WIJJ 112130	METAR WIJJ 112130Z 14002KT 4200 BR FEW018 26/25 Q1006 NOSIG=
11/05/2021 22:00:00Z	 SAID34 WIJJ 112200	METAR WIJJ 112200Z 14002KT 3500 BR SCT018 26/25 Q1006 NOSIG=
11/05/2021 22:30:00Z	 SAID34 WIJJ 112230	METAR WIJJ 112230Z 17002KT 7000 FEW018 26/25 Q1006 NOSIG=
11/05/2021 23:00:00Z	 SAID34 WIJJ 112300	METAR WIJJ 112300Z 21003KT 5000 BR FEW018 26/25 Q1007 NOSIG=
11/05/2021 23:30:00Z	 SAID34 WIJJ 112330	METAR WIJJ 112330Z 00000KT 6000 FEW018 26/25 Q1007 NOSIG=
12/05/2021 00:00:00Z	 SAID34 WIJJ 120000	METAR WIJJ 120000Z 14002KT 6000 FEW018 26/25 Q1007 NOSIG=
12/05/2021 00:30:00Z	 SAID34 WIJJ 120030	METAR WIJJ 120030Z 15003KT 9999 SCT017 27/26 Q1008 NOSIG=
12/05/2021 01:00:00Z	 SAID34 WIJJ 120100	METAR WIJJ 120100Z 13004KT 9999 SCT017 28/26 Q1008 NOSIG=
12/05/2021 01:30:00Z	 SAID34 WIJJ 120130	METAR WIJJ 120130Z 18006KT 9999 SCT017 28/26 Q1008 NOSIG=
12/05/2021 02:00:00Z	 SAID34 WIJJ 120200	METAR WIJJ 120200Z 13005KT 9999 BKN013 30/26 Q1009 NOSIG=
12/05/2021 02:30:00Z	 SAID34 WIJJ 120230	METAR WIJJ 120230Z 14006KT 9999 FEW013CB SCT015 30/26 Q1009 NOSIG RMK CB TO NE AND W=
12/05/2021 03:00:00Z	 SAID34 WIJJ 120300	METAR WIJJ 120300Z 13005KT 9999 BKN013 31/26 Q1009 NOSIG=
12/05/2021 03:30:00Z	 SAID34 WIJJ 120330	METAR WIJJ 120330Z 14007KT 9999 BKN013 31/26 Q1008 NOSIG=
12/05/2021 04:00:00Z	 SAID34 WIJJ 120400	METAR WIJJ 120400Z 12004KT 9999 BKN013 32/25 Q1008 NOSIG=
12/05/2021 04:30:00Z	 SAID34 WIJJ 120430	METAR WIJJ 120430Z 11002KT 9999 BKN013 32/25 Q1007 NOSIG=
12/05/2021 05:00:00Z	 SAID34 WIJJ 120500	METAR WIJJ 120500Z 09002KT 9999 SCT013 33/25 Q1007 NOSIG=
12/05/2021 05:30:00Z	 SAID34 WIJJ 120530	METAR WIJJ 120530Z 14005KT 9999 SCT013 33/25 Q1006 NOSIG=
12/05/2021 06:00:00Z	 SAID34 WIJJ 120600	METAR WIJJ 120600Z 17005KT 9999 SCT015 34/24 Q1006 NOSIG=
12/05/2021 06:30:00Z	 SAID34 WIJJ 120630	METAR WIJJ 120630Z 20003KT 9999 SCT015 34/24 Q1005 NOSIG=
12/05/2021 07:00:00Z	 SAID34 WIJJ 120700	METAR WIJJ 120700Z 12002KT 9999 SCT015 34/25 Q1004 NOSIG=
12/05/2021 07:30:00Z	 SAID34 WIJJ 120730	METAR WIJJ 120730Z 12004KT 9999 FEW013CB SCT015 34/25 Q1004 NOSIG RMK CB TO E AND NE=
12/05/2021 08:00:00Z	 SAID34 WIJJ 120800	METAR WIJJ 120800Z 19004KT 9999 SCT015 34/23 Q1004 NOSIG=
12/05/2021 08:30:00Z	 SAID34 WIJJ 120830	METAR WIJJ 120830Z 05010KT 9999 FEW013CB SCT015 31/26 Q1004 NOSIG RMK CB TO SE=
12/05/2021 09:00:00Z	 SAID34 WIJJ 120900	METAR WIJJ 120900Z 08005KT 9999 FEW013CB SCT015 32/25 Q1004 NOSIG RMK CB TO SE=
12/05/2021 09:30:00Z	 SAID34 WIJJ 120930	METAR WIJJ 120930Z 06006KT 9999 FEW013CB SCT015 31/25 Q1005 NOSIG RMK CB TO SE AND NW=
12/05/2021 10:00:00Z	 SAID34 WIJJ 121000	METAR WIJJ 121000Z 07007KT 9999 FEW013CB SCT015 31/26 Q1005 NOSIG=
12/05/2021 10:30:00Z	 SAID34 WIJJ 121030	METAR WIJJ 121030Z 10011KT 9999 VCTS FEW013CB SCT015 30/26 Q1005 TEMPO 4000 RA RMK CB IN APCH=
12/05/2021 11:00:00Z	 SAID34 WIJJ 121100	METAR WIJJ 121100Z 12008KT 9999 TS FEW013CB SCT015 28/25 Q1005 NOSIG RMK CB IN APCH=
12/05/2021 11:30:00Z	 SAID34 WIJJ 121130	METAR WIJJ 121130Z 10002KT 9999 VCTS FEW013CB SCT015 27/25 Q1006 NOSIG RMK CB IN APCH=
12/05/2021 12:00:00Z	 SAID34 WIJJ 121200	METAR WIJJ 121200Z 35002KT 9999 FEW013CB SCT015 28/25 Q1006 RETS NOSIG RMK CB TO SE AND NW=
12/05/2021 12:30:00Z	 SAID34 WIJJ 121230	METAR WIJJ 121230Z 27003KT 9999 SCT015 28/25 Q1007 NOSIG=
12/05/2021 13:00:00Z	 SAID34 WIJJ 121300	METAR WIJJ 121300Z 34002KT 9999 SCT015 28/25 Q1007 NOSIG=
12/05/2021 13:30:00Z	 SAID34 WIJJ 121330	METAR WIJJ 121330Z 29005KT 9999 SCT015 27/26 Q1007 NOSIG=
12/05/2021 14:00:00Z	 SAID34 WIJJ 121400	METAR WIJJ 121400Z 26003KT 9999 SCT015 27/25 Q1007 NOSIG=
12/05/2021 14:30:00Z	 SAID34 WIJJ 121430	METAR WIJJ 121430Z 28002KT 9999 SCT015 27/25 Q1007 NOSIG=
12/05/2021 15:00:00Z	 SAID34 WIJJ 121500	METAR WIJJ 121500Z 34002KT 9999 SCT015 27/25 Q1007 NOSIG=
12/05/2021 15:30:00Z	 SAID34 WIJJ 121530	METAR WIJJ 121530Z 36002KT 9999 SCT015 27/26 Q1007 NOSIG=
12/05/2021 16:00:00Z	 SAID34 WIJJ 121600	METAR WIJJ 121600Z 15002KT 9999 SCT016 27/25 Q1007 NOSIG=
12/05/2021 16:30:00Z	 SAID34 WIJJ 121630	METAR WIJJ 121630Z 15002KT 9999 SCT015 26/25 Q1007 NOSIG=
12/05/2021 17:00:00Z	 SAID34 WIJJ 121700	METAR WIJJ 121700Z 00000KT 9999 SCT015 26/25 Q1007 NOSIG=
12/05/2021 17:30:00Z	 SAID34 WIJJ 121730	METAR WIJJ 121730Z 00000KT 9999 SCT015 26/25 Q1007 NOSIG=
12/05/2021 18:30:00Z	 SAID34 WIJJ 121830	METAR WIJJ 121830Z 17002KT 9999 SCT015 26/25 Q1006 NOSIG=
12/05/2021 19:00:00Z	 SAID34 WIJJ 121900	METAR WIJJ 121900Z 23003KT 9999 SCT016 26/25 Q1006 NOSIG=
12/05/2021 19:30:00Z	 SAID34 WIJJ 121930	METAR WIJJ 121930Z 24003KT 9999 SCT016 26/26 Q1006 NOSIG=
12/05/2021 20:00:00Z	 SAID34 WIJJ 122000	METAR WIJJ 122000Z 22003KT 9999 SCT016 26/25 Q1005 NOSIG=
12/05/2021 20:30:00Z	 SAID34 WIJJ 122030	METAR WIJJ 122000Z 22002KT 9999 SCT016 26/25 Q1005 NOSIG=
12/05/2021 21:00:00Z	 SAID34 WIJJ 122100	METAR WIJJ 122100Z 24002KT 9999 SCT016 26/25 Q1005 NOSIG=
12/05/2021 21:30:00Z	 SAID34 WIJJ 122130	METAR WIJJ 122130Z 23002KT 9999 SCT016 25/25 Q1005 NOSIG=
12/05/2021 22:00:00Z	 SAID34 WIJJ 122200	METAR WIJJ 122200Z 00000KT 9999 SCT016 25/25 Q1006 NOSIG=
12/05/2021 22:30:00Z	 SAID34 WIJJ 122230	METAR WIJJ 122230Z 32002KT 9999 SCT015 25/25 Q1006 NOSIG=
12/05/2021 23:00:00Z	 SAID34 WIJJ 122300	METAR WIJJ 122300Z 00000KT 9999 FEW015 25/25 Q1006 NOSIG=
12/05/2021 23:30:00Z	 SAID34 WIJJ 122330	METAR WIJJ 122330Z 00000KT 9999 FEW015 25/25 Q1006 NOSIG=
13/05/2021 00:30:00Z	 SAID34 WIJJ 130030	METAR WIJJ 130030Z 21002KT 9999 SCT015 26/24 Q1007 NOSIG=
13/05/2021 01:00:00Z	 SAID34 WIJJ 130100	METAR WIJJ 130100Z 20002KT 9999 FEW015 27/24 Q1007 NOSIG=
13/05/2021 01:30:00Z	 SAID34 WIJJ 130130	METAR WIJJ 130130Z 22003KT 9999 FEW015 27/24 Q1008 NOSIG=
13/05/2021 02:00:00Z	 SAID34 WIJJ 130200	METAR WIJJ 130200Z 14004KT 9999 SCT015 29/24 Q1008 NOSIG=
13/05/2021 02:30:00Z	 SAID34 WIJJ 130230	METAR WIJJ 130230Z 13004KT 9999 SCT015 30/25 Q1008 NOSIG=
13/05/2021 03:00:00Z	 SAID34 WIJJ 130300	METAR WIJJ 130300Z 14006KT 9999 SCT015 30/25 Q1008 NOSIG=
13/05/2021 03:30:00Z	 SAID34 WIJJ 130330	METAR WIJJ 130330Z 09004KT 9999 BKN016 31/26 Q1008 NOSIG=
13/05/2021 04:00:00Z	 SAID34 WIJJ 130400	METAR WIJJ 130400Z 13006KT 9999 BKN016 32/26 Q1007 NOSIG=
13/05/2021 04:30:00Z	 SAID34 WIJJ 130430	METAR WIJJ 130430Z 09003KT 9999 BKN017 33/26 Q1006 NOSIG=
13/05/2021 05:00:00Z	 SAID34 WIJJ 130500	METAR WIJJ 130500Z 16007KT 9999 BKN017 32/26 Q1006 NOSIG=
13/05/2021 05:30:00Z	 SAID34 WIJJ 130530	METAR WIJJ 130530Z 12005KT 9999 BKN017 32/26 Q1006 NOSIG=
13/05/2021 06:00:00Z	 SAID34 WIJJ 130600	METAR WIJJ 130600Z 11005KT 9999 SCT017 33/26 Q1006 NOSIG=
13/05/2021 06:30:00Z	 SAID34 WIJJ 130630	METAR WIJJ 130630Z 14007KT 9999 SCT017 33/26 Q1005 NOSIG=
13/05/2021 07:00:00Z	 SAID34 WIJJ 130700	METAR WIJJ 130700Z 13008G24KT 070V210 9999 VCTS FEW012CB BKN013 32/25 Q1005 NOSIG RMK CB TO E=
13/05/2021 07:30:00Z	 SAID34 WIJJ 130730	METAR WIJJ 130730Z 07013KT 2200 RA FEW006CB BKN006 26/24 Q1005 NOSIG RMK CB TO ALQDS=
13/05/2021 08:00:00Z	 SAID34 WIJJ 130800	METAR WIJJ 130800Z 34004KT 8000 -TSRA FEW013CB SCT014 25/24 Q1005 NOSIG RMK CB TO ALQDS=
13/05/2021 08:30:00Z	 SAID34 WIJJ 130830	METAR WIJJ 130830Z 03004KT 9000 TS FEW014CB SCT015 26/25 Q1005 NOSIG RMK CB TO ALQDS=
13/05/2021 09:00:00Z	 SAID34 WIJJ 130900	METAR WIJJ 130900Z 06002KT 9000 VCTS FEW014CB SCT015 26/25 Q1005 NOSIG RMK CB TO ALQDS=
13/05/2021 09:30:00Z	 SAID34 WIJJ 130930	METAR WIJJ 130930Z 10002KT 9000 -RA FEW015CB SCT016 26/25 Q1005 NOSIG RMK CB TO SW AND NW=
13/05/2021 10:00:00Z	 SAID34 WIJJ 131000	METAR WIJJ 131000Z 10001KT 9000 FEW015 SCT016 26/25 Q1005 NOSIG RMK CB TO S AND W=
13/05/2021 10:30:00Z	 SAID34 WIJJ 131030	METAR WIJJ 131030Z 18002KT 9999 FEW015CB SCT016 26/25 Q1005 NOSIG=
13/05/2021 11:00:00Z	 SAID34 WIJJ 131100	METAR WIJJ 131100Z 13003KT 9000 -RA FEW014CB SCT015 26/24 Q1006 CB OVER THE FIELD=
13/05/2021 11:30:00Z	 SAID34 WIJJ 131130	METAR WIJJ 131130Z 17003KT 8000 -RA FEW014CB SCT015 26/25 Q1006 NOSIG RMK CB TO E AND W=
13/05/2021 12:00:00Z	 SAID34 WIJJ 131200	METAR WIJJ 131200Z 18004KT 8000 -RA SCT015 26/25 Q1007 NOSIG=
13/05/2021 12:30:00Z	 SAID34 WIJJ 131230	METAR WIJJ 131230Z 14002KT 9000 -RA SCT015 26/25 Q1007 NOSIG=
13/05/2021 13:00:00Z	 SAID34 WIJJ 131300	METAR WIJJ 131300Z 15004KT 8000 FEW015 26/25 Q1007 NOSIG RMK RERA=
13/05/2021 13:30:00Z	 SAID34 WIJJ 131330	METAR WIJJ 131330Z 18002KT 8000 FEW015 25/24 Q1007 NOSIG=
13/05/2021 14:00:00Z	 SAID34 WIJJ 131400	METAR WIJJ 131400Z 16003KT 8000 FEW015 25/25 Q1007 NOSIG=
13/05/2021 14:30:00Z	 SAID34 WIJJ 131430	METAR WIJJ 131430Z 17002KT 9999 FEW015 25/25 Q1007 NOSIG=
13/05/2021 15:00:00Z	 SAID34 WIJJ 131500	METAR WIJJ 131500Z 16003KT 140V200 9999 FEW015 25/25 Q1007 NOSIG=
13/05/2021 15:30:00Z	 SAID34 WIJJ 131530	METAR WIJJ 131530Z 20003KT 160V230 9999 FEW015 25/24 Q1007 NOSIG=
13/05/2021 16:00:00Z	 SAID34 WIJJ 131600	METAR WIJJ 131600Z 21004KT 9999 FEW015 25/24 Q1007 NOSIG=
13/05/2021 16:30:00Z	 SAID34 WIJJ 131630	METAR WIJJ 131630Z 21003KT 9999 FEW015 25/24 Q1007 NOSIG=
13/05/2021 17:00:00Z	 SAID34 WIJJ 131700	METAR WIJJ 131700Z 22003KT 9999 FEW015 25/24 Q1007 NOSIG=
13/05/2021 17:30:00Z	 SAID34 WIJJ 131730	METAR WIJJ 131730Z 22004KT 9999 FEW014 25/24 Q1007 NOSIG=
13/05/2021 18:00:00Z	 SAID34 WIJJ 131800	METAR WIJJ 131800Z 22005KT 9999 FEW014 25/24 Q1007 NOSIG=
13/05/2021 18:30:00Z	 SAID34 WIJJ 131830	METAR WIJJ 131830Z 22004KT 9999 FEW014 25/24 Q1007 NOSIG=
13/05/2021 19:00:00Z	 SAID34 WIJJ 131900	METAR WIJJ 131900Z 21003KT 170V260 9999 FEW014 25/24 Q1006 NOSIG=
13/05/2021 19:30:00Z	 SAID34 WIJJ 131930	METAR WIJJ 131930Z 21003KT 180V240 9999 FEW012 25/24 Q1006 NOSIG=
13/05/2021 20:00:00Z	 SAID34 WIJJ 132000	METAR WIJJ 132000Z 20002KT 9999 FEW013 25/24 Q1006 NOSIG=
13/05/2021 20:30:00Z	 SAID34 WIJJ 132030	METAR WIJJ 132030Z 20003KT 9999 FEW013 25/24 Q1006 NOSIG=
13/05/2021 21:00:00Z	 SAID34 WIJJ 132100	METAR WIJJ 132100Z 19002KT 9999 FEW013 25/24 Q1006 NOSIG=
13/05/2021 21:30:00Z	 SAID34 WIJJ 132130	METAR WIJJ 132130Z 20003KT 9999 FEW013 24/24 Q1006 NOSIG=
13/05/2021 22:00:00Z	 SAID34 WIJJ 132200	METAR WIJJ 132200Z 20002KT 9999 FEW013 24/24 Q1006 NOSIG=
13/05/2021 22:30:00Z	 SAID34 WIJJ 132230	METAR WIJJ 132230Z 21002KT 9999 FEW013 24/24 Q1006 NOSIG=
13/05/2021 23:00:00Z	 SAID34 WIJJ 132300	METAR WIJJ 132300Z 22001KT 6000 SCT013 24/24 Q1006 NOSIG=
13/05/2021 23:30:00Z	 SAID34 WIJJ 132330	METAR WIJJ 132330Z 13002KT 7000 SCT013 24/24 Q1006 NOSIG=
14/05/2021 00:00:00Z	 SAID34 WIJJ 140000	METAR WIJJ 140000Z 00000KT 5000 HZ SCT013 24/24 Q1007 NOSIG=
14/05/2021 00:30:00Z	 SAID34 WIJJ 140030	METAR WIJJ 140030Z 24002KT 9999 FEW014 25/24 Q1007 NOSIG=
14/05/2021 01:00:00Z	 SAID34 WIJJ 140100	METAR WIJJ 140100Z 21003KT 9999 FEW016 26/24 Q1007 NOSIG=
14/05/2021 01:30:00Z	 SAID34 WIJJ 140130	METAR WIJJ 140130Z 20004KT 9999 FEW016 27/24 Q1008 NOSIG=
14/05/2021 02:00:00Z	 SAID34 WIJJ 140200	METAR WIJJ 140200Z 15004KT 9999 FEW015 28/25 Q1008 NOSIG=
14/05/2021 02:30:00Z	 SAID34 WIJJ 140230	METAR WIJJ 140230Z 16005KT 9999 FEW016 28/25 Q1008 NOSIG=
14/05/2021 03:00:00Z	 SAID34 WIJJ 140300	METAR WIJJ 140300Z 18004KT 9999 FEW018 30/26 Q1008 NOSIG=
14/05/2021 03:30:00Z	 SAID34 WIJJ 140330	METAR WIJJ 140330Z 13006KT 9999 SCT018 31/26 Q1008 NOSIG=
14/05/2021 04:00:00Z	 SAID34 WIJJ 140400	METAR WIJJ 140400Z 14006KT 9999 SCT018 31/25 Q1007 NOSIG=
14/05/2021 04:30:00Z	 SAID34 WIJJ 140430	METAR WIJJ 140430Z 13007KT 9999 SCT018 30/25 Q1007 NOSIG=
14/05/2021 05:00:00Z	 SAID34 WIJJ 140500	METAR WIJJ 140500Z 17007KT 9999 SCT018 31/26 Q1007 NOSIG=
14/05/2021 05:30:00Z	 SAID34 WIJJ 140530	METAR WIJJ 140530Z 14006KT 9999 SCT018 31/26 Q1006 NOSIG=
14/05/2021 06:00:00Z	 SAID34 WIJJ 140600	METAR WIJJ 140600Z 13006KT 9999 SCT018 32/26 Q1006 NOSIG=
14/05/2021 06:30:00Z	 SAID34 WIJJ 140630	METAR WIJJ 140630Z 25003KT 9999 SCT018 32/26 Q1005 NOSIG=
14/05/2021 07:00:00Z	 SAID34 WIJJ 140700	METAR WIJJ 140700Z 13004KT 9999 FEW015CB FEW016 33/26 Q1005 NOSIG RMK CB TO SE=
14/05/2021 07:30:00Z	 SAID34 WIJJ 140730	METAR WIJJ 140730Z 14014KT 9999 FEW015CB SCT016 28/24 Q1005 RMK CB TO SE=
14/05/2021 08:00:00Z	 SAID34 WIJJ 140800	METAR WIJJ 140800Z 18007KT 8000 -RA FEW015CB FEW016 27/26 Q1005 RMK CB TO SW=
14/05/2021 08:30:00Z	 SAID34 WIJJ 140830	METAR WIJJ 140830Z 24004KT 9999 FEW015CB FEW016 29/26 Q1004 NOSIG RMK CB TO W=
14/05/2021 09:00:00Z	 SAID34 WIJJ 140900	METAR WIJJ 140900Z 23003KT 9999 FEW015CB FEW016 29/25 Q1004 NOSIG RMK CB TO E=
14/05/2021 09:30:00Z	 SAID34 WIJJ 140930	METAR WIJJ 140930Z 24002KT 9999 FEW015CB FEW016 31/25 Q1004 NOSIG RMK CB TO NE=
14/05/2021 10:00:00Z	 SAID34 WIJJ 141000	METAR WIJJ 141000Z 09002KT 9999 FEW015CB FEW016 31/25 Q1005 NOSIG RMK CB TO N AND NE=
14/05/2021 10:30:00Z	 SAID34 WIJJ 141030	METAR WIJJ 141030Z 14003KT 9999 FEW015CB FEW016 30/25 Q1004 NOSIG RMK CB TO N=
14/05/2021 11:00:00Z	 SAID34 WIJJ 141100	METAR WIJJ 141100Z 09004KT 9999 FEW015CB FEW016 30/25 Q1005 RMK CB TO S=
14/05/2021 11:30:00Z	 SAID34 WIJJ 141130	METAR WIJJ 141130Z 07002KT 9999 FEW015CB FEW016 29/25 Q1006 NOSIG RMK CB TO S AND W=
14/05/2021 12:00:00Z	 SAID34 WIJJ 141200	METAR WIJJ 141200Z 04003KT 9999 FEW015CB FEW016 29/26 Q1006 NOSIG RMK CB TO S=
14/05/2021 12:30:00Z	 SAID34 WIJJ 141230	METAR WIJJ 141230Z 06003KT 9999 FEW017 28/26 Q1007 NOSIG=
14/05/2021 13:00:00Z	 SAID34 WIJJ 141300	METAR WIJJ 141300Z 16004KT 9999 FEW017 28/26 Q1007 NOSIG=
14/05/2021 13:30:00Z	 SAID34 WIJJ 141330	METAR WIJJ 141330Z 16006KT 9999 FEW017 28/26 Q1008 NOSIG=
14/05/2021 14:00:00Z	 SAID34 WIJJ 141400	METAR WIJJ 141400Z 14006KT 9999 SCT017 27/25 Q1008 TEMPO FM1420 2000 TSRA=
14/05/2021 14:30:00Z	 SAID34 WIJJ 141430	METAR WIJJ 141430Z AUTO ///// //// ////// ///// Q////=
14/05/2021 14:30:00Z	 SAID34 WIJJ 141430 CCA	METAR COR WIJJ 141430Z 13005KT 5000 -RA SCT015 26/24 Q1009 TEMPO FM1420 2000 TSRA=
14/05/2021 15:00:00Z	 SAID34 WIJJ 141500	METAR WIJJ 141500Z 13005KT 9000 -RA SCT015 26/24 Q1009 TEMPO FM1420 2000 TSRA=
14/05/2021 15:30:00Z	 SAID34 WIJJ 141530	METAR WIJJ 141530Z 13003KT 9999 SCT015 26/24 Q1008 RERA NOSIG=
14/05/2021 16:00:00Z	 SAID34 WIJJ 141600	METAR WIJJ 141600Z 13004KT 9999 -RA SCT017 26/24 Q1008 NOSIG=
14/05/2021 16:30:00Z	 SAID34 WIJJ 141630	METAR WIJJ 141630Z 17004KT 9999 SCT017 25/24 Q1008 NOSIG=
14/05/2021 17:30:00Z	 SAID34 WIJJ 141730	METAR WIJJ 141730Z 17003KT 9999 SCT017 25/24 Q1008 NOSIG=
14/05/2021 18:00:00Z	 SAID34 WIJJ 141800	METAR WIJJ 141800Z 18003KT 9999 SCT017 25/24 Q1008 NOSIG=
14/05/2021 18:30:00Z	 SAID34 WIJJ 141830	METAR WIJJ 141830Z 20003KT 9999 SCT017 25/24 Q1007 NOSIG=
14/05/2021 19:00:00Z	 SAID34 WIJJ 141900	METAR WIJJ 141900Z 20003KT 9999 SCT017 25/24 Q1007 NOSIG=
14/05/2021 19:30:00Z	 SAID34 WIJJ 141930	METAR WIJJ 141930Z 18003KT 9999 SCT017 25/24 Q1007 NOSIG=
14/05/2021 20:00:00Z	 SAID34 WIJJ 142000	METAR WIJJ 142000Z 17004KT 9999 SCT017 25/24 Q1007 NOSIG=
14/05/2021 20:30:00Z	 SAID34 WIJJ 142030	METAR WIJJ 142030Z 17004KT 9999 SCT017 25/24 Q1007 NOSIG=
14/05/2021 21:00:00Z	 SAID34 WIJJ 142100	METAR WIJJ 142100Z 18004KT 9999 SCT017 24/24 Q1007 NOSIG=
14/05/2021 21:30:00Z	 SAID34 WIJJ 142130	METAR WIJJ 142130Z 21003KT 9999 SCT017 24/24 Q1007 NOSIG=
14/05/2021 22:00:00Z	 SAID34 WIJJ 142200	METAR WIJJ 142200Z 21003KT 9999 SCT017 24/24 Q1007 NOSIG=
14/05/2021 22:30:00Z	 SAID34 WIJJ 142230	METAR WIJJ 142230Z 19003KT 9999 FEW017 24/24 Q1007 NOSIG=
14/05/2021 23:00:00Z	 SAID34 WIJJ 142300	METAR WIJJ 142300Z 19003KT 9999 FEW017 25/24 Q1007 NOSIG=
14/05/2021 23:30:00Z	 SAID34 WIJJ 142330	METAR WIJJ 142330Z 19003KT 9999 FEW017 25/24 Q1007 NOSIG=
15/05/2021 00:00:00Z	 SAID34 WIJJ 150000	METAR WIJJ 150000Z 18003KT 9999 FEW017 25/24 Q1008 NOSIG=
15/05/2021 00:30:00Z	 SAID34 WIJJ 150030	METAR WIJJ 150030Z 21002KT 9999 FEW017 25/25 Q1008 NOSIG=
15/05/2021 01:00:00Z	 SAID34 WIJJ 150100	METAR WIJJ 150100Z 16004KT 130V210 9999 FEW017 26/25 Q1008 NOSIG=
15/05/2021 01:30:00Z	 SAID34 WIJJ 150130	METAR WIJJ 150130Z 19004KT 140V230 9999 FEW017 28/25 Q1008 NOSIG=
15/05/2021 02:00:00Z	 SAID34 WIJJ 150200	METAR WIJJ 150200Z 16005KT 120V220 9999 BKN013 28/25 Q1008 NOSIG=
15/05/2021 02:30:00Z	 SAID34 WIJJ 150230	METAR WIJJ 150230Z 16006KT 9999 BKN013 29/26 Q1009 NOSIG=
15/05/2021 03:00:00Z	 SAID34 WIJJ 150300	METAR WIJJ 150300Z 11006KT 9999 BKN015 29/25 Q1009 NOSIG=
15/05/2021 03:30:00Z	 SAID34 WIJJ 150330	METAR WIJJ 150330Z 13007KT 9999 BKN015 30/26 Q1009 NOSIG=
15/05/2021 04:00:00Z	 SAID34 WIJJ 150400	METAR WIJJ 150400Z 10004KT 9999 BKN015 31/26 Q1008 NOSIG=
15/05/2021 05:00:00Z	 SAID34 WIJJ 150500	METAR WIJJ 150500Z 18010KT 9999 BKN015 32/26 Q1007 NOSIG=
15/05/2021 05:30:00Z	 SAID34 WIJJ 150530	METAR WIJJ 150530Z 14010KT 9999 BKN016 32/26 Q1006 NOSIG=
15/05/2021 06:30:00Z	 SAID34 WIJJ 150630	METAR WIJJ 150630Z 11007KT 9999 SCT016 33/26 Q1006 NOSIG=
15/05/2021 07:00:00Z	 SAID34 WIJJ 150700	METAR WIJJ 150700Z 11003KT 9999 SCT016 34/26 Q1005 NOSIG=
15/05/2021 07:30:00Z	 SAID34 WIJJ 150730	METAR WIJJ 150730Z 13006KT 9999 BKN016 33/26 Q1005 NOSIG=
15/05/2021 08:30:00Z	 SAID34 WIJJ 150830	METAR WIJJ 150830Z 13007KT 9999 FEW014CB BKN015 33/26 Q1004 NOSIG RMK CB TO N AND S=
15/05/2021 09:00:00Z	 SAID34 WIJJ 150900	METAR WIJJ 150900Z 04008KT 9999 BKN015 30/26 Q1004 NOSIG=
15/05/2021 09:30:00Z	 SAID34 WIJJ 150930	METAR WIJJ 150930Z 06007KT 9999 BKN014 29/26 Q1005 TEMPO FM0945 2000 TSRA=
15/05/2021 10:00:00Z	 SAID34 WIJJ 151000	METAR WIJJ 151000Z 12004KT 9999 SCT015 30/26 Q1005 NOSIG=
15/05/2021 10:30:00Z	 SAID34 WIJJ 151030	METAR WIJJ 151030Z 14003KT 9999 SCT015 29/26 Q1005 NOSIG=
15/05/2021 11:00:00Z	 SAID34 WIJJ 151100	METAR WIJJ 151100Z 10004KT 9999 BKN014 29/26 Q1006 NOSIG=
15/05/2021 11:30:00Z	 SAID34 WIJJ 151130	METAR WIJJ 151130Z 13006KT 9999 BKN015 28/26 Q1006 NOSIG=
15/05/2021 12:00:00Z	 SAID34 WIJJ 151200	METAR WIJJ 151200Z 13003KT 9999 BKN015 29/26 Q1006 NOSIG=
15/05/2021 12:30:00Z	 SAID34 WIJJ 151230	METAR WIJJ 151230Z 15007KT 9999 FEW015CB SCT016 28/25 Q1006 NOSIG RMK CB TO S=
15/05/2021 13:00:00Z	 SAID34 WIJJ 151300	METAR WIJJ 151300Z 14005KT 9999 SCT015 27/25 Q1007 NOSIG=
15/05/2021 13:30:00Z	 SAID34 WIJJ 151330	METAR WIJJ 151330Z 14005KT 9999 SCT015 26/24 Q1007 NOSIG=
15/05/2021 14:00:00Z	 SAID34 WIJJ 151400	METAR WIJJ 151400Z 17003KT 9999 SCT015 26/24 Q1008 NOSIG=
15/05/2021 14:30:00Z	 SAID34 WIJJ 151430	METAR WIJJ 151430Z 17002KT 9999 FEW015 26/24 Q1008 NOSIG=
15/05/2021 15:00:00Z	 SAID34 WIJJ 151500	METAR WIJJ 151500Z 18003KT 9999 FEW015 26/24 Q1008 NOSIG=
15/05/2021 15:30:00Z	 SAID34 WIJJ 151530	METAR WIJJ 151530Z 16003KT 9999 FEW015 26/24 Q1008 NOSIG=
15/05/2021 16:00:00Z	 SAID34 WIJJ 151600	METAR WIJJ 151600Z 15003KT 9999 FEW015 26/25 Q1008 NOSIG=
15/05/2021 16:30:00Z	 SAID34 WIJJ 151630	METAR WIJJ 151630Z 16002KT 9999 FEW015 25/24 Q1008 NOSIG=
15/05/2021 17:00:00Z	 SAID34 WIJJ 151700	METAR WIJJ 151700Z 14003KT 9999 FEW014 26/25 Q1008 NOSIG=
15/05/2021 17:30:00Z	 SAID34 WIJJ 151730	METAR WIJJ 151730Z 15002KT 9999 FEW014 26/25 Q1008 NOSIG=
15/05/2021 18:00:00Z	 SAID34 WIJJ 151800	METAR WIJJ 151800Z 17002KT 9999 FEW015 26/25 Q1008 NOSIG=
15/05/2021 18:30:00Z	 SAID34 WIJJ 151830	METAR WIJJ 151830Z 16003KT 9999 FEW014 26/25 Q1007 NOSIG=
15/05/2021 19:00:00Z	 SAID34 WIJJ 151900	METAR WIJJ 151900Z 15001KT 9999 FEW014 26/25 Q1007 NOSIG=
15/05/2021 19:30:00Z	 SAID34 WIJJ 151930	METAR WIJJ 151930Z 17002KT 9999 FEW014 25/24 Q1007 NOSIG=
15/05/2021 20:00:00Z	 SAID34 WIJJ 152000	METAR WIJJ 152000Z 18003KT 9999 FEW013 26/25 Q1007 NOSIG=
15/05/2021 20:30:00Z	 SAID34 WIJJ 152030	METAR WIJJ 152030Z 17002KT 9999 FEW013 25/24 Q1007 NOSIG=
15/05/2021 21:00:00Z	 SAID34 WIJJ 152100	METAR WIJJ 152100Z 18002KT 9999 FEW013 25/24 Q1007 NOSIG=
15/05/2021 21:30:00Z	 SAID34 WIJJ 152130	METAR WIJJ 152130Z 20003KT 9000 FEW013 25/24 Q1007 NOSIG=
15/05/2021 22:00:00Z	 SAID34 WIJJ 152200	METAR WIJJ 152200Z 19003KT 9000 FEW013 25/24 Q1007 NOSIG=
15/05/2021 22:30:00Z	 SAID34 WIJJ 152230	METAR WIJJ 152230Z 19004KT 9000 FEW013 25/24 Q1008 NOSIG=
15/05/2021 23:00:00Z	 SAID34 WIJJ 152300	METAR WIJJ 152300Z 17003KT 9999 SCT013 25/24 Q1008 NOSIG=
15/05/2021 23:30:00Z	 SAID34 WIJJ 152330	METAR WIJJ 152330Z 20004KT 9999 SCT013 25/24 Q1008 NOSIG=
16/05/2021 00:00:00Z	 SAID34 WIJJ 160000	METAR WIJJ 160000Z 18004KT 9999 SCT013 25/24 Q1008 NOSIG=
16/05/2021 00:30:00Z	 SAID34 WIJJ 160030	METAR WIJJ 160030Z 18004KT 9999 FEW016 26/25 Q1008 NOSIG=
