01/12/2020 00:00:00Z	 SAID32 WIBB 010000	METAR WIBB 010000Z 00000KT 6000 FEW008 25/24 Q1008=
01/12/2020 00:30:00Z	 SAID32 WIBB 010030	METAR WIBB 010030Z 00000KT 7000 FEW010 26/24 Q1009=
01/12/2020 01:00:00Z	 SAID32 WIBB 010100	METAR WIBB 010100Z 00000KT 7000 SCT013 26/23 Q1009=
01/12/2020 01:30:00Z	 SAID32 WIBB 010130	METAR WIBB 010130Z 32005KT 8000 FEW013 28/23 Q1010=
01/12/2020 02:00:00Z	 SAID32 WIBB 010200	METAR WIBB 010200Z 32006KT 8000 FEW014 29/22 Q1010=
01/12/2020 02:30:00Z	 SAID32 WIBB 010230	METAR WIBB 010230Z 35007KT 8000 FEW014 28/22 Q1010=
01/12/2020 03:00:00Z	 SAID32 WIBB 010300	METAR WIBB 010300Z 29006KT 9999 FEW014 29/23 Q1009=
01/12/2020 03:30:00Z	 SAID32 WIBB 010330	METAR WIBB 010330Z 00000KT 9999 FEW014 29/23 Q1009=
01/12/2020 04:00:00Z	 SAID32 WIBB 010400	METAR WIBB 010400Z 00000KT 9999 FEW014 29/22 Q1009=
01/12/2020 04:30:00Z	 SAID32 WIBB 010430	METAR WIBB 010430Z 26005KT 9999 FEW014 31/23 Q1009=
01/12/2020 05:00:00Z	 SAID32 WIBB 010500	METAR WIBB 010500Z 25006KT 9999 FEW013 31/22 Q1008=
01/12/2020 05:30:00Z	 SAID32 WIBB 010530	METAR WIBB 010530Z 01005KT 9999 SCT013 31/21 Q1007=
01/12/2020 06:00:00Z	 SAID32 WIBB 010600	METAR WIBB 010600Z 00000KT 9999 SCT013 32/21 Q1007=
01/12/2020 06:30:00Z	 SAID32 WIBB 010630	METAR WIBB 010630Z 34008KT 9999 SCT013 32/21 Q1006=
01/12/2020 07:00:00Z	 SAID32 WIBB 010700	METAR WIBB 010700Z 00000KT 9999 FEW013 33/21 Q1006=
01/12/2020 07:30:00Z	 SAID32 WIBB 010730	METAR WIBB 010730Z 29008KT 9999 SCT013 33/22 Q1005=
01/12/2020 08:00:00Z	 SAID32 WIBB 010800	METAR WIBB 010800Z 33007KT 9999 FEW015 33/22 Q1005=
01/12/2020 08:30:00Z	 SAID32 WIBB 010830	METAR WIBB 010830Z 33008KT 9999 FEW015 33/22 Q1005=
01/12/2020 09:00:00Z	 SAID32 WIBB 010900	METAR WIBB 010900Z 32010KT 9999 FEW015 32/22 Q1005=
01/12/2020 09:30:00Z	 SAID32 WIBB 010930	METAR WIBB 010930Z 33010KT 9999 FEW015 32/22 Q1005=
01/12/2020 10:00:00Z	 SAID32 WIBB 011000	METAR WIBB 011000Z 35006KT 9999 FEW015 31/23 Q1005=
01/12/2020 10:30:00Z	 SAID32 WIBB 011030	METAR WIBB 011030Z 35006KT 9999 FEW016 30/23 Q1005=
01/12/2020 11:00:00Z	 SAID32 WIBB 011100	METAR WIBB 011100Z 35006KT 9999 FEW017 29/23 Q1005=
01/12/2020 11:30:00Z	 SAID32 WIBB 011130	METAR WIBB 011130Z 34005KT 9000 FEW017 29/23 Q1006=
01/12/2020 12:00:00Z	 SAID32 WIBB 011200	METAR WIBB 011200Z 00000KT 8000 FEW017CB 28/23 Q1006=
01/12/2020 12:30:00Z	 SAID32 WIBB 011230	METAR WIBB 011230Z 00000KT 8000 FEW017CB 28/24 Q1006=
01/12/2020 13:00:00Z	 SAID32 WIBB 011300	METAR WIBB 011300Z 00000KT 8000 FEW013 28/23 Q1007=
01/12/2020 13:30:00Z	 SAID32 WIBB 011330	METAR WIBB 011330Z 00000KT 8000 FEW013 27/24 Q1007=
01/12/2020 14:00:00Z	 SAID32 WIBB 011400	METAR WIBB 011400Z 00000KT 8000 FEW013 27/24 Q1007=
01/12/2020 14:30:00Z	 SAID32 WIBB 011430	METAR WIBB 011430Z 00000KT 8000 FEW013 26/24 Q1008=
01/12/2020 15:00:00Z	 SAID32 WIBB 011500	METAR WIBB 011500Z 00000KT 8000 FEW013 26/24 Q1008=
01/12/2020 15:30:00Z	 SAID32 WIBB 011530	METAR WIBB 011530Z 00000KT 8000 FEW013 26/24 Q1008=
01/12/2020 16:00:00Z	 SAID32 WIBB 011600	METAR WIBB 011600Z 00000KT 8000 FEW013 26/24 Q1008=
01/12/2020 17:00:00Z	 SAID32 WIBB 011700	METAR WIBB 011700Z 00000KT 8000 FEW013 26/24 Q1008=
01/12/2020 18:00:00Z	 SAID32 WIBB 011800	METAR WIBB 011800Z 00000KT 7000 FEW013 25/24 Q1007=
01/12/2020 19:30:00Z	 SAID32 WIBB 011930	METAR WIBB 011930Z 00000KT 7000 FEW013 25/23 Q1007=
01/12/2020 21:30:00Z	 SAID32 WIBB 012130	METAR WIBB 012130Z 00000KT 7000 FEW013 24/23 Q1007=
01/12/2020 22:00:00Z	 SAID32 WIBB 012200	METAR WIBB 012200Z 00000KT 7000 FEW013 24/23 Q1007=
01/12/2020 23:00:00Z	 SAID32 WIBB 012300	METAR WIBB 012300Z 00000KT 6000 FEW013 24/23 Q1007=
01/12/2020 23:30:00Z	 SAID32 WIBB 012330	METAR WIBB 012330Z 00000KT 6000 FEW013 24/23 Q1007=
02/12/2020 00:00:00Z	 SAID32 WIBB 020000	METAR WIBB 020000Z 00000KT 5000 SCT005 25/24 Q1008=
02/12/2020 00:30:00Z	 SAID32 WIBB 020030	METAR WIBB 020030Z 00000KT 5000 HZ SCT005 25/24 Q1008=
02/12/2020 01:00:00Z	 SAID32 WIBB 020100	METAR WIBB 020100Z 35007KT 9999 FEW010 26/23 Q1008=
02/12/2020 01:30:00Z	 SAID32 WIBB 020130	METAR WIBB 020130Z 35006KT 9999 FEW010 27/23 Q1009=
02/12/2020 02:00:00Z	 SAID32 WIBB 020200	METAR WIBB 020200Z 32005KT 9999 SCT012 28/22 Q1009=
02/12/2020 02:30:00Z	 SAID32 WIBB 020230	METAR WIBB 020230Z 33005KT 9999 SCT012 29/22 Q1009=
02/12/2020 03:00:00Z	 SAID32 WIBB 020300	METAR WIBB 020300Z 28005KT 9999 SCT012 29/22 Q1009=
02/12/2020 03:30:00Z	 SAID32 WIBB 020330	METAR WIBB 020330Z 01006KT 9999 SCT012 30/22 Q1009=
02/12/2020 04:00:00Z	 SAID32 WIBB 020400	METAR WIBB 020400Z 33006KT 9999 SCT015 30/18 Q1009=
02/12/2020 04:30:00Z	 SAID32 WIBB 020430	METAR WIBB 020430Z 31005KT 9999 SCT015 31/18 Q1008=
02/12/2020 05:00:00Z	 SAID32 WIBB 020500	METAR WIBB 020500Z 34006KT 9999 SCT015 31/19 Q1008=
02/12/2020 05:30:00Z	 SAID32 WIBB 020530	METAR WIBB 020530Z 36006KT 9999 SCT015 30/20 Q1007=
02/12/2020 06:00:00Z	 SAID32 WIBB 020600	METAR WIBB 020600Z 35005KT 9999 SCT013 31/21 Q1007=
02/12/2020 06:30:00Z	 SAID32 WIBB 020630	METAR WIBB 020630Z 31008KT 9999 SCT013 31/19 Q1006=
02/12/2020 07:00:00Z	 SAID32 WIBB 020700	METAR WIBB 020700Z 34006KT 9999 FEW013 31/20 Q1006=
02/12/2020 07:30:00Z	 SAID32 WIBB 020730	METAR WIBB 020730Z 33006KT 9999 FEW013 31/19 Q1005=
02/12/2020 08:00:00Z	 SAID32 WIBB 020800	METAR WIBB 020800Z 33006KT CAVOK 32/19 Q1005=
02/12/2020 08:30:00Z	 SAID32 WIBB 020830	METAR WIBB 020830Z 32005KT CAVOK 33/21 Q1005=
02/12/2020 09:00:00Z	 SAID32 WIBB 020900	METAR WIBB 020900Z 33006KT CAVOK 32/20 Q1005=
02/12/2020 09:30:00Z	 SAID32 WIBB 020930	METAR WIBB 020930Z 33007KT CAVOK 32/20 Q1005=
02/12/2020 10:00:00Z	 SAID32 WIBB 021000	METAR WIBB 021000Z 33007KT CAVOK 32/21 Q1005=
02/12/2020 10:30:00Z	 SAID32 WIBB 021030	METAR WIBB 021030Z 34007KT CAVOK 31/20 Q1005=
02/12/2020 11:00:00Z	 SAID32 WIBB 021100	METAR WIBB 021100Z 00000KT 9000 NSC 30/20 Q1005=
02/12/2020 11:30:00Z	 SAID32 WIBB 021130	METAR WIBB 021130Z 00000KT 8000 NSC 29/20 Q1005=
02/12/2020 12:00:00Z	 SAID32 WIBB 021200	METAR WIBB 021200Z 00000KT 8000 NSC 28/22 Q1006=
02/12/2020 12:30:00Z	 SAID32 WIBB 021230	METAR WIBB 021230Z 00000KT 8000 NSC 27/21 Q1006=
02/12/2020 13:00:00Z	 SAID32 WIBB 021300	METAR WIBB 021300Z 32005KT 8000 NSC 27/21 Q1007=
02/12/2020 13:30:00Z	 SAID32 WIBB 021330	METAR WIBB 021330Z 00000KT 8000 NSC 26/22 Q1007=
02/12/2020 14:00:00Z	 SAID32 WIBB 021400	METAR WIBB 021400Z 00000KT 8000 NSC 26/22 Q1007=
02/12/2020 14:30:00Z	 SAID32 WIBB 021430	METAR WIBB 021430Z 00000KT 8000 NSC 26/23 Q1007=
02/12/2020 15:00:00Z	 SAID32 WIBB 021500	METAR WIBB 021500Z 34005KT 8000 NSC 25/22 Q1008=
02/12/2020 15:30:00Z	 SAID32 WIBB 021530	METAR WIBB 021530Z 00000KT 8000 NSC 25/22 Q1008=
02/12/2020 16:00:00Z	 SAID32 WIBB 021600	METAR WIBB 021600Z 34005KT 8000 NSC 25/23 Q1008=
02/12/2020 16:30:00Z	 SAID32 WIBB 021630	METAR WIBB 021630Z 35005KT 8000 NSC 25/23 Q1008=
02/12/2020 17:00:00Z	 SAID32 WIBB 021700	METAR WIBB 021700Z 34006KT 8000 FEW015 25/24 Q1008=
02/12/2020 18:00:00Z	 SAID32 WIBB 021800	METAR WIBB 021800Z 34006KT 8000 FEW015 25/24 Q1008=
02/12/2020 21:00:00Z	 SAID32 WIBB 022100	METAR WIBB 022100Z 00000KT 5000 HZ BKN010 24/23 Q1006=
02/12/2020 21:30:00Z	 SAID32 WIBB 022130	METAR WIBB 022130Z 00000KT 5000 HZ BKN010 24/24 Q1006=
02/12/2020 22:00:00Z	 SAID32 WIBB 022200	METAR WIBB 022200Z 00000KT 6000 BKN010 25/24 Q1006=
02/12/2020 22:30:00Z	 SAID32 WIBB 022230	METAR WIBB 022230Z 00000KT 5000 HZ FEW012 24/23 Q1007=
02/12/2020 23:00:00Z	 SAID32 WIBB 022300	METAR WIBB 022300Z 00000KT 5000 HZ FEW012 24/23 Q1007=
02/12/2020 23:30:00Z	 SAID32 WIBB 022330	METAR WIBB 022330Z 00000KT 5000 HZ FEW012 24/23 Q1007=
03/12/2020 00:00:00Z	 SAID32 WIBB 030000	METAR WIBB 030000Z 00000KT 5000 HZ FEW012 25/24 Q1008=
03/12/2020 00:30:00Z	 SAID32 WIBB 030030	METAR WIBB 030030Z 00000KT 6000 FEW012 25/23 Q1008=
03/12/2020 01:00:00Z	 SAID32 WIBB 030100	METAR WIBB 030100Z 30005KT 8000 FEW012 26/23 Q1009=
03/12/2020 01:30:00Z	 SAID32 WIBB 030130	METAR WIBB 030130Z 01006KT 8000 FEW013 27/24 Q1009=
03/12/2020 02:00:00Z	 SAID32 WIBB 030200	METAR WIBB 030200Z 34007KT 9000 SCT013 28/23 Q1009=
03/12/2020 02:30:00Z	 SAID32 WIBB 030230	METAR WIBB 030230Z 35006KT 9000 SCT013 29/24 Q1010=
03/12/2020 03:00:00Z	 SAID32 WIBB 030300	METAR WIBB 030300Z 36008KT 9999 SCT013 30/23 Q1010=
03/12/2020 03:30:00Z	 SAID32 WIBB 030330	METAR WIBB 030330Z 33008KT 9999 SCT013 30/22 Q1009=
03/12/2020 04:00:00Z	 SAID32 WIBB 030400	METAR WIBB 030400Z 32010KT 9999 SCT013 31/22 Q1009=
03/12/2020 04:30:00Z	 SAID32 WIBB 030430	METAR WIBB 030430Z 32010KT 9999 SCT013 31/22 Q1009=
03/12/2020 05:00:00Z	 SAID32 WIBB 030500	METAR WIBB 030500Z 34012KT 9999 SCT014 32/21 Q1008=
03/12/2020 05:30:00Z	 SAID32 WIBB 030530	METAR WIBB 030530Z 32009KT 9999 SCT014 32/20 Q1008=
03/12/2020 06:00:00Z	 SAID32 WIBB 030600	METAR WIBB 030600Z 32008KT 9999 SCT014 33/20 Q1007=
03/12/2020 06:30:00Z	 SAID32 WIBB 030630	METAR WIBB 030630Z 33009KT 9999 SCT014 33/21 Q1006=
03/12/2020 07:00:00Z	 SAID32 WIBB 030700	METAR WIBB 030700Z 31007KT 9999 FEW012 32/20 Q1006=
03/12/2020 07:30:00Z	 SAID32 WIBB 030730	METAR WIBB 030730Z 30007KT 9999 FEW012 33/20 Q1005=
03/12/2020 08:00:00Z	 SAID32 WIBB 030800	METAR WIBB 030800Z 30007KT 9999 FEW012 33/19 Q1005=
03/12/2020 08:30:00Z	 SAID32 WIBB 030830	METAR WIBB 030830Z 31007KT 9999 FEW010 33/20 Q1004=
03/12/2020 09:00:00Z	 SAID32 WIBB 030900	METAR WIBB 030900Z 29006KT 9999 FEW017 33/19 Q1004=
03/12/2020 09:30:00Z	 SAID32 WIBB 030930	METAR WIBB 030930Z 31005KT 9999 FEW017 33/20 Q1004=
03/12/2020 10:00:00Z	 SAID32 WIBB 031000	METAR WIBB 031000Z 33005KT 9000 NSC 32/20 Q1004=
03/12/2020 10:30:00Z	 SAID32 WIBB 031030	METAR WIBB 031030Z 31005KT 9000 NSC 32/21 Q1005=
03/12/2020 11:00:00Z	 SAID32 WIBB 031100	METAR WIBB 031100Z 34005KT 9000 FEW015 30/23 Q1005=
03/12/2020 11:30:00Z	 SAID32 WIBB 031130	METAR WIBB 031130Z 34004KT 8000 FEW015 30/24 Q1006=
03/12/2020 12:00:00Z	 SAID32 WIBB 031200	METAR WIBB 031200Z 06005KT 8000 FEW015 29/24 Q1006=
03/12/2020 12:30:00Z	 SAID32 WIBB 031230	METAR WIBB 031230Z 04007KT 8000 FEW015 28/24 Q1007=
03/12/2020 13:00:00Z	 SAID32 WIBB 031300	METAR WIBB 031300Z 05007KT 9999 FEW015 27/23 Q1007=
03/12/2020 13:30:00Z	 SAID32 WIBB 031330	METAR WIBB 031330Z 03009KT 8000 FEW015 26/23 Q1008=
03/12/2020 14:00:00Z	 SAID32 WIBB 031400	METAR WIBB 031400Z 02006KT 8000 FEW015 26/23 Q1008=
03/12/2020 14:30:00Z	 SAID32 WIBB 031430	METAR WIBB 031430Z 02006KT 8000 SCT015 26/23 Q1008=
03/12/2020 15:00:00Z	 SAID32 WIBB 031500	METAR WIBB 031500Z 03006KT 8000 SCT015 26/23 Q1009=
03/12/2020 15:30:00Z	 SAID32 WIBB 031530	METAR WIBB 031530Z 02005KT 8000 SCT015 26/23 Q1009=
03/12/2020 16:00:00Z	 SAID32 WIBB 031600	METAR WIBB 031600Z 35005KT 8000 SCT015 26/23 Q1009=
03/12/2020 18:00:00Z	 SAID32 WIBB 031800	METAR WIBB 031800Z 00000KT 8000 SCT015 25/23 Q1008=
03/12/2020 22:30:00Z	 SAID32 WIBB 032230	METAR WIBB 032230Z 04005KT 8000 VCTS FEW015 24/22 Q1008=
03/12/2020 23:00:00Z	 SAID32 WIBB 032300	METAR WIBB 032300Z 00000KT 8000 FEW015 23/22 Q1008=
03/12/2020 23:30:00Z	 SAID32 WIBB 032330	METAR WIBB 032330Z 00000KT 8000 FEW015 23/22 Q1008=
04/12/2020 00:00:00Z	 SAID32 WIBB 040000	METAR WIBB 040000Z 03005KT 7000 FEW013 23/22 Q1008=
04/12/2020 00:30:00Z	 SAID32 WIBB 040030	METAR WIBB 040030Z 00000KT 7000 FEW012 24/22 Q1009=
04/12/2020 01:00:00Z	 SAID32 WIBB 040100	METAR WIBB 040100Z 00000KT 7000 FEW012 25/22 Q1009=
04/12/2020 01:30:00Z	 SAID32 WIBB 040130	METAR WIBB 040130Z 00000KT 8000 FEW010 26/22 Q1009=
04/12/2020 02:00:00Z	 SAID32 WIBB 040200	METAR WIBB 040200Z 00000KT 8000 FEW010 26/22 Q1009=
04/12/2020 02:30:00Z	 SAID32 WIBB 040230	METAR WIBB 040230Z 00000KT 8000 FEW012 27/22 Q1009=
04/12/2020 03:00:00Z	 SAID32 WIBB 040300	METAR WIBB 040300Z 00000KT 9999 SCT012 28/22 Q1009=
04/12/2020 03:30:00Z	 SAID32 WIBB 040330	METAR WIBB 040330Z 32005KT 9999 SCT012 28/22 Q1009=
04/12/2020 04:00:00Z	 SAID32 WIBB 040400	METAR WIBB 040400Z 31008KT 9999 SCT012 29/23 Q1009=
04/12/2020 04:30:00Z	 SAID32 WIBB 040430	METAR WIBB 040430Z 32005KT 9999 BKN012 30/23 Q1008=
04/12/2020 05:00:00Z	 SAID32 WIBB 040500	METAR WIBB 040500Z 02005KT 9999 BKN012 30/23 Q1008=
04/12/2020 05:30:00Z	 SAID32 WIBB 040530	METAR WIBB 040530Z 01005KT 9999 SCT012 30/23 Q1007=
04/12/2020 06:00:00Z	 SAID32 WIBB 040600	METAR WIBB 040600Z 00000KT 9999 SCT012 31/22 Q1007=
04/12/2020 06:30:00Z	 SAID32 WIBB 040630	METAR WIBB 040630Z 00000KT 9999 SCT013 31/22 Q1006=
04/12/2020 07:00:00Z	 SAID32 WIBB 040700	METAR WIBB 040700Z 05005KT 9999 BKN013 31/22 Q1006=
04/12/2020 07:30:00Z	 SAID32 WIBB 040730	METAR WIBB 040730Z 02007KT 9000 BKN013 30/23 Q1005=
04/12/2020 08:00:00Z	 SAID32 WIBB 040800	METAR WIBB 040800Z 00000KT 9000 BKN013 30/23 Q1005=
04/12/2020 08:30:00Z	 SAID32 WIBB 040830	METAR WIBB 040830Z 12007KT 9000 BKN013 28/23 Q1005=
04/12/2020 09:00:00Z	 SAID32 WIBB 040900	METAR WIBB 040900Z 10007KT 9000 SCT013 30/22 Q1005=
04/12/2020 09:30:00Z	 SAID32 WIBB 040930	METAR WIBB 040930Z 07006KT 9000 SCT014 29/23 Q1005=
04/12/2020 10:00:00Z	 SAID32 WIBB 041000	METAR COR WIBB 041000Z 07007KT 9000 SCT014 29/24 Q1006=
04/12/2020 10:30:00Z	 SAID32 WIBB 041030	METAR WIBB 041030Z 06008KT 9000 SCT014 29/24 Q1006=
04/12/2020 11:00:00Z	 SAID32 WIBB 041100	METAR WIBB 041100Z 04009KT 9000 SCT014 29/23 Q1006=
04/12/2020 11:30:00Z	 SAID32 WIBB 041130	METAR WIBB 041130Z 04010KT 8000 SCT014 28/23 Q1007=
04/12/2020 12:00:00Z	 SAID32 WIBB 041200	METAR WIBB 041200Z 03007KT 8000 SCT014 28/23 Q1007=
04/12/2020 12:30:00Z	 SAID32 WIBB 041230	METAR WIBB 041230Z 04006KT 8000 SCT014 27/24 Q1007=
04/12/2020 13:00:00Z	 SAID32 WIBB 041300	METAR WIBB 041300Z 03005KT 8000 FEW018CB 27/24 Q1008=
04/12/2020 13:30:00Z	 SAID32 WIBB 041330	METAR WIBB 041330Z 04006KT 8000 FEW017CB 27/24 Q1008=
04/12/2020 14:00:00Z	 SAID32 WIBB 041400	METAR WIBB 041400Z 04006KT 8000 FEW017CB 27/23 Q1009=
04/12/2020 14:30:00Z	 SAID32 WIBB 041430	METAR WIBB 041430Z 03006KT 8000 FEW017CB 26/24 Q1009=
04/12/2020 15:00:00Z	 SAID32 WIBB 041500	METAR WIBB 041500Z 06005KT 8000 SCT015 26/24 Q1010=
04/12/2020 15:30:00Z	 SAID32 WIBB 041530	METAR WIBB 041530Z 00000KT 8000 SCT015 26/24 Q1010=
04/12/2020 16:00:00Z	 SAID32 WIBB 041600	METAR WIBB 041600Z 00000KT 8000 -RA SCT015 26/23 Q1010=
04/12/2020 16:30:00Z	 SAID32 WIBB 041630	METAR WIBB 041630Z 00000KT 8000 SCT015 26/23 Q1010=
04/12/2020 17:00:00Z	 SAID32 WIBB 041700	METAR WIBB 041700Z 00000KT 8000 -RA SCT015 26/23 Q1010=
04/12/2020 17:30:00Z	 SAID32 WIBB 041730	METAR WIBB 041730Z 00000KT 8000 SCT015 26/23 Q1009=
04/12/2020 18:00:00Z	 SAID32 WIBB 041800	METAR WIBB 041800Z 00000KT 8000 SCT015 26/23 Q1009=
04/12/2020 21:00:00Z	 SAID32 WIBB 042100	METAR WIBB 042100Z 00000KT 8000 FEW012 25/24 Q1007=
04/12/2020 22:00:00Z	 SAID32 WIBB 042200	METAR WIBB 042200Z 00000KT 8000 FEW012 25/24 Q1008=
04/12/2020 23:00:00Z	 SAID32 WIBB 042300	METAR WIBB 042300Z 00000KT 7000 SCT015 25/24 Q1008=
04/12/2020 23:30:00Z	 SAID32 WIBB 042330	METAR WIBB 042330Z 00000KT 7000 SCT009 25/24 Q1009=
05/12/2020 00:00:00Z	 SAID32 WIBB 050000	METAR WIBB 050000Z 00000KT 7000 SCT008 25/24 Q1009=
05/12/2020 00:30:00Z	 SAID32 WIBB 050030	METAR WIBB 050030Z 00000KT 8000 FEW010 25/24 Q1009=
05/12/2020 01:00:00Z	 SAID32 WIBB 050100	METAR WIBB 050100Z 22004KT 9000 SCT010 26/24 Q1010=
05/12/2020 01:30:00Z	 SAID32 WIBB 050130	METAR WIBB 050130Z 00000KT 8000 SCT010 27/24 Q1010=
05/12/2020 02:00:00Z	 SAID32 WIBB 050200	METAR WIBB 050200Z 00000KT 8000 SCT013 27/24 Q1011=
05/12/2020 02:30:00Z	 SAID32 WIBB 050230	METAR WIBB 050230Z 04005KT 8000 SCT013 28/23 Q1011=
05/12/2020 03:00:00Z	 SAID32 WIBB 050300	METAR WIBB 050300Z 36008KT 8000 SCT013 30/23 Q1011=
05/12/2020 03:30:00Z	 SAID32 WIBB 050330	METAR WIBB 050330Z 05005KT 8000 SCT013 29/23 Q1011=
05/12/2020 04:00:00Z	 SAID32 WIBB 050400	METAR WIBB 050400Z 07008KT 8000 SCT013 30/22 Q1010=
05/12/2020 04:30:00Z	 SAID32 WIBB 050430	METAR WIBB 050430Z 04004KT 8000 SCT013 30/23 Q1010=
05/12/2020 05:00:00Z	 SAID32 WIBB 050500	METAR WIBB 050500Z 06004KT 8000 BKN012 30/22 Q1009=
05/12/2020 05:30:00Z	 SAID32 WIBB 050530	METAR WIBB 050530Z 01005KT 9000 BKN012 30/23 Q1009=
05/12/2020 06:00:00Z	 SAID32 WIBB 050600	METAR WIBB 050600Z 02005KT 9000 BKN012 30/22 Q1009=
05/12/2020 06:30:00Z	 SAID32 WIBB 050630	METAR WIBB 050630Z 06004KT 9999 BKN012 32/22 Q1008=
05/12/2020 07:00:00Z	 SAID32 WIBB 050700	METAR WIBB 050700Z 00000KT 9999 BKN012 32/22 Q1008=
05/12/2020 07:30:00Z	 SAID32 WIBB 050730	METAR WIBB 050730Z 00000KT 9999 BKN012 31/22 Q1007=
05/12/2020 08:00:00Z	 SAID32 WIBB 050800	METAR WIBB 050800Z 02006KT 8000 BKN012 30/23 Q1007=
05/12/2020 08:30:00Z	 SAID32 WIBB 050830	METAR WIBB 050830Z 05008KT 8000 SCT013 31/22 Q1006=
05/12/2020 09:00:00Z	 SAID32 WIBB 050900	METAR WIBB 050900Z 08006KT 8000 SCT013 31/23 Q1006=
05/12/2020 09:30:00Z	 SAID32 WIBB 050930	METAR WIBB 050930Z 05007KT 8000 FEW013 31/23 Q1006=
05/12/2020 10:00:00Z	 SAID32 WIBB 051000	METAR WIBB 051000Z 04007KT 8000 FEW013 30/24 Q1006=
05/12/2020 10:30:00Z	 SAID32 WIBB 051030	METAR WIBB 051030Z 04006KT 8000 FEW013 30/23 Q1007=
05/12/2020 11:00:00Z	 SAID32 WIBB 051100	METAR WIBB 051100Z 00000KT 8000 FEW013 29/24 Q1007=
05/12/2020 11:30:00Z	 SAID32 WIBB 051130	METAR WIBB 051130Z 00000KT 8000 FEW013 29/24 Q1007=
05/12/2020 12:00:00Z	 SAID32 WIBB 051200	METAR WIBB 051200Z 00000KT 8000 FEW013 28/24 Q1007=
05/12/2020 12:30:00Z	 SAID32 WIBB 051230	METAR WIBB 051230Z 05005KT 8000 FEW013 28/24 Q1008=
05/12/2020 13:00:00Z	 SAID32 WIBB 051300	METAR WIBB 051300Z 05006KT 8000 FEW014 28/24 Q1008=
05/12/2020 13:30:00Z	 SAID32 WIBB 051330	METAR WIBB 051330Z 05007KT 8000 FEW013 27/23 Q1009=
05/12/2020 14:00:00Z	 SAID32 WIBB 051400	METAR WIBB 051400Z 05007KT 8000 FEW014 27/23 Q1009=
05/12/2020 14:30:00Z	 SAID32 WIBB 051430	METAR WIBB 051430Z 06006KT 8000 FEW014 27/23 Q1009=
05/12/2020 15:00:00Z	 SAID32 WIBB 051500	METAR WIBB 051500Z 00000KT 8000 FEW015 26/24 Q1009=
05/12/2020 15:30:00Z	 SAID32 WIBB 051530	METAR WIBB 051530Z 04005KT 8000 FEW015 26/24 Q1009=
05/12/2020 16:00:00Z	 SAID32 WIBB 051600	METAR WIBB 051600Z 04005KT 8000 FEW015 26/24 Q1010=
05/12/2020 18:00:00Z	 SAID32 WIBB 051800	METAR WIBB 051800Z 02005KT 8000 FEW015 25/24 Q1009=
05/12/2020 20:30:00Z	 SAID32 WIBB 052030	METAR WIBB 052030Z 00000KT 7000 SCT013 25/24 Q1008=
05/12/2020 21:00:00Z	 SAID32 WIBB 052100	METAR WIBB 052100Z 00000KT 7000 SCT013 25/24 Q1008=
05/12/2020 21:30:00Z	 SAID32 WIBB 052130	METAR WIBB 052130Z 00000KT 7000 SCT013 25/24 Q1008=
05/12/2020 22:30:00Z	 SAID32 WIBB 052230	METAR WIBB 052230Z 00000KT 8000 SCT013 25/23 Q1008=
05/12/2020 23:00:00Z	 SAID32 WIBB 052300	METAR WIBB 052300Z 00000KT 7000 SCT013 25/24 Q1009=
05/12/2020 23:30:00Z	 SAID32 WIBB 052330	METAR WIBB 052330Z 00000KT 7000 FEW013 25/24 Q1009=
06/12/2020 00:00:00Z	 SAID32 WIBB 060000	METAR WIBB 060000Z 00000KT 7000 FEW013 25/24 Q1009=
06/12/2020 00:30:00Z	 SAID32 WIBB 060030	METAR WIBB 060030Z 00000KT 7000 FEW013 26/23 Q1010=
06/12/2020 01:00:00Z	 SAID32 WIBB 060100	METAR WIBB 060100Z 02007KT 8000 FEW013 27/23 Q1010=
06/12/2020 01:30:00Z	 SAID32 WIBB 060130	METAR WIBB 060130Z 05005KT 8000 FEW013 27/23 Q1011=
06/12/2020 02:00:00Z	 SAID32 WIBB 060200	METAR WIBB 060200Z 03008KT 8000 SCT013 28/23 Q1011=
06/12/2020 02:30:00Z	 SAID32 WIBB 060230	METAR WIBB 060230Z 03010KT 8000 SCT013 29/23 Q1011=
06/12/2020 03:00:00Z	 SAID32 WIBB 060300	METAR WIBB 060300Z 01010KT 8000 SCT013 29/23 Q1011=
06/12/2020 03:30:00Z	 SAID32 WIBB 060330	METAR WIBB 060330Z 02010KT 8000 SCT013 29/23 Q1011=
06/12/2020 04:00:00Z	 SAID32 WIBB 060400	METAR WIBB 060400Z 03010KT 7000 -RA BKN012 29/22 Q1011=
06/12/2020 04:30:00Z	 SAID32 WIBB 060430	METAR WIBB 060430Z 02007KT 8000 BKN012 30/22 Q1010=
06/12/2020 05:30:00Z	 SAID32 WIBB 060530	METAR WIBB 060530Z 35008KT 8000 SCT012 31/23 Q1009=
06/12/2020 06:00:00Z	 SAID32 WIBB 060600	METAR WIBB 060600Z 35008KT 8000 SCT012 31/23 Q1008=
06/12/2020 06:30:00Z	 SAID32 WIBB 060630	METAR WIBB 060630Z 04009KT 8000 SCT012 31/23 Q1008=
06/12/2020 07:00:00Z	 SAID32 WIBB 060700	METAR WIBB 060700Z 35005KT 9000 SCT013 32/22 Q1007=
06/12/2020 07:30:00Z	 SAID32 WIBB 060730	METAR WIBB 060730Z 03007KT 9999 SCT013 32/23 Q1007=
06/12/2020 08:00:00Z	 SAID32 WIBB 060800	METAR WIBB 060800Z 04007KT 9999 SCT014 32/22 Q1007=
06/12/2020 08:30:00Z	 SAID32 WIBB 060830	METAR WIBB 060830Z 02006KT 9999 SCT014 32/22 Q1006=
06/12/2020 09:00:00Z	 SAID32 WIBB 060900	METAR WIBB 060900Z 04008KT 9999 SCT014 31/23 Q1007=
06/12/2020 09:30:00Z	 SAID32 WIBB 060930	METAR WIBB 060930Z 05005KT 9999 SCT014 31/23 Q1006=
06/12/2020 10:00:00Z	 SAID32 WIBB 061000	METAR WIBB 061000Z 05008KT 9999 SCT014 31/23 Q1006=
06/12/2020 10:30:00Z	 SAID32 WIBB 061030	METAR WIBB 061030Z 07005KT 9999 SCT014 31/23 Q1007=
06/12/2020 11:00:00Z	 SAID32 WIBB 061100	METAR WIBB 061100Z 05006KT 9999 FEW012 30/23 Q1007=
06/12/2020 11:30:00Z	 SAID32 WIBB 061130	METAR WIBB 061130Z 04005KT 8000 FEW012 29/24 Q1007=
06/12/2020 12:00:00Z	 SAID32 WIBB 061200	METAR WIBB 061200Z 00000KT 8000 FEW012 29/24 Q1008=
06/12/2020 12:30:00Z	 SAID32 WIBB 061230	METAR WIBB 061230Z 03005KT 8000 FEW012 29/24 Q1008=
06/12/2020 13:00:00Z	 SAID32 WIBB 061300	METAR WIBB 061300Z 04004KT 8000 FEW014 28/24 Q1009=
06/12/2020 13:30:00Z	 SAID32 WIBB 061330	METAR WIBB 061330Z 00000KT 7000 FEW014 28/24 Q1010=
06/12/2020 14:00:00Z	 SAID32 WIBB 061400	METAR WIBB 061400Z 00000KT 7000 FEW014 28/24 Q1010=
06/12/2020 14:30:00Z	 SAID32 WIBB 061430	METAR WIBB 061430Z 03005KT 7000 FEW014 27/23 Q1010=
06/12/2020 15:00:00Z	 SAID32 WIBB 061500	METAR WIBB 061500Z 00000KT 7000 FEW014 27/23 Q1010=
06/12/2020 15:30:00Z	 SAID32 WIBB 061530	METAR WIBB 061530Z 00000KT 7000 FEW014 26/23 Q1010=
06/12/2020 16:00:00Z	 SAID32 WIBB 061600	METAR WIBB 061600Z 00000KT 7000 SCT014 26/23 Q1010=
06/12/2020 18:00:00Z	 SAID32 WIBB 061800	METAR WIBB 061800Z 00000KT 7000 SCT014 26/24 Q1009=
06/12/2020 21:00:00Z	 SAID32 WIBB 062100	METAR WIBB 062100Z 00000KT 7000 SCT014 25/24 Q1008=
06/12/2020 22:00:00Z	 SAID32 WIBB 062200	METAR WIBB 062200Z 00000KT 7000 SCT014 25/24 Q1008=
06/12/2020 22:30:00Z	 SAID32 WIBB 062230	METAR WIBB 062230Z 00000KT 7000 SCT013 25/24 Q1008=
06/12/2020 23:00:00Z	 SAID32 WIBB 062300	METAR WIBB 062300Z 00000KT 7000 SCT013 25/23 Q1009=
06/12/2020 23:30:00Z	 SAID32 WIBB 062330	METAR WIBB 062330Z 00000KT 7000 SCT013 25/23 Q1009=
07/12/2020 00:00:00Z	 SAID32 WIBB 070000	METAR WIBB 070000Z 32005KT 7000 SCT013 26/23 Q1010=
07/12/2020 00:30:00Z	 SAID32 WIBB 070030	METAR WIBB 070030Z 00000KT 7000 SCT013 26/23 Q1010=
07/12/2020 01:00:00Z	 SAID32 WIBB 070100	METAR WIBB 070100Z 33005KT 7000 SCT013 27/23 Q1010=
07/12/2020 01:30:00Z	 SAID32 WIBB 070130	METAR WIBB 070130Z 31005KT 7000 SCT013 27/23 Q1011=
07/12/2020 02:00:00Z	 SAID32 WIBB 070200	METAR WIBB 070200Z 00000KT 7000 SCT013 28/23 Q1011=
07/12/2020 02:30:00Z	 SAID32 WIBB 070230	METAR WIBB 070230Z 00000KT 8000 SCT013 29/23 Q1011=
07/12/2020 03:00:00Z	 SAID32 WIBB 070300	METAR WIBB 070300Z 00000KT 8000 SCT013 30/23 Q1011=
07/12/2020 03:30:00Z	 SAID32 WIBB 070330	METAR WIBB 070330Z 03006KT 8000 SCT013 30/22 Q1011=
07/12/2020 04:00:00Z	 SAID32 WIBB 070400	METAR WIBB 070400Z 36006KT 9999 SCT013 31/23 Q1010=
07/12/2020 04:30:00Z	 SAID32 WIBB 070430	METAR WIBB 070430Z 33005KT 9999 SCT013 31/22 Q1010=
07/12/2020 05:00:00Z	 SAID32 WIBB 070500	METAR WIBB 070500Z 36005KT 9999 SCT013 31/22 Q1009=
07/12/2020 05:30:00Z	 SAID32 WIBB 070530	METAR WIBB 070530Z 36009KT 9999 SCT013 31/22 Q1009=
07/12/2020 06:00:00Z	 SAID32 WIBB 070600	METAR WIBB 070600Z 02007KT 9999 SCT013 31/23 Q1008=
07/12/2020 06:30:00Z	 SAID32 WIBB 070630	METAR WIBB 070630Z 36007KT 9999 SCT013 31/22 Q1008=
07/12/2020 07:00:00Z	 SAID32 WIBB 070700	METAR WIBB 070700Z 16010KT 7000 -RA SCT012 FEW015CB 29/23 Q1007=
07/12/2020 07:30:00Z	 SAID32 WIBB 070730	METAR WIBB 070730Z 18007KT 8000 SCT012 FEW015CB 31/23 Q1007=
07/12/2020 08:00:00Z	 SAID32 WIBB 070800	METAR WIBB 070800Z 13007KT 8000 SCT012 FEW015CB 32/23 Q1007=
07/12/2020 08:30:00Z	 SAID32 WIBB 070830	METAR WIBB 070830Z 06008KT 8000 SCT012 FEW015CB 29/23 Q1007=
07/12/2020 09:00:00Z	 SAID32 WIBB 070900	METAR WIBB 070900Z 07006KT 8000 SCT014 29/23 Q1007=
07/12/2020 09:30:00Z	 SAID32 WIBB 070930	METAR WIBB 070930Z 07005KT 8000 SCT014 29/23 Q1007=
07/12/2020 10:00:00Z	 SAID32 WIBB 071000	METAR WIBB 071000Z 07006KT 8000 FEW014 29/23 Q1007=
07/12/2020 10:30:00Z	 SAID32 WIBB 071030	METAR WIBB 071030Z 06005KT 8000 SCT013 29/23 Q1007=
07/12/2020 11:00:00Z	 SAID32 WIBB 071100	METAR WIBB 071100Z 05005KT 8000 SCT015 28/22 Q1008=
07/12/2020 11:30:00Z	 SAID32 WIBB 071130	METAR WIBB 071130Z 00000KT 8000 SCT015 28/23 Q1008=
07/12/2020 12:00:00Z	 SAID32 WIBB 071200	METAR WIBB 071200Z 00000KT 8000 SCT016 28/23 Q1009=
07/12/2020 12:30:00Z	 SAID32 WIBB 071230	METAR WIBB 071230Z 00000KT 8000 SCT016 28/23 Q1009=
07/12/2020 13:00:00Z	 SAID32 WIBB 071300	METAR WIBB 071300Z 04004KT 8000 SCT015 27/23 Q1010=
07/12/2020 13:30:00Z	 SAID32 WIBB 071330	METAR WIBB 071330Z 04005KT 8000 SCT015 27/24 Q1010=
07/12/2020 14:00:00Z	 SAID32 WIBB 071400	METAR WIBB 071400Z 03004KT 8000 SCT015 27/24 Q1011=
07/12/2020 14:30:00Z	 SAID32 WIBB 071430	METAR WIBB 071430Z 36005KT 8000 SCT015 27/24 Q1011=
07/12/2020 15:00:00Z	 SAID32 WIBB 071500	METAR WIBB 071500Z 35005KT 7000 SCT013 FEW016CB 27/24 Q1011 RMK CB TO W=
07/12/2020 15:30:00Z	 SAID32 WIBB 071530	METAR WIBB 071530Z 33009KT 7000 SCT013 FEW016CB 27/23 Q1012 RMK CB TO W=
07/12/2020 16:00:00Z	 SAID32 WIBB 071600	METAR WIBB 071600Z 23007KT 4000 RA BKN011 FEW016CB 25/22 Q1012 RMK CB TO W=
07/12/2020 16:30:00Z	 SAID32 WIBB 071630	METAR WIBB 071630Z 33005KT 6000 -RA BKN011 24/23 Q1011=
07/12/2020 17:00:00Z	 SAID32 WIBB 071700	METAR WIBB 071700Z 34007KT 7000 -RA BKN012 24/22 Q1011=
07/12/2020 17:30:00Z	 SAID32 WIBB 071730	METAR WIBB 071730Z 00000KT 7000 BKN012 23/21 Q1010=
07/12/2020 18:00:00Z	 SAID32 WIBB 071800	METAR WIBB 071800Z 00000KT 7000 SCT012 23/22 Q1010=
07/12/2020 18:30:00Z	 SAID32 WIBB 071830	METAR WIBB 071830Z 00000KT 7000 SCT012 23/22 Q1009=
07/12/2020 19:00:00Z	 SAID32 WIBB 071900	METAR WIBB 071900Z 00000KT 7000 SCT014 23/22 Q1009=
07/12/2020 19:30:00Z	 SAID32 WIBB 071930	METAR WIBB 071930Z 00000KT 7000 SCT014 23/21 Q1009=
07/12/2020 20:00:00Z	 SAID32 WIBB 072000	METAR WIBB 072000Z 00000KT 7000 SCT014 23/22 Q1009=
07/12/2020 20:30:00Z	 SAID32 WIBB 072030	METAR WIBB 072030Z 00000KT 7000 SCT014 23/22 Q1008=
07/12/2020 21:00:00Z	 SAID32 WIBB 072100	METAR WIBB 072100Z 00000KT 7000 SCT014 23/22 Q1008=
07/12/2020 21:30:00Z	 SAID32 WIBB 072130	METAR WIBB 072130Z 00000KT 7000 SCT014 23/22 Q1008=
07/12/2020 22:00:00Z	 SAID32 WIBB 072200	METAR WIBB 072200Z 35004KT 7000 SCT014 23/22 Q1008=
07/12/2020 22:30:00Z	 SAID32 WIBB 072230	METAR WIBB 072230Z 00000KT 7000 SCT014 23/22 Q1009=
07/12/2020 23:00:00Z	 SAID32 WIBB 072300	METAR WIBB 072300Z 00000KT 5000 FEW015 23/22 Q1009=
07/12/2020 23:30:00Z	 SAID32 WIBB 072330	METAR WIBB 072330Z 03000KT 5000 FEW015 22/22 Q1009=
07/12/2020 23:30:00Z	 SAID32 WIBB 072330 CCA	METAR COR WIBB 072330Z 00000KT 5000 FEW015 22/22 Q1009=
08/12/2020 00:00:00Z	 SAID32 WIBB 080000	METAR WIBB 080000Z 00000KT 6000 BR FEW015 23/22 Q1010=
08/12/2020 00:00:00Z	 SAID32 WIBB 080000 CCA	METAR COR WIBB 080000Z 00000KT 6000 FEW015 23/22 Q1010=
08/12/2020 00:30:00Z	 SAID32 WIBB 080030	METAR WIBB 080030Z 36004KT 6000 FEW015 24/22 Q1010=
08/12/2020 01:00:00Z	 SAID32 WIBB 080100	METAR WIBB 080100Z 00000KT 7000 FEW015 24/22 Q1011=
08/12/2020 01:30:00Z	 SAID32 WIBB 080130	METAR WIBB 080130Z 00000KT 8000 FEW015 25/21 Q1011=
08/12/2020 02:00:00Z	 SAID32 WIBB 080200	METAR WIBB 080200Z 35006KT 9999 FEW015 26/22 Q1011=
08/12/2020 02:30:00Z	 SAID32 WIBB 080230	METAR WIBB 080230Z 33007KT 9999 FEW015 27/22 Q1011=
08/12/2020 03:00:00Z	 SAID32 WIBB 080300	METAR WIBB 080300Z 32006KT 9999 FEW015 28/22 Q1011=
08/12/2020 03:30:00Z	 SAID32 WIBB 080330	METAR WIBB 080330Z 35007KT 9999 FEW015 29/22 Q1011=
08/12/2020 04:00:00Z	 SAID32 WIBB 080400	METAR WIBB 080400Z 32006KT 9999 FEW014 29/22 Q1011=
08/12/2020 04:30:00Z	 SAID32 WIBB 080430	METAR WIBB 080430Z 32006KT 9999 FEW014 29/22 Q1010=
08/12/2020 05:00:00Z	 SAID32 WIBB 080500	METAR WIBB 080500Z 31008KT 9999 SCT014 30/22 Q1010=
08/12/2020 05:30:00Z	 SAID32 WIBB 080530	METAR WIBB 080530Z 33007KT 9999 SCT014 31/23 Q1009=
08/12/2020 06:00:00Z	 SAID32 WIBB 080600	METAR WIBB 080600Z 34008KT 9999 SCT014 31/02 Q1008=
08/12/2020 06:30:00Z	 SAID32 WIBB 080630	METAR WIBB 080630Z 32006KT 9999 SCT014 32/21 Q1008=
08/12/2020 07:00:00Z	 SAID32 WIBB 080700	METAR WIBB 080700Z 32005KT 9999 SCT014 32/22 Q1007=
08/12/2020 07:30:00Z	 SAID32 WIBB 080730	METAR WIBB 080730Z 31006KT 9999 SCT014 32/22 Q1006=
08/12/2020 08:00:00Z	 SAID32 WIBB 080800	METAR WIBB 080800Z 35007KT 9999 SCT015 32/22 Q1006=
08/12/2020 08:30:00Z	 SAID32 WIBB 080830	METAR WIBB 080830Z 34008KT 9999 SCT015 33/23 Q1006=
08/12/2020 09:00:00Z	 SAID32 WIBB 080900	METAR WIBB 080900Z 35008KT 9999 SCT015 31/23 Q1006=
08/12/2020 09:30:00Z	 SAID32 WIBB 080930	METAR WIBB 080930Z 34009KT 9999 SCT015 32/22 Q1006=
08/12/2020 10:00:00Z	 SAID32 WIBB 081000	METAR WIBB 081000Z 34008KT 9000 FEW015 32/22 Q1006=
08/12/2020 10:30:00Z	 SAID32 WIBB 081030	METAR WIBB 081030Z 35007KT 9000 FEW015 31/22 Q1006=
08/12/2020 11:00:00Z	 SAID32 WIBB 081100	METAR WIBB 081100Z 35008KT 9000 FEW017CB 30/23 Q1007=
08/12/2020 11:30:00Z	 SAID32 WIBB 081130	METAR WIBB 081130Z 35005KT 8000 FEW018CB 29/23 Q1007=
08/12/2020 12:00:00Z	 SAID32 WIBB 081200	METAR WIBB 081200Z 02005KT 8000 FEW017CB 29/23 Q1007=
08/12/2020 12:30:00Z	 SAID32 WIBB 081230	METAR WIBB 081230Z 36005KT 8000 FEW015 29/23 Q1008=
08/12/2020 13:00:00Z	 SAID32 WIBB 081300	METAR WIBB 081300Z 35005KT 8000 FEW015 29/23 Q1009=
08/12/2020 13:30:00Z	 SAID32 WIBB 081330	METAR WIBB 081330Z 34005KT 8000 SCT015 29/23 Q1009=
08/12/2020 14:00:00Z	 SAID32 WIBB 081400	METAR WIBB 081400Z 35005KT 8000 SCT015 29/23 Q1009=
08/12/2020 14:30:00Z	 SAID32 WIBB 081430	METAR WIBB 081430Z 25012KT 1000 -TSRA BKN009CB 24/23 Q1010=
08/12/2020 15:00:00Z	 SAID32 WIBB 081500	METAR WIBB 081500Z 05005KT 5000 TSRA SCT005 FEW012CB 25/24 Q1010=
08/12/2020 15:30:00Z	 SAID32 WIBB 081530	METAR WIBB 081530Z 33008KT 8000 -RA SCT014 26/24 Q1010=
08/12/2020 16:00:00Z	 SAID32 WIBB 081600	METAR WIBB 081600Z 34005KT 8000 FEW015CB 24/22 Q1011=
08/12/2020 16:30:00Z	 SAID32 WIBB 081630	METAR WIBB 081630Z 00000KT 8000 FEW015 24/21 Q1010=
08/12/2020 17:00:00Z	 SAID32 WIBB 081700	METAR WIBB 081700Z 00000KT 8000 FEW015 24/21 Q1010=
08/12/2020 17:30:00Z	 SAID32 WIBB 081730	METAR WIBB 081730Z 00000KT 8000 FEW015 23/21 Q1009=
08/12/2020 18:00:00Z	 SAID32 WIBB 081800	METAR WIBB 081800Z 00000KT 8000 FEW015 23/21 Q1009=
08/12/2020 22:00:00Z	 SAID32 WIBB 082200	METAR WIBB 082200Z 00000KT 8000 NSC 23/22 Q1008=
08/12/2020 23:00:00Z	 SAID32 WIBB 082300	METAR WIBB 082300Z 00000KT 8000 FEW015 23/22 Q1009=
08/12/2020 23:30:00Z	 SAID32 WIBB 082330	METAR WIBB 082330Z 00000KT 8000 NSC 23/22 Q1009=
09/12/2020 00:00:00Z	 SAID32 WIBB 090000	METAR WIBB 090000Z 00000KT 8000 NSC 23/22 Q1009=
09/12/2020 00:30:00Z	 SAID32 WIBB 090030	METAR WIBB 090030Z 00000KT 9000 NSC 24/22 Q1009=
09/12/2020 01:00:00Z	 SAID32 WIBB 090100	METAR WIBB 090100Z 00000KT 8000 NSC 25/22 Q1010=
09/12/2020 01:30:00Z	 SAID32 WIBB 090130	METAR WIBB 090130Z 00000KT 9000 NSC 26/23 Q1010=
09/12/2020 02:00:00Z	 SAID32 WIBB 090200	METAR WIBB 090200Z 00000KT 9000 NSC 27/23 Q1010=
09/12/2020 02:30:00Z	 SAID32 WIBB 090230	METAR WIBB 090230Z 35006KT 9000 NSC 29/23 Q1010=
09/12/2020 03:00:00Z	 SAID32 WIBB 090300	METAR WIBB 090300Z 36005KT 9000 SCT013 29/23 Q1010=
09/12/2020 03:30:00Z	 SAID32 WIBB 090330	METAR WIBB 090330Z 07005KT 9000 SCT013 29/23 Q1010=
09/12/2020 04:00:00Z	 SAID32 WIBB 090400	METAR WIBB 090400Z 04006KT 9000 BKN013 29/23 Q1010=
09/12/2020 04:30:00Z	 SAID32 WIBB 090430	METAR WIBB 090430Z 02005KT 9000 SCT013 30/23 Q1009=
09/12/2020 05:00:00Z	 SAID32 WIBB 090500	METAR WIBB 090500Z 36006KT 9000 SCT013 30/23 Q1009=
09/12/2020 05:30:00Z	 SAID32 WIBB 090530	METAR WIBB 090530Z 02006KT 9000 SCT013 30/23 Q1008=
09/12/2020 06:00:00Z	 SAID32 WIBB 090600	METAR WIBB 090600Z 36006KT 9000 SCT013 31/23 Q1008=
09/12/2020 06:30:00Z	 SAID32 WIBB 090630	METAR WIBB 090630Z 02006KT 9000 SCT013 31/23 Q1007=
09/12/2020 07:00:00Z	 SAID32 WIBB 090700	METAR WIBB 090700Z 04007KT 9999 SCT013 31/22 Q1006=
09/12/2020 07:30:00Z	 SAID32 WIBB 090730	METAR WIBB 090730Z 04005KT 9999 SCT013 31/23 Q1006=
09/12/2020 08:00:00Z	 SAID32 WIBB 090800	METAR WIBB 090800Z 36005KT 9999 FEW013 32/23 Q1005=
09/12/2020 08:30:00Z	 SAID32 WIBB 090830	METAR WIBB 090830Z 34005KT 9999 SCT015 32/22 Q1005=
09/12/2020 09:00:00Z	 SAID32 WIBB 090900	METAR WIBB 090900Z 00000KT 9999 SCT015 32/22 Q1005=
09/12/2020 09:30:00Z	 SAID32 WIBB 090930	METAR WIBB 090930Z 01005KT 9999 SCT015 31/22 Q1005=
09/12/2020 10:00:00Z	 SAID32 WIBB 091000	METAR WIBB 091000Z 33005KT 9000 FEW017 30/22 Q1005=
09/12/2020 10:30:00Z	 SAID32 WIBB 091030	METAR WIBB 091030Z 34006KT 9000 FEW017 30/22 Q1005=
09/12/2020 11:00:00Z	 SAID32 WIBB 091100	METAR WIBB 091100Z 35005KT 8000 FEW017 29/22 Q1006=
09/12/2020 11:30:00Z	 SAID32 WIBB 091130	METAR WIBB 091130Z 34005KT 8000 FEW017 29/23 Q1006=
09/12/2020 12:00:00Z	 SAID32 WIBB 091200	METAR WIBB 091200Z 00000KT 8000 FEW017 29/23 Q1006=
09/12/2020 12:30:00Z	 SAID32 WIBB 091230	METAR WIBB 091230Z 00000KT 8000 FEW017 28/24 Q1007=
09/12/2020 13:00:00Z	 SAID32 WIBB 091300	METAR WIBB 091300Z 00000KT 8000 FEW017 28/24 Q1007=
09/12/2020 13:30:00Z	 SAID32 WIBB 091330	METAR WIBB 091330Z 00000KT 8000 FEW017 27/24 Q1007=
09/12/2020 14:00:00Z	 SAID32 WIBB 091400	METAR WIBB 091400Z 35006KT 8000 FEW017 28/24 Q1008=
09/12/2020 14:30:00Z	 SAID32 WIBB 091430	METAR WIBB 091430Z 36007KT 8000 FEW017 27/24 Q1009=
09/12/2020 15:00:00Z	 SAID32 WIBB 091500	METAR WIBB 091500Z 35007KT 8000 FEW017 27/24 Q1009=
09/12/2020 15:30:00Z	 SAID32 WIBB 091530	METAR WIBB 091530Z 35006KT 8000 FEW017 27/24 Q1009=
09/12/2020 16:00:00Z	 SAID32 WIBB 091600	METAR WIBB 091600Z 34005KT 8000 FEW017 27/23 Q1009=
09/12/2020 16:30:00Z	 SAID32 WIBB 091630	METAR WIBB 091630Z 34006KT 8000 FEW017 26/23 Q1009=
09/12/2020 17:00:00Z	 SAID32 WIBB 091700	METAR WIBB 091700Z 28005KT 8000 FEW017 26/23 Q1009=
09/12/2020 17:30:00Z	 SAID32 WIBB 091730	METAR WIBB 091730Z 00000KT 8000 FEW014 25/23 Q1008=
09/12/2020 18:00:00Z	 SAID32 WIBB 091800	METAR WIBB 091800Z 00000KT 8000 SCT014 25/23 Q1008=
09/12/2020 18:30:00Z	 SAID32 WIBB 091830	METAR WIBB 091830Z 00000KT 8000 FEW014 25/23 Q1008=
09/12/2020 19:00:00Z	 SAID32 WIBB 091900 CCA	METAR COR WIBB 091900Z 00000KT 8000 FEW014 25/23 Q1008=
09/12/2020 19:00:00Z	 SAID32 WIBB 091900	METAR WIBB 091900Z 00000KT 8000 FEW014 25/24 Q1008=
09/12/2020 19:30:00Z	 SAID32 WIBB 091930	METAR WIBB 091930Z 00000KT 8000 FEW014 25/23 Q1007=
09/12/2020 20:00:00Z	 SAID32 WIBB 092000	METAR WIBB 092000Z 00000KT 8000 FEW014 25/23 Q1007=
09/12/2020 20:30:00Z	 SAID32 WIBB 092030	METAR WIBB 092030Z 00000KT 8000 FEW014 24/23 Q1007=
09/12/2020 21:00:00Z	 SAID32 WIBB 092100	METAR WIBB 092100Z 00000KT 8000 FEW014 24/23 Q1006=
09/12/2020 21:30:00Z	 SAID32 WIBB 092130	METAR WIBB 092130Z 00000KT 8000 FEW014 24/23 Q1006=
09/12/2020 22:00:00Z	 SAID32 WIBB 092200	METAR WIBB 092200Z 00000KT 8000 FEW014 24/23 Q1007=
09/12/2020 22:30:00Z	 SAID32 WIBB 092230	METAR WIBB 092230Z 00000KT 8000 FEW014 24/23 Q1007=
09/12/2020 23:00:00Z	 SAID32 WIBB 092300	METAR WIBB 092300Z 00000KT 8000 FEW015 24/23 Q1007=
09/12/2020 23:30:00Z	 SAID32 WIBB 092330	METAR WIBB 092330Z 00000KT 8000 FEW015 24/23 Q1008=
10/12/2020 00:00:00Z	 SAID32 WIBB 100000	METAR WIBB 100000Z 00000KT 8000 FEW015 24/23 Q1008=
10/12/2020 00:30:00Z	 SAID32 WIBB 100030	METAR WIBB 100030Z 00000KT 9000 FEW015 25/22 Q1009=
10/12/2020 01:00:00Z	 SAID32 WIBB 100100	METAR WIBB 100100Z 00000KT 8000 SCT013 25/22 Q1009=
10/12/2020 01:30:00Z	 SAID32 WIBB 100130	METAR WIBB 100130Z 30006KT 8000 SCT013 26/22 Q1009=
10/12/2020 02:00:00Z	 SAID32 WIBB 100200	METAR WIBB 100200Z 32005KT 8000 FEW013 28/23 Q1010=
10/12/2020 02:30:00Z	 SAID32 WIBB 100230	METAR WIBB 100230Z 32006KT 9000 FEW013 28/23 Q1010=
10/12/2020 03:00:00Z	 SAID32 WIBB 100300	METAR WIBB 100300Z 33008KT 8000 FEW014 28/23 Q1010=
10/12/2020 03:30:00Z	 SAID32 WIBB 100330	METAR WIBB 100330Z 33006KT 8000 FEW014 28/23 Q1010=
10/12/2020 04:00:00Z	 SAID32 WIBB 100400	METAR WIBB 100400Z 33007KT 8000 FEW014 28/24 Q1010=
10/12/2020 04:30:00Z	 SAID32 WIBB 100430	METAR WIBB 100430Z 35008KT 8000 FEW014 29/23 Q1009=
10/12/2020 05:00:00Z	 SAID32 WIBB 100500	METAR WIBB 100500Z 32007KT 8000 SCT014 29/23 Q1009=
10/12/2020 05:30:00Z	 SAID32 WIBB 100530	METAR WIBB 100530Z 30005KT 8000 SCT014 29/23 Q1008=
10/12/2020 06:00:00Z	 SAID32 WIBB 100600	METAR WIBB 100600Z 35008KT 8000 SCT014 30/23 Q1008=
10/12/2020 06:30:00Z	 SAID32 WIBB 100630	METAR WIBB 100630Z 34006KT 8000 SCT014 30/22 Q1007=
10/12/2020 07:00:00Z	 SAID32 WIBB 100700	METAR WIBB 100700Z 33005KT 9000 SCT014 30/23 Q1006=
10/12/2020 07:30:00Z	 SAID32 WIBB 100730	METAR WIBB 100730Z 30004KT 9000 SCT014 30/23 Q1006=
10/12/2020 08:00:00Z	 SAID32 WIBB 100800	METAR WIBB 100800Z 34006KT 9000 SCT014 31/23 Q1005=
10/12/2020 08:30:00Z	 SAID32 WIBB 100830	METAR WIBB 100830Z 34006KT 9000 SCT014 31/23 Q1005=
10/12/2020 09:00:00Z	 SAID32 WIBB 100900	METAR WIBB 100900Z 32006KT 9000 SCT014 31/23 Q1005=
10/12/2020 09:30:00Z	 SAID32 WIBB 100930	METAR WIBB 100930Z 34007KT 9000 SCT014 31/23 Q1005=
10/12/2020 10:00:00Z	 SAID32 WIBB 101000	METAR WIBB 101000Z 34007KT 9000 FEW014 30/23 Q1005=
10/12/2020 10:30:00Z	 SAID32 WIBB 101030	METAR WIBB 101030Z 33004KT 8000 FEW014 29/23 Q1006=
10/12/2020 11:00:00Z	 SAID32 WIBB 101100	METAR WIBB 101100Z 04005KT 8000 FEW015 29/23 Q1006=
10/12/2020 11:30:00Z	 SAID32 WIBB 101130	METAR WIBB 101130Z 03006KT 8000 FEW015 28/23 Q1006=
10/12/2020 12:00:00Z	 SAID32 WIBB 101200	METAR WIBB 101200Z 35005KT 8000 FEW015 27/23 Q1006=
10/12/2020 12:30:00Z	 SAID32 WIBB 101230	METAR WIBB 101230Z 34005KT 8000 FEW015 27/23 Q1007=
10/12/2020 13:00:00Z	 SAID32 WIBB 101300	METAR WIBB 101300Z 00000KT 8000 FEW014 27/23 Q1008=
10/12/2020 13:30:00Z	 SAID32 WIBB 101330	METAR WIBB 101330Z 00000KT 8000 NSC 26/23 Q1008=
10/12/2020 14:00:00Z	 SAID32 WIBB 101400	METAR WIBB 101400Z 00000KT 8000 NSC 26/23 Q1009=
10/12/2020 14:30:00Z	 SAID32 WIBB 101430	METAR WIBB 101430Z 00000KT 8000 NSC 25/23 Q1009=
10/12/2020 15:00:00Z	 SAID32 WIBB 101500	METAR WIBB 101500Z 00000KT 8000 NSC 25/23 Q1009=
10/12/2020 15:30:00Z	 SAID32 WIBB 101530	METAR WIBB 101530Z 00000KT 8000 NSC 26/23 Q1009=
10/12/2020 16:00:00Z	 SAID32 WIBB 101600	METAR WIBB 101600Z 00000KT 8000 NSC 26/23 Q1009=
10/12/2020 16:30:00Z	 SAID32 WIBB 101630	METAR WIBB 101630Z 00000KT 8000 NSC 26/23 Q1009=
10/12/2020 17:00:00Z	 SAID32 WIBB 101700	METAR WIBB 101700Z 00000KT 8000 NSC 25/23 Q1009=
10/12/2020 17:30:00Z	 SAID32 WIBB 101730	METAR WIBB 101730Z 00000KT 8000 NSC 25/23 Q1009=
10/12/2020 18:00:00Z	 SAID32 WIBB 101800	METAR WIBB 101800Z 00000KT 8000 NSC 25/23 Q1008=
10/12/2020 21:00:00Z	 SAID32 WIBB 102100	METAR WIBB 102100Z 00000KT 8000 FEW012 25/23 Q1007=
10/12/2020 22:00:00Z	 SAID32 WIBB 102200	METAR WIBB 102200Z 00000KT 8000 FEW014 25/23 Q1007=
10/12/2020 23:00:00Z	 SAID32 WIBB 102300	METAR WIBB 102300Z 00000KT 8000 NSC 24/22 Q1008=
10/12/2020 23:30:00Z	 SAID32 WIBB 102330	METAR WIBB 102330Z 00000KT 8000 NSC 24/22 Q1008=
11/12/2020 00:00:00Z	 SAID32 WIBB 110000	METAR WIBB 110000Z 00000KT 8000 NSC 25/22 Q1009=
11/12/2020 00:30:00Z	 SAID32 WIBB 110030	METAR WIBB 110030Z 00000KT 8000 NSC 25/23 Q1009=
11/12/2020 01:00:00Z	 SAID32 WIBB 110100	METAR WIBB 110100Z 00000KT 8000 NSC 25/22 Q1010=
11/12/2020 01:30:00Z	 SAID32 WIBB 110130	METAR WIBB 110130Z 00000KT 8000 NSC 26/22 Q1010=
11/12/2020 02:00:00Z	 SAID32 WIBB 110200	METAR WIBB 110200Z 30006KT 8000 FEW015 28/22 Q1010=
11/12/2020 02:30:00Z	 SAID32 WIBB 110230	METAR WIBB 110230Z 31006KT 9999 FEW015 28/22 Q1010=
11/12/2020 03:00:00Z	 SAID32 WIBB 110300	METAR WIBB 110300Z 33007KT 9999 FEW015 29/22 Q1010=
11/12/2020 03:30:00Z	 SAID32 WIBB 110330	METAR WIBB 110330Z 33006KT 9999 FEW015 30/21 Q1010=
11/12/2020 04:00:00Z	 SAID32 WIBB 110400	METAR WIBB 110400Z 34005KT 9999 FEW015 30/20 Q1009=
11/12/2020 04:30:00Z	 SAID32 WIBB 110430	METAR WIBB 110430Z 32006KT 9999 FEW015 30/21 Q1009=
11/12/2020 05:00:00Z	 SAID32 WIBB 110500	METAR WIBB 110500Z 30007KT 9999 FEW013 30/21 Q1009=
11/12/2020 05:30:00Z	 SAID32 WIBB 110530	METAR WIBB 110530Z 33008KT 9999 FEW013 31/21 Q1008=
11/12/2020 06:00:00Z	 SAID32 WIBB 110600	METAR WIBB 110600Z 34007KT 9999 FEW013 31/21 Q1007=
11/12/2020 06:30:00Z	 SAID32 WIBB 110630	METAR WIBB 110630Z 33008KT 9999 FEW013 32/21 Q1007=
11/12/2020 07:00:00Z	 SAID32 WIBB 110700	METAR WIBB 110700Z 34009KT 9999 SCT014 32/20 Q1006=
11/12/2020 07:30:00Z	 SAID32 WIBB 110730	METAR WIBB 110730Z 32007KT 9999 SCT014 32/20 Q1005=
11/12/2020 08:00:00Z	 SAID32 WIBB 110800	METAR WIBB 110800Z 32008KT 9999 SCT014 32/20 Q1005=
11/12/2020 08:30:00Z	 SAID32 WIBB 110830	METAR WIBB 110830Z 27009KT 9999 SCT014 32/20 Q1005=
11/12/2020 09:00:00Z	 SAID32 WIBB 110900	METAR WIBB 110900Z 30005KT 9999 FEW014 32/19 Q1005=
11/12/2020 09:30:00Z	 SAID32 WIBB 110930	METAR WIBB 110930Z 30006KT 9999 FEW014 31/20 Q1005=
11/12/2020 10:00:00Z	 SAID32 WIBB 111000	METAR WIBB 111000Z 34007KT 9999 FEW015 31/20 Q1005=
11/12/2020 10:30:00Z	 SAID32 WIBB 111030	METAR WIBB 111030Z 30006KT 9999 FEW015 31/20 Q1005=
11/12/2020 11:00:00Z	 SAID32 WIBB 111100	METAR WIBB 111100Z 35007KT 8000 FEW015 30/21 Q1005=
11/12/2020 11:30:00Z	 SAID32 WIBB 111130	METAR WIBB 111130Z 33006KT 8000 FEW015 29/22 Q1006=
11/12/2020 12:00:00Z	 SAID32 WIBB 111200	METAR WIBB 111200Z 35007KT 8000 FEW015 29/22 Q1006=
11/12/2020 12:30:00Z	 SAID32 WIBB 111230	METAR WIBB 111230Z 33006KT 8000 FEW015 28/22 Q1007=
11/12/2020 13:00:00Z	 SAID32 WIBB 111300	METAR WIBB 111300Z 32006KT 8000 FEW015 28/22 Q1008=
11/12/2020 13:30:00Z	 SAID32 WIBB 111330	METAR WIBB 111330Z 33006KT 8000 FEW015 28/22 Q1008=
11/12/2020 14:00:00Z	 SAID32 WIBB 111400	METAR WIBB 111400Z 33005KT 7000 FEW015 28/23 Q1009=
11/12/2020 14:30:00Z	 SAID32 WIBB 111430	METAR WIBB 111430Z 32005KT 7000 FEW015 28/22 Q1009=
11/12/2020 15:00:00Z	 SAID32 WIBB 111500	METAR WIBB 111500Z 35005KT 7000 FEW015 27/22 Q1009=
11/12/2020 15:30:00Z	 SAID32 WIBB 111530	METAR WIBB 111530Z 34005KT 7000 FEW015 27/23 Q1010=
11/12/2020 16:00:00Z	 SAID32 WIBB 111600	METAR WIBB 111600Z 34004KT 7000 FEW015 27/23 Q1010=
11/12/2020 16:30:00Z	 SAID32 WIBB 111630	METAR WIBB 111630Z 33004KT 7000 FEW015 27/23 Q1010=
11/12/2020 17:00:00Z	 SAID32 WIBB 111700	METAR WIBB 111700Z 34004KT 7000 FEW015 26/23 Q1009=
11/12/2020 18:00:00Z	 SAID32 WIBB 111800	METAR WIBB 111800Z 33004KT 7000 FEW015 26/23 Q1009=
11/12/2020 21:00:00Z	 SAID32 WIBB 112100	METAR WIBB 112100Z 34004KT 7000 FEW015 25/23 Q1006=
11/12/2020 23:00:00Z	 SAID32 WIBB 112300	METAR WIBB 112300Z 34005KT 7000 FEW015 24/23 Q1007=
11/12/2020 23:30:00Z	 SAID32 WIBB 112330	METAR WIBB 112330Z 34005KT 6000 FEW015 24/23 Q1007=
12/12/2020 00:00:00Z	 SAID32 WIBB 120000	METAR WIBB 120000Z 34005KT 6000 FEW015 25/23 Q1008=
12/12/2020 00:30:00Z	 SAID32 WIBB 120030	METAR WIBB 120030Z 32004KT 8000 FEW015 26/22 Q1008=
12/12/2020 01:00:00Z	 SAID32 WIBB 120100	METAR WIBB 120100Z 36006KT 9000 NSC 27/21 Q1009=
12/12/2020 01:30:00Z	 SAID32 WIBB 120130	METAR WIBB 120130Z 30007KT 9999 NSC 27/22 Q1009=
12/12/2020 02:00:00Z	 SAID32 WIBB 120200	METAR WIBB 120200Z 32006KT 9000 FEW015 28/21 Q1009=
12/12/2020 02:30:00Z	 SAID32 WIBB 120230	METAR WIBB 120230Z 32008KT 9999 FEW015 29/21 Q1009=
12/12/2020 03:00:00Z	 SAID32 WIBB 120300	METAR WIBB 120300Z 34006KT 9999 FEW015 30/21 Q1010=
12/12/2020 03:30:00Z	 SAID32 WIBB 120330	METAR WIBB 120330Z 33009KT 9999 FEW015 30/21 Q1009=
12/12/2020 04:00:00Z	 SAID32 WIBB 120400	METAR WIBB 120400Z 32005KT 9999 FEW015 31/21 Q1009=
12/12/2020 04:30:00Z	 SAID32 WIBB 120430	METAR WIBB 120430Z 32009KT 260V010 9999 FEW015 31/21 Q1008=
12/12/2020 05:00:00Z	 SAID32 WIBB 120500	METAR WIBB 120500Z 35009KT 9999 SCT014 32/21 Q1008=
12/12/2020 05:30:00Z	 SAID32 WIBB 120530	METAR WIBB 120530Z 31005KT 9999 SCT014 32/21 Q1007=
12/12/2020 06:00:00Z	 SAID32 WIBB 120600	METAR WIBB 120600Z 31009KT 9999 SCT014 32/20 Q1006=
12/12/2020 06:30:00Z	 SAID32 WIBB 120630	METAR WIBB 120630Z 34010KT 9999 SCT014 33/19 Q1006=
12/12/2020 07:00:00Z	 SAID32 WIBB 120700	METAR WIBB 120700Z 31007KT 9999 SCT012 33/21 Q1005=
12/12/2020 07:30:00Z	 SAID32 WIBB 120730	METAR WIBB 120730Z 30006KT 9999 SCT012 33/21 Q1005=
12/12/2020 08:00:00Z	 SAID32 WIBB 120800	METAR WIBB 120800Z 33009KT 9999 SCT015 32/21 Q1004=
12/12/2020 08:30:00Z	 SAID32 WIBB 120830	METAR WIBB 120830Z 33008KT 9000 SCT015 31/21 Q1004=
12/12/2020 09:00:00Z	 SAID32 WIBB 120900	METAR WIBB 120900Z 22010KT 4000 BKN010 27/23 Q1005=
12/12/2020 09:30:00Z	 SAID32 WIBB 120930	METAR WIBB 120930Z 00000KT 8000 SCT012 25/23 Q1005=
12/12/2020 10:00:00Z	 SAID32 WIBB 121000	METAR WIBB 121000Z 00000KT 8000 SCT015 26/23 Q1005=
12/12/2020 10:30:00Z	 SAID32 WIBB 121030	METAR WIBB 121030Z 00000KT 8000 SCT015 26/23 Q1005=
12/12/2020 11:00:00Z	 SAID32 WIBB 121100	METAR WIBB 121100Z 00000KT 8000 FEW017 26/23 Q1005=
12/12/2020 11:30:00Z	 SAID32 WIBB 121130	METAR WIBB 121130Z 00000KT 8000 FEW017 26/23 Q1006=
12/12/2020 12:00:00Z	 SAID32 WIBB 121200	METAR WIBB 121200Z 00000KT 8000 FEW017 26/24 Q1006=
12/12/2020 12:30:00Z	 SAID32 WIBB 121230	METAR WIBB 121230Z 00000KT 8000 FEW017 26/24 Q1007=
12/12/2020 13:00:00Z	 SAID32 WIBB 121300	METAR WIBB 121300Z 00000KT 8000 FEW017 26/24 Q1007=
12/12/2020 13:30:00Z	 SAID32 WIBB 121330	METAR WIBB 121330Z 00000KT 8000 FEW017 26/24 Q1008=
12/12/2020 14:00:00Z	 SAID32 WIBB 121400	METAR WIBB 121400Z 00000KT 8000 FEW017 26/23 Q1008=
12/12/2020 14:30:00Z	 SAID32 WIBB 121430	METAR WIBB 121430Z 00000KT 8000 FEW017 26/23 Q1008=
12/12/2020 15:00:00Z	 SAID32 WIBB 121500	METAR WIBB 121500Z 00000KT 8000 FEW017 25/24 Q1008=
12/12/2020 15:30:00Z	 SAID32 WIBB 121530	METAR WIBB 121530Z 20005KT 8000 FEW017 25/24 Q1008=
12/12/2020 16:00:00Z	 SAID32 WIBB 121600	METAR WIBB 121600Z 00000KT 8000 FEW017 25/24 Q1008=
12/12/2020 16:30:00Z	 SAID32 WIBB 121630	METAR WIBB 121630Z 00000KT 8000 FEW017 25/24 Q1008=
12/12/2020 17:00:00Z	 SAID32 WIBB 121700	METAR WIBB 121700Z 02004KT 7000 FEW016 25/24 Q1008=
12/12/2020 17:30:00Z	 SAID32 WIBB 121730	METAR WIBB 121730Z 04003KT 7000 FEW016 25/24 Q1008=
12/12/2020 18:00:00Z	 SAID32 WIBB 121800	METAR WIBB 121800Z 00000KT 7000 FEW016 25/24 Q1008=
12/12/2020 18:30:00Z	 SAID32 WIBB 121830	METAR WIBB 121830Z 00000KT 7000 FEW018 25/24 Q1008=
12/12/2020 19:00:00Z	 SAID32 WIBB 121900	METAR WIBB 121900Z 00000KT 7000 FEW016 25/24 Q1008=
12/12/2020 19:30:00Z	 SAID32 WIBB 121930	METAR WIBB 121930Z 00000KT 7000 FEW016 25/24 Q1008=
12/12/2020 20:00:00Z	 SAID32 WIBB 122000	METAR WIBB 122000Z 00000KT 7000 FEW016 25/23 Q1007=
12/12/2020 20:30:00Z	 SAID32 WIBB 122030	METAR WIBB 122030Z 00000KT 7000 FEW016 25/23 Q1007=
12/12/2020 21:00:00Z	 SAID32 WIBB 122100	METAR WIBB 122100Z 00000KT 7000 FEW016 25/23 Q1007=
12/12/2020 21:30:00Z	 SAID32 WIBB 122130	METAR WIBB 122130Z 00000KT 6000 -RA SCT015 25/23 Q1007=
12/12/2020 22:00:00Z	 SAID32 WIBB 122200	METAR WIBB 122200Z 00000KT 7000 FEW013 24/23 Q1007=
12/12/2020 22:00:00Z	 SAID32 WIBB 122200 CCA	METAR COR WIBB 122200Z 00000KT 7000 SCT013 24/23 Q1007=
12/12/2020 22:30:00Z	 SAID32 WIBB 122230	METAR WIBB 122230Z 00000KT 7000 FEW016 24/23 Q1007=
12/12/2020 22:30:00Z	 SAID32 WIBB 122230 CCA	METAR COR WIBB 122230Z 00000KT 7000 FEW013 24/23 Q1007=
12/12/2020 23:00:00Z	 SAID32 WIBB 122300	METAR WIBB 122300Z 00000KT 6000 SCT010 24/23 Q1007=
12/12/2020 23:30:00Z	 SAID32 WIBB 122330	METAR WIBB 122330Z 00000KT 7000 SCT010 24/23 Q1008=
13/12/2020 00:00:00Z	 SAID32 WIBB 130000	METAR WIBB 130000Z 00000KT 7000 SCT011 24/23 Q1008=
13/12/2020 00:30:00Z	 SAID32 WIBB 130030	METAR WIBB 130030Z 30005KT 9000 FEW011 25/23 Q1008=
13/12/2020 01:00:00Z	 SAID32 WIBB 130100	METAR WIBB 130100Z 27004KT 8000 NSC 25/23 Q1009=
13/12/2020 01:30:00Z	 SAID32 WIBB 130130	METAR WIBB 130130Z 30005KT 8000 NSC 26/23 Q1009=
13/12/2020 02:00:00Z	 SAID32 WIBB 130200	METAR WIBB 130200Z 30006KT 9000 FEW008 27/23 Q1009=
13/12/2020 02:30:00Z	 SAID32 WIBB 130230	METAR WIBB 130230Z 32008KT 9000 FEW013 27/23 Q1009=
13/12/2020 03:00:00Z	 SAID32 WIBB 130300	METAR WIBB 130300Z 32007KT 9000 SCT012 27/23 Q1009=
13/12/2020 03:30:00Z	 SAID32 WIBB 130330	METAR WIBB 130330Z 34007KT 9000 SCT012 28/24 Q1009=
13/12/2020 04:00:00Z	 SAID32 WIBB 130400	METAR WIBB 130400Z 34009KT 9000 SCT012 30/23 Q1008=
13/12/2020 05:00:00Z	 SAID32 WIBB 130500	METAR WIBB 130500Z 36010KT 9000 SCT013 31/23 Q1007=
13/12/2020 05:30:00Z	 SAID32 WIBB 130530	METAR WIBB 130530Z 32007KT 9999 SCT013 31/22 Q1007=
13/12/2020 06:00:00Z	 SAID32 WIBB 130600	METAR WIBB 130600Z 32008KT 9999 SCT014 31/22 Q1006=
13/12/2020 06:30:00Z	 SAID32 WIBB 130630	METAR WIBB 130630Z 32007KT 9999 SCT014 32/22 Q1006=
13/12/2020 07:00:00Z	 SAID32 WIBB 130700	METAR WIBB 130700Z 33006KT 9999 SCT014 32/22 Q1005=
13/12/2020 07:30:00Z	 SAID32 WIBB 130730	METAR WIBB 130730Z 32006KT 9999 SCT014 32/22 Q1005=
13/12/2020 08:00:00Z	 SAID32 WIBB 130800	METAR WIBB 130800Z 32006KT 9999 SCT013 31/21 Q1005=
13/12/2020 09:30:00Z	 SAID32 WIBB 130930	METAR WIBB 130930Z 36006KT 9999 FEW013 30/23 Q1004=
13/12/2020 10:00:00Z	 SAID32 WIBB 131000	METAR WIBB 131000Z 34007KT 9000 FEW017 30/22 Q1004=
13/12/2020 10:30:00Z	 SAID32 WIBB 131030	METAR WIBB 131030Z 34005KT 9000 FEW017 30/22 Q1005=
13/12/2020 11:00:00Z	 SAID32 WIBB 131100	METAR WIBB 131100Z 34005KT 9000 FEW017CB 29/22 Q1005=
13/12/2020 11:30:00Z	 SAID32 WIBB 131130	METAR WIBB 131130Z 33005KT 8000 FEW017CB 29/22 Q1005=
13/12/2020 12:00:00Z	 SAID32 WIBB 131200	METAR WIBB 131200Z 26010KT 8000 SCT015 29/23 Q1006=
13/12/2020 12:30:00Z	 SAID32 WIBB 131230	METAR WIBB 131230Z 24006KT 8000 FEW015CB 26/21 Q1007=
13/12/2020 13:00:00Z	 SAID32 WIBB 131300	METAR WIBB 131300Z 25005KT 8000 SCT015 FEW016CB 25/21 Q1007 RMK CB TO S=
13/12/2020 13:30:00Z	 SAID32 WIBB 131330	METAR WIBB 131330Z 13004KT 7000 SCT015 25/21 Q1007 RERA=
13/12/2020 14:00:00Z	 SAID32 WIBB 131400	METAR WIBB 131400Z 00000KT 7000 SCT015 25/22 Q1008=
13/12/2020 14:30:00Z	 SAID32 WIBB 131430	METAR WIBB 131430Z 00000KT 7000 SCT015 25/22 Q1008=
13/12/2020 15:00:00Z	 SAID32 WIBB 131500	METAR WIBB 131500Z 00000KT 7000 SCT016 25/22 Q1008=
13/12/2020 15:30:00Z	 SAID32 WIBB 131530	METAR WIBB 131530Z 00000KT 7000 SCT016 24/22 Q1007=
13/12/2020 16:00:00Z	 SAID32 WIBB 131600	METAR WIBB 131600Z 00000KT 7000 FEW016 24/22 Q1007=
13/12/2020 16:30:00Z	 SAID32 WIBB 131630	METAR WIBB 131630Z 00000KT 7000 FEW016 24/22 Q1007=
13/12/2020 17:00:00Z	 SAID32 WIBB 131700	METAR WIBB 131700Z 00000KT 7000 FEW016 24/22 Q1007=
13/12/2020 17:30:00Z	 SAID32 WIBB 131730	METAR WIBB 131730Z 00000KT 7000 FEW016 24/22 Q1007=
13/12/2020 18:00:00Z	 SAID32 WIBB 131800	METAR WIBB 131800Z 00000KT 7000 FEW017 24/22 Q1007=
13/12/2020 18:30:00Z	 SAID32 WIBB 131830	METAR WIBB 131830Z 00000KT 7000 FEW017 24/22 Q1007=
13/12/2020 19:00:00Z	 SAID32 WIBB 131900	METAR WIBB 131900Z 00000KT 7000 FEW017 24/22 Q1007=
13/12/2020 19:30:00Z	 SAID32 WIBB 131930	METAR WIBB 131930Z 00000KT 7000 FEW017 24/22 Q1007=
13/12/2020 20:00:00Z	 SAID32 WIBB 132000	METAR WIBB 132000Z 00000KT 7000 FEW017 24/22 Q1006=
13/12/2020 20:30:00Z	 SAID32 WIBB 132030	METAR WIBB 132030Z 00000KT 7000 FEW017 24/22 Q1006=
13/12/2020 21:00:00Z	 SAID32 WIBB 132100	METAR WIBB 132100Z 00000KT 7000 FEW017 24/22 Q1006=
13/12/2020 21:30:00Z	 SAID32 WIBB 132130	METAR WIBB 132130Z 00000KT 7000 FEW017 24/22 Q1006=
13/12/2020 22:00:00Z	 SAID32 WIBB 132200	METAR WIBB 132200Z 00000KT 7000 FEW017 23/22 Q1006=
13/12/2020 22:30:00Z	 SAID32 WIBB 132230	METAR WIBB 132230Z 00000KT 7000 FEW017 23/22 Q1006=
13/12/2020 23:00:00Z	 SAID32 WIBB 132300	METAR WIBB 132300Z 00000KT 8000 FEW017 23/22 Q1007=
13/12/2020 23:30:00Z	 SAID32 WIBB 132330	METAR WIBB 132330Z 00000KT 8000 FEW017 23/22 Q1007=
14/12/2020 00:00:00Z	 SAID32 WIBB 140000	METAR WIBB 140000Z 00000KT 9000 NSC 24/22 Q1007=
14/12/2020 00:30:00Z	 SAID32 WIBB 140030	METAR WIBB 140030Z 34004KT 9000 FEW015 25/23 Q1008=
14/12/2020 01:00:00Z	 SAID32 WIBB 140100	METAR WIBB 140100Z 34006KT 9000 NSC 26/23 Q1008=
14/12/2020 01:30:00Z	 SAID32 WIBB 140130	METAR WIBB 140130Z 31007KT 9000 NSC 26/23 Q1009=
14/12/2020 02:00:00Z	 SAID32 WIBB 140200	METAR WIBB 140200Z 35009KT 9999 FEW015 27/23 Q1009=
14/12/2020 02:30:00Z	 SAID32 WIBB 140230	METAR WIBB 140230Z 33007KT 9999 FEW015 28/23 Q1009=
14/12/2020 03:00:00Z	 SAID32 WIBB 140300	METAR WIBB 140300Z 32008KT 9999 FEW015 29/22 Q1009=
14/12/2020 03:30:00Z	 SAID32 WIBB 140330	METAR WIBB 140330Z 33008KT 9999 FEW015 30/21 Q1009=
14/12/2020 04:00:00Z	 SAID32 WIBB 140400	METAR WIBB 140400Z 33008KT 9999 FEW013 31/21 Q1009=
14/12/2020 04:30:00Z	 SAID32 WIBB 140430	METAR WIBB 140430Z 31008KT 9999 SCT013 31/21 Q1009=
14/12/2020 05:00:00Z	 SAID32 WIBB 140500	METAR WIBB 140500Z 30010KT 9999 SCT013 32/20 Q1008=
14/12/2020 05:30:00Z	 SAID32 WIBB 140530	METAR WIBB 140530Z 33009KT 9999 SCT013 32/21 Q1008=
14/12/2020 06:00:00Z	 SAID32 WIBB 140600	METAR WIBB 140600Z 33010KT 9999 SCT013 31/20 Q1007=
14/12/2020 06:30:00Z	 SAID32 WIBB 140630	METAR WIBB 140630Z 32007KT 9999 SCT013 32/21 Q1006=
14/12/2020 07:00:00Z	 SAID32 WIBB 140700	METAR WIBB 140700Z 32010KT 9999 FEW013 32/21 Q1006=
14/12/2020 07:30:00Z	 SAID32 WIBB 140730	METAR WIBB 140730Z 30010KT 9999 SCT014 32/20 Q1005=
14/12/2020 08:00:00Z	 SAID32 WIBB 140800	METAR WIBB 140800Z 32008KT 9000 SCT014 32/20 Q1005=
14/12/2020 08:30:00Z	 SAID32 WIBB 140830	METAR WIBB 140830Z 33006KT 9000 SCT014 32/21 Q1005=
14/12/2020 09:00:00Z	 SAID32 WIBB 140900	METAR WIBB 140900Z 33005KT 9000 SCT014 32/21 Q1005=
14/12/2020 09:30:00Z	 SAID32 WIBB 140930	METAR WIBB 140930Z 32007KT 9000 FEW014 31/20 Q1004=
14/12/2020 10:00:00Z	 SAID32 WIBB 141000	METAR WIBB 141000Z 04010KT 9000 FEW014 29/24 Q1005=
14/12/2020 10:30:00Z	 SAID32 WIBB 141030	METAR WIBB 141030Z 03006KT 9000 FEW014 28/23 Q1006=
14/12/2020 11:00:00Z	 SAID32 WIBB 141100	METAR WIBB 141100Z 04007KT 8000 FEW014 28/23 Q1006=
14/12/2020 11:30:00Z	 SAID32 WIBB 141130	METAR WIBB 141130Z 04007KT 8000 FEW014 28/23 Q1007=
14/12/2020 12:00:00Z	 SAID32 WIBB 141200	METAR WIBB 141200Z 05006KT 8000 FEW014 27/24 Q1007=
14/12/2020 12:30:00Z	 SAID32 WIBB 141230	METAR WIBB 141230Z 05005KT 8000 FEW014 27/24 Q1007=
14/12/2020 13:00:00Z	 SAID32 WIBB 141300	METAR WIBB 141300Z 00000KT 8000 FEW015 27/24 Q1007=
14/12/2020 13:30:00Z	 SAID32 WIBB 141330	METAR WIBB 141330Z 00000KT 8000 FEW015 27/24 Q1008=
14/12/2020 14:00:00Z	 SAID32 WIBB 141400	METAR WIBB 141400Z 00000KT 8000 FEW015 27/24 Q1008=
14/12/2020 14:30:00Z	 SAID32 WIBB 141430	METAR WIBB 141430Z 00000KT 8000 FEW015 26/24 Q1009=
14/12/2020 15:00:00Z	 SAID32 WIBB 141500	METAR WIBB 141500Z 36005KT 8000 NSC 26/24 Q1009=
14/12/2020 15:30:00Z	 SAID32 WIBB 141530	METAR WIBB 141530Z 35005KT 8000 NSC 26/24 Q1009=
14/12/2020 16:00:00Z	 SAID32 WIBB 141600	METAR WIBB 141600Z 00000KT 8000 NSC 26/24 Q1009=
14/12/2020 16:30:00Z	 SAID32 WIBB 141630	METAR WIBB 141630Z 36005KT 8000 FEW014 26/23 Q1009=
14/12/2020 17:00:00Z	 SAID32 WIBB 141700	METAR WIBB 141700Z 00000KT 8000 FEW013 26/23 Q1009=
14/12/2020 17:30:00Z	 SAID32 WIBB 141730	METAR WIBB 141730Z 00000KT 8000 FEW013 26/24 Q1009=
14/12/2020 18:00:00Z	 SAID32 WIBB 141800	METAR WIBB 141800Z 00000KT 8000 FEW013 26/24 Q1009=
14/12/2020 21:00:00Z	 SAID32 WIBB 142100	METAR WIBB 142100Z 00000KT 8000 NSC 25/23 Q1007=
14/12/2020 22:00:00Z	 SAID32 WIBB 142200	METAR WIBB 142200Z 00000KT 8000 NSC 25/22 Q1007=
14/12/2020 23:00:00Z	 SAID32 WIBB 142300	METAR WIBB 142300Z 00000KT 8000 NSC 24/22 Q1008=
14/12/2020 23:30:00Z	 SAID32 WIBB 142330	METAR WIBB 142330Z 00000KT 8000 NSC 24/22 Q1008=
15/12/2020 00:00:00Z	 SAID32 WIBB 150000	METAR WIBB 150000Z 00000KT 8000 NSC 24/22 Q1009=
15/12/2020 00:30:00Z	 SAID32 WIBB 150030	METAR WIBB 150030Z 00000KT 9000 NSC 25/23 Q1009=
15/12/2020 01:00:00Z	 SAID32 WIBB 150100	METAR WIBB 150100Z 00000KT 8000 FEW015 26/23 Q1010=
15/12/2020 01:30:00Z	 SAID32 WIBB 150130	METAR WIBB 150130Z 00000KT 9000 FEW015 27/22 Q1010=
15/12/2020 02:00:00Z	 SAID32 WIBB 150200	METAR WIBB 150200Z 33005KT 8000 SCT013 28/23 Q1010=
15/12/2020 02:30:00Z	 SAID32 WIBB 150230	METAR WIBB 150230Z 00000KT 9000 SCT013 29/23 Q1010=
15/12/2020 03:00:00Z	 SAID32 WIBB 150300	METAR WIBB 150300Z 34005KT 9000 SCT013 30/23 Q1010=
15/12/2020 03:30:00Z	 SAID32 WIBB 150330	METAR WIBB 150330Z 34009KT 9000 SCT013 30/22 Q1010=
15/12/2020 04:00:00Z	 SAID32 WIBB 150400	METAR WIBB 150400Z 36015KT 8000 SCT012 28/24 Q1010=
15/12/2020 04:30:00Z	 SAID32 WIBB 150430	METAR WIBB 150430Z 35012KT 9000 SCT012 25/24 Q1010=
15/12/2020 05:00:00Z	 SAID32 WIBB 150500	METAR WIBB 150500Z 35008KT 8000 SCT012 26/23 Q1009=
15/12/2020 05:30:00Z	 SAID32 WIBB 150530	METAR WIBB 150530Z 35008KT 9999 SCT012 26/23 Q1009=
15/12/2020 06:00:00Z	 SAID32 WIBB 150600	METAR WIBB 150600Z 34007KT 9000 FEW015 27/23 Q1009=
15/12/2020 06:30:00Z	 SAID32 WIBB 150630	METAR WIBB 150630Z 34007KT 9000 FEW015 27/22 Q1008=
15/12/2020 07:00:00Z	 SAID32 WIBB 150700	METAR WIBB 150700Z 35009KT 9000 FEW015 28/22 Q1007=
15/12/2020 07:30:00Z	 SAID32 WIBB 150730	METAR WIBB 150730Z 35009KT 9000 FEW015 29/23 Q1007=
15/12/2020 08:00:00Z	 SAID32 WIBB 150800	METAR WIBB 150800Z 33008KT 9000 FEW015 28/22 Q1006=
15/12/2020 08:30:00Z	 SAID32 WIBB 150830	METAR WIBB 150830Z 33007KT 9000 FEW015 29/23 Q1006=
15/12/2020 09:00:00Z	 SAID32 WIBB 150900	METAR WIBB 150900Z 00000KT 9000 FEW015 29/22 Q1005=
15/12/2020 09:30:00Z	 SAID32 WIBB 150930	METAR WIBB 150930Z 36005KT 9000 FEW015 28/23 Q1005=
15/12/2020 10:00:00Z	 SAID32 WIBB 151000	METAR WIBB 151000Z 04005KT 8000 SCT014 28/23 Q1006=
15/12/2020 10:30:00Z	 SAID32 WIBB 151030	METAR WIBB 151030Z 02006KT 8000 SCT013 27/23 Q1006=
15/12/2020 11:00:00Z	 SAID32 WIBB 151100	METAR WIBB 151100Z 00000KT 8000 FEW014 26/23 Q1006=
15/12/2020 11:30:00Z	 SAID32 WIBB 151130	METAR WIBB 151130Z 00000KT 8000 FEW014 26/24 Q1007=
15/12/2020 12:00:00Z	 SAID32 WIBB 151200	METAR WIBB 151200Z 00000KT 8000 FEW014 26/24 Q1007=
15/12/2020 12:30:00Z	 SAID32 WIBB 151230	METAR WIBB 151230Z 00000KT 8000 FEW014 26/23 Q1008=
15/12/2020 13:00:00Z	 SAID32 WIBB 151300	METAR WIBB 151300Z 00000KT 7000 FEW014 26/24 Q1009=
15/12/2020 13:30:00Z	 SAID32 WIBB 151330	METAR WIBB 151330Z 00000KT 7000 FEW014 26/24 Q1009=
15/12/2020 14:00:00Z	 SAID32 WIBB 151400	METAR WIBB 151400Z 00000KT 7000 FEW014 26/24 Q1010=
15/12/2020 14:30:00Z	 SAID32 WIBB 151430	METAR WIBB 151430Z 00000KT 7000 FEW014 26/24 Q1010=
15/12/2020 15:00:00Z	 SAID32 WIBB 151500	METAR WIBB 151500Z 00000KT 7000 FEW014 26/24 Q1010=
15/12/2020 15:30:00Z	 SAID32 WIBB 151530	METAR WIBB 151530Z 20006KT 7000 FEW014 26/24 Q1010=
15/12/2020 16:00:00Z	 SAID32 WIBB 151600	METAR WIBB 151600Z 18006KT 7000 SCT014 26/24 Q1010=
15/12/2020 18:00:00Z	 SAID32 WIBB 151800	METAR WIBB 151800Z 00000KT 7000 SCT013 24/23 Q1010=
15/12/2020 22:00:00Z	 SAID32 WIBB 152200	METAR WIBB 152200Z 32008KT 6000 FEW013 23/22 Q1009=
15/12/2020 22:30:00Z	 SAID32 WIBB 152230	METAR WIBB 152230Z 33006KT 6000 SCT013 23/22 Q1010=
15/12/2020 23:00:00Z	 SAID32 WIBB 152300	METAR WIBB 152300Z 33007KT 6000 -RA SCT013 22/22 Q1010=
15/12/2020 23:30:00Z	 SAID32 WIBB 152330	METAR WIBB 152330Z 32005KT 6000 -RA SCT013 23/22 Q1010=
16/12/2020 00:00:00Z	 SAID32 WIBB 160000	METAR WIBB 160000Z 32005KT 6000 -RA SCT014 23/22 Q1010=
16/12/2020 00:30:00Z	 SAID32 WIBB 160030	METAR WIBB 160030Z 00000KT 7000 SCT013 23/23 Q1011=
16/12/2020 01:00:00Z	 SAID32 WIBB 160100	METAR WIBB 160100Z 00000KT 8000 SCT015 23/23 Q1011=
16/12/2020 01:30:00Z	 SAID32 WIBB 160130	METAR WIBB 160130Z 00000KT 9000 SCT015 24/23 Q1011=
16/12/2020 02:00:00Z	 SAID32 WIBB 160200	METAR WIBB 160200Z 00000KT 9000 FEW010 25/24 Q1011=
16/12/2020 02:30:00Z	 SAID32 WIBB 160230	METAR WIBB 160230Z 29005KT 9000 FEW010 26/23 Q1011=
16/12/2020 03:00:00Z	 SAID32 WIBB 160300	METAR WIBB 160300Z 32005KT 9000 NSC 26/24 Q1011=
16/12/2020 03:30:00Z	 SAID32 WIBB 160330	METAR WIBB 160330Z 34005KT 9000 NSC 27/23 Q1011=
16/12/2020 04:00:00Z	 SAID32 WIBB 160400	METAR WIBB 160400Z 33005KT 9000 NSC 27/24 Q1011=
16/12/2020 04:30:00Z	 SAID32 WIBB 160430	METAR WIBB 160430Z 33005KT 9000 NSC 28/24 Q1011=
16/12/2020 05:00:00Z	 SAID32 WIBB 160500	METAR WIBB 160500Z 00000KT 9000 NSC 28/23 Q1010=
16/12/2020 05:30:00Z	 SAID32 WIBB 160530	METAR WIBB 160530Z 35006KT 9000 NSC 29/23 Q1010=
16/12/2020 06:00:00Z	 SAID32 WIBB 160600	METAR WIBB 160600Z 34005KT 9000 NSC 29/23 Q1009=
16/12/2020 06:30:00Z	 SAID32 WIBB 160630	METAR WIBB 160630Z 31005KT 9000 NSC 29/24 Q1008=
16/12/2020 07:00:00Z	 SAID32 WIBB 160700	METAR WIBB 160700Z 35007KT 9000 SCT016 30/23 Q1008=
16/12/2020 07:30:00Z	 SAID32 WIBB 160730	METAR WIBB 160730Z 33005KT 9000 SCT016 29/23 Q1007=
16/12/2020 08:00:00Z	 SAID32 WIBB 160800	METAR WIBB 160800Z 35006KT 9000 SCT016 30/23 Q1006=
16/12/2020 08:30:00Z	 SAID32 WIBB 160830	METAR WIBB 160830Z 33004KT 9000 SCT016 30/23 Q1006=
16/12/2020 09:00:00Z	 SAID32 WIBB 160900	METAR WIBB 160900Z 01004KT 9000 SCT016 30/24 Q1006=
16/12/2020 09:30:00Z	 SAID32 WIBB 160930	METAR WIBB 160930Z 00000KT 9000 SCT016 30/23 Q1006=
16/12/2020 10:00:00Z	 SAID32 WIBB 161000	METAR WIBB 161000Z 00000KT 9000 FEW016 30/23 Q1007=
16/12/2020 10:30:00Z	 SAID32 WIBB 161030	METAR WIBB 161030Z 33003KT 9000 FEW016 29/23 Q1007=
16/12/2020 11:00:00Z	 SAID32 WIBB 161100	METAR WIBB 161100Z 00000KT 9000 FEW012 28/24 Q1008=
16/12/2020 11:30:00Z	 SAID32 WIBB 161130	METAR WIBB 161130Z 00000KT 9000 FEW012 28/24 Q1008=
16/12/2020 12:00:00Z	 SAID32 WIBB 161200	METAR WIBB 161200Z 00000KT 8000 FEW012 28/24 Q1008=
16/12/2020 12:30:00Z	 SAID32 WIBB 161230	METAR WIBB 161230Z 00000KT 8000 FEW012 27/24 Q1008=
16/12/2020 13:00:00Z	 SAID32 WIBB 161300	METAR WIBB 161300Z 00000KT 8000 FEW014 25/24 Q1009=
16/12/2020 13:30:00Z	 SAID32 WIBB 161330	METAR WIBB 161330Z 00000KT 8000 FEW014 25/24 Q1009=
16/12/2020 14:00:00Z	 SAID32 WIBB 161400	METAR WIBB 161400Z 00000KT 8000 FEW014 25/24 Q1010=
16/12/2020 14:30:00Z	 SAID32 WIBB 161430	METAR WIBB 161430Z 00000KT 8000 SCT014 25/23 Q1010=
16/12/2020 15:00:00Z	 SAID32 WIBB 161500	METAR WIBB 161500Z 00000KT 9999 SCT014 25/23 Q1009=
16/12/2020 15:30:00Z	 SAID32 WIBB 161530	METAR WIBB 161530Z 00000KT 8000 SCT014 24/23 Q1009=
16/12/2020 16:00:00Z	 SAID32 WIBB 161600	METAR WIBB 161600Z 00000KT 8000 SCT014 24/23 Q1009=
16/12/2020 18:00:00Z	 SAID32 WIBB 161800	METAR WIBB 161800Z 00000KT 8000 SCT014 24/23 Q1009=
16/12/2020 21:00:00Z	 SAID32 WIBB 162100	METAR WIBB 162100Z 00000KT 9999 SCT014 24/23 Q1007=
16/12/2020 22:30:00Z	 SAID32 WIBB 162230	METAR WIBB 162230Z 00000KT 8000 SCT014 23/23 Q1007=
16/12/2020 23:00:00Z	 SAID32 WIBB 162300	METAR WIBB 162300Z 34005KT 8000 SCT014 23/23 Q1007=
16/12/2020 23:30:00Z	 SAID32 WIBB 162330	METAR WIBB 162330Z 34005KT 6000 SCT014 23/23 Q1008=
17/12/2020 00:00:00Z	 SAID32 WIBB 170000	METAR WIBB 170000Z 35005KT 8000 SCT013 23/23 Q1008=
17/12/2020 00:30:00Z	 SAID32 WIBB 170030	METAR WIBB 170030Z 01006KT 340V040 8000 FEW014 24/23 Q1008=
17/12/2020 01:00:00Z	 SAID32 WIBB 170100	METAR WIBB 170100Z 33006KT 8000 FEW013 26/23 Q1009=
17/12/2020 01:30:00Z	 SAID32 WIBB 170130	METAR WIBB 170130Z 36007KT 8000 FEW013 27/23 Q1009=
17/12/2020 02:00:00Z	 SAID32 WIBB 170200	METAR WIBB 170200Z 36006KT 8000 FEW013 28/23 Q1009=
17/12/2020 02:30:00Z	 SAID32 WIBB 170230	METAR WIBB 170230Z 33006KT 8000 FEW013 28/23 Q1009=
17/12/2020 03:00:00Z	 SAID32 WIBB 170300	METAR WIBB 170300Z 35006KT 8000 FEW013 29/23 Q1009=
17/12/2020 03:30:00Z	 SAID32 WIBB 170330	METAR WIBB 170330Z 32006KT 8000 FEW013 30/23 Q1009=
17/12/2020 04:00:00Z	 SAID32 WIBB 170400	METAR WIBB 170400Z 32006KT 8000 FEW013 30/23 Q1009=
17/12/2020 04:30:00Z	 SAID32 WIBB 170430	METAR WIBB 170430Z 32007KT 8000 SCT013 30/23 Q1009=
17/12/2020 05:00:00Z	 SAID32 WIBB 170500	METAR WIBB 170500Z 35008KT 8000 SCT013 31/23 Q1008=
17/12/2020 06:00:00Z	 SAID32 WIBB 170600	METAR WIBB 170600Z 33008KT 8000 SCT013 32/23 Q1007=
17/12/2020 06:30:00Z	 SAID32 WIBB 170630	METAR WIBB 170630Z 32007KT 8000 SCT013 32/23 Q1007=
17/12/2020 07:00:00Z	 SAID32 WIBB 170700	METAR WIBB 170700Z 32006KT 9000 SCT013 32/23 Q1007=
17/12/2020 07:30:00Z	 SAID32 WIBB 170730	METAR WIBB 170730Z 29007KT 9000 FEW013 32/23 Q1006=
17/12/2020 08:00:00Z	 SAID32 WIBB 170800	METAR WIBB 170800Z 31006KT 9000 SCT013 33/23 Q1005=
17/12/2020 08:30:00Z	 SAID32 WIBB 170830	METAR WIBB 170830Z 33007KT 9000 SCT013 33/22 Q1005=
17/12/2020 09:00:00Z	 SAID32 WIBB 170900	METAR WIBB 170900Z 32006KT 9000 SCT015 32/23 Q1005=
17/12/2020 09:30:00Z	 SAID32 WIBB 170930	METAR WIBB 170930Z 33007KT 9000 SCT015 32/23 Q1005=
17/12/2020 10:00:00Z	 SAID32 WIBB 171000	METAR WIBB 171000Z 35010KT 9000 FEW017 30/24 Q1005=
17/12/2020 10:30:00Z	 SAID32 WIBB 171030	METAR WIBB 171030Z 36007KT 9000 FEW017 29/24 Q1006=
17/12/2020 11:00:00Z	 SAID32 WIBB 171100	METAR WIBB 171100Z 35006KT 9000 FEW017 29/23 Q1006=
17/12/2020 11:30:00Z	 SAID32 WIBB 171130	METAR WIBB 171130Z 36006KT 8000 FEW017CB 28/23 Q1006=
17/12/2020 12:00:00Z	 SAID32 WIBB 171200	METAR WIBB 171200Z 36009KT 8000 FEW017CB 28/23 Q1007=
17/12/2020 12:30:00Z	 SAID32 WIBB 171230	METAR WIBB 171230Z 03007KT 8000 FEW017CB 27/24 Q1007=
17/12/2020 13:00:00Z	 SAID32 WIBB 171300	METAR WIBB 171300Z 36008KT 8000 SCT016 26/23 Q1008=
17/12/2020 13:30:00Z	 SAID32 WIBB 171330	METAR WIBB 171330Z 32006KT 8000 SCT016 27/23 Q1009=
17/12/2020 14:00:00Z	 SAID32 WIBB 171400	METAR WIBB 171400Z 25008KT 6000 BKN016 26/24 Q1010=
17/12/2020 14:30:00Z	 SAID32 WIBB 171430	METAR WIBB 171430Z 20009KT 6000 -RA BKN016 24/23 Q1010=
17/12/2020 15:00:00Z	 SAID32 WIBB 171500	METAR WIBB 171500Z 00000KT 5000 -TSRA BKN012 FEW016CB 23/22 Q1010=
17/12/2020 15:30:00Z	 SAID32 WIBB 171530	METAR WIBB 171530Z 32006KT 5000 -TSRA BKN012 FEW016CB 24/23 Q1010=
17/12/2020 16:00:00Z	 SAID32 WIBB 171600	METAR WIBB 171600Z 35007KT 5000 -TSRA BKN011 FEW016CB 23/23 Q1010=
17/12/2020 16:30:00Z	 SAID32 WIBB 171630	METAR WIBB 171630Z 32005KT 5000 -TSRA BKN011 FEW016CB 23/22 Q1010=
17/12/2020 17:00:00Z	 SAID32 WIBB 171700	METAR WIBB 171700Z 30004KT 5000 -RA BKN011 23/22 Q1010=
17/12/2020 17:30:00Z	 SAID32 WIBB 171730	METAR WIBB 171730Z 29004KT 6000 -RA BKN011 23/22 Q1010=
17/12/2020 18:00:00Z	 SAID32 WIBB 171800	METAR WIBB 171800Z 31004KT 5000 -RA BKN011 23/22 Q1010=
17/12/2020 18:30:00Z	 SAID32 WIBB 171830	METAR WIBB 171830Z 31004KT 5000 -RA BKN011 23/22 Q1009=
17/12/2020 19:00:00Z	 SAID32 WIBB 171900	METAR WIBB 171900Z 32004KT 5000 -RA BKN011 23/22 Q1009=
17/12/2020 19:30:00Z	 SAID32 WIBB 171930	METAR WIBB 171930Z 32004KT 5000 -RA BKN011 23/22 Q1009=
17/12/2020 20:00:00Z	 SAID32 WIBB 172000	METAR WIBB 172000Z 31004KT 6000 -RA BKN012 23/22 Q1008=
17/12/2020 20:30:00Z	 SAID32 WIBB 172030	METAR WIBB 172030Z 32004KT 6000 -RA BKN012 23/22 Q1008=
17/12/2020 21:00:00Z	 SAID32 WIBB 172100	METAR WIBB 172100Z 33004KT 6000 -RA BKN012 23/22 Q1008=
17/12/2020 21:30:00Z	 SAID32 WIBB 172130	METAR WIBB 172130Z 34004KT 7000 SCT014 23/22 Q1008=
17/12/2020 22:00:00Z	 SAID32 WIBB 172200	METAR WIBB 172200Z 32004KT 7000 SCT014 23/22 Q1008=
17/12/2020 22:30:00Z	 SAID32 WIBB 172230	METAR WIBB 172230Z 32004KT 7000 SCT014 23/22 Q1008=
17/12/2020 23:00:00Z	 SAID32 WIBB 172300	METAR WIBB 172300Z 32004KT 7000 SCT014 23/22 Q1008=
17/12/2020 23:30:00Z	 SAID32 WIBB 172330	METAR WIBB 172330Z 33004KT 5000 SCT012 23/22 Q1008=
18/12/2020 00:00:00Z	 SAID32 WIBB 180000	METAR WIBB 180000Z 32005KT 4000 BR BKN010 23/22 Q1008=
18/12/2020 00:30:00Z	 SAID32 WIBB 180030	METAR WIBB 180030Z 35005KT 4000 BR BKN010 23/22 Q1008=
18/12/2020 01:00:00Z	 SAID32 WIBB 180100	METAR WIBB 180100Z 00000KT 7000 BKN006 23/22 Q1008=
18/12/2020 01:30:00Z	 SAID32 WIBB 180130	METAR WIBB 180130Z 29005KT 8000 BKN008 24/22 Q1009=
18/12/2020 02:00:00Z	 SAID32 WIBB 180200	METAR WIBB 180200Z 32006KT 8000 SCT010 24/22 Q1010=
18/12/2020 02:30:00Z	 SAID32 WIBB 180230	METAR WIBB 180230Z 35006KT 8000 SCT010 25/22 Q1010=
18/12/2020 03:00:00Z	 SAID32 WIBB 180300	METAR WIBB 180300Z 33007KT 8000 SCT012 25/22 Q1010=
18/12/2020 03:30:00Z	 SAID32 WIBB 180330	METAR WIBB 180330Z 34006KT 8000 SCT012 27/22 Q1010=
18/12/2020 04:00:00Z	 SAID32 WIBB 180400	METAR WIBB 180400Z 35005KT 8000 SCT012 27/23 Q1010=
18/12/2020 04:30:00Z	 SAID32 WIBB 180430	METAR WIBB 180430Z 29006KT 8000 SCT012 28/23 Q1009=
18/12/2020 05:00:00Z	 SAID32 WIBB 180500	METAR WIBB 180500Z 30005KT 8000 SCT012 29/22 Q1009=
18/12/2020 05:30:00Z	 SAID32 WIBB 180530	METAR WIBB 180530Z 34007KT 8000 SCT012 30/22 Q1008=
18/12/2020 06:30:00Z	 SAID32 WIBB 180630	METAR WIBB 180630Z 32006KT 8000 SCT012 30/22 Q1007=
18/12/2020 07:00:00Z	 SAID32 WIBB 180700	METAR WIBB 180700Z 33007KT 8000 BKN013 30/23 Q1006=
18/12/2020 07:30:00Z	 SAID32 WIBB 180730	METAR WIBB 180730Z 33007KT 8000 BKN013 30/23 Q1006=
18/12/2020 08:00:00Z	 SAID32 WIBB 180800	METAR WIBB 180800Z 35007KT 8000 BKN013 30/23 Q1006=
18/12/2020 08:30:00Z	 SAID32 WIBB 180830	METAR WIBB 180830Z 35008KT 8000 BKN013 30/23 Q1006=
18/12/2020 09:00:00Z	 SAID32 WIBB 180900	METAR WIBB 180900Z 36008KT 8000 BKN013 30/23 Q1006=
18/12/2020 09:30:00Z	 SAID32 WIBB 180930	METAR WIBB 180930Z 36007KT 8000 SCT013 29/22 Q1006=
18/12/2020 10:00:00Z	 SAID32 WIBB 181000	METAR WIBB 181000Z 35007KT 8000 SCT013 29/21 Q1006=
18/12/2020 10:30:00Z	 SAID32 WIBB 181030	METAR WIBB 181030Z 34006KT 8000 SCT013 28/21 Q1006=
18/12/2020 11:00:00Z	 SAID32 WIBB 181100	METAR WIBB 181100Z 02005KT 8000 SCT013 28/23 Q1006=
18/12/2020 15:30:00Z	 SAID32 WIBB 181530	METAR WIBB 181530Z 00000KT 8000 FEW015 26/23 Q1010=
18/12/2020 16:00:00Z	 SAID32 WIBB 181600	METAR WIBB 181600Z 00000KT 8000 FEW015 26/23 Q1010=
18/12/2020 16:30:00Z	 SAID32 WIBB 181630	METAR WIBB 181630Z 00000KT 8000 FEW015 26/23 Q1009=
18/12/2020 17:00:00Z	 SAID32 WIBB 181700	METAR WIBB 181700Z 00000KT 8000 FEW015 26/23 Q1009=
18/12/2020 17:30:00Z	 SAID32 WIBB 181730	METAR WIBB 181730Z 00000KT 8000 FEW015 25/23 Q1009=
18/12/2020 18:00:00Z	 SAID32 WIBB 181800	METAR WIBB 181800Z 00000KT 8000 FEW013 25/23 Q1009=
18/12/2020 21:00:00Z	 SAID32 WIBB 182100	METAR WIBB 182100Z 00000KT 8000 NSC 24/23 Q1008=
18/12/2020 22:00:00Z	 SAID32 WIBB 182200	METAR WIBB 182200Z 00000KT 8000 NSC 24/23 Q1008=
18/12/2020 23:00:00Z	 SAID32 WIBB 182300	METAR WIBB 182300Z 00000KT 8000 NSC 24/23 Q1008=
18/12/2020 23:30:00Z	 SAID32 WIBB 182330	METAR WIBB 182330Z 00000KT 8000 NSC 24/23 Q1009=
19/12/2020 00:00:00Z	 SAID32 WIBB 190000	METAR WIBB 190000Z 00000KT 7000 NSC 24/23 Q1009=
19/12/2020 00:30:00Z	 SAID32 WIBB 190030	METAR WIBB 190030Z 00000KT 7000 NSC 25/23 Q1010=
19/12/2020 01:00:00Z	 SAID32 WIBB 190100	METAR WIBB 190100Z 34004KT 8000 SCT013 25/24 Q1011=
19/12/2020 01:30:00Z	 SAID32 WIBB 190130	METAR WIBB 190130Z 36005KT 8000 BKN013 26/24 Q1011=
19/12/2020 02:00:00Z	 SAID32 WIBB 190200	METAR WIBB 190200Z 36008KT 8000 BKN013 27/23 Q1011=
19/12/2020 02:30:00Z	 SAID32 WIBB 190230	METAR WIBB 190230Z 36008KT 8000 BKN013 27/23 Q1011=
19/12/2020 03:00:00Z	 SAID32 WIBB 190300	METAR WIBB 190300Z 35008KT 8000 BKN013 27/23 Q1011=
19/12/2020 03:30:00Z	 SAID32 WIBB 190330	METAR WIBB 190330Z 35010KT 8000 BKN013 27/23 Q1011=
19/12/2020 04:00:00Z	 SAID32 WIBB 190400	METAR WIBB 190400Z 35008KT 9000 SCT013 28/23 Q1010=
19/12/2020 04:30:00Z	 SAID32 WIBB 190430	METAR WIBB 190430Z 34008KT 9000 SCT013 28/23 Q1010=
19/12/2020 05:00:00Z	 SAID32 WIBB 190500	METAR WIBB 190500Z 34007KT 9000 SCT013 29/23 Q1009=
19/12/2020 05:30:00Z	 SAID32 WIBB 190530	METAR WIBB 190530Z 34007KT 9000 SCT013 29/23 Q1009=
19/12/2020 06:00:00Z	 SAID32 WIBB 190600	METAR WIBB 190600Z 30005KT 9000 SCT013 29/23 Q1008=
19/12/2020 06:30:00Z	 SAID32 WIBB 190630	METAR WIBB 190630Z 32005KT 9000 SCT013 29/22 Q1008=
19/12/2020 07:00:00Z	 SAID32 WIBB 190700	METAR WIBB 190700Z 34008KT 9000 BKN013 30/22 Q1007=
19/12/2020 07:30:00Z	 SAID32 WIBB 190730	METAR WIBB 190730Z 34007KT 9000 BKN013 30/22 Q1007=
19/12/2020 08:00:00Z	 SAID32 WIBB 190800	METAR WIBB 190800Z 35008KT 9000 SCT012 30/22 Q1006=
19/12/2020 08:30:00Z	 SAID32 WIBB 190830	METAR WIBB 190830Z 35009KT 9000 SCT012 30/22 Q1006=
19/12/2020 09:00:00Z	 SAID32 WIBB 190900	METAR WIBB 190900Z 35009KT 9999 FEW014 30/22 Q1006=
19/12/2020 09:30:00Z	 SAID32 WIBB 190930	METAR WIBB 190930Z 36006KT 9999 FEW014 30/22 Q1006=
19/12/2020 10:30:00Z	 SAID32 WIBB 191030	METAR WIBB 191030Z 36006KT 9999 FEW014 29/22 Q1007=
19/12/2020 11:00:00Z	 SAID32 WIBB 191100	METAR WIBB 191100Z 36005KT 9000 FEW014 28/22 Q1007=
19/12/2020 11:30:00Z	 SAID32 WIBB 191130	METAR WIBB 191130Z 01005KT 8000 FEW014 27/22 Q1007=
19/12/2020 12:00:00Z	 SAID32 WIBB 191200	METAR WIBB 191200Z 00000KT 8000 FEW015 27/23 Q1008=
19/12/2020 12:30:00Z	 SAID32 WIBB 191230	METAR WIBB 191230Z 05004KT 8000 FEW015 27/23 Q1009=
19/12/2020 13:00:00Z	 SAID32 WIBB 191300	METAR WIBB 191300Z 00000KT 8000 BKN013 27/24 Q1009=
19/12/2020 13:30:00Z	 SAID32 WIBB 191330	METAR WIBB 191330Z 00000KT 8000 BKN013 27/23 Q1010=
19/12/2020 14:00:00Z	 SAID32 WIBB 191400	METAR WIBB 191400Z 00000KT 8000 BKN013 26/24 Q1010=
19/12/2020 23:00:00Z	 SAID32 WIBB 192300	METAR WIBB 192300Z 00000KT 8000 FEW013 23/22 Q1008=
19/12/2020 23:30:00Z	 SAID32 WIBB 192330	METAR WIBB 192330Z 00000KT 7000 FEW013 23/22 Q1008=
20/12/2020 00:00:00Z	 SAID32 WIBB 200000	METAR WIBB 200000Z 00000KT 7000 FEW013 24/23 Q1009=
20/12/2020 00:30:00Z	 SAID32 WIBB 200030	METAR WIBB 200030Z 00000KT 7000 FEW013 24/23 Q1009=
20/12/2020 01:00:00Z	 SAID32 WIBB 200100	METAR WIBB 200100Z 00000KT 8000 FEW013 25/23 Q1010=
20/12/2020 01:30:00Z	 SAID32 WIBB 200130	METAR WIBB 200130Z 33004KT 8000 FEW013 25/23 Q1010=
20/12/2020 02:00:00Z	 SAID32 WIBB 200200	METAR WIBB 200200Z 00000KT 9000 FEW013 26/23 Q1010=
20/12/2020 02:30:00Z	 SAID32 WIBB 200230	METAR WIBB 200230Z 34005KT 9000 FEW013 28/22 Q1010=
20/12/2020 03:00:00Z	 SAID32 WIBB 200300	METAR WIBB 200300Z 34008KT 9999 FEW012 29/23 Q1010=
20/12/2020 03:30:00Z	 SAID32 WIBB 200330	METAR WIBB 200330Z 34008KT 9999 FEW012 29/22 Q1010=
20/12/2020 04:00:00Z	 SAID32 WIBB 200400	METAR WIBB 200400Z 35007KT 9999 FEW014 29/23 Q1010=
20/12/2020 04:30:00Z	 SAID32 WIBB 200430	METAR WIBB 200430Z 33007KT 9999 FEW014 29/23 Q1010=
20/12/2020 05:00:00Z	 SAID32 WIBB 200500	METAR WIBB 200500Z 30005KT 9999 SCT014 29/23 Q1009=
20/12/2020 05:30:00Z	 SAID32 WIBB 200530	METAR WIBB 200530Z 35005KT 9999 SCT014 30/23 Q1009=
20/12/2020 06:00:00Z	 SAID32 WIBB 200600	METAR WIBB 200600Z 34005KT 9999 BKN014 30/23 Q1008=
20/12/2020 06:30:00Z	 SAID32 WIBB 200630	METAR WIBB 200630Z 33004KT 9999 BKN014 31/22 Q1007=
20/12/2020 07:00:00Z	 SAID32 WIBB 200700	METAR WIBB 200700Z 34005KT 9999 BKN014 31/22 Q1007=
20/12/2020 07:30:00Z	 SAID32 WIBB 200730	METAR WIBB 200730Z 32006KT 9999 BKN014 31/22 Q1006=
20/12/2020 08:00:00Z	 SAID32 WIBB 200800	METAR WIBB 200800Z 03008KT 9000 SCT013 FEW015CB 30/23 Q1006=
20/12/2020 08:30:00Z	 SAID32 WIBB 200830	METAR WIBB 200830Z 02010KT 5000 -RA SCT013 FEW015CB 25/24 Q1007=
20/12/2020 09:00:00Z	 SAID32 WIBB 200900	METAR WIBB 200900Z 35009KT 8000 -TSRA SCT013 FEW015CB 25/23 Q1007=
20/12/2020 09:30:00Z	 SAID32 WIBB 200930	METAR WIBB 200930Z 02006KT 8000 TS SCT014 FEW016CB 25/23 Q1007=
20/12/2020 10:00:00Z	 SAID32 WIBB 201000	METAR WIBB 201000Z 02008KT 8000 SCT014 26/22 Q1007=
20/12/2020 10:30:00Z	 SAID32 WIBB 201030	METAR WIBB 201030Z 03006KT 8000 SCT014 26/22 Q1008=
20/12/2020 11:00:00Z	 SAID32 WIBB 201100	METAR WIBB 201100Z 02006KT 8000 SCT015 26/22 Q1008=
20/12/2020 11:30:00Z	 SAID32 WIBB 201130	METAR WIBB 201130Z 02005KT 8000 SCT015 26/22 Q1008=
20/12/2020 12:00:00Z	 SAID32 WIBB 201200	METAR WIBB 201200Z 01005KT 8000 SCT015 25/22 Q1009=
20/12/2020 12:30:00Z	 SAID32 WIBB 201230	METAR WIBB 201230Z 00000KT 8000 FEW015 25/22 Q1009=
20/12/2020 13:00:00Z	 SAID32 WIBB 201300	METAR WIBB 201300Z 00000KT 8000 SCT015 25/22 Q1009=
20/12/2020 13:30:00Z	 SAID32 WIBB 201330	METAR WIBB 201330Z 34004KT 8000 SCT015 25/22 Q1010=
20/12/2020 14:00:00Z	 SAID32 WIBB 201400	METAR WIBB 201400Z 00000KT 8000 SCT015 25/22 Q1010=
20/12/2020 14:30:00Z	 SAID32 WIBB 201430	METAR WIBB 201430Z 00000KT 8000 FEW015 25/23 Q1011=
20/12/2020 15:00:00Z	 SAID32 WIBB 201500	METAR WIBB 201500Z 00000KT 8000 FEW015 25/23 Q1011=
20/12/2020 16:00:00Z	 SAID32 WIBB 201600	METAR WIBB 201600Z 00000KT 8000 FEW015 24/23 Q1010=
20/12/2020 16:30:00Z	 SAID32 WIBB 201630	METAR WIBB 201630Z 00000KT 8000 FEW015 24/23 Q1010=
20/12/2020 17:00:00Z	 SAID32 WIBB 201700	METAR WIBB 201700Z 00000KT 8000 FEW015 24/23 Q1010=
20/12/2020 18:00:00Z	 SAID32 WIBB 201800	METAR WIBB 201800Z 00000KT 8000 FEW015 24/23 Q1009=
20/12/2020 21:00:00Z	 SAID32 WIBB 202100	METAR WIBB 202100Z 00000KT 8000 FEW015 24/23 Q1008=
20/12/2020 22:30:00Z	 SAID32 WIBB 202230	METAR WIBB 202230Z 00000KT 8000 FEW015 24/23 Q1008=
20/12/2020 23:00:00Z	 SAID32 WIBB 202300	METAR WIBB 202300Z 00000KT 7000 FEW015 24/23 Q1008=
20/12/2020 23:30:00Z	 SAID32 WIBB 202330	METAR WIBB 202330Z 00000KT 7000 FEW015 24/23 Q1009=
21/12/2020 00:00:00Z	 SAID32 WIBB 210000	METAR WIBB 210000Z 00000KT 7000 FEW015 24/23 Q1009=
21/12/2020 00:30:00Z	 SAID32 WIBB 210030	METAR WIBB 210030Z 00000KT 8000 FEW015 25/23 Q1009=
21/12/2020 01:00:00Z	 SAID32 WIBB 210100	METAR WIBB 210100Z 00000KT 7000 FEW015 25/23 Q1010=
21/12/2020 01:30:00Z	 SAID32 WIBB 210130	METAR WIBB 210130Z 00000KT 8000 FEW015 26/23 Q1010=
21/12/2020 02:00:00Z	 SAID32 WIBB 210200	METAR WIBB 210200Z 00000KT 8000 FEW015 27/22 Q1010=
21/12/2020 02:30:00Z	 SAID32 WIBB 210230	METAR WIBB 210230Z 00000KT 8000 FEW015 27/22 Q1010=
21/12/2020 03:00:00Z	 SAID32 WIBB 210300	METAR WIBB 210300Z 00000KT 8000 FEW015 28/22 Q1010=
21/12/2020 03:30:00Z	 SAID32 WIBB 210330	METAR WIBB 210330Z 00000KT 9999 FEW015 29/22 Q1010=
21/12/2020 04:00:00Z	 SAID32 WIBB 210400	METAR WIBB 210400Z 09008KT 9000 SCT013 29/21 Q1009=
21/12/2020 04:30:00Z	 SAID32 WIBB 210430	METAR WIBB 210430Z 00000KT 9000 SCT013 29/21 Q1009=
21/12/2020 05:00:00Z	 SAID32 WIBB 210500	METAR WIBB 210500Z 00000KT 9000 SCT013 30/21 Q1009=
21/12/2020 05:30:00Z	 SAID32 WIBB 210530	METAR WIBB 210530Z 05007KT 9000 SCT013 30/22 Q1008=
21/12/2020 06:00:00Z	 SAID32 WIBB 210600	METAR WIBB 210600Z 04005KT 9000 SCT013 30/21 Q1008=
21/12/2020 06:30:00Z	 SAID32 WIBB 210630	METAR WIBB 210630Z 00000KT 9000 SCT013 30/21 Q1007=
21/12/2020 07:00:00Z	 SAID32 WIBB 210700	METAR WIBB 210700Z 00000KT 9000 SCT013 30/22 Q1006=
21/12/2020 07:30:00Z	 SAID32 WIBB 210730	METAR WIBB 210730Z 00000KT 9000 SCT013 30/21 Q1006=
21/12/2020 13:00:00Z	 SAID32 WIBB 211300	METAR WIBB 211300Z 00000KT 7000 SCT012 25/23 Q1008=
21/12/2020 13:30:00Z	 SAID32 WIBB 211330	METAR WIBB 211330Z 00000KT 7000 SCT012 25/24 Q1008=
21/12/2020 14:00:00Z	 SAID32 WIBB 211400	METAR WIBB 211400Z 00000KT 7000 SCT012 25/24 Q1008=
21/12/2020 14:30:00Z	 SAID32 WIBB 211430	METAR WIBB 211430Z 00000KT 7000 SCT012 25/24 Q1009=
21/12/2020 15:00:00Z	 SAID32 WIBB 211500	METAR WIBB 211500Z 00000KT 7000 SCT012 25/24 Q1009=
21/12/2020 15:30:00Z	 SAID32 WIBB 211530	METAR WIBB 211530Z 00000KT 7000 SCT012 25/24 Q1009=
21/12/2020 16:00:00Z	 SAID32 WIBB 211600	METAR WIBB 211600Z 00000KT 7000 SCT013 25/24 Q1009=
21/12/2020 16:30:00Z	 SAID32 WIBB 211630	METAR WIBB 211630Z 00000KT 7000 SCT012 25/24 Q1009=
21/12/2020 17:00:00Z	 SAID32 WIBB 211700	METAR WIBB 211700Z 00000KT 7000 SCT013 25/24 Q1009=
21/12/2020 21:00:00Z	 SAID32 WIBB 212100	METAR WIBB 212100Z 00000KT 7000 SCT013 24/24 Q1007=
21/12/2020 22:00:00Z	 SAID32 WIBB 212200	METAR WIBB 212200Z 00000KT 6000 SCT013 24/24 Q1007=
21/12/2020 23:00:00Z	 SAID32 WIBB 212300	METAR WIBB 212300Z 00000KT 4000 BR SCT013 24/23 Q1008=
21/12/2020 23:30:00Z	 SAID32 WIBB 212330	METAR WIBB 212330Z 00000KT 5000 BR SCT013 24/23 Q1008=
22/12/2020 00:00:00Z	 SAID32 WIBB 220000	METAR WIBB 220000Z 00000KT 6000 SCT013 25/23 Q1008=
22/12/2020 00:30:00Z	 SAID32 WIBB 220030	METAR WIBB 220030Z 00000KT 7000 SCT013 25/24 Q1009=
22/12/2020 01:00:00Z	 SAID32 WIBB 220100	METAR WIBB 220100Z 00000KT CAVOK 26/23 Q1009=
22/12/2020 01:30:00Z	 SAID32 WIBB 220130	METAR WIBB 220130Z 29005KT CAVOK 27/23 Q1009=
22/12/2020 02:00:00Z	 SAID32 WIBB 220200	METAR WIBB 220200Z 00000KT 9999 FEW009 28/23 Q1009=
22/12/2020 02:30:00Z	 SAID32 WIBB 220230	METAR WIBB 220230Z VRB00KT 9999 FEW010 28/23 Q1009=
22/12/2020 03:00:00Z	 SAID32 WIBB 220300	METAR WIBB 220300Z 00000KT 9999 SCT014 28/23 Q1009=
22/12/2020 03:30:00Z	 SAID32 WIBB 220330	METAR WIBB 220330Z 36006KT 9999 SCT014 28/23 Q1009=
22/12/2020 04:00:00Z	 SAID32 WIBB 220400	METAR WIBB 220400Z 00000KT 9999 SCT014 30/23 Q1008=
22/12/2020 04:30:00Z	 SAID32 WIBB 220430	METAR WIBB 220430Z 00000KT 9999 SCT014 30/23 Q1008=
22/12/2020 05:00:00Z	 SAID32 WIBB 220500	METAR WIBB 220500Z 35005KT 9999 BKN015 31/23 Q1008=
22/12/2020 05:30:00Z	 SAID32 WIBB 220530	METAR WIBB 220530Z 36006KT 9999 BKN015 31/23 Q1007=
22/12/2020 06:00:00Z	 SAID32 WIBB 220600	METAR WIBB 220600Z 34006KT 9999 BKN015 31/22 Q1007=
22/12/2020 06:30:00Z	 SAID32 WIBB 220630	METAR WIBB 220630Z 00000KT 9999 SCT015 31/22 Q1006=
22/12/2020 07:00:00Z	 SAID32 WIBB 220700	METAR WIBB 220700Z 00000KT 9000 SCT015 31/22 Q1005=
22/12/2020 07:30:00Z	 SAID32 WIBB 220730	METAR WIBB 220730Z 03006KT 9000 SCT015 31/23 Q1005=
22/12/2020 08:00:00Z	 SAID32 WIBB 220800	METAR WIBB 220800Z 05010KT 8000 SCT013 FEW016CB 30/23 Q1005=
22/12/2020 08:30:00Z	 SAID32 WIBB 220830	METAR WIBB 220830Z 08006KT 8000 SCT013 FEW015CB 30/24 Q1004=
22/12/2020 09:00:00Z	 SAID32 WIBB 220900	METAR WIBB 220900Z 07005KT 8000 SCT013 FEW015CB 30/24 Q1004=
22/12/2020 09:30:00Z	 SAID32 WIBB 220930	METAR WIBB 220930Z 07008KT 8000 SCT013 FEW015CB 29/23 Q1004=
22/12/2020 10:00:00Z	 SAID32 WIBB 221000	METAR WIBB 221000Z 00000KT 8000 SCT013 28/24 Q1005=
22/12/2020 10:30:00Z	 SAID32 WIBB 221030	METAR WIBB 221030Z 05005KT 8000 -RA SCT013 FEW016CB 29/24 Q1005=
22/12/2020 11:00:00Z	 SAID32 WIBB 221100	METAR WIBB 221100Z 05005KT 8000 SCT014 29/23 Q1005=
22/12/2020 11:30:00Z	 SAID32 WIBB 221130	METAR WIBB 221130Z 04005KT 8000 SCT013 28/24 Q1006=
22/12/2020 12:00:00Z	 SAID32 WIBB 221200	METAR WIBB 221200Z 04005KT 8000 SCT014 28/24 Q1006=
22/12/2020 12:30:00Z	 SAID32 WIBB 221230	METAR WIBB 221230Z 00000KT 8000 SCT014 27/24 Q1006=
22/12/2020 13:00:00Z	 SAID32 WIBB 221300	METAR WIBB 221300Z 00000KT 8000 SCT013 27/24 Q1007=
22/12/2020 13:30:00Z	 SAID32 WIBB 221330	METAR WIBB 221330Z 05004KT 9000 SCT013 27/24 Q1007=
22/12/2020 14:00:00Z	 SAID32 WIBB 221400	METAR WIBB 221400Z 04005KT 8000 SCT013 26/24 Q1007=
22/12/2020 14:30:00Z	 SAID32 WIBB 221430	METAR WIBB 221430Z 00000KT 8000 SCT013 26/24 Q1008=
22/12/2020 15:00:00Z	 SAID32 WIBB 221500	METAR WIBB 221500Z 00000KT 8000 SCT013 26/23 Q1008=
22/12/2020 15:30:00Z	 SAID32 WIBB 221530	METAR WIBB 221530Z 00000KT 8000 SCT013 26/23 Q1008=
22/12/2020 16:00:00Z	 SAID32 WIBB 221600	METAR WIBB 221600Z 00000KT 8000 SCT060 26/23 Q1008=
22/12/2020 16:30:00Z	 SAID32 WIBB 221630	METAR WIBB 221630Z 00000KT 8000 SCT013 26/23 Q1008=
22/12/2020 18:00:00Z	 SAID32 WIBB 221800	METAR WIBB 221800Z 00000KT 6000 -RA SCT013 25/24 Q1008=
22/12/2020 21:00:00Z	 SAID32 WIBB 222100	METAR WIBB 222100Z 00000KT 7000 SCT013 23/21 Q1006=
22/12/2020 22:30:00Z	 SAID32 WIBB 222230	METAR WIBB 222230Z 00000KT 7000 SCT013 23/21 Q1007=
22/12/2020 23:00:00Z	 SAID32 WIBB 222300	METAR WIBB 222300Z 00000KT 7000 FEW013 23/21 Q1007=
22/12/2020 23:30:00Z	 SAID32 WIBB 222330	METAR WIBB 222330Z 00000KT 7000 FEW013 23/22 Q1007=
23/12/2020 00:00:00Z	 SAID32 WIBB 230000	METAR WIBB 230000Z 00000KT 7000 FEW015 23/22 Q1007=
23/12/2020 00:30:00Z	 SAID32 WIBB 230030	METAR WIBB 230030Z 00000KT 7000 FEW015 24/22 Q1008=
23/12/2020 01:00:00Z	 SAID32 WIBB 230100	METAR WIBB 230100Z 00000KT 8000 FEW013 27/23 Q1008=
23/12/2020 01:30:00Z	 SAID32 WIBB 230130	METAR WIBB 230130Z 00000KT 8000 FEW013 28/22 Q1008=
23/12/2020 02:00:00Z	 SAID32 WIBB 230200	METAR WIBB 230200Z 00000KT 8000 FEW013 28/23 Q1008=
23/12/2020 02:30:00Z	 SAID32 WIBB 230230	METAR WIBB 230230Z 35007KT 8000 FEW013 29/22 Q1008=
23/12/2020 03:00:00Z	 SAID32 WIBB 230300	METAR WIBB 230300Z 35005KT 8000 FEW013 30/22 Q1008=
23/12/2020 03:30:00Z	 SAID32 WIBB 230330	METAR WIBB 230330Z 33005KT 8000 FEW013 30/21 Q1007=
23/12/2020 04:00:00Z	 SAID32 WIBB 230400	METAR WIBB 230400Z 34007KT 8000 FEW013 31/21 Q1007=
23/12/2020 04:30:00Z	 SAID32 WIBB 230430	METAR WIBB 230430Z 35006KT 8000 FEW013 31/21 Q1006=
23/12/2020 05:00:00Z	 SAID32 WIBB 230500	METAR WIBB 230500Z 33006KT 8000 SCT013 32/22 Q1006=
23/12/2020 05:30:00Z	 SAID32 WIBB 230530	METAR WIBB 230530Z 32006KT 8000 SCT013 31/21 Q1006=
23/12/2020 06:00:00Z	 SAID32 WIBB 230600	METAR WIBB 230600Z 35005KT 8000 BKN013 32/22 Q1005=
23/12/2020 06:30:00Z	 SAID32 WIBB 230630	METAR WIBB 230630Z 33008KT 8000 BKN013 32/22 Q1005=
23/12/2020 07:00:00Z	 SAID32 WIBB 230700	METAR WIBB 230700Z 34006KT 9000 SCT014 32/22 Q1004=
23/12/2020 07:30:00Z	 SAID32 WIBB 230730	METAR WIBB 230730Z 33005KT 9999 SCT014 32/22 Q1003=
23/12/2020 08:00:00Z	 SAID32 WIBB 230800	METAR WIBB 230800Z 35006KT 9999 SCT014 32/22 Q1003=
23/12/2020 08:30:00Z	 SAID32 WIBB 230830	METAR WIBB 230830Z 03006KT 9999 SCT014 32/21 Q1003=
23/12/2020 09:00:00Z	 SAID32 WIBB 230900	METAR WIBB 230900Z 36005KT 9999 SCT014 32/21 Q1003=
23/12/2020 09:30:00Z	 SAID32 WIBB 230930	METAR WIBB 230930Z 03005KT 9999 SCT014 32/21 Q1003=
23/12/2020 10:00:00Z	 SAID32 WIBB 231000	METAR WIBB 231000Z 36006KT 9000 FEW013 32/21 Q1003=
23/12/2020 10:30:00Z	 SAID32 WIBB 231030	METAR WIBB 231030Z 34006KT 9000 FEW014 32/21 Q1003=
23/12/2020 11:00:00Z	 SAID32 WIBB 231100	METAR WIBB 231100Z 00000KT 9000 FEW017 31/21 Q1003=
23/12/2020 11:30:00Z	 SAID32 WIBB 231130	METAR WIBB 231130Z 00000KT 8000 FEW017 30/22 Q1004=
23/12/2020 12:00:00Z	 SAID32 WIBB 231200	METAR WIBB 231200Z 00000KT 8000 FEW017CB 29/23 Q1004=
23/12/2020 12:30:00Z	 SAID32 WIBB 231230	METAR WIBB 231230Z 00000KT 8000 FEW017CB 29/23 Q1005=
23/12/2020 13:00:00Z	 SAID32 WIBB 231300	METAR WIBB 231300Z 00000KT 8000 FEW016 28/23 Q1005=
23/12/2020 13:30:00Z	 SAID32 WIBB 231330	METAR WIBB 231330Z 00000KT 8000 FEW014 28/23 Q1006=
23/12/2020 14:00:00Z	 SAID32 WIBB 231400	METAR WIBB 231400Z 00000KT 8000 SCT014 29/23 Q1006=
23/12/2020 14:30:00Z	 SAID32 WIBB 231430	METAR WIBB 231430Z 28005KT 8000 -RA SCT013 FEW015CB 28/23 Q1007=
23/12/2020 15:00:00Z	 SAID32 WIBB 231500	METAR WIBB 231500Z 00000KT 8000 -RA SCT013 FEW015CB 27/24 Q1007=
23/12/2020 15:30:00Z	 SAID32 WIBB 231530	METAR WIBB 231530Z 29005KT 8000 SCT013 26/23 Q1007=
23/12/2020 16:30:00Z	 SAID32 WIBB 231630	METAR WIBB 231630Z 30006KT 8000 SCT013 26/23 Q1008=
23/12/2020 17:00:00Z	 SAID32 WIBB 231700	METAR WIBB 231700Z 32005KT 8000 SCT013 26/24 Q1008=
23/12/2020 18:00:00Z	 SAID32 WIBB 231800	METAR WIBB 231800Z 28009KT 7000 -RA SCT012 FEW015CB 24/23 Q1007=
23/12/2020 21:00:00Z	 SAID32 WIBB 232100	METAR WIBB 232100Z 00000KT 7000 -RA SCT012 24/23 Q1007=
23/12/2020 21:30:00Z	 SAID32 WIBB 232130	METAR WIBB 232130Z 00000KT 6000 -RA SCT012 24/23 Q1006=
23/12/2020 23:30:00Z	 SAID32 WIBB 232330	METAR WIBB 232330Z 00000KT 6000 -RA SCT012 24/23 Q1007=
24/12/2020 00:00:00Z	 SAID32 WIBB 240000	METAR WIBB 240000Z 00000KT 7000 -RA FEW015 24/23 Q1007=
24/12/2020 00:30:00Z	 SAID32 WIBB 240030	METAR WIBB 240030Z 00000KT 7000 -RA FEW015 24/23 Q1008=
24/12/2020 01:00:00Z	 SAID32 WIBB 240100	METAR WIBB 240100Z 00000KT 7000 -RA FEW015 24/23 Q1008=
24/12/2020 01:30:00Z	 SAID32 WIBB 240130	METAR WIBB 240130Z 00000KT 7000 -RA FEW015 24/23 Q1009=
24/12/2020 02:00:00Z	 SAID32 WIBB 240200	METAR WIBB 240200Z 00000KT 7000 -RA FEW014 25/24 Q1009=
24/12/2020 02:30:00Z	 SAID32 WIBB 240230	METAR WIBB 240230Z 00000KT 7000 FEW014 25/24 Q1009=
24/12/2020 03:00:00Z	 SAID32 WIBB 240300	METAR WIBB 240300Z 00000KT 8000 SCT013 25/24 Q1009=
24/12/2020 03:30:00Z	 SAID32 WIBB 240330	METAR WIBB 240330Z 00000KT 8000 SCT014 27/24 Q1009=
24/12/2020 04:00:00Z	 SAID32 WIBB 240400	METAR WIBB 240400Z 00000KT 8000 SCT013 27/24 Q1008=
24/12/2020 04:30:00Z	 SAID32 WIBB 240430	METAR WIBB 240430Z 00000KT 8000 SCT013 28/24 Q1008=
24/12/2020 05:00:00Z	 SAID32 WIBB 240500	METAR WIBB 240500Z 00000KT 8000 SCT013 28/23 Q1008=
24/12/2020 05:30:00Z	 SAID32 WIBB 240530	METAR WIBB 240530Z 00000KT 8000 SCT013 28/23 Q1007=
24/12/2020 06:00:00Z	 SAID32 WIBB 240600	METAR WIBB 240600Z 00000KT 8000 BKN013 29/24 Q1007=
24/12/2020 06:30:00Z	 SAID32 WIBB 240630	METAR WIBB 240630Z 00000KT 8000 BKN013 29/23 Q1006=
24/12/2020 07:00:00Z	 SAID32 WIBB 240700	METAR WIBB 240700Z 20004KT 8000 SCT013 29/23 Q1005=
24/12/2020 07:30:00Z	 SAID32 WIBB 240730	METAR WIBB 240730Z 20005KT 8000 BKN013 29/23 Q1005=
24/12/2020 08:00:00Z	 SAID32 WIBB 240800	METAR WIBB 240800Z 00000KT 8000 SCT013 30/23 Q1004=
24/12/2020 08:30:00Z	 SAID32 WIBB 240830	METAR WIBB 240830Z 00000KT 8000 SCT013 30/23 Q1004=
24/12/2020 09:00:00Z	 SAID32 WIBB 240900	METAR WIBB 240900Z 00000KT 8000 SCT013 29/23 Q1004=
24/12/2020 09:30:00Z	 SAID32 WIBB 240930	METAR WIBB 240930Z 00000KT 8000 SCT013 29/23 Q1004=
24/12/2020 10:00:00Z	 SAID32 WIBB 241000	METAR WIBB 241000Z 00000KT 8000 SCT013 29/23 Q1004=
24/12/2020 10:30:00Z	 SAID32 WIBB 241030	METAR WIBB 241030Z 00000KT 8000 SCT013 28/24 Q1005=
24/12/2020 11:00:00Z	 SAID32 WIBB 241100	METAR WIBB 241100Z 00000KT 8000 SCT013 28/24 Q1005=
24/12/2020 11:30:00Z	 SAID32 WIBB 241130	METAR WIBB 241130Z 00000KT 8000 SCT013 27/24 Q1005=
24/12/2020 12:00:00Z	 SAID32 WIBB 241200	METAR WIBB 241200Z 00000KT 8000 FEW013 27/24 Q1005=
24/12/2020 12:30:00Z	 SAID32 WIBB 241230	METAR WIBB 241230Z 00000KT 8000 FEW013 27/24 Q1005=
24/12/2020 13:00:00Z	 SAID32 WIBB 241300	METAR WIBB 241300Z 00000KT 8000 FEW015 27/24 Q1006=
24/12/2020 13:30:00Z	 SAID32 WIBB 241330	METAR WIBB 241330Z 00000KT 8000 FEW015 27/24 Q1006=
24/12/2020 14:00:00Z	 SAID32 WIBB 241400	METAR WIBB 241400Z 00000KT 8000 NSC 26/24 Q1006=
24/12/2020 14:30:00Z	 SAID32 WIBB 241430	METAR WIBB 241430Z 00000KT 8000 NSC 26/24 Q1007=
24/12/2020 15:00:00Z	 SAID32 WIBB 241500	METAR WIBB 241500Z 00000KT 8000 NSC 26/24 Q1007=
24/12/2020 15:30:00Z	 SAID32 WIBB 241530	METAR WIBB 241530Z 00000KT 8000 NSC 26/24 Q1007=
24/12/2020 16:00:00Z	 SAID32 WIBB 241600	METAR WIBB 241600Z 00000KT 8000 NSC 25/24 Q1007=
24/12/2020 16:30:00Z	 SAID32 WIBB 241630	METAR WIBB 241630Z 00000KT 8000 NSC 25/24 Q1007=
24/12/2020 17:00:00Z	 SAID32 WIBB 241700	METAR WIBB 241700Z 00000KT 8000 NSC 25/24 Q1007=
24/12/2020 17:30:00Z	 SAID32 WIBB 241730	METAR WIBB 241730Z 00000KT 8000 NCD 25/24 Q1007=
24/12/2020 18:00:00Z	 SAID32 WIBB 241800	METAR WIBB 241800Z 00000KT 8000 NSC 25/24 Q1007=
24/12/2020 19:00:00Z	 SAID32 WIBB 241900	METAR WIBB 241900Z 00000KT 8000 NSC 25/24 Q1007=
24/12/2020 21:00:00Z	 SAID32 WIBB 242100	METAR WIBB 242100Z 00000KT 8000 NSC 25/24 Q1006=
24/12/2020 21:30:00Z	 SAID32 WIBB 242130	METAR WIBB 242130Z 00000KT 7000 NSC 24/23 Q1006=
24/12/2020 22:00:00Z	 SAID32 WIBB 242200	METAR WIBB 242200Z 00000KT 7000 NSC 24/23 Q1006=
24/12/2020 23:00:00Z	 SAID32 WIBB 242300	METAR WIBB 242300Z 00000KT 1500 BR SCT005 24/23 Q1007=
24/12/2020 23:30:00Z	 SAID32 WIBB 242330	METAR WIBB 242330Z 00000KT 0200 FG VV003 24/23 Q1007=
25/12/2020 00:00:00Z	 SAID32 WIBB 250000	METAR WIBB 250000Z 00000KT 0300 FG VV002 24/23 Q1008=
25/12/2020 00:30:00Z	 SAID32 WIBB 250030	METAR WIBB 250030Z 17004KT 0500 FG VV002 24/23 Q1008=
25/12/2020 01:00:00Z	 SAID32 WIBB 250100	METAR WIBB 250100Z 00000KT 6000 SCT008 25/24 Q1008=
25/12/2020 01:30:00Z	 SAID32 WIBB 250130	METAR WIBB 250130Z 00000KT 7000 SCT008 27/24 Q1009=
25/12/2020 02:00:00Z	 SAID32 WIBB 250200	METAR WIBB 250200Z 00000KT 8000 SCT010 28/24 Q1009=
25/12/2020 02:30:00Z	 SAID32 WIBB 250230	METAR WIBB 250230Z 17005KT 9000 SCT012 28/24 Q1009=
25/12/2020 03:00:00Z	 SAID32 WIBB 250300	METAR WIBB 250300Z 20004KT 9000 SCT013 28/24 Q1009=
25/12/2020 03:30:00Z	 SAID32 WIBB 250330	METAR WIBB 250330Z 17004KT 9000 SCT013 29/23 Q1008=
25/12/2020 04:00:00Z	 SAID32 WIBB 250400	METAR WIBB 250400Z 10005KT 9000 SCT013 30/24 Q1008=
25/12/2020 04:30:00Z	 SAID32 WIBB 250430	METAR WIBB 250430Z 16006KT 9000 SCT013 30/23 Q1008=
25/12/2020 05:00:00Z	 SAID32 WIBB 250500	METAR WIBB 250500Z 16006KT 9000 SCT014 31/23 Q1007=
25/12/2020 05:30:00Z	 SAID32 WIBB 250530	METAR WIBB 250530Z 00000KT 9000 SCT014 31/22 Q1007=
25/12/2020 06:00:00Z	 SAID32 WIBB 250600	METAR WIBB 250600Z 20006KT 9000 SCT014 32/21 Q1006=
25/12/2020 06:30:00Z	 SAID32 WIBB 250630	METAR WIBB 250630Z 00000KT 9000 SCT014 32/20 Q1006=
25/12/2020 07:00:00Z	 SAID32 WIBB 250700	METAR WIBB 250700Z 24006KT 9999 SCT015 32/21 Q1005=
25/12/2020 07:30:00Z	 SAID32 WIBB 250730	METAR WIBB 250730Z 00000KT 9999 SCT015 32/21 Q1005=
25/12/2020 08:00:00Z	 SAID32 WIBB 250800	METAR WIBB 250800Z 25005KT 9999 SCT015 33/21 Q1004=
25/12/2020 08:30:00Z	 SAID32 WIBB 250830	METAR WIBB 250830Z 27006KT 9999 SCT015 33/21 Q1004=
25/12/2020 09:00:00Z	 SAID32 WIBB 250900	METAR WIBB 250900Z 00000KT 9999 SCT015 33/20 Q1004=
25/12/2020 09:30:00Z	 SAID32 WIBB 250930	METAR WIBB 250930Z 18006KT 9999 SCT015 32/21 Q1004=
25/12/2020 10:00:00Z	 SAID32 WIBB 251000	METAR WIBB 251000Z 21005KT 9000 SCT014 32/20 Q1004=
25/12/2020 10:30:00Z	 SAID32 WIBB 251030	METAR WIBB 251030Z 22004KT 9000 SCT014 31/21 Q1004=
25/12/2020 11:00:00Z	 SAID32 WIBB 251100	METAR WIBB 251100Z 20005KT 9000 FEW012 31/21 Q1004=
25/12/2020 11:30:00Z	 SAID32 WIBB 251130	METAR WIBB 251130Z 21004KT 7000 FEW012 30/22 Q1005=
25/12/2020 12:00:00Z	 SAID32 WIBB 251200	METAR WIBB 251200Z 00000KT 7000 FEW012 29/23 Q1006=
25/12/2020 12:30:00Z	 SAID32 WIBB 251230	METAR WIBB 251230Z 20004KT 7000 FEW012 29/23 Q1006=
25/12/2020 13:00:00Z	 SAID32 WIBB 251300	METAR WIBB 251300Z 00000KT 8000 FEW013 29/24 Q1007=
25/12/2020 13:30:00Z	 SAID32 WIBB 251330	METAR WIBB 251330Z 00000KT 8000 FEW013 29/24 Q1007=
25/12/2020 14:00:00Z	 SAID32 WIBB 251400	METAR WIBB 251400Z 00000KT 8000 FEW013 28/25 Q1008=
25/12/2020 14:30:00Z	 SAID32 WIBB 251430	METAR WIBB 251430Z 00000KT 8000 FEW013 27/25 Q1008=
25/12/2020 15:00:00Z	 SAID32 WIBB 251500	METAR WIBB 251500Z 00000KT 8000 FEW013 28/24 Q1008=
26/12/2020 00:00:00Z	 SAID32 WIBB 260000	METAR WIBB 260000Z 00000KT 7000 -TS SCT008 FEW012CB 26/24 Q1008=
26/12/2020 00:30:00Z	 SAID32 WIBB 260030	METAR WIBB 260030Z 00000KT 7000 SCT008 FEW012CB 26/24 Q1008=
26/12/2020 01:00:00Z	 SAID32 WIBB 260100	METAR WIBB 260100Z 15006KT 7000 TS FEW012CB SCT008 26/24 Q1009=
26/12/2020 01:30:00Z	 SAID32 WIBB 260130	METAR WIBB 260130Z 14005KT 8000 SCT010 26/24 Q1009=
