01/06/2022 00:30:00Z	 SAID34 WAGG 010030 CCA	METAR WAGG 010030Z 14008KT 9999 FEW010TCU 29/25 Q1009=
01/06/2022 01:00:00Z	 SAID34 WAGG 010100	METAR WAGG 010100Z 14011KT 9999 FEW012 29/25 Q1009=
01/06/2022 01:30:00Z	 SAID34 WAGG 010130	METAR WAGG 010130Z 12007KT 9999 FEW011 31/25 Q1009=
01/06/2022 02:00:00Z	 SAID34 WAGG 010200	METAR WAGG 010200Z 14008KT 9999 FEW011 31/25 Q1009=
01/06/2022 02:30:00Z	 SAID34 WAGG 010230	METAR WAGG 010230Z 15007KT 9999 SCT011 32/24 Q1009=
01/06/2022 03:00:00Z	 SAID34 WAGG 010300	METAR WAGG 010300Z 16008KT 9999 SCT011 32/24 Q1009=
01/06/2022 03:30:00Z	 SAID34 WAGG 010330	METAR WAGG 010330Z 19006KT 9999 SCT011 33/24 Q1009=
01/06/2022 04:00:00Z	 SAID34 WAGG 010400	METAR WAGG 010400Z 13007KT 9999 SCT011 33/25 Q1008=
01/06/2022 04:30:00Z	 SAID34 WAGG 010430	METAR WAGG 010430Z 15006KT 9999 SCT011 33/24 Q1008=
01/06/2022 05:00:00Z	 SAID34 WAGG 010500 CCA	METAR WAGG 010500Z 20007KT 7000 FEW011TCU SCT012 34/24 Q1007=
01/06/2022 05:00:00Z	 SAID34 WAGG 010500	METAR WAGG 010500Z 20007KT 9999 FEW011TCU SCT012 34/24 Q1007=
01/06/2022 05:30:00Z	 SAID34 WAGG 010530	METAR WAGG 010530Z 31012KT 8000 FEW010TCU BKN011 30/23 Q1007=
01/06/2022 06:00:00Z	 SAID34 WAGG 010600	METAR WAGG 010600Z 28015G28KT 3000 RA FEW010CB BKN011 27/24 Q1007=
01/06/2022 06:30:00Z	 SAID34 WAGG 010630	METAR WAGG 010630Z 25014KT 6000 -RA FEW010CB BKN011 26/23 Q1007=
01/06/2022 07:00:00Z	 SAID34 WAGG 010700	METAR WAGG 010700Z 21006KT 8000 FEW010CB BKN011 28/22 Q1006=
01/06/2022 07:30:00Z	 SAID34 WAGG 010730	METAR WAGG 010730Z 27001KT 8000 TS FEW010CB BKN011 28/23 Q1006=
01/06/2022 08:00:00Z	 SAID34 WAGG 010800	METAR WAGG 010800Z 35003KT 8000 FEW010TCU BKN011 28/24 Q1006 RETS=
01/06/2022 08:30:00Z	 SAID34 WAGG 010830	METAR WAGG 010830Z 06003KT 8000 FEW010TCU BKN011 27/24 Q1006=
01/06/2022 09:00:00Z	 SAID34 WAGG 010900	METAR WAGG 010900Z 01002KT 9999 SCT012 27/24 Q1006=
01/06/2022 09:30:00Z	 SAID34 WAGG 010930	METAR WAGG 010930Z 05003KT 8000 TS FEW010CB SCT011 27/24 Q1007=
01/06/2022 10:00:00Z	 SAID34 WAGG 011000	METAR WAGG 011000Z 03002KT 9000 TS FEW011CB SCT012 27/24 Q1006=
01/06/2022 10:30:00Z	 SAID34 WAGG 011030	METAR WAGG 011030Z 28003KT 9000 TS FEW011CB SCT012 26/24 Q1006=
01/06/2022 11:00:00Z	 SAID34 WAGG 011100	METAR WAGG 011100Z 18006KT 9000 TS FEW011CB SCT012 26/24 Q1008=
01/06/2022 11:30:00Z	 SAID34 WAGG 011130	METAR WAGG 011130Z 21005KT 9000 TS FEW011CB SCT012 26/24 Q1007=
01/06/2022 12:00:00Z	 SAID34 WAGG 011200	METAR WAGG 011200Z 15005KT 9000 SCT012 25/23 Q1007=
01/06/2022 12:30:00Z	 SAID34 WAGG 011230	METAR WAGG 011230Z AUTO 15004KT 120V190 9999 ////// 27/24 Q1008=
01/06/2022 13:00:00Z	 SAID34 WAGG 011300	METAR WAGG 011300Z AUTO VRB02KT 9999 ////// 26/24 Q1008=
01/06/2022 13:30:00Z	 SAID34 WAGG 011330	METAR WAGG 011330Z AUTO 35003KT 330V030 9999 ////// 26/24 Q1009=
01/06/2022 14:00:00Z	 SAID34 WAGG 011400	METAR WAGG 011400Z AUTO 01002KT 9999 ////// 26/25 Q1009=
01/06/2022 14:30:00Z	 SAID34 WAGG 011430	METAR WAGG 011430Z AUTO 36001KT 9999 ////// 26/25 Q1009=
01/06/2022 15:00:00Z	 SAID34 WAGG 011500	METAR WAGG 011500Z AUTO 32002KT 9999 ////// 27/24 Q1009=
01/06/2022 15:30:00Z	 SAID34 WAGG 011530	METAR WAGG 011530Z AUTO VRB02KT 9999 ////// 26/24 Q1009=
01/06/2022 16:00:00Z	 SAID34 WAGG 011600	METAR WAGG 011600Z AUTO 32002KT 9999 ////// 26/24 Q1009=
01/06/2022 16:30:00Z	 SAID34 WAGG 011630	METAR WAGG 011630Z AUTO VRB02KT 9999 ////// 26/24 Q1009=
01/06/2022 17:00:00Z	 SAID34 WAGG 011700	METAR WAGG 011700Z AUTO 35001KT 9999 ////// 26/24 Q1008=
01/06/2022 17:30:00Z	 SAID34 WAGG 011730	METAR WAGG 011730Z AUTO VRB02KT 9999 ////// 26/24 Q1008=
01/06/2022 18:00:00Z	 SAID34 WAGG 011800	METAR WAGG 011800Z AUTO VRB02KT 9999 ////// 25/24 Q1008=
01/06/2022 18:30:00Z	 SAID34 WAGG 011830	METAR WAGG 011830Z AUTO VRB02KT 9999 ////// 25/24 Q1007=
01/06/2022 19:00:00Z	 SAID34 WAGG 011900	METAR WAGG 011900Z AUTO VRB02KT 9999 ////// 25/24 Q1007=
01/06/2022 19:30:00Z	 SAID34 WAGG 011930	METAR WAGG 011930Z AUTO 05003KT 020V090 9999 ////// 25/24 Q1007=
01/06/2022 20:00:00Z	 SAID34 WAGG 012000	METAR WAGG 012000Z AUTO VRB02KT 9999 ////// 25/24 Q1008=
01/06/2022 20:30:00Z	 SAID34 WAGG 012030	METAR WAGG 012030Z AUTO VRB02KT 9999 ////// 25/24 Q1008=
01/06/2022 21:00:00Z	 SAID34 WAGG 012100	METAR WAGG 012100Z 00000KT 8000 SCT012 24/23 Q1008=
01/06/2022 21:30:00Z	 SAID34 WAGG 012130	METAR WAGG 012130Z AUTO 01001KT 9999 ////// 25/24 Q1008=
01/06/2022 22:00:00Z	 SAID34 WAGG 012200	METAR WAGG 012200Z 33002KT 8000 SCT012 24/23 Q1009=
01/06/2022 22:30:00Z	 SAID34 WAGG 012230	METAR WAGG 012230Z AUTO VRB02KT 9999 ////// 25/23 Q1008=
01/06/2022 23:00:00Z	 SAID34 WAGG 012300	METAR WAGG 012300Z 02002KT 9000 FEW013 25/23 Q1009=
01/06/2022 23:30:00Z	 SAID34 WAGG 012330	METAR WAGG 012330Z 01002KT 9999 FEW013 26/24 Q1009=
02/06/2022 00:00:00Z	 SAID34 WAGG 020000	METAR WAGG 020000Z 36002KT 9999 FEW012 26/24 Q1009=
02/06/2022 00:30:00Z	 SAID34 WAGG 020030	METAR WAGG 020030Z 36002KT 9999 FEW012 27/24 Q1010=
02/06/2022 01:00:00Z	 SAID34 WAGG 020100	METAR WAGG 020100Z 34002KT 9999 FEW012 28/24 Q1010=
02/06/2022 01:30:00Z	 SAID34 WAGG 020130	METAR WAGG 020130Z 04002KT 9999 FEW012 29/24 Q1010=
02/06/2022 02:00:00Z	 SAID34 WAGG 020200	METAR WAGG 020200Z 02003KT 9999 FEW011 29/25 Q1009=
02/06/2022 02:30:00Z	 SAID34 WAGG 020230	METAR WAGG 020230Z 11002KT 9999 FEW011 30/25 Q1009=
02/06/2022 03:00:00Z	 SAID34 WAGG 020300	METAR WAGG 020300Z 10003KT 9999 SCT011 31/24 Q1009=
02/06/2022 03:30:00Z	 SAID34 WAGG 020330	METAR WAGG 020330Z 08003KT 9999 SCT011 32/24 Q1009=
02/06/2022 04:00:00Z	 SAID34 WAGG 020400	METAR WAGG 020400Z 11004KT 9999 SCT011 32/24 Q1008=
02/06/2022 04:30:00Z	 SAID34 WAGG 020430	METAR WAGG 020430Z 06002KT 9999 SCT011 32/24 Q1008=
02/06/2022 05:00:00Z	 SAID34 WAGG 020500	METAR WAGG 020500Z 12002KT 9999 SCT011 33/23 Q1007=
02/06/2022 05:30:00Z	 SAID34 WAGG 020530	METAR WAGG 020530Z 07003KT 9999 SCT011 32/23 Q1007=
02/06/2022 06:00:00Z	 SAID34 WAGG 020600	METAR WAGG 020600Z 05002KT 9999 SCT011 33/23 Q1007=
02/06/2022 06:30:00Z	 SAID34 WAGG 020630	METAR WAGG 020630Z 06004KT 9999 SCT011 33/24 Q1006=
02/06/2022 07:00:00Z	 SAID34 WAGG 020700	METAR WAGG 020700Z 07003KT 9999 SCT011 32/23 Q1006=
02/06/2022 07:30:00Z	 SAID34 WAGG 020730	METAR WAGG 020730Z 05002KT 9999 SCT011 32/23 Q1006=
02/06/2022 08:00:00Z	 SAID34 WAGG 020800	METAR WAGG 020800Z 04003KT 9999 FEW010TCU SCT011 34/23 Q1006=
02/06/2022 08:30:00Z	 SAID34 WAGG 020830	METAR WAGG 020830Z 10003KT 9999 FEW010TCU SCT011 34/23 Q1006=
02/06/2022 09:00:00Z	 SAID34 WAGG 020900	METAR WAGG 020900Z 11002KT 9999 SCT011 33/22 Q1006=
02/06/2022 09:30:00Z	 SAID34 WAGG 020930	METAR WAGG 020930Z 14001KT 9999 SCT011 32/25 Q1006=
02/06/2022 10:00:00Z	 SAID34 WAGG 021000	METAR WAGG 021000Z 21006KT 9999 SCT011 31/24 Q1006=
02/06/2022 10:30:00Z	 SAID34 WAGG 021030	METAR WAGG 021030Z 22004KT 9000 FEW010TCU SCT011 30/25 Q1006=
02/06/2022 11:00:00Z	 SAID34 WAGG 021100	METAR WAGG 021100Z 23008KT 9000 FEW010TCU SCT011 28/24 Q1007=
02/06/2022 11:30:00Z	 SAID34 WAGG 021130	METAR WAGG 021130Z 21007KT 9000 FEW010TCU 27/24 Q1007=
02/06/2022 12:00:00Z	 SAID34 WAGG 021200	METAR WAGG 021200Z 24006KT 9000 FEW012TCU 27/24 Q1008=
02/06/2022 12:30:00Z	 SAID34 WAGG 021230	METAR WAGG 021230Z AUTO 25005KT 220V280 9999 ////// 27/24 Q1008=
02/06/2022 13:00:00Z	 SAID34 WAGG 021300	METAR WAGG 021300Z AUTO 26006KT 220V290 9999 ////// 27/23 Q1009=
02/06/2022 13:30:00Z	 SAID34 WAGG 021330	METAR WAGG 021330Z AUTO 25004KT 220V280 9999 ////// 27/23 Q1009=
02/06/2022 14:00:00Z	 SAID34 WAGG 021400	METAR WAGG 021400Z AUTO 24003KT 210V270 9999 ////// 27/23 Q1009=
02/06/2022 14:30:00Z	 SAID34 WAGG 021430	METAR WAGG 021430Z AUTO 25004KT 9999 ////// 27/23 Q1009=
02/06/2022 15:00:00Z	 SAID34 WAGG 021500	METAR WAGG 021500Z AUTO 22004KT 9999 ////// 27/23 Q1010=
02/06/2022 15:30:00Z	 SAID34 WAGG 021530	METAR WAGG 021530Z AUTO 21003KT 170V240 9999 ////// 27/24 Q1010=
02/06/2022 16:00:00Z	 SAID34 WAGG 021600	METAR WAGG 021600Z AUTO VRB02KT 9999 ////// 27/24 Q1010=
02/06/2022 16:30:00Z	 SAID34 WAGG 021630	METAR WAGG 021630Z AUTO 30001KT 9999 ////// 26/24 Q1010=
02/06/2022 17:00:00Z	 SAID34 WAGG 021700	METAR WAGG 021700Z AUTO 23003KT 200V270 9999 ////// 27/24 Q1009=
02/06/2022 17:30:00Z	 SAID34 WAGG 021730	METAR WAGG 021730Z AUTO 21002KT 9999 ////// 27/24 Q1009=
02/06/2022 18:00:00Z	 SAID34 WAGG 021800	METAR WAGG 021800Z AUTO 19003KT 170V230 9999 ////// 27/24 Q1009=
02/06/2022 18:30:00Z	 SAID34 WAGG 021830	METAR WAGG 021830Z AUTO 22003KT 9999 ////// 27/24 Q1009=
02/06/2022 19:00:00Z	 SAID34 WAGG 021900	METAR WAGG 021900Z AUTO 24001KT 9999 ////// 26/24 Q1009=
02/06/2022 19:30:00Z	 SAID34 WAGG 021930	METAR WAGG 021930Z AUTO VRB02KT 9999 ////// 26/24 Q1009=
02/06/2022 20:00:00Z	 SAID34 WAGG 022000	METAR WAGG 022000Z AUTO 22002KT 9999 ////// 26/24 Q1009=
02/06/2022 20:30:00Z	 SAID34 WAGG 022030	METAR WAGG 022030Z AUTO 28003KT 240V310 9999 ////// 26/24 Q1008=
02/06/2022 21:00:00Z	 SAID34 WAGG 022100	METAR WAGG 022100Z AUTO VRB02KT 9999 ////// 26/24 Q1008=
02/06/2022 21:30:00Z	 SAID34 WAGG 022130	METAR WAGG 022130Z 25004KT 7000 FEW012 25/24 Q1008=
02/06/2022 22:00:00Z	 SAID34 WAGG 022200	METAR WAGG 022200Z 31003KT 7000 FEW012 25/24 Q1008=
02/06/2022 22:30:00Z	 SAID34 WAGG 022230	METAR WAGG 022230Z 16002KT 9000 FEW012 25/24 Q1009=
02/06/2022 23:00:00Z	 SAID34 WAGG 022300	METAR WAGG 022300Z 28003KT 9999 FEW012 25/24 Q1009=
02/06/2022 23:30:00Z	 SAID34 WAGG 022330	METAR WAGG 022330Z 30004KT 9999 SCT012 25/24 Q1010=
03/06/2022 00:00:00Z	 SAID34 WAGG 030000	METAR COR WAGG 030000Z 30004KT 9000 SCT012 25/24 Q1010=
03/06/2022 00:30:00Z	 SAID34 WAGG 030030	METAR WAGG 030030Z 30004KT 9999 SCT012 27/24 Q1010=
03/06/2022 01:00:00Z	 SAID34 WAGG 030100	METAR WAGG 030100Z 30002KT 9999 SCT012 28/25 Q1010=
03/06/2022 01:30:00Z	 SAID34 WAGG 030130	METAR WAGG 030130Z 27003KT 9999 SCT012 29/25 Q1010=
03/06/2022 02:00:00Z	 SAID34 WAGG 030200	METAR WAGG 030200Z 17003KT 9999 SCT012 29/25 Q1010=
03/06/2022 02:30:00Z	 SAID34 WAGG 030230	METAR WAGG 030230Z 18004KT 9999 SCT011 30/25 Q1010=
03/06/2022 03:00:00Z	 SAID34 WAGG 030300	METAR WAGG 030300Z 18004KT 9999 SCT011 31/24 Q1010=
03/06/2022 03:30:00Z	 SAID34 WAGG 030330	METAR WAGG 030330Z 13004KT 9999 SCT011 32/24 Q1009=
03/06/2022 04:00:00Z	 SAID34 WAGG 030400	METAR WAGG 030400Z 19004KT 9999 SCT011 32/24 Q1008=
03/06/2022 04:30:00Z	 SAID34 WAGG 030430	METAR WAGG 030430Z 20004KT 9999 SCT011 33/24 Q1008=
03/06/2022 05:00:00Z	 SAID34 WAGG 030500	METAR WAGG 030500Z 21004KT 9999 FEW010TCU SCT011 33/23 Q1007=
03/06/2022 05:30:00Z	 SAID34 WAGG 030530	METAR WAGG 030530Z 14003KT 9999 FEW010TCU SCT011 32/23 Q1007=
03/06/2022 06:00:00Z	 SAID34 WAGG 030600	METAR WAGG 030600Z 22005KT 9999 FEW010TCU SCT011 32/23 Q1006=
03/06/2022 06:30:00Z	 SAID34 WAGG 030630	METAR WAGG 030630Z 11002KT 9999 FEW010TCU SCT011 33/23 Q1006=
03/06/2022 07:00:00Z	 SAID34 WAGG 030700	METAR WAGG 030700Z 09003KT 9999 FEW010TCU SCT011 32/24 Q1006=
03/06/2022 07:30:00Z	 SAID34 WAGG 030730	METAR WAGG 030730Z 14003KT 9999 FEW010TCU SCT011 33/26 Q1005=
03/06/2022 08:00:00Z	 SAID34 WAGG 030800	METAR WAGG 030800Z 04005KT 9999 FEW010TCU SCT011 33/26 Q1005=
03/06/2022 08:30:00Z	 SAID34 WAGG 030830	METAR WAGG 030830Z 14002KT 9999 FEW010TCU SCT011 32/24 Q1005=
03/06/2022 09:00:00Z	 SAID34 WAGG 030900	METAR WAGG 030900Z 14002KT 9999 FEW010TCU SCT011 31/24 Q1005=
03/06/2022 09:30:00Z	 SAID34 WAGG 030930	METAR WAGG 030930Z 14002KT 9000 FEW010CB BKN011 31/24 Q1006=
03/06/2022 10:00:00Z	 SAID34 WAGG 031000	METAR WAGG 031000Z 24010KT 9000 FEW010CB BKN011 28/21 Q1006=
03/06/2022 10:30:00Z	 SAID34 WAGG 031030	METAR WAGG 031030Z 26006KT 9000 FEW010CB BKN011 27/23 Q1007=
03/06/2022 11:00:00Z	 SAID34 WAGG 031100	METAR WAGG 031100Z 24005KT 9000 FEW010CB BKN011 27/23 Q1008=
03/06/2022 11:30:00Z	 SAID34 WAGG 031130	METAR WAGG 031130Z 26004KT 5000 -RA FEW010CB BKN011 26/24 Q1008=
03/06/2022 12:00:00Z	 SAID34 WAGG 031200	METAR WAGG 031200Z 01004KT 5000 -TSRA FEW010CB BKN011 26/24 Q1009=
03/06/2022 12:30:00Z	 SAID34 WAGG 031230	METAR WAGG 031230Z 03004KT 5000 -TSRA FEW010CB BKN011 25/24 Q1009=
03/06/2022 13:00:00Z	 SAID34 WAGG 031300	METAR WAGG 031300Z AUTO 06003KT 030V090 6000 -TSRA ////// 25/24 Q1010=
03/06/2022 13:30:00Z	 SAID34 WAGG 031330	METAR WAGG 031330Z AUTO 26001KT 9999 VCTS RA ////// 25/24 Q1010=
03/06/2022 14:00:00Z	 SAID34 WAGG 031400	METAR WAGG 031400Z AUTO 14003KT 110V170 9999 -RA ////// 25/24 Q1010=
03/06/2022 14:30:00Z	 SAID34 WAGG 031430	METAR WAGG 031430Z AUTO VRB02KT 9999 ////// 25/24 Q1011=
03/06/2022 15:00:00Z	 SAID34 WAGG 031500	METAR WAGG 031500Z AUTO 31004KT 9999 VCTS ////// 26/24 Q1010=
03/06/2022 15:30:00Z	 SAID34 WAGG 031530	METAR WAGG 031530Z AUTO VRB02KT 9999 ////// 26/24 Q1010=
03/06/2022 16:00:00Z	 SAID34 WAGG 031600	METAR WAGG 031600Z AUTO 03003KT 9000 ////// 26/24 Q1010=
03/06/2022 16:30:00Z	 SAID34 WAGG 031630	METAR WAGG 031630Z AUTO 04001KT 9000 ////// 26/25 Q1010=
03/06/2022 17:00:00Z	 SAID34 WAGG 031700	METAR WAGG 031700Z AUTO 09001KT 9999 ////// 26/25 Q1010=
03/06/2022 17:30:00Z	 SAID34 WAGG 031730	METAR WAGG 031730Z AUTO 02003KT 360V060 9999 ////// 26/25 Q1010=
03/06/2022 18:00:00Z	 SAID34 WAGG 031800	METAR WAGG 031800Z AUTO 02004KT 9999 ////// 25/24 Q1010=
03/06/2022 18:30:00Z	 SAID34 WAGG 031830	METAR WAGG 031830Z AUTO 33007KT 9999 ////// 25/24 Q1010=
03/06/2022 19:00:00Z	 SAID34 WAGG 031900	METAR WAGG 031900Z AUTO 33008KT 9999 ////// 25/23 Q1010=
03/06/2022 19:30:00Z	 SAID34 WAGG 031930	METAR WAGG 031930Z AUTO 32008KT 9999 ////// 25/23 Q1010=
03/06/2022 20:00:00Z	 SAID34 WAGG 032000	METAR WAGG 032000Z AUTO 33005KT 9999 ////// 25/23 Q1009=
03/06/2022 20:30:00Z	 SAID34 WAGG 032030	METAR WAGG 032030Z AUTO VRB02KT 9999 ////// 24/23 Q1009=
03/06/2022 21:00:00Z	 SAID34 WAGG 032100	METAR WAGG 032100Z AUTO 11001KT 9999 ////// 24/23 Q1009=
03/06/2022 21:00:00Z	 SAID34 WAGG 032100 CCA	METAR COR WAGG 032100Z 14001KT 8000 SCT012 24/23 Q1009=
03/06/2022 21:30:00Z	 SAID34 WAGG 032130	METAR WAGG 032130Z 21001KT 8000 SCT012 24/23 Q1009=
03/06/2022 22:00:00Z	 SAID34 WAGG 032200	METAR WAGG 032200Z 26002KT 8000 FEW012 24/23 Q1009=
03/06/2022 22:30:00Z	 SAID34 WAGG 032230	METAR WAGG 032230Z 15001KT 8000 SCT012 24/23 Q1009=
03/06/2022 23:00:00Z	 SAID34 WAGG 032300	METAR WAGG 032300Z 02004KT 8000 BKN011 24/23 Q1010=
03/06/2022 23:30:00Z	 SAID34 WAGG 032330	METAR WAGG 032330Z 01004KT 8000 BKN009 24/23 Q1011=
04/06/2022 00:00:00Z	 SAID34 WAGG 040000	METAR WAGG 040000Z 35004KT 8000 BKN009 24/23 Q1011=
04/06/2022 00:30:00Z	 SAID34 WAGG 040030	METAR WAGG 040030Z 35004KT 6000 BKN009 24/23 Q1011=
04/06/2022 01:00:00Z	 SAID34 WAGG 040100	METAR WAGG 040100Z 02002KT 8000 BKN009 24/23 Q1011=
04/06/2022 01:30:00Z	 SAID34 WAGG 040130	METAR WAGG 040130Z 36003KT 9000 BKN009 25/23 Q1011=
04/06/2022 02:00:00Z	 SAID34 WAGG 040200	METAR WAGG 040200Z 34006KT 9000 BKN010 27/23 Q1011=
04/06/2022 02:30:00Z	 SAID34 WAGG 040230	METAR WAGG 040230Z 02005KT 9000 BKN010 28/24 Q1011=
04/06/2022 03:00:00Z	 SAID34 WAGG 040300	METAR WAGG 040300Z 02005KT 9000 BKN010 28/24 Q1011=
04/06/2022 03:30:00Z	 SAID34 WAGG 040330	METAR WAGG 040330Z 34004KT 9000 BKN010 28/24 Q1011=
04/06/2022 04:00:00Z	 SAID34 WAGG 040400	METAR WAGG 040400Z 34005KT 9999 BKN010 28/24 Q1011=
04/06/2022 04:30:00Z	 SAID34 WAGG 040430	METAR WAGG 040430Z 04006KT 9999 BKN010 28/23 Q1011=
04/06/2022 05:00:00Z	 SAID34 WAGG 040500	METAR WAGG 040500Z 02005KT 9999 BKN010 29/24 Q1010=
04/06/2022 05:30:00Z	 SAID34 WAGG 040530	METAR WAGG 040530Z 05004KT 9999 BKN010 29/24 Q1010=
04/06/2022 06:00:00Z	 SAID34 WAGG 040600	METAR WAGG 040600Z 07006KT 9999 BKN011 29/24 Q1009=
04/06/2022 06:30:00Z	 SAID34 WAGG 040630	METAR WAGG 040630Z 10004KT 9999 BKN011 29/24 Q1009=
04/06/2022 07:00:00Z	 SAID34 WAGG 040700	METAR WAGG 040700Z 07004KT 9999 BKN011 29/24 Q1008=
04/06/2022 07:30:00Z	 SAID34 WAGG 040730	METAR WAGG 040730Z 05002KT 9999 BKN011 30/24 Q1008=
04/06/2022 08:00:00Z	 SAID34 WAGG 040800	METAR WAGG 040800Z 09001KT 9999 SCT011 30/24 Q1008=
04/06/2022 08:30:00Z	 SAID34 WAGG 040830	METAR WAGG 040830Z 05002KT 9999 SCT011 29/24 Q1007=
04/06/2022 09:00:00Z	 SAID34 WAGG 040900	METAR WAGG 040900Z 04001KT 9999 SCT011 29/24 Q1007=
04/06/2022 09:30:00Z	 SAID34 WAGG 040930	METAR WAGG 040930Z 04002KT 9999 SCT011 29/24 Q1007=
04/06/2022 10:00:00Z	 SAID34 WAGG 041000	METAR WAGG 041000Z 01002KT 9999 SCT011 28/24 Q1007=
04/06/2022 10:30:00Z	 SAID34 WAGG 041030	METAR WAGG 041030Z 02002KT 9000 SCT011 28/24 Q1007=
04/06/2022 11:00:00Z	 SAID34 WAGG 041100	METAR WAGG 041100Z 09001KT 9000 SCT011 28/24 Q1007=
04/06/2022 11:30:00Z	 SAID34 WAGG 041130	METAR WAGG 041130Z 11001KT 9000 SCT011 27/25 Q1008=
04/06/2022 12:00:00Z	 SAID34 WAGG 041200	METAR WAGG 041200Z AUTO 12003KT 9999 ////// 27/25 Q1008=
04/06/2022 12:30:00Z	 SAID34 WAGG 041230	METAR WAGG 041230Z AUTO 13003KT 9999 ////// 27/25 Q1009=
04/06/2022 13:00:00Z	 SAID34 WAGG 041300	METAR WAGG 041300Z AUTO VRB02KT 9999 ////// 27/25 Q1009=
04/06/2022 13:30:00Z	 SAID34 WAGG 041330	METAR WAGG 041330Z AUTO 14003KT 100V170 9999 ////// 27/25 Q1010=
04/06/2022 14:00:00Z	 SAID34 WAGG 041400	METAR WAGG 041400Z AUTO 14002KT 9999 ////// 26/25 Q1010=
04/06/2022 14:30:00Z	 SAID34 WAGG 041430	METAR WAGG 041430Z AUTO 09001KT 9999 ////// 26/25 Q1010=
04/06/2022 15:00:00Z	 SAID34 WAGG 041500	METAR WAGG 041500Z AUTO 04002KT 9999 ////// 26/25 Q1010=
04/06/2022 15:30:00Z	 SAID34 WAGG 041530	METAR WAGG 041530Z AUTO 08002KT 9999 ////// 26/25 Q1010=
04/06/2022 16:00:00Z	 SAID34 WAGG 041600	METAR WAGG 041600Z AUTO 11002KT 9999 ////// 26/24 Q1010=
04/06/2022 16:30:00Z	 SAID34 WAGG 041630	METAR WAGG 041630Z AUTO VRB02KT 9999 ////// 25/24 Q1010=
04/06/2022 17:00:00Z	 SAID34 WAGG 041700	METAR WAGG 041700Z AUTO 09002KT 9999 ////// 25/24 Q1010=
04/06/2022 17:30:00Z	 SAID34 WAGG 041730	METAR WAGG 041730Z AUTO 03003KT 360V080 9999 ////// 25/24 Q1010=
04/06/2022 18:00:00Z	 SAID34 WAGG 041800	METAR WAGG 041800Z AUTO 04002KT 9999 ////// 25/24 Q1010=
04/06/2022 18:30:00Z	 SAID34 WAGG 041830	METAR WAGG 041830Z AUTO 03002KT 9999 ////// 25/24 Q1009=
04/06/2022 19:00:00Z	 SAID34 WAGG 041900	METAR WAGG 041900Z AUTO 12001KT 9999 ////// 25/24 Q1009=
04/06/2022 19:30:00Z	 SAID34 WAGG 041930	METAR WAGG 041930Z AUTO 08001KT 9999 ////// 25/24 Q1009=
04/06/2022 20:00:00Z	 SAID34 WAGG 042000	METAR WAGG 042000Z AUTO 03001KT 9999 ////// 25/24 Q1008=
04/06/2022 20:30:00Z	 SAID34 WAGG 042030	METAR WAGG 042030Z AUTO 14001KT 9999 ////// 25/24 Q1009=
04/06/2022 21:00:00Z	 SAID34 WAGG 042100	METAR WAGG 042100Z AUTO VRB02KT 6000 ////// 24/23 Q1009=
04/06/2022 21:30:00Z	 SAID34 WAGG 042130	METAR WAGG 042130Z AUTO 07002KT 3100 BR ////// 24/23 Q1009=
04/06/2022 22:00:00Z	 SAID34 WAGG 042200	METAR WAGG 042200Z AUTO 11001KT 9999 ////// 24/24 Q1009=
04/06/2022 22:30:00Z	 SAID34 WAGG 042230	METAR WAGG 042230Z AUTO VRB02KT 9000 ////// 24/24 Q1009=
04/06/2022 23:00:00Z	 SAID34 WAGG 042300	METAR WAGG 042300Z 11002KT 9000 FEW013 24/23 Q1010=
04/06/2022 23:30:00Z	 SAID34 WAGG 042330	METAR WAGG 042330Z 11002KT 9000 FEW013 25/24 Q1010=
05/06/2022 00:00:00Z	 SAID34 WAGG 050000	METAR WAGG 050000Z 09003KT 9999 FEW012 26/24 Q1010=
05/06/2022 00:30:00Z	 SAID34 WAGG 050030	METAR WAGG 050030Z 05003KT 9999 FEW012 27/24 Q1011=
05/06/2022 01:00:00Z	 SAID34 WAGG 050100	METAR WAGG 050100Z 04004KT 9999 FEW013 28/26 Q1010=
05/06/2022 01:30:00Z	 SAID34 WAGG 050130	METAR WAGG 050130Z 06002KT 9999 FEW012 29/26 Q1010=
05/06/2022 02:00:00Z	 SAID34 WAGG 050200	METAR WAGG 050200Z 07003KT 9999 SCT012 29/24 Q1010=
05/06/2022 02:30:00Z	 SAID34 WAGG 050230	METAR WAGG 050230Z 01003KT 9999 SCT011 30/25 Q1010=
05/06/2022 03:00:00Z	 SAID34 WAGG 050300	METAR WAGG 050300Z 05004KT 9999 BKN011 30/24 Q1010=
05/06/2022 03:30:00Z	 SAID34 WAGG 050330	METAR WAGG 050330Z 05004KT 9999 SCT011 31/24 Q1009=
05/06/2022 04:00:00Z	 SAID34 WAGG 050400	METAR WAGG 050400Z 04004KT 9999 BKN011 31/25 Q1009=
05/06/2022 04:30:00Z	 SAID34 WAGG 050430	METAR WAGG 050430Z 03004KT 9999 BKN011 31/24 Q1008=
05/06/2022 05:00:00Z	 SAID34 WAGG 050500	METAR WAGG 050500Z 03003KT 9999 BKN011 31/24 Q1008=
05/06/2022 05:30:00Z	 SAID34 WAGG 050530	METAR WAGG 050530Z 03008KT 5000 VCSH BKN010 28/25 Q1008=
05/06/2022 06:00:00Z	 SAID34 WAGG 050600	METAR WAGG 050600Z 04009KT 7000 VCSH BKN010 29/25 Q1007=
05/06/2022 06:30:00Z	 SAID34 WAGG 050630	METAR WAGG 050630Z 05004KT 7000 VCSH BKN010 30/24 Q1007=
05/06/2022 07:00:00Z	 SAID34 WAGG 050700	METAR WAGG 050700Z 06004KT 7000 VCSH BKN010 32/23 Q1006=
05/06/2022 07:30:00Z	 SAID34 WAGG 050730	METAR WAGG 050730Z 05003KT 8000 FEW010TCU SCT011 31/25 Q1006=
05/06/2022 08:00:00Z	 SAID34 WAGG 050800	METAR WAGG 050800Z 23007KT 9999 FEW010TCU SCT011 32/25 Q1006=
05/06/2022 08:30:00Z	 SAID34 WAGG 050830	METAR WAGG 050830Z 02005KT 9999 SCT011 29/25 Q1006=
05/06/2022 09:00:00Z	 SAID34 WAGG 050900	METAR WAGG 050900Z 33006KT 9999 SCT011TCU 28/24 Q1006=
05/06/2022 09:30:00Z	 SAID34 WAGG 050930	METAR WAGG 050930Z 31003KT 9999 SCT011TCU 29/24 Q1007=
05/06/2022 10:00:00Z	 SAID34 WAGG 051000	METAR WAGG 051000Z 07002KT 9999 SCT011 28/25 Q1007=
05/06/2022 10:30:00Z	 SAID34 WAGG 051030	METAR WAGG 051030Z 26002KT 9999 FEW011 28/25 Q1007=
05/06/2022 11:00:00Z	 SAID34 WAGG 051100	METAR WAGG 051100Z 21003KT 9000 FEW012 28/25 Q1008=
05/06/2022 11:30:00Z	 SAID34 WAGG 051130	METAR WAGG 051130Z 20003KT 9000 FEW012 27/24 Q1008=
05/06/2022 12:00:00Z	 SAID34 WAGG 051200	METAR WAGG 051200Z 20004KT 8000 SCT012 27/25 Q1008=
05/06/2022 12:30:00Z	 SAID34 WAGG 051230	METAR WAGG 051230Z AUTO 20003KT 9999 ////// 28/25 Q1009=
05/06/2022 13:00:00Z	 SAID34 WAGG 051300	METAR WAGG 051300Z AUTO 18006KT 9999 ////// 28/24 Q1009=
05/06/2022 13:30:00Z	 SAID34 WAGG 051330	METAR WAGG 051330Z AUTO 18005KT 9999 ////// 27/24 Q1009=
05/06/2022 14:00:00Z	 SAID34 WAGG 051400	METAR WAGG 051400Z AUTO 18005KT 9999 ////// 27/24 Q1009=
05/06/2022 14:30:00Z	 SAID34 WAGG 051430	METAR WAGG 051430Z AUTO 18004KT 9999 ////// 26/24 Q1010=
05/06/2022 15:00:00Z	 SAID34 WAGG 051500	METAR WAGG 051500Z AUTO VRB02KT 9999 ////// 26/24 Q1010=
05/06/2022 15:30:00Z	 SAID34 WAGG 051530	METAR WAGG 051530Z AUTO 21003KT 180V240 9999 ////// 26/23 Q1010=
05/06/2022 16:00:00Z	 SAID34 WAGG 051600	METAR WAGG 051600Z AUTO 16002KT 9999 ////// 26/24 Q1010=
05/06/2022 16:30:00Z	 SAID34 WAGG 051630	METAR WAGG 051630Z AUTO 13003KT 090V160 9999 ////// 26/24 Q1010=
05/06/2022 17:00:00Z	 SAID34 WAGG 051700	METAR WAGG 051700Z AUTO 16003KT 9999 ////// 26/24 Q1009=
05/06/2022 17:30:00Z	 SAID34 WAGG 051730	METAR WAGG 051730Z AUTO 32006KT 9999 ////// 26/24 Q1009=
05/06/2022 18:00:00Z	 SAID34 WAGG 051800	METAR WAGG 051800Z AUTO 29004KT 250V310 9999 ////// 27/23 Q1009=
05/06/2022 18:30:00Z	 SAID34 WAGG 051830	METAR WAGG 051830Z AUTO VRB02KT 9999 ////// 26/23 Q1009=
05/06/2022 19:00:00Z	 SAID34 WAGG 051900	METAR WAGG 051900Z AUTO 27003KT 240V310 9999 ////// 26/23 Q1008=
05/06/2022 19:30:00Z	 SAID34 WAGG 051930	METAR WAGG 051930Z AUTO 24003KT 190V270 9999 ////// 26/23 Q1008=
05/06/2022 20:00:00Z	 SAID34 WAGG 052000	METAR WAGG 052000Z AUTO VRB02KT 9999 ////// 25/23 Q1008=
05/06/2022 20:30:00Z	 SAID34 WAGG 052030	METAR WAGG 052030Z AUTO 27001KT 9999 ////// 25/23 Q1008=
05/06/2022 21:00:00Z	 SAID34 WAGG 052100	METAR WAGG 052100Z 32001KT 8000 SCT012 24/23 Q1008=
05/06/2022 21:30:00Z	 SAID34 WAGG 052130	METAR WAGG 052130Z 29003KT 8000 SCT012 24/23 Q1008=
05/06/2022 22:00:00Z	 SAID34 WAGG 052200	METAR WAGG 052200Z 28003KT 8000 FEW012 24/23 Q1008=
05/06/2022 22:30:00Z	 SAID34 WAGG 052230	METAR WAGG 052230Z 29001KT 8000 FEW012 24/23 Q1008=
05/06/2022 23:00:00Z	 SAID34 WAGG 052300	METAR WAGG 052300Z 01001KT 9000 FEW013 24/23 Q1009=
05/06/2022 23:30:00Z	 SAID34 WAGG 052330	METAR WAGG 052330Z 31002KT 9000 FEW013 26/24 Q1009=
06/06/2022 00:00:00Z	 SAID34 WAGG 060000	METAR WAGG 060000Z 33004KT 9000 FEW012 26/24 Q1009=
06/06/2022 00:30:00Z	 SAID34 WAGG 060030	METAR WAGG 060030Z 33003KT 9999 FEW012 27/23 Q1009=
06/06/2022 01:00:00Z	 SAID34 WAGG 060100	METAR WAGG 060100Z 36002KT 9999 FEW012 28/24 Q1009=
06/06/2022 01:30:00Z	 SAID34 WAGG 060130	METAR WAGG 060130Z 04002KT 9999 FEW012 29/24 Q1009=
06/06/2022 02:00:00Z	 SAID34 WAGG 060200	METAR WAGG 060200Z 02003KT 9999 SCT012 30/24 Q1009=
06/06/2022 02:30:00Z	 SAID34 WAGG 060230	METAR WAGG 060230Z 06002KT 9999 SCT011 31/24 Q1009=
06/06/2022 03:00:00Z	 SAID34 WAGG 060300	METAR WAGG 060300Z 26005KT 9999 SCT011 31/24 Q1009=
06/06/2022 03:30:00Z	 SAID34 WAGG 060330	METAR WAGG 060330Z 31003KT 9999 SCT011 31/24 Q1009=
06/06/2022 04:00:00Z	 SAID34 WAGG 060400	METAR WAGG 060400Z 30003KT 9999 SCT011 31/24 Q1008=
06/06/2022 04:30:00Z	 SAID34 WAGG 060430	METAR WAGG 060430Z 35004KT 9999 BKN011 32/25 Q1008=
06/06/2022 05:00:00Z	 SAID34 WAGG 060500	METAR WAGG 060500Z 03004KT 9999 BKN011 32/23 Q1007=
06/06/2022 05:30:00Z	 SAID34 WAGG 060530	METAR WAGG 060530Z 25003KT 9999 BKN011 32/24 Q1007=
06/06/2022 06:00:00Z	 SAID34 WAGG 060600	METAR WAGG 060600Z 15001KT 9999 BKN011 31/23 Q1006=
06/06/2022 06:30:00Z	 SAID34 WAGG 060630	METAR WAGG 060630Z 19004KT 9999 BKN011 31/23 Q1006=
06/06/2022 07:00:00Z	 SAID34 WAGG 060700	METAR WAGG 060700Z 11003KT 9999 BKN011 32/24 Q1006=
06/06/2022 07:30:00Z	 SAID34 WAGG 060730	METAR WAGG 060730Z 12003KT 9999 BKN011 33/24 Q1005=
06/06/2022 08:00:00Z	 SAID34 WAGG 060800	METAR WAGG 060800Z 36003KT 9999 BKN011 33/22 Q1005=
06/06/2022 08:30:00Z	 SAID34 WAGG 060830	METAR WAGG 060830Z 31003KT 9999 FEW010TCU BKN011 33/22 Q1005=
06/06/2022 09:00:00Z	 SAID34 WAGG 060900	METAR WAGG 060900Z 36003KT 9999 FEW010TCU BKN011 33/22 Q1005=
06/06/2022 09:30:00Z	 SAID34 WAGG 060930	METAR WAGG 060930Z 22005KT 9999 FEW010TCU SCT011 33/22 Q1005=
06/06/2022 10:00:00Z	 SAID34 WAGG 061000	METAR WAGG 061000Z 24009KT 6000 VCSH FEW010CB SCT011 30/23 Q1006=
06/06/2022 10:30:00Z	 SAID34 WAGG 061030	METAR WAGG 061030Z 21011KT 6000 VCSH FEW010CB BKN011 28/22 Q1006=
06/06/2022 11:00:00Z	 SAID34 WAGG 061100	METAR WAGG 061100Z 17020KT 5000 -RA FEW010CB BKN011 26/23 Q1006=
06/06/2022 12:00:00Z	 SAID34 WAGG 061200	METAR WAGG 061200Z AUTO 20012KT 1300 R16/P2000N R34/P2000U RA ////// 25/23 Q1008=
06/06/2022 12:30:00Z	 SAID34 WAGG 061230	METAR WAGG 061230Z AUTO 21007KT 180V250 4600 VCTS RA ////// 25/23 Q1008=
06/06/2022 13:00:00Z	 SAID34 WAGG 061300	METAR WAGG 061300Z AUTO VRB02KT 7000 VCTS RA ////// 25/24 Q1009=
06/06/2022 13:30:00Z	 SAID34 WAGG 061330	METAR WAGG 061330Z AUTO VRB02KT 4800 -RA ////// 25/24 Q1010=
06/06/2022 14:00:00Z	 SAID34 WAGG 061400	METAR WAGG 061400Z AUTO 16005KT 4900 -RA ////// 25/23 Q1010=
06/06/2022 14:30:00Z	 SAID34 WAGG 061430	METAR WAGG 061430Z AUTO VRB02KT 9000 RA ////// 25/23 Q1010=
06/06/2022 15:00:00Z	 SAID34 WAGG 061500	METAR WAGG 061500Z AUTO 33003KT 300V360 9999 -RA ////// 25/24 Q1010=
06/06/2022 15:30:00Z	 SAID34 WAGG 061530	METAR WAGG 061530Z AUTO 32002KT 9999 ////// 25/24 Q1010=
06/06/2022 16:00:00Z	 SAID34 WAGG 061600	METAR WAGG 061600Z AUTO 28002KT 9999 ////// 25/23 Q1009=
06/06/2022 16:30:00Z	 SAID34 WAGG 061630	METAR WAGG 061630Z AUTO 32003KT 9999 ////// 25/23 Q1009=
06/06/2022 17:00:00Z	 SAID34 WAGG 061700	METAR WAGG 061700Z AUTO 15003KT 9999 ////// 25/24 Q1009=
06/06/2022 17:30:00Z	 SAID34 WAGG 061730	METAR WAGG 061730Z AUTO 11001KT 9999 ////// 25/24 Q1009=
06/06/2022 18:00:00Z	 SAID34 WAGG 061800	METAR WAGG 061800Z 33002KT 7000 VCSH BKN011 24/23 Q1010=
06/06/2022 18:30:00Z	 SAID34 WAGG 061830	METAR WAGG 061830Z AUTO 15001KT 9999 ////// 25/24 Q1008=
06/06/2022 19:00:00Z	 SAID34 WAGG 061900	METAR WAGG 061900Z AUTO 27001KT 9999 ////// 25/24 Q1008=
06/06/2022 19:30:00Z	 SAID34 WAGG 061930	METAR WAGG 061930Z AUTO 22002KT 9999 ////// 25/24 Q1008=
06/06/2022 20:00:00Z	 SAID34 WAGG 062000	METAR WAGG 062000Z AUTO 22001KT 9999 ////// 25/24 Q1008=
06/06/2022 20:30:00Z	 SAID34 WAGG 062030	METAR WAGG 062030Z AUTO 17001KT 9999 ////// 25/24 Q1008=
06/06/2022 21:00:00Z	 SAID34 WAGG 062100	METAR WAGG 062100Z AUTO 10001KT 9999 ////// 25/24 Q1008=
06/06/2022 21:30:00Z	 SAID34 WAGG 062130	METAR WAGG 062130Z AUTO 06001KT 9999 ////// 25/24 Q1008=
06/06/2022 22:00:00Z	 SAID34 WAGG 062200	METAR WAGG 062200Z AUTO 10002KT 9999 ////// 25/24 Q1009=
06/06/2022 22:30:00Z	 SAID34 WAGG 062230	METAR WAGG 062230Z AUTO 03002KT 9999 ////// 24/23 Q1009=
06/06/2022 23:00:00Z	 SAID34 WAGG 062300	METAR WAGG 062300Z 03003KT 2000 BR SCT012 24/24 Q1009=
06/06/2022 23:30:00Z	 SAID34 WAGG 062330	METAR WAGG 062330Z 03003KT 4000 BR SCT012 25/24 Q1009=
07/06/2022 00:00:00Z	 SAID34 WAGG 070000	METAR WAGG 070000Z 05002KT 8000 BKN010 25/24 Q1009=
07/06/2022 00:30:00Z	 SAID34 WAGG 070030	METAR WAGG 070030Z 05003KT 9000 BKN010 26/24 Q1010=
07/06/2022 01:00:00Z	 SAID34 WAGG 070100	METAR WAGG 070100Z 05002KT 9000 BKN010 26/24 Q1010=
07/06/2022 01:30:00Z	 SAID34 WAGG 070130	METAR WAGG 070130Z 10003KT 9999 BKN010 27/25 Q1010=
07/06/2022 02:00:00Z	 SAID34 WAGG 070200	METAR WAGG 070200Z 04003KT 9999 BKN010 28/24 Q1010=
07/06/2022 02:30:00Z	 SAID34 WAGG 070230	METAR WAGG 070230Z 02003KT 9999 BKN010 28/24 Q1010=
07/06/2022 03:00:00Z	 SAID34 WAGG 070300	METAR WAGG 070300Z 08003KT 9999 BKN011 29/25 Q1010=
07/06/2022 03:30:00Z	 SAID34 WAGG 070330	METAR WAGG 070330Z 07004KT 9999 BKN011 29/24 Q1009=
07/06/2022 04:00:00Z	 SAID34 WAGG 070400	METAR WAGG 070400Z 06004KT 9999 BKN011 30/25 Q1009=
07/06/2022 04:30:00Z	 SAID34 WAGG 070430	METAR WAGG 070430Z 05002KT 9999 BKN011 30/24 Q1008=
07/06/2022 05:00:00Z	 SAID34 WAGG 070500	METAR WAGG 070500Z 09003KT 9999 SCT011 30/24 Q1008=
07/06/2022 05:30:00Z	 SAID34 WAGG 070530	METAR WAGG 070530Z 08004KT 9999 SCT011 31/24 Q1007=
07/06/2022 06:00:00Z	 SAID34 WAGG 070600	METAR WAGG 070600Z 05003KT 9999 BKN011 31/23 Q1007=
07/06/2022 06:30:00Z	 SAID34 WAGG 070630	METAR WAGG 070630Z 06002KT 9999 BKN011 31/24 Q1006=
07/06/2022 07:00:00Z	 SAID34 WAGG 070700	METAR WAGG 070700Z 35003KT 9999 BKN011 31/24 Q1006=
07/06/2022 07:30:00Z	 SAID34 WAGG 070730	METAR WAGG 070730Z 05006KT 9999 FEW010TCU BKN011 31/25 Q1006=
07/06/2022 08:00:00Z	 SAID34 WAGG 070800	METAR WAGG 070800Z 04003KT 9999 FEW010TCU BKN011 30/25 Q1006=
07/06/2022 08:30:00Z	 SAID34 WAGG 070830	METAR WAGG 070830Z 01002KT 9999 SCT011 29/25 Q1006=
07/06/2022 09:00:00Z	 SAID34 WAGG 070900	METAR WAGG 070900Z 02002KT 9999 SCT011 30/24 Q1006=
07/06/2022 09:30:00Z	 SAID34 WAGG 070930	METAR WAGG 070930Z 04002KT 9999 SCT011 31/25 Q1006=
07/06/2022 10:00:00Z	 SAID34 WAGG 071000	METAR WAGG 071000Z 03002KT 9999 SCT011 30/25 Q1006=
07/06/2022 10:30:00Z	 SAID34 WAGG 071030	METAR WAGG 071030Z 03001KT 9000 FEW010TCU SCT011 30/24 Q1006=
07/06/2022 11:00:00Z	 SAID34 WAGG 071100	METAR WAGG 071100Z 01001KT 9000 BKN011 29/25 Q1007=
07/06/2022 11:30:00Z	 SAID34 WAGG 071130	METAR WAGG 071130Z 03001KT 8000 BKN011 29/25 Q1007=
07/06/2022 12:00:00Z	 SAID34 WAGG 071200	METAR WAGG 071200Z 30003KT 8000 BKN011 29/25 Q1008=
07/06/2022 12:30:00Z	 SAID34 WAGG 071230	METAR WAGG 071230Z AUTO VRB02KT 9999 ////// 29/25 Q1008=
07/06/2022 13:00:00Z	 SAID34 WAGG 071300	METAR WAGG 071300Z AUTO 08004KT 9999 -RA ////// 27/26 Q1009=
07/06/2022 13:30:00Z	 SAID34 WAGG 071330	METAR WAGG 071330Z AUTO 04002KT 9999 -RA ////// 27/26 Q1009=
07/06/2022 14:00:00Z	 SAID34 WAGG 071400	METAR WAGG 071400Z AUTO VRB02KT 9999 ////// 27/25 Q1009=
07/06/2022 14:30:00Z	 SAID34 WAGG 071430	METAR WAGG 071430Z AUTO 36004KT 9999 VCTS ////// 27/25 Q1009=
07/06/2022 15:00:00Z	 SAID34 WAGG 071500	METAR WAGG 071500Z AUTO 36004KT 9999 VCTS ////// 27/25 Q1009=
07/06/2022 15:30:00Z	 SAID34 WAGG 071530	METAR WAGG 071530Z AUTO 19005KT 9999 VCTS ////// 27/25 Q1010=
07/06/2022 16:00:00Z	 SAID34 WAGG 071600	METAR WAGG 071600Z AUTO 18005KT 9999 TS ////// 27/25 Q1009=
07/06/2022 16:30:00Z	 SAID34 WAGG 071630	METAR WAGG 071630Z AUTO 20006KT 9999 VCTS RA ////// 26/24 Q1010=
07/06/2022 17:00:00Z	 SAID34 WAGG 071700	METAR WAGG 071700Z AUTO 22005KT 190V270 9999 ////// 25/23 Q1009=
07/06/2022 17:30:00Z	 SAID34 WAGG 071730	METAR WAGG 071730Z AUTO VRB02KT 9999 ////// 25/23 Q1009=
07/06/2022 18:00:00Z	 SAID34 WAGG 071800	METAR WAGG 071800Z AUTO VRB02KT 9999 ////// 25/23 Q1008=
07/06/2022 18:30:00Z	 SAID34 WAGG 071830	METAR WAGG 071830Z AUTO 28002KT 9999 ////// 25/23 Q1008=
07/06/2022 19:00:00Z	 SAID34 WAGG 071900	METAR WAGG 071900Z AUTO VRB02KT 9999 ////// 26/24 Q1007=
07/06/2022 19:30:00Z	 SAID34 WAGG 071930	METAR WAGG 071930Z AUTO VRB02KT 9999 ////// 25/23 Q1007=
07/06/2022 20:00:00Z	 SAID34 WAGG 072000	METAR WAGG 072000Z AUTO 28001KT 9999 ////// 25/24 Q1007=
07/06/2022 20:30:00Z	 SAID34 WAGG 072030	METAR WAGG 072030Z AUTO 09001KT 9999 ////// 25/24 Q1008=
07/06/2022 21:00:00Z	 SAID34 WAGG 072100	METAR WAGG 072100Z AUTO 10003KT 9999 ////// 25/23 Q1008=
07/06/2022 21:30:00Z	 SAID34 WAGG 072130	METAR WAGG 072130Z 09002KT 7000 FEW012 24/24 Q1008=
07/06/2022 22:00:00Z	 SAID34 WAGG 072200	METAR WAGG 072200Z AUTO 08002KT 9999 ////// 25/24 Q1008=
07/06/2022 22:30:00Z	 SAID34 WAGG 072230	METAR WAGG 072230Z AUTO 08003KT 9999 ////// 25/24 Q1008=
07/06/2022 23:00:00Z	 SAID34 WAGG 072300	METAR WAGG 072300Z AUTO 13001KT 9999 ////// 25/24 Q1009=
07/06/2022 23:30:00Z	 SAID34 WAGG 072330	METAR WAGG 072330Z AUTO 09001KT 9999 ////// 26/25 Q1009=
08/06/2022 00:00:00Z	 SAID34 WAGG 080000	METAR WAGG 080000Z AUTO VRB02KT 9999 ////// 27/25 Q1010=
08/06/2022 00:30:00Z	 SAID34 WAGG 080030	METAR WAGG 080030Z AUTO VRB02KT 9999 ////// 29/25 Q1010=
08/06/2022 01:00:00Z	 SAID34 WAGG 080100	METAR WAGG 080100Z 07003KT 9999 FEW012 29/25 Q1009=
08/06/2022 01:30:00Z	 SAID34 WAGG 080130	METAR WAGG 080130Z 02004KT 9999 SCT012 29/25 Q1009=
08/06/2022 02:00:00Z	 SAID34 WAGG 080200	METAR WAGG 080200Z 04004KT 9999 SCT011 30/25 Q1009=
08/06/2022 02:30:00Z	 SAID34 WAGG 080230	METAR WAGG 080230Z 01004KT 9999 SCT011 30/25 Q1009=
08/06/2022 03:00:00Z	 SAID34 WAGG 080300	METAR WAGG 080300Z 05003KT 9999 BKN011 31/25 Q1009=
08/06/2022 03:30:00Z	 SAID34 WAGG 080330	METAR WAGG 080330Z 04003KT 9999 BKN011 31/24 Q1008=
08/06/2022 04:00:00Z	 SAID34 WAGG 080400	METAR WAGG 080400Z 02003KT 9999 BKN011 32/24 Q1008=
08/06/2022 04:30:00Z	 SAID34 WAGG 080430	METAR WAGG 080430Z 04004KT 9999 BKN011 33/24 Q1007=
08/06/2022 05:00:00Z	 SAID34 WAGG 080500	METAR WAGG 080500Z 05003KT 9999 SCT011 32/23 Q1007=
08/06/2022 05:30:00Z	 SAID34 WAGG 080530	METAR WAGG 080530Z 02003KT 9999 SCT011 33/23 Q1006=
08/06/2022 06:00:00Z	 SAID34 WAGG 080600	METAR WAGG 080600Z 08004KT 9999 FEW010TCU SCT011 33/23 Q1006=
08/06/2022 06:30:00Z	 SAID34 WAGG 080630	METAR WAGG 080630Z 04004KT 9999 FEW010TCU SCT011 33/23 Q1005=
08/06/2022 07:00:00Z	 SAID34 WAGG 080700	METAR WAGG 080700Z 03003KT 9999 FEW010TCU SCT011 33/23 Q1004=
08/06/2022 07:30:00Z	 SAID34 WAGG 080730	METAR WAGG 080730Z 01003KT 9999 FEW010TCU SCT011 33/24 Q1004=
08/06/2022 08:00:00Z	 SAID34 WAGG 080800	METAR WAGG 080800Z 05003KT 9999 FEW010TCU SCT011 33/23 Q1004=
08/06/2022 08:30:00Z	 SAID34 WAGG 080830	METAR WAGG 080830Z 04003KT 9999 FEW010TCU SCT011 33/24 Q1004=
08/06/2022 09:00:00Z	 SAID34 WAGG 080900	METAR WAGG 080900Z 03002KT 9999 FEW010TCU SCT011 33/23 Q1004=
08/06/2022 09:30:00Z	 SAID34 WAGG 080930	METAR WAGG 080930Z 05002KT 9999 SCT011 33/23 Q1005=
08/06/2022 10:00:00Z	 SAID34 WAGG 081000	METAR WAGG 081000Z 03002KT 9999 FEW010TCU SCT011 32/24 Q1005=
08/06/2022 10:30:00Z	 SAID34 WAGG 081030	METAR WAGG 081030Z 04001KT 9000 FEW010TCU SCT011 31/24 Q1005=
08/06/2022 11:00:00Z	 SAID34 WAGG 081100	METAR WAGG 081100Z 10001KT 9000 FEW010TCU SCT011 31/25 Q1006=
08/06/2022 11:30:00Z	 SAID34 WAGG 081130	METAR WAGG 081130Z 15003KT 9000 SCT011 30/25 Q1007=
08/06/2022 12:00:00Z	 SAID34 WAGG 081200	METAR WAGG 081200Z 25008KT 9000 BKN011 28/24 Q1007=
08/06/2022 12:30:00Z	 SAID34 WAGG 081230	METAR WAGG 081230Z AUTO 23007KT 9999 ////// 29/25 Q1007=
08/06/2022 13:00:00Z	 SAID34 WAGG 081300	METAR WAGG 081300Z AUTO 21010KT 9999 ////// 28/24 Q1008=
08/06/2022 13:30:00Z	 SAID34 WAGG 081330	METAR WAGG 081330Z AUTO 23006KT 210V270 9999 ////// 27/24 Q1008=
08/06/2022 14:00:00Z	 SAID34 WAGG 081400	METAR WAGG 081400Z AUTO 23005KT 9999 ////// 27/24 Q1009=
08/06/2022 14:30:00Z	 SAID34 WAGG 081430	METAR WAGG 081430Z AUTO 23005KT 9999 ////// 27/24 Q1009=
08/06/2022 15:00:00Z	 SAID34 WAGG 081500	METAR WAGG 081500Z AUTO 22005KT 200V260 9999 ////// 26/24 Q1009=
08/06/2022 15:30:00Z	 SAID34 WAGG 081530	METAR WAGG 081530Z AUTO 22004KT 180V270 9999 ////// 26/24 Q1009=
08/06/2022 16:00:00Z	 SAID34 WAGG 081600	METAR WAGG 081600Z AUTO VRB02KT 9999 ////// 26/24 Q1009=
08/06/2022 16:30:00Z	 SAID34 WAGG 081630	METAR WAGG 081630Z AUTO 22004KT 9999 ////// 26/24 Q1008=
08/06/2022 17:00:00Z	 SAID34 WAGG 081700	METAR WAGG 081700Z AUTO 26004KT 220V300 9999 ////// 26/24 Q1008=
08/06/2022 17:30:00Z	 SAID34 WAGG 081730	METAR WAGG 081730Z AUTO 28005KT 9999 ////// 26/24 Q1008=
08/06/2022 18:00:00Z	 SAID34 WAGG 081800	METAR WAGG 081800Z 28003KT 8000 SCT012 24/23 Q1009=
08/06/2022 18:30:00Z	 SAID34 WAGG 081830	METAR WAGG 081830Z AUTO 28005KT 250V310 9999 ////// 26/24 Q1008=
08/06/2022 19:00:00Z	 SAID34 WAGG 081900	METAR WAGG 081900Z AUTO 29006KT 260V320 9999 ////// 26/24 Q1008=
08/06/2022 19:30:00Z	 SAID34 WAGG 081930	METAR WAGG 081930Z AUTO 27004KT 230V300 9999 ////// 26/24 Q1008=
08/06/2022 20:00:00Z	 SAID34 WAGG 082000	METAR WAGG 082000Z AUTO 28006KT 9999 -RA ////// 26/24 Q1008=
08/06/2022 20:30:00Z	 SAID34 WAGG 082030	METAR WAGG 082030Z AUTO 28006KT 9999 -RA ////// 25/24 Q1008=
08/06/2022 21:00:00Z	 SAID34 WAGG 082100	METAR WAGG 082100Z AUTO 31006KT 270V330 9999 -TSRA ////// 25/24 Q1008=
08/06/2022 21:30:00Z	 SAID34 WAGG 082130	METAR WAGG 082130Z 36006KT 8000 TSRA FEW010CB BKN011 24/23 Q1009=
08/06/2022 22:00:00Z	 SAID34 WAGG 082200	METAR WAGG 082200Z 32004KT 2000 TSRA FEW009CB BKN010 24/23 Q1009=
08/06/2022 22:30:00Z	 SAID34 WAGG 082230	METAR WAGG 082230Z 03004KT 5000 RA FEW008CB BKN008 24/23 Q1010 RETS=
08/06/2022 23:00:00Z	 SAID34 WAGG 082300	METAR WAGG 082300Z 26007KT 6000 RA FEW010CB BKN011 24/23 Q1010=
08/06/2022 23:30:00Z	 SAID34 WAGG 082330	METAR WAGG 082330Z 26006KT 7000 FEW010CB SCT011 25/24 Q1010 RERA=
09/06/2022 00:00:00Z	 SAID34 WAGG 090000	METAR WAGG 090000Z 30004KT 8000 FEW010CB BKN011 25/24 Q1010=
09/06/2022 00:30:00Z	 SAID34 WAGG 090030	METAR WAGG 090030Z 29007KT 9000 BKN011 26/24 Q1010=
09/06/2022 01:00:00Z	 SAID34 WAGG 090100	METAR WAGG 090100Z 31005KT 9000 BKN011 26/24 Q1010=
09/06/2022 01:30:00Z	 SAID34 WAGG 090130	METAR WAGG 090130Z 30005KT 9000 BKN011 27/24 Q1011=
09/06/2022 02:00:00Z	 SAID34 WAGG 090200	METAR WAGG 090200Z 27008KT 9000 BKN011 28/24 Q1011=
09/06/2022 02:30:00Z	 SAID34 WAGG 090230	METAR WAGG 090230Z 28007KT 9999 BKN011 28/24 Q1010=
09/06/2022 03:00:00Z	 SAID34 WAGG 090300	METAR WAGG 090300Z 31006KT 9999 BKN011 29/24 Q1010=
09/06/2022 03:30:00Z	 SAID34 WAGG 090330	METAR WAGG 090330Z 30006KT 9999 BKN011 30/24 Q1010=
09/06/2022 04:00:00Z	 SAID34 WAGG 090400	METAR WAGG 090400Z 28005KT 9999 BKN011 29/24 Q1009=
09/06/2022 04:30:00Z	 SAID34 WAGG 090430	METAR WAGG 090430Z 30006KT 9999 BKN011 31/24 Q1009=
09/06/2022 05:00:00Z	 SAID34 WAGG 090500	METAR WAGG 090500Z 30005KT 9999 FEW010TCU SCT011 30/24 Q1008=
09/06/2022 05:30:00Z	 SAID34 WAGG 090530	METAR WAGG 090530Z 28004KT 9999 FEW010TCU SCT011 30/24 Q1007=
09/06/2022 06:00:00Z	 SAID34 WAGG 090600	METAR WAGG 090600Z 25004KT 9999 FEW010CB BKN011 31/24 Q1007=
09/06/2022 06:30:00Z	 SAID34 WAGG 090630	METAR WAGG 090630Z 25008KT 7000 VCSH FEW010CB BKN011 30/23 Q1007=
09/06/2022 07:00:00Z	 SAID34 WAGG 090700	METAR COR WAGG 090700Z 23009G19KT 7000 VCSH FEW010CB BKN011 30/24 Q1006=
09/06/2022 07:30:00Z	 SAID34 WAGG 090730	METAR WAGG 090730Z 29008KT 7000 VCSH FEW010CB BKN011 28/24 Q1006 TEMPO FM0715 TL0800 29005G20KT 4000 TSRA FEW010CB=
09/06/2022 08:00:00Z	 SAID34 WAGG 090800	METAR WAGG 090800Z 32009KT 7000 VCSH FEW010CB BKN011 28/23 Q1006=
09/06/2022 08:30:00Z	 SAID34 WAGG 090830	METAR WAGG 090830Z 32008KT 6000 -TSRA FEW010CB BKN011 27/23 Q1006=
09/06/2022 09:00:00Z	 SAID34 WAGG 090900	METAR WAGG 090900Z 26003KT 7000 -TSRA FEW010CB BKN011 26/24 Q1007=
09/06/2022 09:30:00Z	 SAID34 WAGG 090930	METAR WAGG 090930Z 23005KT 7000 TS FEW010CB BKN011 26/23 Q1007 RERA=
09/06/2022 10:00:00Z	 SAID34 WAGG 091000	METAR WAGG 091000Z 26004KT 9000 FEW010CB BKN011 26/23 Q1007 RETS=
09/06/2022 10:30:00Z	 SAID34 WAGG 091030	METAR WAGG 091030Z 32003KT 9000 FEW010CB BKN011 26/23 Q1008=
09/06/2022 11:00:00Z	 SAID34 WAGG 091100	METAR WAGG 091100Z 08002KT 9000 FEW010CB BKN011 26/23 Q1009=
09/06/2022 11:30:00Z	 SAID34 WAGG 091130	METAR WAGG 091130Z 15001KT 8000 FEW010CB BKN011 26/24 Q1009=
09/06/2022 12:00:00Z	 SAID34 WAGG 091200	METAR WAGG 091200Z 21001KT 8000 BKN011 26/24 Q1009=
09/06/2022 12:30:00Z	 SAID34 WAGG 091230	METAR WAGG 091230Z 16001KT 8000 BKN011 26/24 Q1009=
09/06/2022 13:00:00Z	 SAID34 WAGG 091300	METAR WAGG 091300Z 12003KT 8000 BKN011 25/24 Q1010=
09/06/2022 13:30:00Z	 SAID34 WAGG 091330	METAR WAGG 091330Z AUTO 15005KT 9999 ////// 25/24 Q1010=
09/06/2022 14:00:00Z	 SAID34 WAGG 091400	METAR WAGG 091400Z AUTO VRB02KT 9999 ////// 25/24 Q1010=
09/06/2022 14:30:00Z	 SAID34 WAGG 091430	METAR WAGG 091430Z AUTO 14001KT 9999 -RA ////// 25/24 Q1010=
09/06/2022 15:00:00Z	 SAID34 WAGG 091500	METAR WAGG 091500Z AUTO 13002KT 9999 ////// 25/24 Q1010=
09/06/2022 15:30:00Z	 SAID34 WAGG 091530	METAR WAGG 091530Z AUTO 14003KT 9999 ////// 25/23 Q1010=
09/06/2022 16:00:00Z	 SAID34 WAGG 091600	METAR WAGG 091600Z AUTO 15004KT 9999 ////// 25/23 Q1010=
09/06/2022 16:30:00Z	 SAID34 WAGG 091630	METAR WAGG 091630Z AUTO 14003KT 100V180 9999 ////// 25/23 Q1010=
09/06/2022 17:00:00Z	 SAID34 WAGG 091700	METAR WAGG 091700Z AUTO 16002KT 9999 ////// 25/23 Q1010=
09/06/2022 17:30:00Z	 SAID34 WAGG 091730	METAR WAGG 091730Z AUTO VRB02KT 9999 ////// 25/23 Q1009=
09/06/2022 18:00:00Z	 SAID34 WAGG 091800	METAR WAGG 091800Z AUTO 14001KT 9999 ////// 25/23 Q1009=
09/06/2022 18:30:00Z	 SAID34 WAGG 091830	METAR WAGG 091830Z AUTO 19001KT 9999 -RA ////// 25/23 Q1009=
09/06/2022 19:00:00Z	 SAID34 WAGG 091900	METAR WAGG 091900Z AUTO 04001KT 9999 -RA ////// 24/23 Q1009=
09/06/2022 19:30:00Z	 SAID34 WAGG 091930	METAR WAGG 091930Z AUTO 36001KT 9999 ////// 24/23 Q1008=
09/06/2022 20:00:00Z	 SAID34 WAGG 092000	METAR WAGG 092000Z AUTO 04001KT 9999 ////// 24/23 Q1008=
09/06/2022 20:30:00Z	 SAID34 WAGG 092030	METAR WAGG 092030Z AUTO 07002KT 9999 ////// 24/23 Q1008=
09/06/2022 21:00:00Z	 SAID34 WAGG 092100	METAR WAGG 092100Z AUTO 05002KT 9999 ////// 24/23 Q1008=
09/06/2022 21:00:00Z	 SAID34 WAGG 092100 CCA	METAR COR WAGG 092100Z 05001KT 8000 BKN011 24/23 Q1008=
09/06/2022 21:30:00Z	 SAID34 WAGG 092130	METAR WAGG 092130Z AUTO 00000KT 9999 ////// 24/23 Q1008=
09/06/2022 21:30:00Z	 SAID34 WAGG 092130 CCA	METAR COR WAGG 092130Z 07001KT 8000 BKN011 24/23 Q1008=
09/06/2022 22:00:00Z	 SAID34 WAGG 092200	METAR WAGG 092200Z 06001KT 8000 BKN011 24/23 Q1008=
09/06/2022 22:30:00Z	 SAID34 WAGG 092230	METAR WAGG 092230Z 03002KT 0900 FG BKN010 24/24 Q1009=
09/06/2022 23:00:00Z	 SAID34 WAGG 092300	METAR WAGG 092300Z 04002KT 1000 BR BKN009 24/23 Q1009=
09/06/2022 23:30:00Z	 SAID34 WAGG 092330	METAR WAGG 092330Z 26002KT 0200 BR VV001 24/24 Q1009=
10/06/2022 00:00:00Z	 SAID34 WAGG 100000	METAR WAGG 100000Z 14002KT 0500 FG VV001 25/25 Q1010=
10/06/2022 00:30:00Z	 SAID34 WAGG 100030	METAR WAGG 100030Z 25001KT 6000 BKN007 25/24 Q1010=
10/06/2022 01:00:00Z	 SAID34 WAGG 100100	METAR WAGG 100100Z 26001KT 9999 BKN009 26/24 Q1010=
10/06/2022 01:30:00Z	 SAID34 WAGG 100130	METAR WAGG 100130Z 21003KT 9999 BKN010 28/25 Q1010=
10/06/2022 02:00:00Z	 SAID34 WAGG 100200	METAR WAGG 100200Z 22003KT 9999 BKN010 28/25 Q1010=
10/06/2022 02:30:00Z	 SAID34 WAGG 100230	METAR WAGG 100230Z 22002KT 9999 BKN010 29/24 Q1009=
10/06/2022 03:00:00Z	 SAID34 WAGG 100300	METAR WAGG 100300Z 14002KT 9999 BKN010 29/24 Q1009=
10/06/2022 03:30:00Z	 SAID34 WAGG 100330	METAR WAGG 100330Z 30002KT 9999 BKN010 29/24 Q1009=
10/06/2022 04:00:00Z	 SAID34 WAGG 100400	METAR WAGG 100400Z 14002KT 9999 BKN010 30/24 Q1008=
10/06/2022 04:30:00Z	 SAID34 WAGG 100430	METAR WAGG 100430Z 09001KT 9999 BKN010 30/24 Q1008=
10/06/2022 05:00:00Z	 SAID34 WAGG 100500	METAR WAGG 100500Z 03002KT 9999 BKN010 31/24 Q1007=
10/06/2022 05:30:00Z	 SAID34 WAGG 100530	METAR WAGG 100530Z 10002KT 9999 BKN010 32/24 Q1007=
10/06/2022 06:00:00Z	 SAID34 WAGG 100600	METAR WAGG 100600Z 07003KT 9999 BKN010 31/23 Q1006=
10/06/2022 06:30:00Z	 SAID34 WAGG 100630	METAR WAGG 100630Z 06003KT 9999 BKN010 32/24 Q1006=
10/06/2022 07:00:00Z	 SAID34 WAGG 100700	METAR WAGG 100700Z 08002KT 9999 SCT010 32/24 Q1005=
10/06/2022 07:30:00Z	 SAID34 WAGG 100730	METAR WAGG 100730Z 27001KT 9999 SCT010 31/24 Q1005=
10/06/2022 08:00:00Z	 SAID34 WAGG 100800	METAR WAGG 100800Z 04001KT 9999 SCT010 32/23 Q1005=
10/06/2022 08:30:00Z	 SAID34 WAGG 100830	METAR WAGG 100830Z 06003KT 9999 SCT010 33/24 Q1005=
10/06/2022 09:00:00Z	 SAID34 WAGG 100900	METAR WAGG 100900Z 10002KT 9999 BKN010 32/23 Q1005=
10/06/2022 09:30:00Z	 SAID34 WAGG 100930	METAR WAGG 100930Z 09002KT 9999 BKN010 31/24 Q1005=
10/06/2022 10:00:00Z	 SAID34 WAGG 101000	METAR WAGG 101000Z 11002KT 9999 BKN010 31/24 Q1006=
10/06/2022 10:30:00Z	 SAID34 WAGG 101030	METAR WAGG 101030Z 14001KT 9999 BKN010 30/25 Q1006=
10/06/2022 11:00:00Z	 SAID34 WAGG 101100	METAR WAGG 101100Z 25002KT 9000 BKN010 30/24 Q1007=
10/06/2022 11:30:00Z	 SAID34 WAGG 101130	METAR WAGG 101130Z 24003KT 8000 BKN011 29/25 Q1007=
10/06/2022 12:00:00Z	 SAID34 WAGG 101200	METAR WAGG 101200Z 21002KT 8000 BKN011 29/24 Q1007=
10/06/2022 12:30:00Z	 SAID34 WAGG 101230	METAR WAGG 101230Z AUTO 14002KT 9999 ////// 29/25 Q1008=
10/06/2022 13:00:00Z	 SAID34 WAGG 101300	METAR WAGG 101300Z AUTO 22005KT 9999 ////// 29/24 Q1009=
10/06/2022 13:30:00Z	 SAID34 WAGG 101330	METAR WAGG 101330Z AUTO 23004KT 190V260 9999 ////// 28/24 Q1009=
10/06/2022 14:00:00Z	 SAID34 WAGG 101400	METAR WAGG 101400Z AUTO 20003KT 9999 ////// 28/25 Q1009=
10/06/2022 14:30:00Z	 SAID34 WAGG 101430	METAR WAGG 101430Z AUTO 19003KT 9999 ////// 27/25 Q1009=
10/06/2022 15:00:00Z	 SAID34 WAGG 101500	METAR WAGG 101500Z AUTO 19003KT 9999 ////// 27/25 Q1009=
10/06/2022 15:30:00Z	 SAID34 WAGG 101530	METAR WAGG 101530Z AUTO 20003KT 9999 ////// 27/25 Q1010=
10/06/2022 16:00:00Z	 SAID34 WAGG 101600	METAR WAGG 101600Z AUTO 18003KT 9999 ////// 27/25 Q1010=
10/06/2022 16:30:00Z	 SAID34 WAGG 101630	METAR WAGG 101630Z AUTO 22003KT 9999 ////// 27/24 Q1009=
10/06/2022 17:00:00Z	 SAID34 WAGG 101700	METAR WAGG 101700Z AUTO 23004KT 9999 VCTS ////// 27/24 Q1009=
10/06/2022 17:30:00Z	 SAID34 WAGG 101730	METAR WAGG 101730Z AUTO 20003KT 9999 ////// 26/26 Q1009=
10/06/2022 18:00:00Z	 SAID34 WAGG 101800	METAR WAGG 101800Z AUTO 18001KT 9999 ////// 27/25 Q1009=
10/06/2022 18:30:00Z	 SAID34 WAGG 101830	METAR WAGG 101830Z AUTO 16003KT 120V180 9999 ////// 26/24 Q1008=
10/06/2022 19:00:00Z	 SAID34 WAGG 101900	METAR WAGG 101900Z AUTO 10002KT 9999 ////// 26/24 Q1008=
10/06/2022 19:30:00Z	 SAID34 WAGG 101930	METAR WAGG 101930Z AUTO 19003KT 9999 VCTS ////// 26/25 Q1008=
10/06/2022 20:00:00Z	 SAID34 WAGG 102000	METAR WAGG 102000Z AUTO VRB02KT 9999 ////// 26/25 Q1008=
10/06/2022 20:30:00Z	 SAID34 WAGG 102030	METAR WAGG 102030Z AUTO 15004KT 9999 VCTS ////// 26/24 Q1008=
10/06/2022 21:00:00Z	 SAID34 WAGG 102100	METAR WAGG 102100Z 12001KT 8000 VCTS FEW010CB SCT011 26/24 Q1008=
10/06/2022 21:30:00Z	 SAID34 WAGG 102130	METAR WAGG 102130Z 04002KT 8000 TS FEW010CB BKN011 25/24 Q1009=
10/06/2022 22:00:00Z	 SAID34 WAGG 102200	METAR WAGG 102200Z 04002KT 8000 TS FEW010CB BKN011 26/25 Q1009=
10/06/2022 22:30:00Z	 SAID34 WAGG 102230	METAR WAGG 102230Z 03005KT 8000 FEW010CB BKN011 26/25 Q1009 RETS=
10/06/2022 23:00:00Z	 SAID34 WAGG 102300	METAR WAGG 102300Z 01006KT 8000 FEW009CB BKN010 25/23 Q1010=
10/06/2022 23:30:00Z	 SAID34 WAGG 102330	METAR WAGG 102330Z 34010KT 6000 VCSH FEW009CB BKN010 25/23 Q1010=
11/06/2022 00:00:00Z	 SAID34 WAGG 110000	METAR WAGG 110000Z 35008KT 6000 VCSH FEW010CB BKN011 25/23 Q1010=
11/06/2022 01:00:00Z	 SAID34 WAGG 110100	METAR WAGG 110100Z 07004KT 9999 SCT012 25/23 Q1010=
11/06/2022 01:30:00Z	 SAID34 WAGG 110130	METAR WAGG 110130Z 04003KT 9999 FEW012 26/23 Q1010=
11/06/2022 02:00:00Z	 SAID34 WAGG 110200	METAR WAGG 110200Z 04002KT 9999 FEW012 27/23 Q1010=
11/06/2022 02:30:00Z	 SAID34 WAGG 110230	METAR WAGG 110230Z 34005KT 9999 FEW012 28/23 Q1010=
11/06/2022 03:00:00Z	 SAID34 WAGG 110300	METAR WAGG 110300Z 31007KT 9999 FEW012 29/24 Q1010=
11/06/2022 03:30:00Z	 SAID34 WAGG 110330	METAR WAGG 110330Z 04006KT 9999 SCT011 30/23 Q1009=
11/06/2022 04:00:00Z	 SAID34 WAGG 110400	METAR WAGG 110400Z 01007KT 9999 SCT011 30/24 Q1008=
11/06/2022 04:30:00Z	 SAID34 WAGG 110430	METAR WAGG 110430Z 06005KT 9999 SCT011 31/24 Q1008=
11/06/2022 05:00:00Z	 SAID34 WAGG 110500	METAR WAGG 110500Z 07003KT 9999 BKN011 32/23 Q1007=
11/06/2022 05:30:00Z	 SAID34 WAGG 110530	METAR WAGG 110530Z 04002KT 9999 BKN011 32/24 Q1007=
11/06/2022 06:00:00Z	 SAID34 WAGG 110600	METAR WAGG 110600Z 03003KT 9999 BKN011 32/23 Q1007=
11/06/2022 06:30:00Z	 SAID34 WAGG 110630	METAR WAGG 110630Z 04002KT 9999 BKN011 31/24 Q1006=
11/06/2022 07:00:00Z	 SAID34 WAGG 110700	METAR WAGG 110700Z 35004KT 9999 SCT011 33/24 Q1005=
11/06/2022 07:30:00Z	 SAID34 WAGG 110730	METAR WAGG 110730Z 35003KT 9999 SCT011 32/24 Q1005=
11/06/2022 08:00:00Z	 SAID34 WAGG 110800	METAR WAGG 110800Z 36002KT 9999 SCT011 33/24 Q1005=
11/06/2022 08:30:00Z	 SAID34 WAGG 110830	METAR WAGG 110830Z 09002KT 9999 SCT011 33/24 Q1005=
11/06/2022 09:00:00Z	 SAID34 WAGG 110900	METAR WAGG 110900Z 28003KT 9999 SCT012 33/24 Q1005=
11/06/2022 09:30:00Z	 SAID34 WAGG 110930	METAR WAGG 110930Z 34004KT 9999 SCT012 31/24 Q1005=
11/06/2022 10:00:00Z	 SAID34 WAGG 111000	METAR WAGG 111000Z 33003KT 9999 SCT012 31/24 Q1005=
11/06/2022 10:30:00Z	 SAID34 WAGG 111030	METAR WAGG 111030Z 29004KT 9999 SCT012 30/24 Q1006=
11/06/2022 11:00:00Z	 SAID34 WAGG 111100	METAR WAGG 111100Z 29003KT 9999 SCT012 29/24 Q1006=
11/06/2022 11:30:00Z	 SAID34 WAGG 111130	METAR WAGG 111130Z 30003KT 9000 FEW011CB SCT012 29/24 Q1007=
11/06/2022 12:00:00Z	 SAID34 WAGG 111200	METAR WAGG 111200Z AUTO 33004KT 9999 ////// 29/24 Q1008=
11/06/2022 12:30:00Z	 SAID34 WAGG 111230	METAR WAGG 111230Z AUTO 22004KT 9999 ////// 29/24 Q1009=
11/06/2022 13:00:00Z	 SAID34 WAGG 111300	METAR WAGG 111300Z AUTO 23004KT 9999 ////// 29/24 Q1009=
11/06/2022 13:30:00Z	 SAID34 WAGG 111330	METAR WAGG 111330Z AUTO 22004KT 9999 ////// 29/24 Q1009=
11/06/2022 14:00:00Z	 SAID34 WAGG 111400	METAR WAGG 111400Z AUTO 21005KT 9999 ////// 28/25 Q1010=
11/06/2022 14:30:00Z	 SAID34 WAGG 111430	METAR WAGG 111430Z AUTO 21004KT 9999 ////// 28/25 Q1010=
11/06/2022 15:00:00Z	 SAID34 WAGG 111500	METAR WAGG 111500Z 21004KT 8000 SCT012 27/24 Q1010=
11/06/2022 15:30:00Z	 SAID34 WAGG 111530	METAR WAGG 111530Z AUTO 22005KT 9999 -RA ////// 28/25 Q1010=
11/06/2022 16:00:00Z	 SAID34 WAGG 111600	METAR WAGG 111600Z AUTO 21005KT 9999 VCTS RA ////// 27/25 Q1010=
11/06/2022 16:30:00Z	 SAID34 WAGG 111630	METAR WAGG 111630Z AUTO 21004KT 9999 VCTS ////// 27/25 Q1010=
11/06/2022 17:00:00Z	 SAID34 WAGG 111700	METAR WAGG 111700Z AUTO 11001KT 9999 ////// 27/25 Q1010=
11/06/2022 17:30:00Z	 SAID34 WAGG 111730	METAR WAGG 111730Z AUTO VRB02KT 9999 -RA ////// 26/25 Q1010=
11/06/2022 18:00:00Z	 SAID34 WAGG 111800	METAR WAGG 111800Z AUTO VRB02KT 9999 -RA ////// 26/24 Q1009=
11/06/2022 18:30:00Z	 SAID34 WAGG 111830	METAR WAGG 111830Z AUTO 17003KT 9999 ////// 26/25 Q1009=
11/06/2022 19:00:00Z	 SAID34 WAGG 111900	METAR WAGG 111900Z AUTO 07001KT 9999 ////// 26/24 Q1009=
11/06/2022 19:30:00Z	 SAID34 WAGG 111930	METAR WAGG 111930Z AUTO 21004KT 9999 ////// 26/25 Q1008=
11/06/2022 20:00:00Z	 SAID34 WAGG 112000	METAR WAGG 112000Z AUTO 23001KT 9999 -RA ////// 26/25 Q1009=
11/06/2022 20:30:00Z	 SAID34 WAGG 112030	METAR WAGG 112030Z AUTO 05002KT 9999 ////// 25/24 Q1009=
11/06/2022 21:00:00Z	 SAID34 WAGG 112100	METAR WAGG 112100Z AUTO VRB02KT 7000 ////// 25/24 Q1008=
11/06/2022 21:30:00Z	 SAID34 WAGG 112130	METAR WAGG 112130Z 35002KT 8000 SCT012 24/24 Q1009=
11/06/2022 22:00:00Z	 SAID34 WAGG 112200	METAR WAGG 112200Z AUTO VRB02KT 9999 ////// 25/24 Q1009=
11/06/2022 22:30:00Z	 SAID34 WAGG 112230	METAR WAGG 112230Z 09002KT 8000 SCT012 25/24 Q1009=
11/06/2022 23:00:00Z	 SAID34 WAGG 112300	METAR WAGG 112300Z 02002KT 9000 BKN012 25/24 Q1010=
11/06/2022 23:30:00Z	 SAID34 WAGG 112330	METAR WAGG 112330Z 36004KT 9000 BKN009 25/24 Q1010=
12/06/2022 00:00:00Z	 SAID34 WAGG 120000	METAR WAGG 120000Z 02003KT 8000 BKN008 25/24 Q1010=
12/06/2022 00:30:00Z	 SAID34 WAGG 120030	METAR WAGG 120030Z 04001KT 8000 FEW008CB BKN009 25/24 Q1011=
12/06/2022 01:00:00Z	 SAID34 WAGG 120100	METAR WAGG 120100Z 05003KT 8000 FEW008CB BKN009 26/25 Q1011=
12/06/2022 01:30:00Z	 SAID34 WAGG 120130	METAR WAGG 120130Z 06003KT 2000 TSRA FEW008CB BKN009 25/24 Q1011=
12/06/2022 02:00:00Z	 SAID34 WAGG 120200	METAR WAGG 120200Z 02005KT 2000 TSRA FEW008CB BKN009 25/24 Q1011=
12/06/2022 02:30:00Z	 SAID34 WAGG 120230	METAR WAGG 120230Z 31008KT 3000 -TSRA FEW008CB BKN009 24/24 Q1011=
12/06/2022 03:00:00Z	 SAID34 WAGG 120300	METAR WAGG 120300Z 29007KT 2500 -TSRA FEW008CB BKN009 24/23 Q1011=
12/06/2022 03:30:00Z	 SAID34 WAGG 120330	METAR WAGG 120330Z 28003KT 5000 -RA FEW008CB BKN009 25/24 Q1011 RETS=
12/06/2022 04:00:00Z	 SAID34 WAGG 120400	METAR WAGG 120400Z 20003KT 5000 -RA FEW009TCU BKN010 25/24 Q1010=
12/06/2022 04:00:00Z	 SAID34 WAGG 120400 CCA	METAR COR WAGG 120400Z 20003KT 5000 -RA FEW009TCU BKN010 26/24 Q1010=
12/06/2022 04:30:00Z	 SAID34 WAGG 120430	METAR WAGG 120430Z 25003KT 5000 -RA FEW009TCU BKN010 26/24 Q1010=
12/06/2022 05:00:00Z	 SAID34 WAGG 120500	METAR WAGG 120500Z 24002KT 9000 BKN011 28/24 Q1009=
12/06/2022 05:30:00Z	 SAID34 WAGG 120530	METAR WAGG 120530Z 22004KT 9000 BKN011 29/24 Q1009=
12/06/2022 06:00:00Z	 SAID34 WAGG 120600	METAR WAGG 120600Z 23006KT 9999 BKN011 29/24 Q1008=
12/06/2022 06:30:00Z	 SAID34 WAGG 120630	METAR WAGG 120630Z 22006KT 9999 BKN011 29/25 Q1008=
12/06/2022 07:00:00Z	 SAID34 WAGG 120700	METAR WAGG 120700Z 25002KT 9999 BKN011 29/24 Q1007=
12/06/2022 07:30:00Z	 SAID34 WAGG 120730	METAR WAGG 120730Z 20003KT 9999 BKN011 29/25 Q1007=
12/06/2022 08:00:00Z	 SAID34 WAGG 120800	METAR WAGG 120800Z 20003KT 9999 BKN011 29/25 Q1007=
12/06/2022 08:30:00Z	 SAID34 WAGG 120830	METAR WAGG 120830Z 21004KT 9999 BKN011 28/25 Q1007=
12/06/2022 09:00:00Z	 SAID34 WAGG 120900	METAR WAGG 120900Z 22005KT 9999 BKN011 28/25 Q1007=
12/06/2022 09:30:00Z	 SAID34 WAGG 120930	METAR WAGG 120930Z 21004KT 9999 BKN011 28/25 Q1007=
12/06/2022 10:00:00Z	 SAID34 WAGG 121000	METAR WAGG 121000Z 19003KT 9999 BKN011 27/25 Q1007=
12/06/2022 10:30:00Z	 SAID34 WAGG 121030	METAR WAGG 121030Z 20003KT 9000 BKN011 27/25 Q1007=
12/06/2022 11:00:00Z	 SAID34 WAGG 121100	METAR WAGG 121100Z 19003KT 9000 BKN011 27/25 Q1008=
12/06/2022 11:30:00Z	 SAID34 WAGG 121130	METAR WAGG 121130Z 20003KT 9000 SCT011 26/25 Q1008=
12/06/2022 12:00:00Z	 SAID34 WAGG 121200	METAR WAGG 121200Z 21003KT 9000 SCT011 26/25 Q1008=
12/06/2022 12:30:00Z	 SAID34 WAGG 121230	METAR WAGG 121230Z AUTO 21003KT 9999 ////// 27/25 Q1009=
12/06/2022 13:00:00Z	 SAID34 WAGG 121300	METAR WAGG 121300Z AUTO 21003KT 9999 ////// 27/25 Q1010=
12/06/2022 13:30:00Z	 SAID34 WAGG 121330	METAR WAGG 121330Z AUTO 24003KT 200V290 9999 ////// 27/25 Q1010=
12/06/2022 14:00:00Z	 SAID34 WAGG 121400	METAR WAGG 121400Z AUTO 20003KT 160V220 9999 ////// 27/25 Q1011=
12/06/2022 14:30:00Z	 SAID34 WAGG 121430	METAR WAGG 121430Z AUTO 17004KT 9999 ////// 26/25 Q1011=
12/06/2022 15:00:00Z	 SAID34 WAGG 121500	METAR WAGG 121500Z AUTO 20002KT 9999 ////// 26/25 Q1011=
12/06/2022 15:30:00Z	 SAID34 WAGG 121530	METAR WAGG 121530Z AUTO 19002KT 9999 -RA ////// 26/25 Q1010=
12/06/2022 16:00:00Z	 SAID34 WAGG 121600	METAR WAGG 121600Z AUTO 18001KT 9999 -RA ////// 26/24 Q1010=
12/06/2022 16:30:00Z	 SAID34 WAGG 121630	METAR WAGG 121630Z AUTO VRB02KT 9999 ////// 26/25 Q1010=
12/06/2022 17:00:00Z	 SAID34 WAGG 121700	METAR WAGG 121700Z AUTO 21001KT 9999 ////// 26/24 Q1010=
12/06/2022 17:30:00Z	 SAID34 WAGG 121730	METAR WAGG 121730Z AUTO 25003KT 0900 R16/P2000N R34/1900N FG ////// 25/24 Q1009=
12/06/2022 18:00:00Z	 SAID34 WAGG 121800	METAR WAGG 121800Z AUTO 25003KT 0550 R16/P2000N R34/1300N -RA ////// 25/24 Q1009=
12/06/2022 18:30:00Z	 SAID34 WAGG 121830	METAR WAGG 121830Z AUTO 27002KT 9999 -RA ////// 25/24 Q1009=
12/06/2022 19:00:00Z	 SAID34 WAGG 121900	METAR WAGG 121900Z AUTO 33003KT 9999 -RA ////// 25/24 Q1009=
12/06/2022 19:30:00Z	 SAID34 WAGG 121930	METAR WAGG 121930Z AUTO VRB02KT 9999 -RA ////// 25/24 Q1009=
12/06/2022 20:00:00Z	 SAID34 WAGG 122000	METAR WAGG 122000Z AUTO 26003KT 230V290 9999 ////// 25/24 Q1009=
12/06/2022 20:30:00Z	 SAID34 WAGG 122030	METAR WAGG 122030Z AUTO 28002KT 9999 ////// 25/24 Q1009=
12/06/2022 21:00:00Z	 SAID34 WAGG 122100	METAR WAGG 122100Z AUTO 29003KT 9999 ////// 25/24 Q1009=
12/06/2022 21:30:00Z	 SAID34 WAGG 122130	METAR WAGG 122130Z 33004KT 7000 SCT009 24/24 Q1009=
12/06/2022 22:00:00Z	 SAID34 WAGG 122200	METAR WAGG 122200Z 31003KT 7000 SCT011 24/24 Q1009=
12/06/2022 22:30:00Z	 SAID34 WAGG 122230	METAR WAGG 122230Z 30003KT 9000 SCT015 24/23 Q1009=
12/06/2022 23:00:00Z	 SAID34 WAGG 122300	METAR WAGG 122300Z 30003KT 9999 SCT013 24/23 Q1010=
12/06/2022 23:30:00Z	 SAID34 WAGG 122330	METAR WAGG 122330Z 01002KT 9999 SCT013 25/24 Q1010=
13/06/2022 00:00:00Z	 SAID34 WAGG 130000	METAR WAGG 130000Z 35002KT 9999 SCT012 25/24 Q1011=
13/06/2022 00:30:00Z	 SAID34 WAGG 130030	METAR WAGG 130030Z 32005KT 9999 FEW012 26/24 Q1011=
13/06/2022 01:00:00Z	 SAID34 WAGG 130100	METAR WAGG 130100Z 31006KT 9999 FEW012 27/24 Q1011=
13/06/2022 01:30:00Z	 SAID34 WAGG 130130	METAR WAGG 130130Z 36003KT 9999 SCT011 28/24 Q1011=
13/06/2022 02:00:00Z	 SAID34 WAGG 130200	METAR WAGG 130200Z 30005KT 9999 SCT011 28/24 Q1011=
13/06/2022 02:30:00Z	 SAID34 WAGG 130230	METAR WAGG 130230Z 33002KT 9999 SCT011 29/24 Q1011=
13/06/2022 03:00:00Z	 SAID34 WAGG 130300	METAR WAGG 130300Z 34004KT 9999 BKN011 30/25 Q1010=
13/06/2022 03:30:00Z	 SAID34 WAGG 130330	METAR WAGG 130330Z 01005KT 9999 BKN010 30/24 Q1010=
13/06/2022 04:00:00Z	 SAID34 WAGG 130400	METAR WAGG 130400Z 03005KT 9999 BKN010 31/24 Q1009=
13/06/2022 04:30:00Z	 SAID34 WAGG 130430	METAR WAGG 130430Z 04005KT 9999 BKN010 31/24 Q1009=
13/06/2022 05:00:00Z	 SAID34 WAGG 130500	METAR WAGG 130500Z 04004KT 9999 BKN010 31/24 Q1009=
13/06/2022 05:30:00Z	 SAID34 WAGG 130530	METAR WAGG 130530Z 03007KT 9999 BKN010 32/24 Q1008=
13/06/2022 06:00:00Z	 SAID34 WAGG 130600	METAR WAGG 130600Z 02004KT 9999 BKN010 32/25 Q1007=
13/06/2022 06:30:00Z	 SAID34 WAGG 130630	METAR WAGG 130630Z 21006KT 9999 FEW010TCU SCT011 31/25 Q1007=
13/06/2022 07:00:00Z	 SAID34 WAGG 130700	METAR WAGG 130700Z 23006KT 9999 FEW010TCU SCT011 31/24 Q1006=
13/06/2022 07:30:00Z	 SAID34 WAGG 130730	METAR WAGG 130730Z 22007KT 9999 FEW010TCU SCT011 31/24 Q1006=
13/06/2022 08:00:00Z	 SAID34 WAGG 130800	METAR WAGG 130800Z 24005KT 9999 FEW010TCU SCT011 30/24 Q1006=
13/06/2022 08:30:00Z	 SAID34 WAGG 130830	METAR WAGG 130830Z 28006KT 9999 FEW010TCU SCT011 31/24 Q1006=
13/06/2022 09:00:00Z	 SAID34 WAGG 130900	METAR WAGG 130900Z 28005KT 9999 FEW010TCU SCT011 31/24 Q1006=
13/06/2022 09:30:00Z	 SAID34 WAGG 130930	METAR WAGG 130930Z 26004KT 9000 VCTS FEW010CB SCT011 31/24 Q1006=
13/06/2022 10:00:00Z	 SAID34 WAGG 131000	METAR WAGG 131000Z 25002KT 9000 VCTS FEW010CB SCT011 31/24 Q1007=
13/06/2022 10:30:00Z	 SAID34 WAGG 131030	METAR WAGG 131030Z 21003KT 9000 FEW010CB BKN011 30/25 Q1007=
13/06/2022 11:00:00Z	 SAID34 WAGG 131100	METAR WAGG 131100Z 16007KT 7000 TS FEW010CB BKN011 27/23 Q1008=
13/06/2022 11:30:00Z	 SAID34 WAGG 131130	METAR WAGG 131130Z 05005KT 0400 +TSRA FEW010CB BKN011 25/24 Q1009=
13/06/2022 12:00:00Z	 SAID34 WAGG 131200	METAR WAGG 131200Z 02003KT 1000 TSRA FEW010CB BKN011 24/23 Q1010=
13/06/2022 12:30:00Z	 SAID34 WAGG 131230	METAR WAGG 131230Z 02003KT 3000 -TSRA FEW010CB BKN011 24/23 Q1010=
13/06/2022 13:00:00Z	 SAID34 WAGG 131300	METAR WAGG 131300Z 29005KT 5000 -TSRA FEW010CB BKN011 24/23 Q1011=
13/06/2022 13:30:00Z	 SAID34 WAGG 131330	METAR WAGG 131330Z 29003KT 5000 -TSRA FEW010CB BKN011 24/23 Q1011=
13/06/2022 14:00:00Z	 SAID34 WAGG 131400	METAR WAGG 131400Z AUTO 28003KT 9999 -RA ////// 25/23 Q1011=
13/06/2022 14:30:00Z	 SAID34 WAGG 131430	METAR WAGG 131430Z AUTO 16001KT 9000 -RA ////// 25/23 Q1011=
13/06/2022 15:00:00Z	 SAID34 WAGG 131500	METAR WAGG 131500Z AUTO 07002KT 9999 -RA ////// 24/23 Q1011=
13/06/2022 15:30:00Z	 SAID34 WAGG 131530	METAR WAGG 131530Z AUTO 04001KT 9999 -RA ////// 24/24 Q1011=
13/06/2022 16:00:00Z	 SAID34 WAGG 131600	METAR WAGG 131600Z AUTO 31001KT 9999 -RA ////// 24/23 Q1011=
13/06/2022 16:30:00Z	 SAID34 WAGG 131630	METAR WAGG 131630Z AUTO 22002KT 9999 -RA ////// 25/23 Q1010=
13/06/2022 17:00:00Z	 SAID34 WAGG 131700	METAR WAGG 131700Z AUTO 17002KT 9999 ////// 25/23 Q1010=
13/06/2022 17:30:00Z	 SAID34 WAGG 131730	METAR WAGG 131730Z AUTO 07002KT 7000 ////// 24/23 Q1010=
13/06/2022 18:00:00Z	 SAID34 WAGG 131800	METAR WAGG 131800Z AUTO 20001KT 9999 ////// 24/23 Q1010=
13/06/2022 18:30:00Z	 SAID34 WAGG 131830	METAR WAGG 131830Z AUTO 00000KT 9999 ////// 24/23 Q1009=
13/06/2022 19:00:00Z	 SAID34 WAGG 131900	METAR WAGG 131900Z AUTO 20002KT 9999 ////// 24/23 Q1009=
13/06/2022 19:30:00Z	 SAID34 WAGG 131930	METAR WAGG 131930Z AUTO 24003KT 9999 ////// 24/23 Q1009=
13/06/2022 20:00:00Z	 SAID34 WAGG 132000	METAR WAGG 132000Z AUTO VRB02KT 9999 ////// 24/23 Q1009=
13/06/2022 20:30:00Z	 SAID34 WAGG 132030	METAR WAGG 132030Z AUTO 28003KT 250V320 0600 R16/1600D R34/1400N FG ////// 24/23 Q1009=
13/06/2022 21:00:00Z	 SAID34 WAGG 132100	METAR WAGG 132100Z AUTO VRB02KT 1200 R16/P2000N R34/P2000N BR ////// 24/23 Q1009=
13/06/2022 21:30:00Z	 SAID34 WAGG 132130	METAR WAGG 132130Z 30002KT 8000 BKN010 23/23 Q1009=
13/06/2022 22:00:00Z	 SAID34 WAGG 132200	METAR WAGG 132200Z 04001KT 5000 BR BKN010 23/23 Q1009=
13/06/2022 22:30:00Z	 SAID34 WAGG 132230	METAR WAGG 132230Z 02001KT 7000 BKN009 23/23 Q1009=
13/06/2022 23:00:00Z	 SAID34 WAGG 132300	METAR WAGG 132300Z 06002KT 7000 BKN009 23/23 Q1010=
13/06/2022 23:30:00Z	 SAID34 WAGG 132330	METAR WAGG 132330Z 01002KT 0400 FG VV004 24/23 Q1010=
14/06/2022 00:00:00Z	 SAID34 WAGG 140000	METAR WAGG 140000Z 05002KT 3000 BR BKN008 24/23 Q1010=
14/06/2022 00:30:00Z	 SAID34 WAGG 140030	METAR WAGG 140030Z 06003KT 8000 BKN008 24/23 Q1011=
14/06/2022 01:00:00Z	 SAID34 WAGG 140100	METAR WAGG 140100Z 06002KT 8000 BKN008 25/24 Q1011=
14/06/2022 01:30:00Z	 SAID34 WAGG 140130	METAR WAGG 140130Z 06002KT 9000 BKN009 26/24 Q1011=
14/06/2022 02:00:00Z	 SAID34 WAGG 140200	METAR WAGG 140200Z 36001KT 9999 BKN009 26/24 Q1011=
14/06/2022 02:30:00Z	 SAID34 WAGG 140230	METAR WAGG 140230Z 12002KT 9999 BKN010 27/24 Q1010=
14/06/2022 03:00:00Z	 SAID34 WAGG 140300	METAR WAGG 140300Z 15002KT 9999 BKN010 27/24 Q1010=
14/06/2022 03:30:00Z	 SAID34 WAGG 140330	METAR WAGG 140330Z 05002KT 9999 BKN010 28/24 Q1010=
14/06/2022 04:00:00Z	 SAID34 WAGG 140400	METAR WAGG 140400Z 18003KT 9999 BKN010 29/24 Q1010=
14/06/2022 04:30:00Z	 SAID34 WAGG 140430	METAR WAGG 140430Z 05004KT 9999 BKN010 30/24 Q1010=
14/06/2022 05:00:00Z	 SAID34 WAGG 140500	METAR WAGG 140500Z 11002KT 9999 BKN010 30/24 Q1009=
14/06/2022 05:30:00Z	 SAID34 WAGG 140530	METAR WAGG 140530Z 05003KT 9999 BKN010 31/24 Q1008=
14/06/2022 06:00:00Z	 SAID34 WAGG 140600	METAR WAGG 140600Z 07005KT 9999 BKN010 31/24 Q1008=
14/06/2022 06:30:00Z	 SAID34 WAGG 140630	METAR WAGG 140630Z 09004KT 9999 BKN010 31/23 Q1007=
14/06/2022 07:00:00Z	 SAID34 WAGG 140700	METAR WAGG 140700Z 08003KT 9999 SCT010 32/23 Q1007=
14/06/2022 07:30:00Z	 SAID34 WAGG 140730	METAR WAGG 140730Z 05003KT 9999 SCT010 32/24 Q1007=
14/06/2022 08:00:00Z	 SAID34 WAGG 140800	METAR WAGG 140800Z 09003KT 9999 SCT010 32/23 Q1007=
14/06/2022 08:30:00Z	 SAID34 WAGG 140830	METAR WAGG 140830Z 06004KT 9999 SCT010 32/23 Q1007=
14/06/2022 09:00:00Z	 SAID34 WAGG 140900	METAR WAGG 140900Z 06002KT 9999 FEW010CB SCT011 32/23 Q1007=
14/06/2022 09:30:00Z	 SAID34 WAGG 140930	METAR WAGG 140930Z 06002KT 9999 FEW010CB SCT011 32/23 Q1007=
14/06/2022 10:00:00Z	 SAID34 WAGG 141000	METAR WAGG 141000Z 05001KT 9999 SCT011 31/24 Q1007=
14/06/2022 10:30:00Z	 SAID34 WAGG 141030	METAR WAGG 141030Z 10001KT 9999 SCT011 30/24 Q1007=
14/06/2022 11:00:00Z	 SAID34 WAGG 141100	METAR WAGG 141100Z 18001KT 9999 SCT011 29/25 Q1007=
14/06/2022 12:00:00Z	 SAID34 WAGG 141200	METAR WAGG 141200Z AUTO 11003KT 9999 ////// 28/23 Q1008=
14/06/2022 12:30:00Z	 SAID34 WAGG 141230	METAR WAGG 141230Z AUTO 13002KT 9999 ////// 27/24 Q1009=
14/06/2022 13:00:00Z	 SAID34 WAGG 141300	METAR WAGG 141300Z AUTO 10003KT 9999 ////// 27/25 Q1009=
14/06/2022 13:30:00Z	 SAID34 WAGG 141330	METAR WAGG 141330Z AUTO 12002KT 9999 ////// 27/25 Q1009=
14/06/2022 14:00:00Z	 SAID34 WAGG 141400	METAR WAGG 141400Z AUTO VRB02KT 9999 ////// 27/24 Q1010=
14/06/2022 14:30:00Z	 SAID34 WAGG 141430	METAR WAGG 141430Z AUTO 18003KT 9999 ////// 27/25 Q1010=
14/06/2022 15:00:00Z	 SAID34 WAGG 141500	METAR WAGG 141500Z AUTO 19004KT 9999 ////// 27/25 Q1010=
14/06/2022 15:30:00Z	 SAID34 WAGG 141530	METAR WAGG 141530Z AUTO 20004KT 9999 ////// 27/24 Q1010=
14/06/2022 16:00:00Z	 SAID34 WAGG 141600	METAR WAGG 141600Z AUTO VRB02KT 9999 ////// 26/24 Q1010=
14/06/2022 16:30:00Z	 SAID34 WAGG 141630	METAR WAGG 141630Z AUTO 20001KT 9999 ////// 26/24 Q1010=
14/06/2022 17:00:00Z	 SAID34 WAGG 141700	METAR WAGG 141700Z AUTO 17002KT 9999 ////// 26/24 Q1010=
14/06/2022 17:30:00Z	 SAID34 WAGG 141730	METAR WAGG 141730Z AUTO 07002KT 9999 ////// 26/24 Q1010=
14/06/2022 18:00:00Z	 SAID34 WAGG 141800	METAR WAGG 141800Z 11003KT 8000 SCT012 25/24 Q1009=
14/06/2022 18:30:00Z	 SAID34 WAGG 141830	METAR WAGG 141830Z AUTO 03002KT 9999 ////// 26/24 Q1009=
14/06/2022 19:00:00Z	 SAID34 WAGG 141900	METAR WAGG 141900Z AUTO 05001KT 9999 ////// 26/24 Q1009=
14/06/2022 19:30:00Z	 SAID34 WAGG 141930	METAR WAGG 141930Z AUTO 30001KT 9999 ////// 26/24 Q1009=
14/06/2022 20:00:00Z	 SAID34 WAGG 142000	METAR WAGG 142000Z AUTO 22003KT 9999 ////// 26/25 Q1009=
14/06/2022 20:30:00Z	 SAID34 WAGG 142030	METAR WAGG 142030Z AUTO 18003KT 9999 ////// 26/24 Q1009=
14/06/2022 21:00:00Z	 SAID34 WAGG 142100	METAR WAGG 142100Z AUTO 19003KT 9999 ////// 26/24 Q1009=
14/06/2022 21:30:00Z	 SAID34 WAGG 142130	METAR WAGG 142130Z AUTO 19003KT 9999 ////// 26/24 Q1009=
14/06/2022 22:00:00Z	 SAID34 WAGG 142200	METAR WAGG 142200Z AUTO VRB02KT 9999 -RA ////// 25/24 Q1009=
14/06/2022 22:30:00Z	 SAID34 WAGG 142230	METAR WAGG 142230Z 23004KT 8000 SCT012 25/23 Q1009=
14/06/2022 23:00:00Z	 SAID34 WAGG 142300	METAR WAGG 142300Z 27003KT 8000 FEW012 25/23 Q1009=
15/06/2022 00:00:00Z	 SAID34 WAGG 150000	METAR WAGG 150000Z 07002KT 9999 FEW012 26/25 Q1010=
15/06/2022 00:30:00Z	 SAID34 WAGG 150030	METAR WAGG 150030Z 06003KT 9999 FEW011 27/25 Q1010=
15/06/2022 01:00:00Z	 SAID34 WAGG 150100	METAR WAGG 150100Z 06003KT 9999 SCT010 28/25 Q1011=
15/06/2022 01:30:00Z	 SAID34 WAGG 150130	METAR WAGG 150130Z 07004KT 9999 SCT010 29/25 Q1011=
15/06/2022 02:00:00Z	 SAID34 WAGG 150200	METAR WAGG 150200Z 05004KT 9999 BKN010 30/25 Q1010=
15/06/2022 02:30:00Z	 SAID34 WAGG 150230	METAR WAGG 150230Z 03003KT 9999 BKN010 30/25 Q1010=
15/06/2022 03:00:00Z	 SAID34 WAGG 150300	METAR WAGG 150300Z 04004KT 9999 BKN010 31/24 Q1009=
15/06/2022 03:30:00Z	 SAID34 WAGG 150330	METAR WAGG 150330Z 04004KT 9999 BKN010 31/24 Q1009=
15/06/2022 04:00:00Z	 SAID34 WAGG 150400	METAR WAGG 150400Z 13002KT 9999 BKN010 31/24 Q1009=
15/06/2022 04:30:00Z	 SAID34 WAGG 150430	METAR WAGG 150430Z 03004KT 9999 BKN010 32/23 Q1008=
15/06/2022 05:00:00Z	 SAID34 WAGG 150500	METAR WAGG 150500Z 10003KT 9999 BKN011 32/23 Q1008=
15/06/2022 05:30:00Z	 SAID34 WAGG 150530	METAR WAGG 150530Z 12005KT 9999 BKN011 32/23 Q1008=
15/06/2022 06:00:00Z	 SAID34 WAGG 150600	METAR WAGG 150600Z 05005KT 9999 BKN011 33/23 Q1007=
15/06/2022 06:30:00Z	 SAID34 WAGG 150630	METAR WAGG 150630Z 12003KT 9999 FEW010TCU BKN011 33/24 Q1007=
15/06/2022 07:00:00Z	 SAID34 WAGG 150700	METAR WAGG 150700Z 10002KT 6000 VCSH FEW010TCU BKN011 32/24 Q1006 RERA=
15/06/2022 07:30:00Z	 SAID34 WAGG 150730	METAR WAGG 150730Z 13004KT 9000 FEW010TCU BKN011 32/24 Q1006=
15/06/2022 08:00:00Z	 SAID34 WAGG 150800	METAR WAGG 150800Z 11003KT 9999 FEW010TCU BKN011 33/23 Q1006=
15/06/2022 08:30:00Z	 SAID34 WAGG 150830	METAR WAGG 150830Z 09003KT 9999 FEW010TCU BKN011 33/23 Q1006=
15/06/2022 09:00:00Z	 SAID34 WAGG 150900	METAR WAGG 150900Z 20001KT 9999 SCT011 33/23 Q1006=
15/06/2022 09:30:00Z	 SAID34 WAGG 150930	METAR WAGG 150930Z 09002KT 9999 BKN011 32/24 Q1006=
15/06/2022 10:00:00Z	 SAID34 WAGG 151000	METAR WAGG 151000Z 10001KT 9999 BKN011 31/24 Q1006=
15/06/2022 10:30:00Z	 SAID34 WAGG 151030	METAR WAGG 151030Z 16004KT 9999 BKN011 30/25 Q1006=
15/06/2022 11:00:00Z	 SAID34 WAGG 151100	METAR WAGG 151100Z 15003KT 8000 TS FEW010CB SCT011 29/25 Q1007=
15/06/2022 11:30:00Z	 SAID34 WAGG 151130	METAR WAGG 151130Z 18002KT 8000 FEW010CB SCT011 29/25 Q1007=
15/06/2022 12:00:00Z	 SAID34 WAGG 151200	METAR WAGG 151200Z 13001KT 8000 SCT012 29/26 Q1008=
15/06/2022 12:30:00Z	 SAID34 WAGG 151230	METAR WAGG 151230Z AUTO 13002KT 9999 ////// 28/25 Q1009=
15/06/2022 13:00:00Z	 SAID34 WAGG 151300	METAR WAGG 151300Z AUTO 09002KT 9999 ////// 27/25 Q1009=
15/06/2022 13:30:00Z	 SAID34 WAGG 151330	METAR WAGG 151330Z AUTO 18001KT 9999 ////// 27/25 Q1010=
15/06/2022 14:00:00Z	 SAID34 WAGG 151400	METAR WAGG 151400Z AUTO 00000KT 9999 ////// 27/25 Q1010=
15/06/2022 14:30:00Z	 SAID34 WAGG 151430	METAR WAGG 151430Z AUTO 00000KT 9999 ////// 27/25 Q1010=
15/06/2022 15:00:00Z	 SAID34 WAGG 151500	METAR WAGG 151500Z AUTO 12001KT 9999 ////// 27/24 Q1010=
15/06/2022 15:30:00Z	 SAID34 WAGG 151530	METAR WAGG 151530Z AUTO 22001KT 9999 ////// 26/25 Q1010=
15/06/2022 16:00:00Z	 SAID34 WAGG 151600	METAR WAGG 151600Z AUTO 16001KT 7000 ////// 27/25 Q1010=
15/06/2022 16:30:00Z	 SAID34 WAGG 151630	METAR WAGG 151630Z AUTO 15002KT 9999 ////// 27/25 Q1010=
15/06/2022 17:00:00Z	 SAID34 WAGG 151700	METAR WAGG 151700Z AUTO VRB02KT 7000 ////// 26/24 Q1009=
15/06/2022 17:30:00Z	 SAID34 WAGG 151730	METAR WAGG 151730Z AUTO 19002KT 9999 ////// 26/25 Q1009=
15/06/2022 18:00:00Z	 SAID34 WAGG 151800	METAR WAGG 151800Z AUTO 23002KT 7000 ////// 26/25 Q1009=
15/06/2022 18:30:00Z	 SAID34 WAGG 151830	METAR WAGG 151830Z AUTO 32001KT 7000 ////// 26/24 Q1009=
15/06/2022 19:00:00Z	 SAID34 WAGG 151900	METAR WAGG 151900Z AUTO 35002KT 7000 ////// 25/24 Q1009=
15/06/2022 19:30:00Z	 SAID34 WAGG 151930	METAR WAGG 151930Z AUTO 01002KT 7000 ////// 25/24 Q1009=
15/06/2022 20:00:00Z	 SAID34 WAGG 152000	METAR WAGG 152000Z AUTO VRB02KT 7000 ////// 25/24 Q1009=
15/06/2022 20:30:00Z	 SAID34 WAGG 152030	METAR WAGG 152030Z AUTO 11002KT 4700 BR ////// 25/24 Q1009=
15/06/2022 21:00:00Z	 SAID34 WAGG 152100	METAR WAGG 152100Z 06002KT 2000 BR SCT012 25/24 Q1009=
15/06/2022 21:30:00Z	 SAID34 WAGG 152130	METAR WAGG 152130Z 07001KT 6000 SCT012 25/24 Q1009=
15/06/2022 22:00:00Z	 SAID34 WAGG 152200	METAR WAGG 152200Z 00000KT 7000 SCT012 25/24 Q1009=
15/06/2022 22:30:00Z	 SAID34 WAGG 152230	METAR WAGG 152230Z 13001KT 8000 FEW012 25/24 Q1009=
15/06/2022 23:00:00Z	 SAID34 WAGG 152300	METAR WAGG 152300Z 11001KT 8000 FEW013 25/24 Q1009=
15/06/2022 23:30:00Z	 SAID34 WAGG 152330	METAR WAGG 152330Z 35001KT 8000 FEW012 25/24 Q1009=
16/06/2022 00:00:00Z	 SAID34 WAGG 160000	METAR WAGG 160000Z 01003KT 9999 FEW011TCU 26/25 Q1010=
16/06/2022 00:30:00Z	 SAID34 WAGG 160030	METAR WAGG 160030Z 03005KT 9999 FEW011 26/24 Q1010=
16/06/2022 01:00:00Z	 SAID34 WAGG 160100	METAR WAGG 160100Z 05003KT 9999 FEW011 27/25 Q1010=
16/06/2022 01:30:00Z	 SAID34 WAGG 160130	METAR WAGG 160130Z 05005KT 9999 FEW011 27/24 Q1010=
16/06/2022 02:00:00Z	 SAID34 WAGG 160200	METAR WAGG 160200Z 06003KT 9999 FEW011 28/24 Q1010=
16/06/2022 02:30:00Z	 SAID34 WAGG 160230	METAR WAGG 160230Z 05004KT 9999 SCT012 29/24 Q1010=
16/06/2022 03:00:00Z	 SAID34 WAGG 160300	METAR WAGG 160300Z 06005KT 9999 SCT011 30/24 Q1010=
16/06/2022 03:30:00Z	 SAID34 WAGG 160330	METAR WAGG 160330Z 10004KT 9999 SCT011 30/24 Q1010=
16/06/2022 04:00:00Z	 SAID34 WAGG 160400	METAR WAGG 160400Z 08004KT 9999 SCT012 30/25 Q1009=
16/06/2022 04:30:00Z	 SAID34 WAGG 160430	METAR WAGG 160430Z 07005KT 9999 SCT012 31/24 Q1009=
16/06/2022 05:00:00Z	 SAID34 WAGG 160500	METAR WAGG 160500Z 06005KT 9999 SCT012 31/24 Q1008=
16/06/2022 05:30:00Z	 SAID34 WAGG 160530	METAR WAGG 160530Z 05006KT 9999 SCT011 32/23 Q1008=
16/06/2022 06:00:00Z	 SAID34 WAGG 160600	METAR WAGG 160600Z 07004KT 9999 SCT012 32/23 Q1007=
16/06/2022 06:30:00Z	 SAID34 WAGG 160630	METAR WAGG 160630Z 08005KT 9999 SCT012 32/24 Q1007=
16/06/2022 07:00:00Z	 SAID34 WAGG 160700	METAR WAGG 160700Z 09005KT 9999 SCT012 33/23 Q1006=
16/06/2022 07:30:00Z	 SAID34 WAGG 160730	METAR WAGG 160730Z 05005KT 9999 SCT012 33/24 Q1006=
16/06/2022 08:00:00Z	 SAID34 WAGG 160800	METAR WAGG 160800Z 06005KT 9999 SCT012 32/23 Q1006=
16/06/2022 08:30:00Z	 SAID34 WAGG 160830	METAR WAGG 160830Z 09004KT 9999 SCT012 32/23 Q1006=
16/06/2022 09:00:00Z	 SAID34 WAGG 160900	METAR WAGG 160900Z 08003KT 9999 SCT012 32/23 Q1006=
16/06/2022 09:30:00Z	 SAID34 WAGG 160930	METAR WAGG 160930Z 08003KT 9999 SCT012 32/23 Q1006=
16/06/2022 10:00:00Z	 SAID34 WAGG 161000	METAR WAGG 161000Z 07003KT 9999 SCT012 31/23 Q1006=
16/06/2022 10:30:00Z	 SAID34 WAGG 161030	METAR WAGG 161030Z 07002KT 9999 SCT012 30/24 Q1007=
16/06/2022 11:00:00Z	 SAID34 WAGG 161100	METAR WAGG 161100Z 06002KT 9999 FEW011CB FEW012 29/24 Q1007=
16/06/2022 11:30:00Z	 SAID34 WAGG 161130	METAR WAGG 161130Z 09002KT 8000 FEW011CB FEW012 28/24 Q1008=
16/06/2022 12:00:00Z	 SAID34 WAGG 161200	METAR WAGG 161200Z 06003KT 9000 SCT012 28/24 Q1008=
16/06/2022 12:30:00Z	 SAID34 WAGG 161230	METAR WAGG 161230Z AUTO 05003KT 9999 ////// 27/24 Q1009=
16/06/2022 13:00:00Z	 SAID34 WAGG 161300	METAR WAGG 161300Z AUTO VRB02KT 9999 ////// 27/24 Q1009=
16/06/2022 13:30:00Z	 SAID34 WAGG 161330	METAR WAGG 161330Z AUTO 15006KT 9999 ////// 28/24 Q1010=
16/06/2022 14:00:00Z	 SAID34 WAGG 161400	METAR WAGG 161400Z AUTO 12006KT 3400 -TSRA ////// 26/24 Q1010=
16/06/2022 14:30:00Z	 SAID34 WAGG 161430	METAR WAGG 161430Z AUTO 17007KT 9999 VCTS ////// 26/24 Q1010=
16/06/2022 15:00:00Z	 SAID34 WAGG 161500	METAR WAGG 161500Z AUTO 18008KT 9999 ////// 26/24 Q1010=
16/06/2022 15:30:00Z	 SAID34 WAGG 161530	METAR WAGG 161530Z AUTO 19004KT 9999 ////// 26/24 Q1010=
16/06/2022 18:00:00Z	 SAID34 WAGG 161800	METAR WAGG 161800Z 23002KT 9000 NIL BKN012 25/24 Q1009=
16/06/2022 18:30:00Z	 SAID34 WAGG 161830	METAR WAGG 161830Z AUTO 28002KT 9999 ////// 25/23 Q1009=
16/06/2022 19:00:00Z	 SAID34 WAGG 161900	METAR WAGG 161900Z AUTO 29002KT 9999 ////// 25/24 Q1009=
16/06/2022 19:30:00Z	 SAID34 WAGG 161930	METAR WAGG 161930Z AUTO 28002KT 9999 ////// 25/24 Q1009=
16/06/2022 20:00:00Z	 SAID34 WAGG 162000	METAR WAGG 162000Z AUTO 27003KT 9999 ////// 25/24 Q1009=
16/06/2022 20:30:00Z	 SAID34 WAGG 162030	METAR WAGG 162030Z AUTO 28004KT 9999 ////// 25/24 Q1009=
16/06/2022 21:00:00Z	 SAID34 WAGG 162100	METAR WAGG 162100Z AUTO 26004KT 230V290 9999 ////// 24/23 Q1009=
16/06/2022 21:30:00Z	 SAID34 WAGG 162130	METAR WAGG 162130Z AUTO 28002KT 9999 ////// 24/23 Q1009=
16/06/2022 22:00:00Z	 SAID34 WAGG 162200	METAR WAGG 162200Z AUTO 28004KT 9999 ////// 24/23 Q1009=
16/06/2022 22:30:00Z	 SAID34 WAGG 162230	METAR WAGG 162230Z 30005KT 9000 BKN010 23/23 Q1009=
16/06/2022 23:00:00Z	 SAID34 WAGG 162300	METAR WAGG 162300Z 26003KT 9000 BKN010 24/23 Q1009=
16/06/2022 23:30:00Z	 SAID34 WAGG 162330	METAR WAGG 162330Z 31003KT 8000 SCT010 24/23 Q1010=
17/06/2022 00:00:00Z	 SAID34 WAGG 170000	METAR WAGG 170000Z 34004KT 8000 BKN010 25/24 Q1010=
17/06/2022 00:30:00Z	 SAID34 WAGG 170030	METAR WAGG 170030Z 33006KT 9000 BKN010 25/24 Q1010=
17/06/2022 01:00:00Z	 SAID34 WAGG 170100	METAR WAGG 170100Z 01004KT 9999 BKN010 26/24 Q1010=
17/06/2022 01:30:00Z	 SAID34 WAGG 170130	METAR WAGG 170130Z 34005KT 9999 BKN010 27/24 Q1010=
17/06/2022 02:00:00Z	 SAID34 WAGG 170200	METAR WAGG 170200Z 32005KT 9999 SCT011 28/24 Q1010=
17/06/2022 02:30:00Z	 SAID34 WAGG 170230	METAR WAGG 170230Z 34004KT 9999 SCT011 29/24 Q1010=
17/06/2022 03:00:00Z	 SAID34 WAGG 170300	METAR WAGG 170300Z 27004KT 9999 BKN011 29/24 Q1010=
17/06/2022 03:30:00Z	 SAID34 WAGG 170330	METAR WAGG 170330Z 25004KT 9999 BKN011 29/24 Q1009=
17/06/2022 04:00:00Z	 SAID34 WAGG 170400	METAR WAGG 170400Z 22004KT 9999 SCT012 30/24 Q1009=
17/06/2022 04:30:00Z	 SAID34 WAGG 170430	METAR WAGG 170430Z 22004KT 9999 SCT012 30/24 Q1009=
17/06/2022 04:30:00Z	 SAID34 WAGG 170430 CCA	METAR COR WAGG 170430Z 22004KT 9999 FEW011TCU SCT012 30/24 Q1009=
17/06/2022 05:00:00Z	 SAID34 WAGG 170500	METAR WAGG 170500Z 25006KT 9999 FEW011TCU SCT012 30/24 Q1008=
17/06/2022 05:30:00Z	 SAID34 WAGG 170530	METAR WAGG 170530Z 28005KT 9999 FEW011TCU SCT012 30/23 Q1007=
17/06/2022 06:00:00Z	 SAID34 WAGG 170600	METAR WAGG 170600Z 34006KT 9999 FEW010CB BKN011 28/25 Q1007=
17/06/2022 06:30:00Z	 SAID34 WAGG 170630	METAR WAGG 170630Z 01005KT 0900 +TSRA FEW010CB BKN011 26/25 Q1007=
17/06/2022 07:00:00Z	 SAID34 WAGG 170700	METAR WAGG 170700Z 31007KT 5000 -TSRA FEW010CB BKN011 25/24 Q1007=
17/06/2022 07:30:00Z	 SAID34 WAGG 170730	METAR WAGG 170730Z 26005KT 8000 TS FEW010CB BKN011 26/24 Q1007 RERA=
17/06/2022 08:00:00Z	 SAID34 WAGG 170800	METAR WAGG 170800Z 27003KT 9999 FEW011TCU SCT012 26/25 Q1007 RETS=
17/06/2022 08:30:00Z	 SAID34 WAGG 170830	METAR WAGG 170830Z 34002KT 9999 FEW011TCU SCT012 27/24 Q1007=
17/06/2022 09:00:00Z	 SAID34 WAGG 170900	METAR WAGG 170900Z 34003KT 9999 FEW011TCU SCT012 27/25 Q1007=
17/06/2022 09:30:00Z	 SAID34 WAGG 170930	METAR WAGG 170930Z 36002KT 9999 FEW011TCU SCT012 26/25 Q1007=
17/06/2022 10:00:00Z	 SAID34 WAGG 171000	METAR WAGG 171000Z 01002KT 9999 FEW011TCU SCT012 26/25 Q1007=
17/06/2022 10:30:00Z	 SAID34 WAGG 171030	METAR WAGG 171030Z 01002KT 9000 FEW011TCU SCT012 26/25 Q1008=
17/06/2022 11:00:00Z	 SAID34 WAGG 171100	METAR WAGG 171100Z 35002KT 9000 FEW011CB SCT012 26/25 Q1008=
17/06/2022 11:30:00Z	 SAID34 WAGG 171130	METAR WAGG 171130Z 29002KT 9000 FEW011CB SCT012 26/25 Q1008=
17/06/2022 12:00:00Z	 SAID34 WAGG 171200	METAR WAGG 171200Z 16004KT 8000 FEW011CB SCT012 26/25 Q1009=
17/06/2022 12:30:00Z	 SAID34 WAGG 171230	METAR WAGG 171230Z AUTO 16004KT 9999 ////// 26/25 Q1010=
17/06/2022 13:00:00Z	 SAID34 WAGG 171300	METAR WAGG 171300Z AUTO 13003KT 090V170 9999 ////// 26/25 Q1010=
17/06/2022 13:30:00Z	 SAID34 WAGG 171330	METAR WAGG 171330Z AUTO 16012KT 1500 R16/P2000N R34/P2000N VCTS RA ////// 25/23 Q1011=
17/06/2022 14:00:00Z	 SAID34 WAGG 171400	METAR WAGG 171400Z AUTO 20006KT 9000 -RA ////// 24/22 Q1010=
17/06/2022 14:30:00Z	 SAID34 WAGG 171430	METAR WAGG 171430Z AUTO 18003KT 150V210 9999 ////// 24/22 Q1011=
17/06/2022 15:00:00Z	 SAID34 WAGG 171500	METAR WAGG 171500Z AUTO VRB02KT 9999 ////// 24/23 Q1011=
17/06/2022 15:30:00Z	 SAID34 WAGG 171530	METAR WAGG 171530Z AUTO 22001KT 9999 ////// 24/23 Q1011=
17/06/2022 16:00:00Z	 SAID34 WAGG 171600	METAR WAGG 171600Z AUTO 15001KT 9999 ////// 24/23 Q1011=
17/06/2022 16:30:00Z	 SAID34 WAGG 171630	METAR WAGG 171630Z AUTO 18002KT 9999 ////// 24/23 Q1010=
17/06/2022 17:00:00Z	 SAID34 WAGG 171700	METAR WAGG 171700Z AUTO 12001KT 9999 ////// 24/23 Q1010=
17/06/2022 17:30:00Z	 SAID34 WAGG 171730	METAR WAGG 171730Z AUTO 05001KT 9999 ////// 24/23 Q1010=
17/06/2022 18:00:00Z	 SAID34 WAGG 171800	METAR WAGG 171800Z AUTO 29001KT 9999 ////// 24/23 Q1009=
17/06/2022 18:30:00Z	 SAID34 WAGG 171830	METAR WAGG 171830Z AUTO VRB02KT 9999 ////// 24/23 Q1009=
17/06/2022 19:00:00Z	 SAID34 WAGG 171900	METAR WAGG 171900Z AUTO 28003KT 9999 ////// 24/23 Q1009=
17/06/2022 19:30:00Z	 SAID34 WAGG 171930	METAR WAGG 171930Z AUTO 30004KT 9999 ////// 24/23 Q1009=
17/06/2022 20:00:00Z	 SAID34 WAGG 172000	METAR WAGG 172000Z AUTO 30004KT 250V320 9999 ////// 24/23 Q1009=
17/06/2022 20:30:00Z	 SAID34 WAGG 172030	METAR WAGG 172030Z AUTO 30006KT 9999 ////// 24/23 Q1009=
17/06/2022 21:00:00Z	 SAID34 WAGG 172100	METAR WAGG 172100Z 32004KT 7000 BKN010 24/23 Q1009=
17/06/2022 21:30:00Z	 SAID34 WAGG 172130	METAR WAGG 172130Z 31005KT 7000 BKN010 24/23 Q1010=
17/06/2022 22:00:00Z	 SAID34 WAGG 172200	METAR WAGG 172200Z 30003KT 7000 SCT011 24/23 Q1010=
17/06/2022 22:30:00Z	 SAID34 WAGG 172230	METAR WAGG 172230Z 34003KT 8000 BKN010 24/23 Q1010=
17/06/2022 23:00:00Z	 SAID34 WAGG 172300	METAR WAGG 172300Z 31006KT 9000 BKN010 24/24 Q1010=
17/06/2022 23:30:00Z	 SAID34 WAGG 172330	METAR WAGG 172330Z 27002KT 9000 BKN010 24/23 Q1011=
18/06/2022 00:00:00Z	 SAID34 WAGG 180000	METAR WAGG 180000Z 28002KT 6000 -RA BKN010 24/24 Q1011=
18/06/2022 00:30:00Z	 SAID34 WAGG 180030	METAR WAGG 180030Z 31004KT 9000 BKN010 25/24 Q1011 RERA=
18/06/2022 01:00:00Z	 SAID34 WAGG 180100	METAR WAGG 180100Z 30005KT 9000 BKN010 25/24 Q1012=
18/06/2022 01:30:00Z	 SAID34 WAGG 180130	METAR WAGG 180130Z 30004KT 9000 BKN010 25/24 Q1012=
18/06/2022 02:00:00Z	 SAID34 WAGG 180200	METAR WAGG 180200Z 31004KT 9000 BKN010 26/24 Q1012=
18/06/2022 02:30:00Z	 SAID34 WAGG 180230	METAR WAGG 180230Z 31003KT 9999 BKN010 27/25 Q1011=
18/06/2022 03:00:00Z	 SAID34 WAGG 180300	METAR WAGG 180300Z 29005KT 9999 BKN010 27/24 Q1011=
18/06/2022 03:30:00Z	 SAID34 WAGG 180330	METAR WAGG 180330Z 31004KT 9999 BKN010 27/24 Q1011=
18/06/2022 04:00:00Z	 SAID34 WAGG 180400	METAR WAGG 180400Z 28005KT 9999 BKN010 28/24 Q1010=
18/06/2022 04:30:00Z	 SAID34 WAGG 180430	METAR WAGG 180430Z 27005KT 9999 BKN011 28/24 Q1010=
18/06/2022 05:00:00Z	 SAID34 WAGG 180500	METAR WAGG 180500Z 27006KT 9999 SCT011 29/24 Q1009=
18/06/2022 05:30:00Z	 SAID34 WAGG 180530	METAR WAGG 180530Z 34004KT 9999 BKN011 29/24 Q1009=
18/06/2022 06:00:00Z	 SAID34 WAGG 180600	METAR WAGG 180600Z 02003KT 9999 FEW010TCU BKN011 29/24 Q1009=
18/06/2022 06:30:00Z	 SAID34 WAGG 180630	METAR WAGG 180630Z 08003KT 9999 -RA FEW010TCU BKN011 29/24 Q1008=
18/06/2022 07:00:00Z	 SAID34 WAGG 180700	METAR WAGG 180700Z 06003KT 8000 VCSH FEW010TCU BKN011 29/24 Q1008 RERA=
18/06/2022 07:30:00Z	 SAID34 WAGG 180730	METAR WAGG 180730Z 09002KT 9000 BKN011 29/24 Q1008=
18/06/2022 08:00:00Z	 SAID34 WAGG 180800	METAR WAGG 180800Z 15003KT 9999 BKN011 30/24 Q1007=
18/06/2022 08:30:00Z	 SAID34 WAGG 180830	METAR WAGG 180830Z 14002KT 9999 SCT011 30/24 Q1007=
18/06/2022 09:00:00Z	 SAID34 WAGG 180900	METAR WAGG 180900Z 12003KT 9999 FEW010TCU SCT011 30/24 Q1007=
18/06/2022 09:30:00Z	 SAID34 WAGG 180930	METAR WAGG 180930Z 14004KT 9999 FEW010TCU SCT011 29/24 Q1008=
18/06/2022 10:00:00Z	 SAID34 WAGG 181000	METAR WAGG 181000Z 17006KT 9999 FEW010TCU SCT011 28/23 Q1008=
18/06/2022 10:30:00Z	 SAID34 WAGG 181030	METAR WAGG 181030Z 18004KT 9999 SCT011 26/23 Q1008=
18/06/2022 11:00:00Z	 SAID34 WAGG 181100	METAR WAGG 181100Z 18003KT 9000 SCT011 26/23 Q1008=
18/06/2022 11:30:00Z	 SAID34 WAGG 181130	METAR WAGG 181130Z 12002KT 8000 FEW012 26/23 Q1009=
18/06/2022 12:00:00Z	 SAID34 WAGG 181200	METAR WAGG 181200Z 18001KT 8000 FEW012 25/23 Q1009=
18/06/2022 12:30:00Z	 SAID34 WAGG 181230	METAR WAGG 181230Z 19004KT 8000 FEW012 25/23 Q1009=
18/06/2022 13:00:00Z	 SAID34 WAGG 181300	METAR WAGG 181300Z 17003KT 8000 FEW012 24/23 Q1010=
18/06/2022 13:30:00Z	 SAID34 WAGG 181330	METAR WAGG 181330Z AUTO 18004KT 9999 ////// 25/22 Q1010=
18/06/2022 14:00:00Z	 SAID34 WAGG 181400	METAR WAGG 181400Z AUTO 19003KT 150V210 9999 ////// 24/22 Q1010=
18/06/2022 14:30:00Z	 SAID34 WAGG 181430	METAR WAGG 181430Z AUTO 21002KT 9999 ////// 24/22 Q1011=
18/06/2022 15:00:00Z	 SAID34 WAGG 181500	METAR WAGG 181500Z AUTO 25001KT 9999 ////// 24/22 Q1011=
18/06/2022 15:30:00Z	 SAID34 WAGG 181530	METAR WAGG 181530Z AUTO 20001KT 9999 ////// 24/22 Q1010=
18/06/2022 16:00:00Z	 SAID34 WAGG 181600	METAR WAGG 181600Z AUTO 18001KT 9999 ////// 24/22 Q1011=
18/06/2022 16:30:00Z	 SAID34 WAGG 181630	METAR WAGG 181630Z AUTO 16001KT 9999 ////// 23/22 Q1010=
18/06/2022 17:00:00Z	 SAID34 WAGG 181700	METAR WAGG 181700Z AUTO 04001KT 9999 ////// 23/22 Q1010=
18/06/2022 17:30:00Z	 SAID34 WAGG 181730	METAR WAGG 181730Z AUTO 17002KT 9999 ////// 23/22 Q1010=
18/06/2022 18:00:00Z	 SAID34 WAGG 181800	METAR WAGG 181800Z AUTO 14001KT 8000 ////// 23/22 Q1010=
18/06/2022 18:30:00Z	 SAID34 WAGG 181830	METAR WAGG 181830Z AUTO 13002KT 9999 ////// 23/22 Q1009=
18/06/2022 19:00:00Z	 SAID34 WAGG 181900	METAR WAGG 181900Z AUTO 23001KT 9999 ////// 23/22 Q1009=
18/06/2022 19:30:00Z	 SAID34 WAGG 181930	METAR WAGG 181930Z AUTO 13001KT 9999 ////// 23/22 Q1009=
18/06/2022 20:00:00Z	 SAID34 WAGG 182000	METAR WAGG 182000Z AUTO 10001KT 9999 ////// 23/22 Q1009=
18/06/2022 20:30:00Z	 SAID34 WAGG 182030	METAR WAGG 182030Z AUTO 00000KT 9999 ////// 23/22 Q1009=
18/06/2022 21:00:00Z	 SAID34 WAGG 182100	METAR WAGG 182100Z 12001KT 8000 BKN012 24/23 Q1009=
18/06/2022 21:30:00Z	 SAID34 WAGG 182130	METAR WAGG 182130Z 21001KT 8000 BKN012 24/23 Q1009=
18/06/2022 22:00:00Z	 SAID34 WAGG 182200	METAR WAGG 182200Z 02001KT 8000 BKN012 24/23 Q1009=
18/06/2022 22:30:00Z	 SAID34 WAGG 182230	METAR WAGG 182230Z 12002KT 8000 BKN012 24/23 Q1009=
18/06/2022 23:00:00Z	 SAID34 WAGG 182300	METAR WAGG 182300Z 15001KT 7000 BKN012 24/24 Q1009=
18/06/2022 23:30:00Z	 SAID34 WAGG 182330	METAR WAGG 182330Z 02001KT 7000 BKN013 25/24 Q1010=
19/06/2022 00:00:00Z	 SAID34 WAGG 190000	METAR WAGG 190000Z 10003KT 8000 BKN012 25/24 Q1010=
19/06/2022 00:30:00Z	 SAID34 WAGG 190030	METAR WAGG 190030Z 09001KT 9000 BKN012 25/23 Q1010=
19/06/2022 01:00:00Z	 SAID34 WAGG 190100	METAR WAGG 190100Z 03002KT 9999 SCT012 27/23 Q1010=
19/06/2022 01:30:00Z	 SAID34 WAGG 190130	METAR WAGG 190130Z 06003KT 9999 FEW012 28/24 Q1010=
19/06/2022 02:00:00Z	 SAID34 WAGG 190200	METAR WAGG 190200Z 04003KT 9999 FEW012 29/24 Q1010=
19/06/2022 02:30:00Z	 SAID34 WAGG 190230	METAR WAGG 190230Z 31005KT 9999 SCT011 29/25 Q1010=
19/06/2022 03:00:00Z	 SAID34 WAGG 190300	METAR WAGG 190300Z 31004KT 9999 SCT011 30/23 Q1010=
19/06/2022 03:30:00Z	 SAID34 WAGG 190330	METAR WAGG 190330Z 36003KT 9999 SCT011 31/23 Q1009=
19/06/2022 04:00:00Z	 SAID34 WAGG 190400	METAR WAGG 190400Z 05003KT 9999 SCT011 31/23 Q1009=
19/06/2022 04:30:00Z	 SAID34 WAGG 190430	METAR WAGG 190430Z 21003KT 9999 SCT011 31/23 Q1008=
19/06/2022 05:00:00Z	 SAID34 WAGG 190500	METAR WAGG 190500Z 23002KT 9999 SCT011 31/23 Q1008=
19/06/2022 05:30:00Z	 SAID34 WAGG 190530	METAR WAGG 190530Z 08003KT 9999 SCT011 32/23 Q1007=
19/06/2022 06:00:00Z	 SAID34 WAGG 190600	METAR WAGG 190600Z 19003KT 9999 BKN011 32/23 Q1007=
19/06/2022 06:30:00Z	 SAID34 WAGG 190630	METAR WAGG 190630Z 21002KT 9999 BKN011 31/23 Q1006=
19/06/2022 07:00:00Z	 SAID34 WAGG 190700	METAR WAGG 190700Z 36002KT 9999 BKN011 32/22 Q1006=
19/06/2022 07:30:00Z	 SAID34 WAGG 190730	METAR WAGG 190730Z 22004KT 9999 BKN011 33/23 Q1006=
19/06/2022 08:00:00Z	 SAID34 WAGG 190800	METAR WAGG 190800Z 19002KT 9999 SCT011 33/24 Q1006=
19/06/2022 08:30:00Z	 SAID34 WAGG 190830	METAR WAGG 190830Z 20003KT 9999 SCT011 31/23 Q1006=
19/06/2022 09:00:00Z	 SAID34 WAGG 190900	METAR WAGG 190900Z 14002KT 9999 SCT011 33/24 Q1006=
19/06/2022 09:30:00Z	 SAID34 WAGG 190930	METAR WAGG 190930Z 15003KT 9999 SCT011 31/23 Q1006=
19/06/2022 10:30:00Z	 SAID34 WAGG 191030	METAR WAGG 191030Z 18002KT 9999 FEW010CB SCT011 30/23 Q1007=
19/06/2022 11:00:00Z	 SAID34 WAGG 191100	METAR WAGG 191100Z 21003KT 9000 FEW010CB SCT011 30/24 Q1007=
19/06/2022 11:30:00Z	 SAID34 WAGG 191130	METAR WAGG 191130Z 19003KT 9000 FEW010CB SCT011 29/24 Q1007=
19/06/2022 12:00:00Z	 SAID34 WAGG 191200	METAR WAGG 191200Z 32002KT 9000 SCT012 27/24 Q1008=
19/06/2022 12:30:00Z	 SAID34 WAGG 191230	METAR WAGG 191230Z AUTO VRB02KT 9999 VCTS ////// 27/24 Q1009=
19/06/2022 13:00:00Z	 SAID34 WAGG 191300	METAR WAGG 191300Z AUTO 13005KT 9999 VCTS ////// 28/24 Q1009=
19/06/2022 13:30:00Z	 SAID34 WAGG 191330	METAR WAGG 191330Z AUTO 24005KT 200V280 4600 -TSRA ////// 26/24 Q1010=
19/06/2022 14:00:00Z	 SAID34 WAGG 191400	METAR WAGG 191400Z AUTO 26007KT 9999 TS ////// 25/23 Q1009=
19/06/2022 14:30:00Z	 SAID34 WAGG 191430	METAR WAGG 191430Z AUTO 20004KT 9999 -TSRA ////// 25/24 Q1009=
19/06/2022 15:00:00Z	 SAID34 WAGG 191500	METAR WAGG 191500Z AUTO 18006KT 9999 -RA ////// 25/23 Q1009=
19/06/2022 15:30:00Z	 SAID34 WAGG 191530	METAR WAGG 191530Z AUTO 19003KT 9999 ////// 25/23 Q1009=
19/06/2022 16:00:00Z	 SAID34 WAGG 191600	METAR WAGG 191600Z AUTO 15003KT 120V180 9999 -RA ////// 25/24 Q1009=
19/06/2022 16:30:00Z	 SAID34 WAGG 191630	METAR WAGG 191630Z AUTO 12002KT 9999 ////// 25/24 Q1008=
19/06/2022 17:00:00Z	 SAID34 WAGG 191700	METAR WAGG 191700Z AUTO 14002KT 9999 ////// 25/24 Q1008=
19/06/2022 17:30:00Z	 SAID34 WAGG 191730	METAR WAGG 191730Z AUTO 07002KT 9999 ////// 25/23 Q1008=
19/06/2022 18:00:00Z	 SAID34 WAGG 191800	METAR WAGG 191800Z AUTO 00000KT 9999 ////// 24/23 Q1008=
19/06/2022 18:30:00Z	 SAID34 WAGG 191830	METAR WAGG 191830Z AUTO 20001KT 9999 ////// 25/24 Q1008=
19/06/2022 19:00:00Z	 SAID34 WAGG 191900	METAR WAGG 191900Z AUTO 31001KT 9999 ////// 25/24 Q1007=
19/06/2022 19:30:00Z	 SAID34 WAGG 191930	METAR WAGG 191930Z AUTO 04001KT 9000 ////// 24/23 Q1007=
19/06/2022 20:00:00Z	 SAID34 WAGG 192000	METAR WAGG 192000Z AUTO 08001KT 7000 ////// 24/23 Q1007=
19/06/2022 20:30:00Z	 SAID34 WAGG 192030	METAR WAGG 192030Z AUTO 32001KT 9999 ////// 24/23 Q1007=
19/06/2022 21:00:00Z	 SAID34 WAGG 192100	METAR WAGG 192100Z AUTO 32002KT 5000 ////// 25/24 Q1007=
19/06/2022 21:30:00Z	 SAID34 WAGG 192130	METAR WAGG 192130Z AUTO 34002KT 3900 BR ////// 24/23 Q1007=
19/06/2022 22:00:00Z	 SAID34 WAGG 192200	METAR WAGG 192200Z AUTO 32001KT 0500 R16/1300N R34/P2000N FG ////// 24/24 Q1008=
19/06/2022 22:30:00Z	 SAID34 WAGG 192230	METAR WAGG 192230Z AUTO VRB02KT 0150 R16/0450N R34/P2000D FG ////// 24/24 Q1008=
19/06/2022 23:00:00Z	 SAID34 WAGG 192300	METAR WAGG 192300Z 32002KT 1000 BR BKN010 24/23 Q1008=
19/06/2022 23:30:00Z	 SAID34 WAGG 192330	METAR WAGG 192330Z 01002KT 9000 BKN010 25/24 Q1008=
20/06/2022 00:00:00Z	 SAID34 WAGG 200000	METAR WAGG 200000Z 02005KT 9000 BKN007 25/24 Q1009=
20/06/2022 00:30:00Z	 SAID34 WAGG 200030	METAR WAGG 200030Z 02003KT 9999 SCT007 26/24 Q1009=
20/06/2022 01:00:00Z	 SAID34 WAGG 200100	METAR WAGG 200100Z 03002KT 9999 SCT009 27/24 Q1009=
20/06/2022 01:30:00Z	 SAID34 WAGG 200130	METAR WAGG 200130Z 10003KT 9999 SCT010 28/24 Q1008=
20/06/2022 02:00:00Z	 SAID34 WAGG 200200	METAR WAGG 200200Z 16003KT 9999 SCT010 28/24 Q1008=
20/06/2022 02:30:00Z	 SAID34 WAGG 200230	METAR WAGG 200230Z 11003KT 9999 SCT010 29/24 Q1008=
20/06/2022 03:00:00Z	 SAID34 WAGG 200300	METAR WAGG 200300Z 15002KT 9999 SCT010 30/25 Q1008=
20/06/2022 03:30:00Z	 SAID34 WAGG 200330	METAR WAGG 200330Z 08003KT 9999 SCT010 30/24 Q1008=
20/06/2022 04:00:00Z	 SAID34 WAGG 200400	METAR WAGG 200400Z 04003KT 9999 SCT010 31/24 Q1007=
20/06/2022 04:30:00Z	 SAID34 WAGG 200430	METAR WAGG 200430Z 01003KT 9999 BKN010 31/25 Q1006=
20/06/2022 05:00:00Z	 SAID34 WAGG 200500	METAR WAGG 200500Z 21009KT 3000 VCSH FEW010TCU SCT011 31/25 Q1006=
20/06/2022 05:30:00Z	 SAID34 WAGG 200530	METAR WAGG 200530Z 18012KT 1000 TSRA FEW010CB BKN011 25/24 Q1006 TEMPO TL0615 18015KT 2000 TSRA FEW010CB=
20/06/2022 06:00:00Z	 SAID34 WAGG 200600	METAR WAGG 200600Z 33011KT 0800 +TSRA FEW010CB BKN011 24/23 Q1006=
20/06/2022 06:30:00Z	 SAID34 WAGG 200630	METAR WAGG 200630Z 06004KT 2000 TSRA FEW010CB BKN011 24/23 Q1006=
20/06/2022 07:00:00Z	 SAID34 WAGG 200700	METAR WAGG 200700Z 02004KT 5000 -TSRA FEW010CB BKN011 24/23 Q1005=
20/06/2022 07:30:00Z	 SAID34 WAGG 200730	METAR WAGG 200730Z 04002KT 6000 -RA FEW010CB BKN011 24/23 Q1005 RETS=
20/06/2022 08:00:00Z	 SAID34 WAGG 200800	METAR WAGG 200800Z 01001KT 8000 FEW010CB BKN011 24/23 Q1004 RERA=
20/06/2022 08:30:00Z	 SAID34 WAGG 200830	METAR WAGG 200830Z 29001KT 9999 FEW010TCU BKN011 25/24 Q1005=
20/06/2022 09:00:00Z	 SAID34 WAGG 200900	METAR WAGG 200900Z 06002KT 9999 FEW010TCU SCT011 26/25 Q1005=
20/06/2022 09:30:00Z	 SAID34 WAGG 200930	METAR WAGG 200930Z 10001KT 9999 FEW010TCU SCT011 26/25 Q1005=
20/06/2022 10:00:00Z	 SAID34 WAGG 201000	METAR WAGG 201000Z 28002KT 9999 FEW010TCU SCT011 26/25 Q1005=
20/06/2022 10:30:00Z	 SAID34 WAGG 201030	METAR WAGG 201030Z 26002KT 8000 FEW010TCU SCT011 26/25 Q1005=
20/06/2022 11:00:00Z	 SAID34 WAGG 201100	METAR WAGG 201100Z 24003KT 8000 FEW010TCU SCT011 26/25 Q1005=
20/06/2022 11:30:00Z	 SAID34 WAGG 201130	METAR WAGG 201130Z 24004KT 8000 FEW010CB SCT011 25/24 Q1006=
20/06/2022 12:00:00Z	 SAID34 WAGG 201200	METAR WAGG 201200Z 18002KT 8000 FEW010CB SCT011 25/24 Q1007=
20/06/2022 12:30:00Z	 SAID34 WAGG 201230	METAR WAGG 201230Z AUTO 21002KT 9999 ////// 25/24 Q1007=
20/06/2022 13:00:00Z	 SAID34 WAGG 201300	METAR WAGG 201300Z AUTO 16003KT 9999 ////// 25/24 Q1008=
20/06/2022 13:30:00Z	 SAID34 WAGG 201330	METAR WAGG 201330Z AUTO 16005KT 9999 ////// 25/24 Q1008=
20/06/2022 14:00:00Z	 SAID34 WAGG 201400	METAR WAGG 201400Z AUTO 13004KT 090V150 9999 ////// 25/24 Q1008=
20/06/2022 14:30:00Z	 SAID34 WAGG 201430	METAR WAGG 201430Z AUTO 14002KT 9999 ////// 25/24 Q1008=
20/06/2022 15:00:00Z	 SAID34 WAGG 201500	METAR WAGG 201500Z AUTO 14003KT 110V170 9999 ////// 25/24 Q1008=
20/06/2022 15:30:00Z	 SAID34 WAGG 201530	METAR WAGG 201530Z AUTO VRB02KT 9999 ////// 25/24 Q1008=
20/06/2022 16:00:00Z	 SAID34 WAGG 201600	METAR WAGG 201600Z AUTO 14004KT 9999 ////// 25/24 Q1008=
20/06/2022 16:30:00Z	 SAID34 WAGG 201630	METAR WAGG 201630Z AUTO 16002KT 9999 ////// 25/23 Q1008=
20/06/2022 17:00:00Z	 SAID34 WAGG 201700	METAR WAGG 201700Z AUTO 06001KT 9999 ////// 24/23 Q1008=
20/06/2022 17:30:00Z	 SAID34 WAGG 201730	METAR WAGG 201730Z AUTO VRB02KT 9999 ////// 24/23 Q1007=
20/06/2022 18:00:00Z	 SAID34 WAGG 201800	METAR WAGG 201800Z AUTO 30002KT 9999 VCTS ////// 24/24 Q1007=
20/06/2022 18:30:00Z	 SAID34 WAGG 201830	METAR WAGG 201830Z AUTO 04002KT 9999 ////// 24/23 Q1007=
20/06/2022 19:00:00Z	 SAID34 WAGG 201900	METAR WAGG 201900Z AUTO 35002KT 9999 ////// 24/23 Q1007=
20/06/2022 19:30:00Z	 SAID34 WAGG 201930	METAR WAGG 201930Z AUTO VRB02KT 9000 ////// 24/23 Q1007=
20/06/2022 20:00:00Z	 SAID34 WAGG 202000	METAR WAGG 202000Z AUTO 36004KT 340V040 9999 ////// 25/24 Q1007=
20/06/2022 20:30:00Z	 SAID34 WAGG 202030	METAR WAGG 202030Z AUTO 03003KT 9999 ////// 24/24 Q1007=
20/06/2022 21:00:00Z	 SAID34 WAGG 202100	METAR WAGG 202100Z 03002KT 8000 BKN011 24/24 Q1007=
20/06/2022 21:30:00Z	 SAID34 WAGG 202130	METAR WAGG 202130Z 36002KT 6000 -RA BKN011 24/24 Q1008=
20/06/2022 22:00:00Z	 SAID34 WAGG 202200	METAR WAGG 202200Z 02002KT 8000 BKN011 24/24 Q1008 RERA=
20/06/2022 22:30:00Z	 SAID34 WAGG 202230	METAR WAGG 202230Z 01001KT 1000 RA FEW010TCU BKN011 24/23 Q1008=
20/06/2022 23:00:00Z	 SAID34 WAGG 202300	METAR WAGG 202300Z 36003KT 0700 +RA FEW010TCU BKN011 24/24 Q1009 TEMPO TL2315 2000 RA=
20/06/2022 23:30:00Z	 SAID34 WAGG 202330	METAR WAGG 202330Z 35003KT 3000 -RA FEW010TCU BKN011 24/24 Q1009=
21/06/2022 00:00:00Z	 SAID34 WAGG 210000	METAR WAGG 210000Z 33003KT 6000 -RA FEW010TCU BKN011 25/24 Q1009=
21/06/2022 00:30:00Z	 SAID34 WAGG 210030	METAR WAGG 210030Z 32004KT 8000 FEW010TCU BKN011 25/24 Q1009=
21/06/2022 01:00:00Z	 SAID34 WAGG 210100	METAR WAGG 210100Z 32006KT 8000 BKN011 26/25 Q1009=
21/06/2022 01:30:00Z	 SAID34 WAGG 210130	METAR WAGG 210130Z 30005KT 9000 BKN011 26/25 Q1009=
21/06/2022 02:00:00Z	 SAID34 WAGG 210200	METAR WAGG 210200Z 30005KT 9000 BKN011 27/25 Q1009=
21/06/2022 02:30:00Z	 SAID34 WAGG 210230	METAR WAGG 210230Z 30005KT 9000 BKN011 27/24 Q1009=
21/06/2022 03:00:00Z	 SAID34 WAGG 210300	METAR WAGG 210300Z 29005KT 9999 SCT011 29/24 Q1008=
21/06/2022 03:30:00Z	 SAID34 WAGG 210330	METAR WAGG 210330Z 29004KT 9999 BKN011 29/24 Q1008=
21/06/2022 04:00:00Z	 SAID34 WAGG 210400	METAR WAGG 210400Z 19003KT 9999 BKN011 29/24 Q1008=
21/06/2022 04:30:00Z	 SAID34 WAGG 210430	METAR WAGG 210430Z 24002KT 9999 BKN011 29/24 Q1007=
21/06/2022 05:00:00Z	 SAID34 WAGG 210500	METAR WAGG 210500Z 21005KT 9999 BKN011 31/24 Q1007=
21/06/2022 05:30:00Z	 SAID34 WAGG 210530	METAR WAGG 210530Z 18004KT 9999 BKN011 31/23 Q1007=
21/06/2022 06:00:00Z	 SAID34 WAGG 210600	METAR WAGG 210600Z 16004KT 9999 BKN011 31/24 Q1006=
21/06/2022 06:30:00Z	 SAID34 WAGG 210630	METAR WAGG 210630Z 16005KT 9999 SCT011 31/23 Q1006=
21/06/2022 07:00:00Z	 SAID34 WAGG 210700	METAR WAGG 210700Z 20006KT 9999 SCT011 31/23 Q1006=
21/06/2022 07:30:00Z	 SAID34 WAGG 210730	METAR WAGG 210730Z 17004KT 9999 SCT011 31/24 Q1005=
21/06/2022 08:00:00Z	 SAID34 WAGG 210800	METAR WAGG 210800Z 16003KT 9999 SCT011 32/24 Q1005=
21/06/2022 08:30:00Z	 SAID34 WAGG 210830	METAR WAGG 210830Z 17005KT 9999 SCT011 32/24 Q1005=
21/06/2022 09:00:00Z	 SAID34 WAGG 210900	METAR WAGG 210900Z 17005KT 9999 FEW010TCU SCT011 31/24 Q1005=
21/06/2022 09:30:00Z	 SAID34 WAGG 210930	METAR WAGG 210930Z 16005KT 5000 FEW010TCU SCT011 31/23 Q1005=
21/06/2022 10:00:00Z	 SAID34 WAGG 211000	METAR WAGG 211000Z 17007KT 9999 FEW011CB 30/24 Q1006=
21/06/2022 10:30:00Z	 SAID34 WAGG 211030	METAR WAGG 211030Z 18005KT 8000 TS SCT011CB 28/24 Q1006=
21/06/2022 11:00:00Z	 SAID34 WAGG 211100	METAR WAGG 211100Z 15002KT 8000 TS SCT011CB 28/24 Q1006=
21/06/2022 11:30:00Z	 SAID34 WAGG 211130	METAR WAGG 211130Z 02003KT 8000 SCT011 27/25 Q1007 RETS=
21/06/2022 12:00:00Z	 SAID34 WAGG 211200	METAR WAGG 211200Z 04002KT 8000 SCT012 27/24 Q1008=
21/06/2022 12:30:00Z	 SAID34 WAGG 211230	METAR WAGG 211230Z AUTO VRB02KT 9999 ////// 27/25 Q1008=
21/06/2022 13:00:00Z	 SAID34 WAGG 211300	METAR WAGG 211300Z AUTO 11003KT 9999 ////// 27/24 Q1009=
21/06/2022 13:30:00Z	 SAID34 WAGG 211330	METAR WAGG 211330Z AUTO 07003KT 050V120 9999 ////// 26/24 Q1009=
21/06/2022 14:00:00Z	 SAID34 WAGG 211400	METAR WAGG 211400Z AUTO 06003KT 9999 ////// 26/24 Q1009=
21/06/2022 14:30:00Z	 SAID34 WAGG 211430	METAR WAGG 211430Z AUTO 06003KT 9999 ////// 25/24 Q1009=
21/06/2022 15:00:00Z	 SAID34 WAGG 211500	METAR WAGG 211500Z 06002KT 8000 SCT012 25/24 Q1009=
21/06/2022 15:30:00Z	 SAID34 WAGG 211530	METAR WAGG 211530Z AUTO 12003KT 9999 ////// 25/24 Q1009=
21/06/2022 16:00:00Z	 SAID34 WAGG 211600	METAR WAGG 211600Z AUTO 09003KT 9999 ////// 25/23 Q1009=
21/06/2022 16:30:00Z	 SAID34 WAGG 211630	METAR WAGG 211630Z AUTO 09003KT 9999 ////// 24/23 Q1008=
21/06/2022 17:00:00Z	 SAID34 WAGG 211700	METAR WAGG 211700Z AUTO 10003KT 9999 ////// 24/23 Q1008=
21/06/2022 17:30:00Z	 SAID34 WAGG 211730	METAR WAGG 211730Z AUTO 11003KT 9999 ////// 24/23 Q1008=
21/06/2022 18:00:00Z	 SAID34 WAGG 211800	METAR WAGG 211800Z AUTO VRB02KT 9999 ////// 24/23 Q1008=
21/06/2022 18:30:00Z	 SAID34 WAGG 211830	METAR WAGG 211830Z AUTO 00000KT 9999 ////// 24/23 Q1008=
21/06/2022 19:00:00Z	 SAID34 WAGG 211900	METAR WAGG 211900Z AUTO 34001KT 9999 ////// 24/23 Q1008=
21/06/2022 19:30:00Z	 SAID34 WAGG 211930	METAR WAGG 211930Z AUTO 02002KT 9999 ////// 24/22 Q1007=
21/06/2022 20:00:00Z	 SAID34 WAGG 212000	METAR WAGG 212000Z AUTO 34002KT 9999 ////// 24/23 Q1007=
21/06/2022 20:30:00Z	 SAID34 WAGG 212030	METAR WAGG 212030Z AUTO 32001KT 9999 ////// 24/23 Q1007=
21/06/2022 21:00:00Z	 SAID34 WAGG 212100	METAR WAGG 212100Z AUTO 33001KT 9999 ////// 24/23 Q1008=
21/06/2022 21:30:00Z	 SAID34 WAGG 212130	METAR WAGG 212130Z AUTO 06002KT 7000 ////// 24/23 Q1008=
21/06/2022 22:00:00Z	 SAID34 WAGG 212200	METAR WAGG 212200Z AUTO 36002KT 9999 ////// 24/23 Q1008=
21/06/2022 22:30:00Z	 SAID34 WAGG 212230	METAR WAGG 212230Z AUTO 01002KT 8000 ////// 24/23 Q1009=
21/06/2022 23:00:00Z	 SAID34 WAGG 212300	METAR WAGG 212300Z AUTO 36002KT 9999 ////// 24/23 Q1009=
21/06/2022 23:30:00Z	 SAID34 WAGG 212330	METAR WAGG 212330Z 35002KT 9000 SCT012 24/23 Q1009=
22/06/2022 00:00:00Z	 SAID34 WAGG 220000	METAR WAGG 220000Z 34002KT 9000 SCT012 25/24 Q1010=
22/06/2022 00:30:00Z	 SAID34 WAGG 220030	METAR WAGG 220030Z 35002KT 9999 FEW012 26/24 Q1010=
22/06/2022 01:00:00Z	 SAID34 WAGG 220100	METAR WAGG 220100Z 34003KT 9999 FEW012 27/24 Q1010=
22/06/2022 01:30:00Z	 SAID34 WAGG 220130	METAR WAGG 220130Z 03003KT 9999 FEW011 28/24 Q1010=
22/06/2022 02:00:00Z	 SAID34 WAGG 220200	METAR WAGG 220200Z 33002KT 9999 FEW012 29/24 Q1010=
22/06/2022 02:30:00Z	 SAID34 WAGG 220230	METAR WAGG 220230Z 01002KT 9999 FEW012 30/24 Q1010=
22/06/2022 03:00:00Z	 SAID34 WAGG 220300	METAR WAGG 220300Z 36003KT 9999 FEW012 30/23 Q1010=
22/06/2022 03:30:00Z	 SAID34 WAGG 220330	METAR WAGG 220330Z 02002KT 9999 SCT011 31/24 Q1009=
22/06/2022 04:00:00Z	 SAID34 WAGG 220400	METAR WAGG 220400Z 05004KT 9999 SCT011 32/22 Q1008=
22/06/2022 04:30:00Z	 SAID34 WAGG 220430	METAR WAGG 220430Z 07003KT 9999 SCT011 32/23 Q1008=
22/06/2022 05:00:00Z	 SAID34 WAGG 220500	METAR WAGG 220500Z 14002KT 9999 SCT011 32/23 Q1008=
22/06/2022 05:30:00Z	 SAID34 WAGG 220530	METAR WAGG 220530Z 08002KT 9999 SCT011 32/23 Q1007=
22/06/2022 06:00:00Z	 SAID34 WAGG 220600	METAR WAGG 220600Z 11003KT 9999 FEW011 SCT012 32/22 Q1007=
22/06/2022 06:30:00Z	 SAID34 WAGG 220630	METAR WAGG 220630Z 15004KT 9000 FEW011TCU SCT012 30/24 Q1006=
22/06/2022 07:00:00Z	 SAID34 WAGG 220700	METAR WAGG 220700Z 12002KT 9999 SCT012 32/23 Q1006=
22/06/2022 07:30:00Z	 SAID34 WAGG 220730	METAR WAGG 220730Z 07002KT 9999 SCT012 33/22 Q1006=
22/06/2022 08:00:00Z	 SAID34 WAGG 220800	METAR WAGG 220800Z 14002KT 9999 SCT012 33/22 Q1005=
22/06/2022 08:30:00Z	 SAID34 WAGG 220830	METAR WAGG 220830Z 14004KT 9999 SCT012 32/23 Q1006=
22/06/2022 09:00:00Z	 SAID34 WAGG 220900	METAR WAGG 220900Z 15004KT 9999 SCT012 31/24 Q1006=
22/06/2022 09:30:00Z	 SAID34 WAGG 220930	METAR WAGG 220930Z 13003KT 9999 FEW011TCU SCT012 31/24 Q1006=
22/06/2022 10:00:00Z	 SAID34 WAGG 221000	METAR WAGG 221000Z 20011KT 8000 FEW010TCU SCT011 29/24 Q1007=
22/06/2022 10:30:00Z	 SAID34 WAGG 221030	METAR WAGG 221030Z 20009KT 5000 -RA FEW010TCU SCT011 28/24 Q1007=
22/06/2022 11:00:00Z	 SAID34 WAGG 221100	METAR WAGG 221100Z 20005KT 8000 FEW010TCU SCT011 27/24 Q1008=
22/06/2022 11:30:00Z	 SAID34 WAGG 221130	METAR WAGG 221130Z 17005KT 8000 SCT011 26/24 Q1009=
22/06/2022 12:00:00Z	 SAID34 WAGG 221200	METAR WAGG 221200Z 16003KT 8000 FEW011TCU SCT012 26/24 Q1009=
22/06/2022 12:30:00Z	 SAID34 WAGG 221230	METAR WAGG 221230Z AUTO 16006KT 9999 ////// 27/24 Q1010=
22/06/2022 13:00:00Z	 SAID34 WAGG 221300	METAR WAGG 221300Z AUTO 23004KT 9999 ////// 27/24 Q1010=
22/06/2022 13:30:00Z	 SAID34 WAGG 221330	METAR WAGG 221330Z AUTO 16003KT 9999 ////// 27/24 Q1010=
22/06/2022 14:00:00Z	 SAID34 WAGG 221400	METAR WAGG 221400Z AUTO 22003KT 190V270 9999 ////// 26/24 Q1010=
22/06/2022 14:30:00Z	 SAID34 WAGG 221430	METAR WAGG 221430Z AUTO VRB02KT 9999 ////// 26/24 Q1010=
22/06/2022 15:00:00Z	 SAID34 WAGG 221500	METAR WAGG 221500Z AUTO 16004KT 9999 ////// 26/24 Q1010=
22/06/2022 15:30:00Z	 SAID34 WAGG 221530	METAR WAGG 221530Z AUTO 08001KT 9999 ////// 25/24 Q1010=
22/06/2022 16:00:00Z	 SAID34 WAGG 221600	METAR WAGG 221600Z AUTO 15006KT 9999 ////// 26/24 Q1010=
22/06/2022 16:30:00Z	 SAID34 WAGG 221630	METAR WAGG 221630Z AUTO 12003KT 9999 ////// 25/23 Q1010=
22/06/2022 17:00:00Z	 SAID34 WAGG 221700	METAR WAGG 221700Z AUTO 15003KT 110V170 9999 ////// 25/23 Q1010=
22/06/2022 17:30:00Z	 SAID34 WAGG 221730	METAR WAGG 221730Z AUTO 13003KT 090V160 9999 ////// 25/23 Q1010=
22/06/2022 18:00:00Z	 SAID34 WAGG 221800	METAR WAGG 221800Z AUTO 15002KT 9999 ////// 25/23 Q1009=
22/06/2022 18:30:00Z	 SAID34 WAGG 221830	METAR WAGG 221830Z AUTO VRB02KT 9999 ////// 25/23 Q1009=
22/06/2022 19:00:00Z	 SAID34 WAGG 221900	METAR WAGG 221900Z AUTO 12002KT 9999 ////// 24/23 Q1009=
22/06/2022 19:30:00Z	 SAID34 WAGG 221930	METAR WAGG 221930Z AUTO 11001KT 9999 ////// 24/23 Q1009=
22/06/2022 20:00:00Z	 SAID34 WAGG 222000	METAR WAGG 222000Z AUTO 07001KT 9999 ////// 24/23 Q1009=
22/06/2022 20:30:00Z	 SAID34 WAGG 222030	METAR WAGG 222030Z AUTO 01001KT 9999 ////// 24/23 Q1009=
22/06/2022 21:00:00Z	 SAID34 WAGG 222100	METAR WAGG 222100Z AUTO 01004KT 9999 ////// 24/23 Q1009=
22/06/2022 21:30:00Z	 SAID34 WAGG 222130	METAR WAGG 222130Z 35005KT 7000 SCT012 24/24 Q1009=
22/06/2022 22:00:00Z	 SAID34 WAGG 222200	METAR WAGG 222200Z 34006KT 7000 FEW012 24/24 Q1010=
22/06/2022 22:30:00Z	 SAID34 WAGG 222230	METAR WAGG 222230Z 36008KT 8000 BKN012 24/24 Q1010=
22/06/2022 23:00:00Z	 SAID34 WAGG 222300	METAR WAGG 222300Z 36006KT 9000 BKN012 24/24 Q1010=
22/06/2022 23:30:00Z	 SAID34 WAGG 222330	METAR WAGG 222330Z 36003KT 9000 BKN011 24/24 Q1010=
23/06/2022 00:00:00Z	 SAID34 WAGG 230000	METAR WAGG 230000Z 35004KT 9000 BKN010 25/24 Q1011=
23/06/2022 00:30:00Z	 SAID34 WAGG 230030	METAR WAGG 230030Z 35003KT 9000 SCT010 26/24 Q1011=
23/06/2022 01:00:00Z	 SAID34 WAGG 230100	METAR WAGG 230100Z 35003KT 9000 SCT010 27/24 Q1011=
23/06/2022 01:30:00Z	 SAID34 WAGG 230130	METAR WAGG 230130Z 36003KT 9999 SCT010 27/24 Q1011=
23/06/2022 02:00:00Z	 SAID34 WAGG 230200	METAR WAGG 230200Z 36004KT 9999 SCT011 28/23 Q1011=
23/06/2022 02:30:00Z	 SAID34 WAGG 230230	METAR WAGG 230230Z 02003KT 9999 SCT011 28/24 Q1010=
23/06/2022 03:00:00Z	 SAID34 WAGG 230300	METAR WAGG 230300Z 03004KT 9999 SCT011 29/24 Q1010=
23/06/2022 03:30:00Z	 SAID34 WAGG 230330	METAR WAGG 230330Z 03004KT 9999 SCT011 30/24 Q1009=
23/06/2022 04:00:00Z	 SAID34 WAGG 230400	METAR WAGG 230400Z 05004KT 9999 SCT011 30/24 Q1009=
23/06/2022 04:30:00Z	 SAID34 WAGG 230430	METAR WAGG 230430Z 04004KT 9999 SCT011 30/24 Q1009=
23/06/2022 05:00:00Z	 SAID34 WAGG 230500	METAR WAGG 230500Z 06003KT 9999 SCT011 30/25 Q1008=
23/06/2022 05:30:00Z	 SAID34 WAGG 230530	METAR WAGG 230530Z 09002KT 9999 SCT011 30/24 Q1008=
23/06/2022 06:00:00Z	 SAID34 WAGG 230600	METAR WAGG 230600Z 05003KT 9999 SCT011 31/24 Q1007=
23/06/2022 06:30:00Z	 SAID34 WAGG 230630	METAR WAGG 230630Z 14001KT 9999 SCT011 31/24 Q1007=
23/06/2022 07:00:00Z	 SAID34 WAGG 230700	METAR WAGG 230700Z 03003KT 9999 FEW010TCU SCT011 31/24 Q1006=
23/06/2022 07:30:00Z	 SAID34 WAGG 230730	METAR WAGG 230730Z 01002KT 9999 FEW010TCU SCT011 31/24 Q1006=
23/06/2022 08:00:00Z	 SAID34 WAGG 230800	METAR WAGG 230800Z 03002KT 9999 FEW010TCU SCT011 31/24 Q1006=
23/06/2022 08:30:00Z	 SAID34 WAGG 230830	METAR WAGG 230830Z 09003KT 9999 FEW010TCU SCT011 31/24 Q1006=
23/06/2022 09:00:00Z	 SAID34 WAGG 230900	METAR WAGG 230900Z 10001KT 9999 FEW010TCU SCT011 30/25 Q1006=
23/06/2022 09:30:00Z	 SAID34 WAGG 230930	METAR WAGG 230930Z 07002KT 9999 FEW010TCU SCT011 30/25 Q1006=
23/06/2022 10:00:00Z	 SAID34 WAGG 231000	METAR WAGG 231000Z 12002KT 9000 VCSH FEW010CB BKN012 30/25 Q1007=
23/06/2022 10:30:00Z	 SAID34 WAGG 231030	METAR WAGG 231030Z 11005KT 7000 VCSH FEW010CB BKN012 28/22 Q1008=
23/06/2022 11:00:00Z	 SAID34 WAGG 231100	METAR WAGG 231100Z 13006KT 6000 TS FEW010CB BKN012 25/23 Q1009=
23/06/2022 12:00:00Z	 SAID34 WAGG 231200	METAR WAGG 231200Z 14003KT 8000 VCSH FEW011CB BKN012 24/23 Q1009=
23/06/2022 15:00:00Z	 SAID34 WAGG 231500	METAR WAGG 231500Z 13002KT 8000 VCSH BKN012 24/23 Q1011=
23/06/2022 18:00:00Z	 SAID34 WAGG 231800	METAR WAGG 231800Z 00000KT 8000 VCSH BKN012 24/23 Q1010=
23/06/2022 21:00:00Z	 SAID34 WAGG 232100	METAR WAGG 232100Z 31002KT 8000 BKN012 24/23 Q1008=
23/06/2022 21:30:00Z	 SAID34 WAGG 232130	METAR WAGG 232130Z 35003KT 8000 BKN012 24/23 Q1009=
23/06/2022 22:00:00Z	 SAID34 WAGG 232200	METAR WAGG 232200Z 34002KT 8000 BKN012 24/23 Q1009=
23/06/2022 22:30:00Z	 SAID34 WAGG 232230	METAR WAGG 232230Z 31005KT 8000 BKN010 24/23 Q1009=
23/06/2022 23:00:00Z	 SAID34 WAGG 232300	METAR WAGG 232300Z 35004KT 5000 BR BKN010 24/23 Q1010=
23/06/2022 23:30:00Z	 SAID34 WAGG 232330	METAR WAGG 232330Z 35002KT 0800 FG VV004 24/23 Q1010=
24/06/2022 00:00:00Z	 SAID34 WAGG 240000	METAR WAGG 240000Z 01002KT 1000 BR VV004 24/24 Q1010=
24/06/2022 00:30:00Z	 SAID34 WAGG 240030	METAR WAGG 240030Z 35003KT 3000 BR VV007 25/24 Q1010=
24/06/2022 01:00:00Z	 SAID34 WAGG 240100	METAR WAGG 240100Z 36003KT 8000 BKN009 25/24 Q1010=
24/06/2022 01:30:00Z	 SAID34 WAGG 240130	METAR WAGG 240130Z 35001KT 8000 BKN009 25/24 Q1010=
24/06/2022 02:00:00Z	 SAID34 WAGG 240200	METAR WAGG 240200Z 36001KT 9000 BKN009 26/24 Q1010=
24/06/2022 02:30:00Z	 SAID34 WAGG 240230	METAR WAGG 240230Z 09003KT 9000 BKN010 27/24 Q1010=
24/06/2022 03:00:00Z	 SAID34 WAGG 240300	METAR WAGG 240300Z 07003KT 9999 BKN010 27/24 Q1010=
24/06/2022 03:30:00Z	 SAID34 WAGG 240330	METAR WAGG 240330Z 06004KT 9999 BKN010 28/24 Q1010=
24/06/2022 04:00:00Z	 SAID34 WAGG 240400	METAR WAGG 240400Z 04004KT 9999 SCT010 28/24 Q1009=
24/06/2022 04:30:00Z	 SAID34 WAGG 240430	METAR WAGG 240430Z 04003KT 9999 SCT011 29/24 Q1008=
24/06/2022 05:00:00Z	 SAID34 WAGG 240500	METAR WAGG 240500Z 06006KT 9999 SCT011 29/24 Q1008=
24/06/2022 05:30:00Z	 SAID34 WAGG 240530	METAR WAGG 240530Z 06003KT 9999 SCT011 30/24 Q1007=
24/06/2022 06:00:00Z	 SAID34 WAGG 240600	METAR WAGG 240600Z 21002KT 9999 SCT011 30/24 Q1007=
24/06/2022 06:30:00Z	 SAID34 WAGG 240630	METAR WAGG 240630Z 07002KT 9999 SCT011 31/23 Q1006=
24/06/2022 07:00:00Z	 SAID34 WAGG 240700	METAR WAGG 240700Z 04003KT 9999 FEW010TCU SCT011 32/23 Q1006=
24/06/2022 07:30:00Z	 SAID34 WAGG 240730	METAR WAGG 240730Z 02004KT 9999 FEW010TCU SCT011 32/22 Q1006=
24/06/2022 08:00:00Z	 SAID34 WAGG 240800	METAR WAGG 240800Z 03004KT 9999 FEW010TCU SCT011 30/23 Q1005=
24/06/2022 08:30:00Z	 SAID34 WAGG 240830	METAR WAGG 240830Z 03004KT 9999 FEW010TCU SCT011 29/25 Q1006=
24/06/2022 09:00:00Z	 SAID34 WAGG 240900	METAR WAGG 240900Z 05002KT 9999 FEW010TCU SCT011 30/25 Q1006=
24/06/2022 09:30:00Z	 SAID34 WAGG 240930	METAR WAGG 240930Z 02002KT 9999 FEW010TCU FEW011 30/25 Q1006=
24/06/2022 10:00:00Z	 SAID34 WAGG 241000	METAR WAGG 241000Z 06001KT 9999 FEW010TCU FEW011 30/25 Q1006=
24/06/2022 10:30:00Z	 SAID34 WAGG 241030	METAR WAGG 241030Z 22004KT 9000 FEW010TCU SCT011 29/25 Q1007=
24/06/2022 11:00:00Z	 SAID34 WAGG 241100	METAR WAGG 241100Z 19010KT 8000 FEW010TCU SCT011 27/24 Q1007=
24/06/2022 11:30:00Z	 SAID34 WAGG 241130	METAR WAGG 241130Z 20007KT 8000 FEW010TCU SCT011 26/24 Q1008=
24/06/2022 12:00:00Z	 SAID34 WAGG 241200	METAR WAGG 241200Z 22003KT 8000 FEW010TCU SCT011 26/24 Q1008=
24/06/2022 12:30:00Z	 SAID34 WAGG 241230	METAR WAGG 241230Z 21002KT 8000 FEW010CB SCT011 26/24 Q1008=
24/06/2022 13:00:00Z	 SAID34 WAGG 241300	METAR WAGG 241300Z 16003KT 8000 FEW010CB SCT011 25/24 Q1009=
24/06/2022 13:30:00Z	 SAID34 WAGG 241330	METAR WAGG 241330Z AUTO 16004KT 9999 ////// 25/23 Q1009=
24/06/2022 14:00:00Z	 SAID34 WAGG 241400	METAR WAGG 241400Z AUTO 26004KT 9999 ////// 26/23 Q1009=
24/06/2022 14:30:00Z	 SAID34 WAGG 241430	METAR WAGG 241430Z AUTO VRB02KT 9999 ////// 25/23 Q1009=
24/06/2022 15:00:00Z	 SAID34 WAGG 241500	METAR WAGG 241500Z AUTO 25003KT 9999 ////// 26/23 Q1009=
24/06/2022 15:30:00Z	 SAID34 WAGG 241530	METAR WAGG 241530Z AUTO VRB02KT 9999 VCTS ////// 25/23 Q1009=
24/06/2022 16:00:00Z	 SAID34 WAGG 241600	METAR WAGG 241600Z AUTO VRB02KT 9999 ////// 25/23 Q1009=
24/06/2022 16:30:00Z	 SAID34 WAGG 241630	METAR WAGG 241630Z AUTO 29003KT 260V330 9999 ////// 25/23 Q1009=
24/06/2022 17:00:00Z	 SAID34 WAGG 241700	METAR WAGG 241700Z AUTO VRB02KT 9999 ////// 25/23 Q1009=
24/06/2022 17:30:00Z	 SAID34 WAGG 241730	METAR WAGG 241730Z AUTO 33004KT 9999 -RA ////// 25/24 Q1009=
24/06/2022 18:00:00Z	 SAID34 WAGG 241800	METAR WAGG 241800Z AUTO 32003KT 9999 ////// 25/24 Q1008=
24/06/2022 18:30:00Z	 SAID34 WAGG 241830	METAR WAGG 241830Z AUTO 33004KT 9999 ////// 25/24 Q1008=
24/06/2022 19:00:00Z	 SAID34 WAGG 241900	METAR WAGG 241900Z AUTO 32003KT 9999 ////// 25/24 Q1008=
24/06/2022 19:30:00Z	 SAID34 WAGG 241930	METAR WAGG 241930Z AUTO 32003KT 9999 ////// 25/24 Q1008=
24/06/2022 20:00:00Z	 SAID34 WAGG 242000	METAR WAGG 242000Z AUTO 34002KT 9999 ////// 25/24 Q1008=
24/06/2022 20:30:00Z	 SAID34 WAGG 242030	METAR WAGG 242030Z AUTO 32003KT 9999 ////// 25/24 Q1007=
24/06/2022 21:00:00Z	 SAID34 WAGG 242100	METAR WAGG 242100Z AUTO 31003KT 9999 ////// 25/24 Q1008=
24/06/2022 22:00:00Z	 SAID34 WAGG 242200	METAR WAGG 242200Z 32005KT 1000 BR BKN011 24/24 Q1008=
24/06/2022 22:30:00Z	 SAID34 WAGG 242230	METAR WAGG 242230Z 31004KT 1000 BR BKN011 24/24 Q1008=
24/06/2022 23:00:00Z	 SAID34 WAGG 242300	METAR WAGG 242300Z 31003KT 1500 BR BKN011 24/24 Q1008=
25/06/2022 00:00:00Z	 SAID34 WAGG 250000	METAR WAGG 250000Z 36002KT 5000 HZ BKN009 25/24 Q1009=
25/06/2022 00:30:00Z	 SAID34 WAGG 250030	METAR WAGG 250030Z 31003KT 5000 HZ BKN009 26/24 Q1009=
25/06/2022 01:00:00Z	 SAID34 WAGG 250100	METAR WAGG 250100Z 31003KT 8000 BKN009 26/24 Q1009=
25/06/2022 01:30:00Z	 SAID34 WAGG 250130	METAR WAGG 250130Z 03003KT 9000 BKN010 27/24 Q1009=
25/06/2022 02:00:00Z	 SAID34 WAGG 250200	METAR WAGG 250200Z 06003KT 9999 BKN010 28/24 Q1008=
25/06/2022 02:30:00Z	 SAID34 WAGG 250230	METAR WAGG 250230Z 09003KT 9999 BKN010 29/24 Q1008=
25/06/2022 03:00:00Z	 SAID34 WAGG 250300	METAR WAGG 250300Z 04004KT 9999 BKN010 29/24 Q1008=
25/06/2022 03:30:00Z	 SAID34 WAGG 250330	METAR WAGG 250330Z 05005KT 9999 SCT010 29/24 Q1007=
25/06/2022 04:00:00Z	 SAID34 WAGG 250400	METAR WAGG 250400Z 06004KT 9999 SCT011 29/24 Q1007=
25/06/2022 04:30:00Z	 SAID34 WAGG 250430	METAR WAGG 250430Z 06004KT 9999 SCT011 29/24 Q1007=
25/06/2022 05:00:00Z	 SAID34 WAGG 250500	METAR WAGG 250500Z 05004KT 9999 SCT011 29/25 Q1006=
25/06/2022 05:30:00Z	 SAID34 WAGG 250530	METAR WAGG 250530Z 06004KT 9999 SCT011 30/24 Q1006=
25/06/2022 06:00:00Z	 SAID34 WAGG 250600	METAR WAGG 250600Z 35002KT 9999 SCT011 31/23 Q1006=
25/06/2022 06:30:00Z	 SAID34 WAGG 250630	METAR WAGG 250630Z 02002KT 9999 SCT011 32/23 Q1006=
25/06/2022 07:00:00Z	 SAID34 WAGG 250700	METAR WAGG 250700Z 23001KT 9999 SCT011 32/23 Q1005=
25/06/2022 07:30:00Z	 SAID34 WAGG 250730	METAR WAGG 250730Z 08003KT 9999 SCT011 33/24 Q1004=
25/06/2022 08:00:00Z	 SAID34 WAGG 250800	METAR WAGG 250800Z 33004KT 9999 BKN011 32/23 Q1004=
25/06/2022 08:30:00Z	 SAID34 WAGG 250830	METAR WAGG 250830Z 07003KT 9999 FEW010TCU BKN011 33/23 Q1004=
25/06/2022 09:00:00Z	 SAID34 WAGG 250900	METAR WAGG 250900Z 05003KT 9999 FEW010TCU BKN011 33/23 Q1005=
25/06/2022 09:20:00Z	 SAID34 WAGG 250920	METAR WAGG 250930Z 06002KT 9999 FEW010TCU BKN011 32/24 Q1005=
25/06/2022 09:30:00Z	 SAID34 WAGG 250930	METAR WAGG 250930Z 06002KT 9999 FEW010TCU BKN011 32/24 Q1005=
25/06/2022 10:00:00Z	 SAID34 WAGG 251000	METAR WAGG 251000Z 07002KT 9999 FEW010TCU BKN011 31/24 Q1005=
25/06/2022 10:30:00Z	 SAID34 WAGG 251030	METAR WAGG 251030Z 05001KT 9999 FEW010TCU BKN011 30/24 Q1006=
25/06/2022 11:00:00Z	 SAID34 WAGG 251100	METAR WAGG 251100Z 36002KT 9999 FEW010TCU SCT011 30/25 Q1006=
25/06/2022 11:30:00Z	 SAID34 WAGG 251130	METAR WAGG 251130Z 17004KT 8000 FEW010TCU SCT011 29/25 Q1007=
25/06/2022 12:00:00Z	 SAID34 WAGG 251200	METAR WAGG 251200Z 22005KT 8000 FEW010TCU SCT011 28/24 Q1007=
25/06/2022 12:30:00Z	 SAID34 WAGG 251230	METAR WAGG 251230Z AUTO 23005KT 200V260 9999 ////// 27/23 Q1008=
25/06/2022 13:00:00Z	 SAID34 WAGG 251300	METAR WAGG 251300Z AUTO 20004KT 160V220 9999 ////// 27/23 Q1008=
25/06/2022 13:30:00Z	 SAID34 WAGG 251330	METAR WAGG 251330Z AUTO 21004KT 9999 ////// 27/23 Q1009=
25/06/2022 14:00:00Z	 SAID34 WAGG 251400	METAR WAGG 251400Z AUTO 23005KT 210V270 9999 ////// 27/24 Q1009=
25/06/2022 14:30:00Z	 SAID34 WAGG 251430	METAR WAGG 251430Z AUTO 20004KT 9999 ////// 27/24 Q1009=
25/06/2022 15:00:00Z	 SAID34 WAGG 251500	METAR WAGG 251500Z AUTO VRB02KT 9999 ////// 26/24 Q1009=
25/06/2022 15:30:00Z	 SAID34 WAGG 251530	METAR WAGG 251530Z AUTO VRB02KT 9999 ////// 26/24 Q1009=
25/06/2022 16:00:00Z	 SAID34 WAGG 251600	METAR WAGG 251600Z AUTO 22002KT 9999 ////// 26/24 Q1009=
25/06/2022 16:30:00Z	 SAID34 WAGG 251630	METAR WAGG 251630Z AUTO 24002KT 9999 ////// 26/25 Q1009=
25/06/2022 17:00:00Z	 SAID34 WAGG 251700	METAR WAGG 251700Z AUTO 25004KT 210V280 9999 ////// 26/24 Q1009=
25/06/2022 17:30:00Z	 SAID34 WAGG 251730	METAR WAGG 251730Z AUTO 25004KT 9999 ////// 26/24 Q1009=
25/06/2022 18:00:00Z	 SAID34 WAGG 251800	METAR WAGG 251800Z AUTO 27004KT 230V290 9999 ////// 26/24 Q1008=
25/06/2022 18:30:00Z	 SAID34 WAGG 251830	METAR WAGG 251830Z AUTO 25003KT 9999 ////// 26/24 Q1008=
25/06/2022 19:00:00Z	 SAID34 WAGG 251900	METAR WAGG 251900Z AUTO 26003KT 230V310 9999 ////// 26/24 Q1008=
25/06/2022 19:30:00Z	 SAID34 WAGG 251930	METAR WAGG 251930Z AUTO 30003KT 270V330 9999 ////// 26/24 Q1008=
25/06/2022 20:00:00Z	 SAID34 WAGG 252000	METAR WAGG 252000Z AUTO 30003KT 9999 ////// 25/24 Q1008=
25/06/2022 20:30:00Z	 SAID34 WAGG 252030	METAR WAGG 252030Z AUTO 32004KT 9999 ////// 25/24 Q1008=
25/06/2022 21:00:00Z	 SAID34 WAGG 252100	METAR WAGG 252100Z 29004KT 8000 BKN011 25/24 Q1007=
25/06/2022 21:30:00Z	 SAID34 WAGG 252130	METAR WAGG 252130Z 29004KT 8000 BKN011 25/24 Q1008=
25/06/2022 22:00:00Z	 SAID34 WAGG 252200	METAR WAGG 252200Z 31003KT 8000 SCT011 25/24 Q1008=
25/06/2022 22:30:00Z	 SAID34 WAGG 252230	METAR WAGG 252230Z 26002KT 8000 SCT011 25/24 Q1009=
25/06/2022 23:00:00Z	 SAID34 WAGG 252300	METAR WAGG 252300Z 31003KT 8000 BKN011 25/24 Q1009=
25/06/2022 23:30:00Z	 SAID34 WAGG 252330	METAR WAGG 252330Z 30003KT 8000 BKN009 25/24 Q1010=
26/06/2022 00:00:00Z	 SAID34 WAGG 260000	METAR WAGG 260000Z 28003KT 8000 BKN009 26/24 Q1010=
26/06/2022 00:30:00Z	 SAID34 WAGG 260030	METAR WAGG 260030Z 30004KT 8000 BKN010 26/24 Q1010=
26/06/2022 01:00:00Z	 SAID34 WAGG 260100	METAR WAGG 260100Z 28005KT 8000 BKN010 27/24 Q1010=
26/06/2022 01:30:00Z	 SAID34 WAGG 260130	METAR WAGG 260130Z 27003KT 9000 BKN010 27/24 Q1010=
26/06/2022 02:00:00Z	 SAID34 WAGG 260200	METAR WAGG 260200Z 29003KT 9999 BKN010 28/24 Q1010=
26/06/2022 02:30:00Z	 SAID34 WAGG 260230	METAR WAGG 260230Z 26003KT 9999 BKN010 28/24 Q1010=
26/06/2022 03:00:00Z	 SAID34 WAGG 260300	METAR WAGG 260300Z 31003KT 9999 SCT011 29/24 Q1009=
26/06/2022 03:30:00Z	 SAID34 WAGG 260330	METAR COR WAGG 260330Z 32002KT 9999 BKN010 30/24 Q1009=
26/06/2022 04:00:00Z	 SAID34 WAGG 260400	METAR WAGG 260400Z 29003KT 9999 FEW010TCU SCT011 30/24 Q1009=
26/06/2022 04:30:00Z	 SAID34 WAGG 260430	METAR WAGG 260430Z 23004KT 9999 FEW010TCU BKN011 30/25 Q1008=
26/06/2022 05:00:00Z	 SAID34 WAGG 260500	METAR WAGG 260500Z 21004KT 9999 FEW010TCU BKN011 30/25 Q1008=
26/06/2022 05:30:00Z	 SAID34 WAGG 260530	METAR WAGG 260530Z 18005KT 9999 TS FEW010CB BKN011 30/24 Q1007=
26/06/2022 06:00:00Z	 SAID34 WAGG 260600	METAR WAGG 260600Z 15003KT 5000 -TSRA FEW010CB SCT011 29/25 Q1007=
26/06/2022 06:30:00Z	 SAID34 WAGG 260630	METAR WAGG 260630Z 29008KT 2000 TSRA FEW010CB BKN011 25/23 Q1007=
26/06/2022 07:00:00Z	 SAID34 WAGG 260700	METAR WAGG 260700Z 26006KT 2000 TS RA FEW010CB SCT011 24/23 Q1007=
26/06/2022 07:30:00Z	 SAID34 WAGG 260730	METAR WAGG 260730Z 27003KT 8000 TS FEW010CB SCT011 24/24 Q1007 RERA=
26/06/2022 08:00:00Z	 SAID34 WAGG 260800	METAR WAGG 260800Z 28006KT 8000 TS SCT010CB 25/24 Q1007=
26/06/2022 08:30:00Z	 SAID34 WAGG 260830	METAR WAGG 260830Z 24005KT 8000 TS SCT010CB 25/24 Q1007=
26/06/2022 09:00:00Z	 SAID34 WAGG 260900	METAR WAGG 260900Z 23007KT 8000 SCT012 25/24 Q1007 RETS=
26/06/2022 09:30:00Z	 SAID34 WAGG 260930	METAR WAGG 260930Z 21008KT 8000 FEW011TCU SCT012 25/24 Q1008=
26/06/2022 10:00:00Z	 SAID34 WAGG 261000	METAR WAGG 261000Z 21006KT 8000 FEW011TCU SCT012 25/24 Q1008=
26/06/2022 10:30:00Z	 SAID34 WAGG 261030	METAR WAGG 261030Z 18003KT 8000 FEW011TCU SCT012 25/24 Q1008=
26/06/2022 11:00:00Z	 SAID34 WAGG 261100	METAR WAGG 261100Z 16003KT 8000 VCSH FEW011TCU SCT012 25/24 Q1008=
26/06/2022 12:00:00Z	 SAID34 WAGG 261200	METAR WAGG 261200Z AUTO VRB02KT 9999 -RA ////// 25/23 Q1010=
26/06/2022 12:30:00Z	 SAID34 WAGG 261230	METAR WAGG 261230Z AUTO 08001KT 9999 ////// 25/23 Q1010=
26/06/2022 13:00:00Z	 SAID34 WAGG 261300	METAR WAGG 261300Z AUTO 15001KT 9999 ////// 25/23 Q1011=
26/06/2022 13:30:00Z	 SAID34 WAGG 261330	METAR WAGG 261330Z AUTO 01001KT 9999 ////// 25/23 Q1011=
26/06/2022 14:00:00Z	 SAID34 WAGG 261400	METAR WAGG 261400Z AUTO 13002KT 9999 ////// 25/24 Q1011=
26/06/2022 14:30:00Z	 SAID34 WAGG 261430	METAR WAGG 261430Z AUTO 12002KT 9999 ////// 24/23 Q1011=
26/06/2022 15:00:00Z	 SAID34 WAGG 261500	METAR WAGG 261500Z 00000KT 8000 VCSH BKN012 24/23 Q1011=
26/06/2022 15:30:00Z	 SAID34 WAGG 261530	METAR WAGG 261530Z AUTO 00000KT 9999 ////// 25/24 Q1011=
26/06/2022 16:00:00Z	 SAID34 WAGG 261600	METAR WAGG 261600Z AUTO 15001KT 9999 ////// 25/24 Q1011=
26/06/2022 16:30:00Z	 SAID34 WAGG 261630	METAR WAGG 261630Z AUTO 06001KT 9000 ////// 25/24 Q1011=
26/06/2022 17:00:00Z	 SAID34 WAGG 261700	METAR WAGG 261700Z AUTO 32001KT 9999 ////// 25/24 Q1011=
26/06/2022 17:30:00Z	 SAID34 WAGG 261730	METAR WAGG 261730Z AUTO 34003KT 9999 ////// 25/24 Q1010=
26/06/2022 18:00:00Z	 SAID34 WAGG 261800	METAR WAGG 261800Z AUTO 35001KT 9999 ////// 25/24 Q1010=
26/06/2022 18:30:00Z	 SAID34 WAGG 261830	METAR WAGG 261830Z AUTO 08002KT 9000 ////// 25/24 Q1010=
26/06/2022 19:00:00Z	 SAID34 WAGG 261900	METAR WAGG 261900Z AUTO VRB02KT 9000 ////// 25/24 Q1009=
26/06/2022 19:30:00Z	 SAID34 WAGG 261930	METAR WAGG 261930Z AUTO 06002KT 7000 ////// 25/24 Q1009=
26/06/2022 20:00:00Z	 SAID34 WAGG 262000	METAR WAGG 262000Z AUTO 04001KT 7000 ////// 25/24 Q1009=
26/06/2022 20:30:00Z	 SAID34 WAGG 262030	METAR WAGG 262030Z AUTO 07001KT 1200 R16/P2000N R34/P2000N BR ////// 25/24 Q1009=
26/06/2022 21:00:00Z	 SAID34 WAGG 262100	METAR WAGG 262100Z AUTO 27001KT 3700 BR ////// 25/24 Q1009=
26/06/2022 21:30:00Z	 SAID34 WAGG 262130	METAR WAGG 262130Z AUTO 05002KT 1400 R16/P2000N R34/P2000N BR ////// 25/24 Q1009=
26/06/2022 22:00:00Z	 SAID34 WAGG 262200	METAR WAGG 262200Z AUTO 04001KT 0500 R16/1400N R34/1200N FG ////// 25/24 Q1009=
26/06/2022 22:30:00Z	 SAID34 WAGG 262230	METAR WAGG 262230Z AUTO 05001KT 0300 R16/0750N R34/1400D FG ////// 25/24 Q1010=
26/06/2022 23:00:00Z	 SAID34 WAGG 262300	METAR WAGG 262300Z 34002KT 0900 FG BKN009 24/23 Q1010=
26/06/2022 23:30:00Z	 SAID34 WAGG 262330	METAR WAGG 262330Z 04002KT 2000 BR VV007 25/24 Q1010=
27/06/2022 00:00:00Z	 SAID34 WAGG 270000	METAR WAGG 270000Z 02003KT 1500 BR VV008 25/24 Q1010=
27/06/2022 00:30:00Z	 SAID34 WAGG 270030	METAR WAGG 270030Z 02002KT 5000 HZ BKN009 25/24 Q1011=
27/06/2022 01:00:00Z	 SAID34 WAGG 270100	METAR WAGG 270100Z 07002KT 7000 BKN010 26/24 Q1011=
27/06/2022 01:30:00Z	 SAID34 WAGG 270130	METAR WAGG 270130Z 10002KT 9000 BKN010 27/25 Q1011=
27/06/2022 02:00:00Z	 SAID34 WAGG 270200	METAR WAGG 270200Z 34002KT 9999 BKN010 28/25 Q1011=
27/06/2022 02:30:00Z	 SAID34 WAGG 270230	METAR WAGG 270230Z 10003KT 9999 BKN010 29/25 Q1011=
27/06/2022 03:00:00Z	 SAID34 WAGG 270300	METAR WAGG 270300Z 09003KT 9999 BKN010 29/24 Q1010=
27/06/2022 03:30:00Z	 SAID34 WAGG 270330	METAR WAGG 270330Z 12002KT 9999 BKN010 30/24 Q1010=
27/06/2022 04:00:00Z	 SAID34 WAGG 270400	METAR WAGG 270400Z 02001KT 9999 BKN010 30/23 Q1009=
27/06/2022 04:30:00Z	 SAID34 WAGG 270430	METAR WAGG 270430Z 22003KT 9999 BKN010 30/24 Q1009=
27/06/2022 05:00:00Z	 SAID34 WAGG 270500	METAR WAGG 270500Z 31001KT 9999 FEW010TCU BKN011 30/24 Q1009=
27/06/2022 05:30:00Z	 SAID34 WAGG 270530	METAR WAGG 270530Z 05002KT 9999 FEW010TCU BKN011 31/24 Q1008=
27/06/2022 06:00:00Z	 SAID34 WAGG 270600	METAR WAGG 270600Z 19001KT 9999 FEW010TCU BKN011 31/24 Q1007=
27/06/2022 06:30:00Z	 SAID34 WAGG 270630	METAR WAGG 270630Z 21002KT 9999 FEW010TCU BKN011 31/24 Q1006=
27/06/2022 07:00:00Z	 SAID34 WAGG 270700	METAR WAGG 270700Z 25003KT 9999 FEW011TCU SCT012 32/24 Q1006=
27/06/2022 07:30:00Z	 SAID34 WAGG 270730	METAR WAGG 270730Z 11003KT 9999 FEW011TCU SCT012 32/24 Q1006=
27/06/2022 08:00:00Z	 SAID34 WAGG 270800	METAR WAGG 270800Z 06003KT 9999 FEW010TCU SCT011 32/24 Q1006=
27/06/2022 08:30:00Z	 SAID34 WAGG 270830	METAR WAGG 270830Z 04002KT 9999 FEW010TCU SCT011 31/24 Q1005=
27/06/2022 09:00:00Z	 SAID34 WAGG 270900	METAR WAGG 270900Z 07002KT 9999 FEW010CB SCT011 31/24 Q1006=
27/06/2022 09:30:00Z	 SAID34 WAGG 270930	METAR WAGG 270930Z 27016KT 0500 +RA SCT010CB SCT011 24/23 Q1006=
27/06/2022 10:00:00Z	 SAID34 WAGG 271000	METAR WAGG 271000Z 19010KT 2000 RA SCT009CB SCT010 25/25 Q1007=
27/06/2022 11:00:00Z	 SAID34 WAGG 271100	METAR WAGG 271100Z 08002KT 8000 FEW010CB BKN011 25/25 Q1007=
27/06/2022 11:30:00Z	 SAID34 WAGG 271130	METAR WAGG 271130Z 16002KT 8000 FEW010CB BKN011 25/24 Q1008=
27/06/2022 12:00:00Z	 SAID34 WAGG 271200	METAR WAGG 271200Z 20003KT 8000 BKN011 25/25 Q1008=
27/06/2022 12:30:00Z	 SAID34 WAGG 271230	METAR WAGG 271230Z AUTO 23003KT 200V270 8000 -RA ////// 26/24 Q1009=
27/06/2022 13:00:00Z	 SAID34 WAGG 271300	METAR WAGG 271300Z AUTO 17005KT 9999 ////// 26/24 Q1009=
27/06/2022 13:30:00Z	 SAID34 WAGG 271330	METAR WAGG 271330Z AUTO 12003KT 080V170 8000 ////// 25/24 Q1009=
27/06/2022 14:00:00Z	 SAID34 WAGG 271400	METAR WAGG 271400Z AUTO 08004KT 5000 -RA ////// 25/24 Q1010=
27/06/2022 14:30:00Z	 SAID34 WAGG 271430	METAR WAGG 271430Z AUTO 13004KT 090V160 9999 ////// 25/24 Q1010=
27/06/2022 15:00:00Z	 SAID34 WAGG 271500	METAR WAGG 271500Z AUTO VRB02KT 9999 -RA ////// 25/24 Q1010=
27/06/2022 15:30:00Z	 SAID34 WAGG 271530	METAR WAGG 271530Z AUTO 19003KT 9999 ////// 26/24 Q1010=
27/06/2022 16:00:00Z	 SAID34 WAGG 271600	METAR WAGG 271600Z AUTO 18003KT 8000 ////// 26/25 Q1010=
27/06/2022 16:30:00Z	 SAID34 WAGG 271630	METAR WAGG 271630Z AUTO 20005KT 5000 -RA ////// 26/25 Q1009=
27/06/2022 17:00:00Z	 SAID34 WAGG 271700	METAR WAGG 271700Z AUTO 16006KT 7000 -RA ////// 26/25 Q1009=
27/06/2022 17:30:00Z	 SAID34 WAGG 271730	METAR WAGG 271730Z AUTO 20006KT 9999 ////// 26/23 Q1009=
27/06/2022 18:00:00Z	 SAID34 WAGG 271800	METAR WAGG 271800Z AUTO 25005KT 9999 ////// 26/24 Q1009=
27/06/2022 18:30:00Z	 SAID34 WAGG 271830	METAR WAGG 271830Z AUTO 28004KT 240V300 9999 ////// 26/24 Q1009=
27/06/2022 19:00:00Z	 SAID34 WAGG 271900	METAR WAGG 271900Z AUTO 29005KT 9999 ////// 26/24 Q1008=
27/06/2022 19:30:00Z	 SAID34 WAGG 271930	METAR WAGG 271930Z AUTO 28006KT 9999 ////// 25/24 Q1009=
27/06/2022 20:00:00Z	 SAID34 WAGG 272000	METAR WAGG 272000Z AUTO 27005KT 230V300 9999 ////// 25/24 Q1008=
27/06/2022 20:30:00Z	 SAID34 WAGG 272030	METAR WAGG 272030Z AUTO 28004KT 240V300 9999 ////// 25/24 Q1008=
27/06/2022 21:00:00Z	 SAID34 WAGG 272100	METAR WAGG 272100Z AUTO 24004KT 9999 ////// 25/24 Q1008=
27/06/2022 21:30:00Z	 SAID34 WAGG 272130	METAR WAGG 272130Z 26003KT 7000 BKN011 25/24 Q1008=
27/06/2022 22:00:00Z	 SAID34 WAGG 272200	METAR WAGG 272200Z 23003KT 7000 SCT011 25/24 Q1009=
27/06/2022 22:30:00Z	 SAID34 WAGG 272230	METAR WAGG 272230Z 25003KT 8000 BKN010 25/24 Q1009=
27/06/2022 23:00:00Z	 SAID34 WAGG 272300	METAR WAGG 272300Z 23003KT 9000 BKN010 25/24 Q1009=
27/06/2022 23:30:00Z	 SAID34 WAGG 272330	METAR WAGG 272330Z 23003KT 9999 BKN011 25/24 Q1009=
28/06/2022 00:00:00Z	 SAID34 WAGG 280000	METAR WAGG 280000Z 22002KT 9999 BKN010 25/24 Q1010=
28/06/2022 00:30:00Z	 SAID34 WAGG 280030	METAR WAGG 280030Z 21002KT 9999 BKN010 26/25 Q1009=
28/06/2022 01:00:00Z	 SAID34 WAGG 280100	METAR WAGG 280100Z 18003KT 9999 SCT010 26/25 Q1010=
28/06/2022 01:30:00Z	 SAID34 WAGG 280130	METAR WAGG 280130Z 18003KT 9999 SCT010 27/25 Q1009=
28/06/2022 02:00:00Z	 SAID34 WAGG 280200	METAR WAGG 280200Z 17002KT 9999 SCT010 28/25 Q1010=
28/06/2022 02:30:00Z	 SAID34 WAGG 280230	METAR WAGG 280230Z 18003KT 9999 SCT010 29/24 Q1009=
28/06/2022 03:00:00Z	 SAID34 WAGG 280300	METAR WAGG 280300Z 09004KT 9999 BKN011 31/24 Q1009=
28/06/2022 03:30:00Z	 SAID34 WAGG 280330	METAR WAGG 280330Z 17003KT 9999 BKN010 30/24 Q1009=
28/06/2022 04:00:00Z	 SAID34 WAGG 280400	METAR WAGG 280400Z 08002KT 9000 FEW010TCU BKN011 30/24 Q1008=
28/06/2022 04:30:00Z	 SAID34 WAGG 280430	METAR WAGG 280430Z 16005KT 9000 FEW010TCU BKN011 30/24 Q1008=
28/06/2022 05:00:00Z	 SAID34 WAGG 280500	METAR WAGG 280500Z 10005KT 9000 FEW010CB BKN011 31/24 Q1007=
28/06/2022 05:30:00Z	 SAID34 WAGG 280530	METAR WAGG 280530Z 11004KT 6000 VCSH FEW010CB BKN011 31/23 Q1007 TEMPO TL0630 23015KT 3000 RA FEW010CB BKN011=
28/06/2022 06:00:00Z	 SAID34 WAGG 280600	METAR WAGG 280600Z 32007KT 1500 RA FEW010CB BKN011 26/25 Q1007=
28/06/2022 06:30:00Z	 SAID34 WAGG 280630	METAR WAGG 280630Z 31003KT 6000 -RA FEW010CB BKN011 27/25 Q1006=
28/06/2022 07:00:00Z	 SAID34 WAGG 280700	METAR WAGG 280700Z 24009KT 6000 TS FEW010CB BKN011 27/25 Q1006=
28/06/2022 07:30:00Z	 SAID34 WAGG 280730	METAR WAGG 280730Z 17005KT 6000 TS FEW010CB BKN011 25/24 Q1006=
28/06/2022 08:00:00Z	 SAID34 WAGG 280800	METAR WAGG 280800Z 10004KT 8000 TS FEW010CB BKN011 25/24 Q1006 RERA=
28/06/2022 08:30:00Z	 SAID34 WAGG 280830	METAR WAGG 280830Z 11003KT 8000 FEW011TCU BKN012 25/24 Q1006 RETS=
28/06/2022 09:00:00Z	 SAID34 WAGG 280900	METAR WAGG 280900Z 09002KT 9000 FEW011TCU BKN012 25/24 Q1006=
28/06/2022 09:30:00Z	 SAID34 WAGG 280930	METAR WAGG 280930Z 09001KT 8000 FEW011TCU BKN012 25/24 Q1005=
28/06/2022 10:00:00Z	 SAID34 WAGG 281000	METAR WAGG 281000Z 16002KT 8000 -RA BKN012 25/24 Q1005=
28/06/2022 10:30:00Z	 SAID34 WAGG 281030	METAR WAGG 281030Z 21002KT 8000 BKN012 25/24 Q1006 RERA=
28/06/2022 11:00:00Z	 SAID34 WAGG 281100	METAR WAGG 281100Z 20003KT 8000 SCT012 25/24 Q1006=
28/06/2022 11:30:00Z	 SAID34 WAGG 281130	METAR WAGG 281130Z 18001KT 8000 SCT012 25/24 Q1006=
28/06/2022 12:00:00Z	 SAID34 WAGG 281200	METAR WAGG 281200Z 36002KT 8000 SCT012 25/24 Q1007=
28/06/2022 12:30:00Z	 SAID34 WAGG 281230	METAR WAGG 281230Z 03002KT 8000 SCT012 25/24 Q1007=
28/06/2022 13:00:00Z	 SAID34 WAGG 281300	METAR WAGG 281300Z 03002KT 8000 SCT012 25/24 Q1007=
28/06/2022 13:30:00Z	 SAID34 WAGG 281330	METAR WAGG 281330Z AUTO 04001KT 9999 ////// 25/25 Q1008=
28/06/2022 14:00:00Z	 SAID34 WAGG 281400	METAR WAGG 281400Z AUTO 10002KT 9999 ////// 25/25 Q1008=
28/06/2022 14:30:00Z	 SAID34 WAGG 281430	METAR WAGG 281430Z AUTO 07002KT 9999 ////// ///// Q////=
