01/04/2021 00:00:00Z	 SAID32 WIPP 010000	METAR WIPP 010000Z 10005KT 8000 SCT008 24/23 Q1007=
01/04/2021 00:30:00Z	 SAID32 WIPP 010030	METAR WIPP 010030Z 11004KT 6000 SCT008 24/23 Q1008=
01/04/2021 01:00:00Z	 SAID32 WIPP 010100	METAR WIPP 010100Z 06004KT 8000 SCT010 24/24 Q1007 NOSIG=
01/04/2021 01:30:00Z	 SAID32 WIPP 010130	METAR WIPP 010130Z 05004KT 9999 SCT010 25/24 Q1009 NOSIG=
01/04/2021 02:00:00Z	 SAID32 WIPP 010200	METAR WIPP 010200Z 04004KT 9999 SCT010 25/24 Q1008 NOSIG=
01/04/2021 02:30:00Z	 SAID32 WIPP 010230	METAR WIPP 010230Z 060042KT 9999 SCT010 26/24 Q1009 NOSIG=
01/04/2021 02:30:00Z	 SAID32 WIPP 010230 CCA	METAR COR WIPP 010230Z 06002KT 9999 SCT010 26/24 Q1009 NOSIG=
01/04/2021 03:00:00Z	 SAID32 WIPP 010300	METAR WIPP 010300Z 10002KT 9999 SCT010 27/24 Q1009 NOSIG=
01/04/2021 03:30:00Z	 SAID32 WIPP 010330	METAR WIPP 010330Z 32003KT 9999 SCT010 28/24 Q1009 NOSIG=
01/04/2021 04:00:00Z	 SAID32 WIPP 010400	METAR WIPP 010400Z 21002KT 9999 FEW010 28/23 Q1009 NOSIG=
01/04/2021 04:30:00Z	 SAID32 WIPP 010430	METAR WIPP 010430Z 00000KT 9999 FEW010 29/24 Q1008 NOSIG=
01/04/2021 05:00:00Z	 SAID32 WIPP 010500	METAR WIPP 010500Z 16003KT 9999 FEW010 29/23 Q1008 NOSIG=
01/04/2021 05:30:00Z	 SAID32 WIPP 010530	METAR WIPP 010530Z 23002KT 9999 FEW010 29/23 Q1007 NOSIG=
01/04/2021 06:00:00Z	 SAID32 WIPP 010600	METAR WIPP 010600Z 14002KT 9999 FEW010 30/24 Q1007 NOSIG=
01/04/2021 06:30:00Z	 SAID32 WIPP 010630	METAR WIPP 010630Z 22004KT 9999 FEW010 30/24 Q1006 NOSIG=
01/04/2021 07:00:00Z	 SAID32 WIPP 010700	METAR WIPP 010700Z 20003KT 9999 SCT010 30/23 Q1006 NOSIG=
01/04/2021 07:30:00Z	 SAID32 WIPP 010730	METAR WIPP 010730Z 22004KT 9999 SCT010 30/23 Q1006 NOSIG=
01/04/2021 08:00:00Z	 SAID32 WIPP 010800	METAR WIPP 010800Z 18003KT 9999 SCT010 30/24 Q1005 NOSIG=
01/04/2021 08:30:00Z	 SAID32 WIPP 010830	METAR WIPP 010830Z 19003KT 9999 SCT010 30/24 Q1005 NOSIG=
01/04/2021 09:00:00Z	 SAID32 WIPP 010900	METAR WIPP 010900Z 17002KT 9999 SCT010 30/24 Q1004 NOSIG=
01/04/2021 09:30:00Z	 SAID32 WIPP 010930	METAR WIPP 010930Z 00000KT 9999 FEW010 30/24 Q1004 NOSIG=
01/04/2021 10:00:00Z	 SAID32 WIPP 011000	METAR WIPP 011000Z 34007KT 9999 FEW010 30/24 Q1004 NOSIG=
01/04/2021 10:30:00Z	 SAID32 WIPP 011030	METAR WIPP 011030Z 36004KT 9999 FEW010 29/24 Q1005 NOSIG=
01/04/2021 11:00:00Z	 SAID32 WIPP 011100	METAR WIPP 011100Z 01004KT 9999 FEW010 29/25 Q1004 NOSIG=
01/04/2021 11:30:00Z	 SAID32 WIPP 011130	METAR WIPP 011130Z 03003KT 9999 FEW010 28/25 Q1004 NOSIG=
01/04/2021 12:00:00Z	 SAID32 WIPP 011200	METAR WIPP 011200Z 05003KT 9999 FEW010 28/24 Q1005 NOSIG=
01/04/2021 12:30:00Z	 SAID32 WIPP 011230	METAR WIPP 011230Z 03002KT 9999 FEW010 28/24 Q1005 NOSIG=
01/04/2021 13:00:00Z	 SAID32 WIPP 011300	METAR WIPP 011300Z 00000KT 9999 FEW010 28/24 Q1006 NOSIG=
01/04/2021 14:00:00Z	 SAID32 WIPP 011400	METAR WIPP 011400Z 00000KT 8000 FEW010 28/25 Q1006 NOSIG=
01/04/2021 15:00:00Z	 SAID32 WIPP 011500	METAR WIPP 011500Z 00000KT 8000 FEW010 27/25 Q1007 NOSIG=
01/04/2021 16:00:00Z	 SAID32 WIPP 011600	METAR WIPP 011600Z 00000KT 6000 FEW010 27/25 Q1007 NOSIG=
01/04/2021 17:00:00Z	 SAID32 WIPP 011700	METAR WIPP 011700Z 26002KT 4000 HZ FEW010 26/25 Q1007 NOSIG=
01/04/2021 18:00:00Z	 SAID32 WIPP 011800	METAR WIPP 011800Z 22003KT 5000 HZ FEW010 26/24 Q1006=
01/04/2021 19:00:00Z	 SAID32 WIPP 011900	METAR WIPP 011900Z 24002KT 5000 HZ FEW010 26/24 Q1006=
01/04/2021 20:00:00Z	 SAID32 WIPP 012000	METAR WIPP 012000Z 00000KT 8000 FEW010 26/24 Q1006=
01/04/2021 21:00:00Z	 SAID32 WIPP 012100	METAR WIPP 012100Z 00000KT 6000 FEW010 26/24 Q1006=
01/04/2021 22:00:00Z	 SAID32 WIPP 012200	METAR WIPP 012200Z 00000KT 6000 FEW010 25/23 Q1006=
01/04/2021 22:30:00Z	 SAID32 WIPP 012230	METAR WIPP 012230Z 00000KT 6000 FEW010 25/23 Q1006=
01/04/2021 23:00:00Z	 SAID32 WIPP 012300	METAR WIPP 012300Z 00000KT 6000 FEW010 25/24 Q1006 NOSIG=
01/04/2021 23:30:00Z	 SAID32 WIPP 012330	METAR WIPP 012330Z 00000KT 6000 FEW010 25/24 Q1006 NOSIG=
02/04/2021 00:00:00Z	 SAID32 WIPP 020000	METAR WIPP 020000Z 00000KT 8000 FEW010 25/24 Q1007 NOSIG=
02/04/2021 00:30:00Z	 SAID32 WIPP 020030	METAR WIPP 020030Z 00000KT 4000 FEW010 26/24 Q1007=
02/04/2021 01:00:00Z	 SAID32 WIPP 020100	METAR WIPP 020100Z 29002KT 6000 FEW010 27/24 Q1008=
02/04/2021 01:30:00Z	 SAID32 WIPP 020130	METAR WIPP 020130Z 35003KT 6000 FEW010 28/24 Q1008=
02/04/2021 02:00:00Z	 SAID32 WIPP 020200	METAR WIPP 020200Z 36004KT 9999 FEW010 29/24 Q1008=
02/04/2021 02:30:00Z	 SAID32 WIPP 020230	METAR WIPP 020230Z 31004KT 9999 FEW010 30/25 Q1008=
02/04/2021 03:00:00Z	 SAID32 WIPP 020300	METAR WIPP 020300Z 10005KT 9999 SCT010 31/25 Q1008=
02/04/2021 03:30:00Z	 SAID32 WIPP 020330	METAR WIPP 020330Z 33004KT 9999 BKN010 31/25 Q1008=
02/04/2021 04:00:00Z	 SAID32 WIPP 020400	METAR WIPP 020400Z 34008KT 9999 BKN010 32/25 Q1008=
02/04/2021 04:30:00Z	 SAID32 WIPP 020430	METAR WIPP 020430Z 01008KT 9999 BKN010 32/24 Q1007=
02/04/2021 05:00:00Z	 SAID32 WIPP 020500	METAR WIPP 020500Z 35011KT 9999 BKN010 33/23 Q1007=
02/04/2021 05:30:00Z	 SAID32 WIPP 020530	METAR WIPP 020530Z 01009KT 9999 BKN010 33/24 Q1006=
02/04/2021 06:00:00Z	 SAID32 WIPP 020600	METAR WIPP 020600Z 33006KT 9999 BKN010 33/23 Q1006=
02/04/2021 06:30:00Z	 SAID32 WIPP 020630	METAR WIPP 020630Z 31015KT 9999 BKN010 34/23 Q1005=
02/04/2021 07:00:00Z	 SAID32 WIPP 020700	METAR WIPP 020700Z 33010KT 9999 BKN010 34/23 Q1004=
02/04/2021 07:30:00Z	 SAID32 WIPP 020730	METAR WIPP 020730Z 34007KT 9999 BKN010 34/23 Q1004=
02/04/2021 08:00:00Z	 SAID32 WIPP 020800	METAR WIPP 020800Z 31010KT 9999 BKN010 34/23 Q1003=
02/04/2021 08:30:00Z	 SAID32 WIPP 020830	METAR WIPP 020830Z 34008KT 9999 BKN010 33/23 Q1003=
02/04/2021 09:00:00Z	 SAID32 WIPP 020900	METAR WIPP 020900Z 34007KT 9999 SCT010 33/23 Q1003=
02/04/2021 09:30:00Z	 SAID32 WIPP 020930	METAR WIPP 020930Z 03011KT 9999 SCT010 33/25 Q1003=
02/04/2021 10:00:00Z	 SAID32 WIPP 021000	METAR WIPP 021000Z 04010KT 9999 BKN010 FEW012CB 32/25 Q1004 RMK CB TO N=
02/04/2021 10:30:00Z	 SAID32 WIPP 021030	METAR WIPP 021030Z 03003KT 9999 SCT010 31/26 Q1004=
02/04/2021 11:00:00Z	 SAID32 WIPP 021100	METAR WIPP 021100Z 05004KT 9999 SCT010 FEW012CB 31/26 Q1004 RMK CB TO SE=
02/04/2021 11:30:00Z	 SAID32 WIPP 021130	METAR WIPP 021130Z 04005KT 9999 SCT010 FEW012CB 30/26 Q1004 RMK CB TO SE=
02/04/2021 12:00:00Z	 SAID32 WIPP 021200	METAR WIPP 021200Z 05004KT 9999 SCT010 FEW012CB 29/26 Q1005 RMK CB TO N=
02/04/2021 12:30:00Z	 SAID32 WIPP 021230	METAR WIPP 021230Z 04007KT 8000 -TSRA BKN010 FEW010CB 26/24 Q1005 RMK CB OVER THE FIELD=
02/04/2021 13:00:00Z	 SAID32 WIPP 021300	METAR WIPP 021300Z 33002KT 8000 -RA FEW010CB SCT010 25/24 Q1006 RMK CB OVER THE FIELD=
02/04/2021 14:00:00Z	 SAID32 WIPP 021400	METAR WIPP 021400Z 36003KT 9999 FEW010CB SCT010 25/24 Q1006 RERA RMK CB TO W=
02/04/2021 15:00:00Z	 SAID32 WIPP 021500	METAR WIPP 021500Z 05002KT 9999 FEW010CB FEW010 26/24 Q1007 RMK CB TO W=
02/04/2021 16:00:00Z	 SAID32 WIPP 021600	METAR WIPP 021600Z 25005KT 9999 FEW010 26/25 Q1007 NOSIG=
02/04/2021 17:00:00Z	 SAID32 WIPP 021700	METAR WIPP 021700Z 23003KT 9999 FEW010 26/24 Q1007 NOSIG=
02/04/2021 18:00:00Z	 SAID32 WIPP 021800	METAR WIPP 021800Z 23005KT 9999 FEW010CB FEW010 26/24 Q1006 RMK CB TO N=
02/04/2021 19:00:00Z	 SAID32 WIPP 021900	METAR WIPP 021900Z 14002KT 9999 FEW010CB FEW010 25/24 Q1006 RMK CB TO N=
02/04/2021 20:00:00Z	 SAID32 WIPP 022000	METAR WIPP 022000Z 08004KT 9999 FEW010CB SCT010 26/24 Q1006 RMK CB OVERT THE FIELD=
02/04/2021 21:00:00Z	 SAID32 WIPP 022100	METAR WIPP 022100Z 03009KT 9999 FEW010CB SCT010 25/24 Q1007 RMK CB OVER THE FIELD=
02/04/2021 22:00:00Z	 SAID32 WIPP 022200	METAR WIPP 022200Z 32002KT 8000 -RA BKN010 25/24 Q1007=
02/04/2021 22:30:00Z	 SAID32 WIPP 022230	METAR WIPP 022230Z 01003KT 8000 BKN010 25/24 Q1007 RERA=
02/04/2021 23:00:00Z	 SAID32 WIPP 022300	METAR WIPP 022300Z 36003KT 6000 -RA SCT010 25/24 Q1007=
02/04/2021 23:30:00Z	 SAID32 WIPP 022330	METAR WIPP 022330Z 35004KT 8000 FEW010 25/24 Q1008 RERA=
03/04/2021 00:00:00Z	 SAID32 WIPP 030000	METAR WIPP 030000Z 34004KT 8000 FEW010 25/24 Q1008 NOSIG=
03/04/2021 00:30:00Z	 SAID32 WIPP 030030	METAR WIPP 030030Z 31004KT 8000 FEW010 25/24 Q1008 NOSIG=
03/04/2021 01:00:00Z	 SAID32 WIPP 030100	METAR WIPP 030100Z 34005KT 8000 FEW010 26/25 Q1009 NOSIG=
03/04/2021 01:30:00Z	 SAID32 WIPP 030130	METAR WIPP 030130Z 32006KT 9000 FEW010 27/25 Q1009 NOSIG=
03/04/2021 02:00:00Z	 SAID32 WIPP 030200	METAR WIPP 030200Z 34008KT 9999 FEW010 28/24 Q1009 NOSIG=
03/04/2021 02:30:00Z	 SAID32 WIPP 030230	METAR WIPP 030230Z 34008KT 9999 FEW010 29/24 Q1009 NOSIG=
03/04/2021 03:00:00Z	 SAID32 WIPP 030300	METAR WIPP 030300Z 34008KT 9999 FEW010 30/24 Q1009 NOSIG=
03/04/2021 03:30:00Z	 SAID32 WIPP 030330	METAR WIPP 030330Z 34006KT 9999 FEW010 30/25 Q1009 NOSIG=
03/04/2021 04:00:00Z	 SAID32 WIPP 030400	METAR WIPP 030400Z 34009KT 9999 FEW010 31/24 Q1008 NOSIG=
03/04/2021 04:30:00Z	 SAID32 WIPP 030430	METAR WIPP 030430Z 32008KT 9999 FEW010 32/23 Q1008 NOSIG=
03/04/2021 05:00:00Z	 SAID32 WIPP 030500	METAR WIPP 030500Z 31008KT 9999 FEW010 32/24 Q1007 NOSIG=
03/04/2021 05:30:00Z	 SAID32 WIPP 030530	METAR WIPP 030530Z 32009KT 9999 SCT010 32/23 Q1007 NOSIG=
03/04/2021 06:00:00Z	 SAID32 WIPP 030600	METAR WIPP 030600Z 33006KT 9999 SCT010 32/24 Q1007 NOSIG=
03/04/2021 06:30:00Z	 SAID32 WIPP 030630	METAR WIPP 030630Z 32007KT 9999 SCT010 32/24 Q1006 NOSIG=
03/04/2021 07:00:00Z	 SAID32 WIPP 030700	METAR WIPP 030700Z 30009KT 9999 SCT010 32/24 Q1006 NOSIG=
03/04/2021 07:30:00Z	 SAID32 WIPP 030730	METAR WIPP 030730Z 32006KT 9999 SCT010 32/24 Q1005 NOSIG=
03/04/2021 08:00:00Z	 SAID32 WIPP 030800	METAR WIPP 030800Z 33005KT 9999 SCT010 32/23 Q1005 NOSIG=
03/04/2021 08:30:00Z	 SAID32 WIPP 030830	METAR WIPP 030830Z 33007KT 9999 SCT010 32/24 Q1005 NOSIG=
03/04/2021 09:00:00Z	 SAID32 WIPP 030900	METAR WIPP 030900Z 02007KT 9999 FEW010 32/25 Q1004 NOSIG=
03/04/2021 09:30:00Z	 SAID32 WIPP 030930	METAR WIPP 030930Z 01005KT 9999 VCTS FEW010 FEW012CB 31/25 Q1005 RMK CB TO N=
03/04/2021 10:00:00Z	 SAID32 WIPP 031000	METAR WIPP 031000Z 01005KT 9999 SCT010 FEW012CB 31/25 Q1005 RMK CB TO NE=
03/04/2021 10:30:00Z	 SAID32 WIPP 031030	METAR WIPP 031030Z 03004KT 9999 SCT010 30/25 Q1005 NOSIG=
03/04/2021 11:00:00Z	 SAID32 WIPP 031100	METAR WIPP 031100Z 03005KT 9999 FEW010 29/25 Q1006 NOSIG=
03/04/2021 11:30:00Z	 SAID32 WIPP 031130	METAR WIPP 031130Z 36006KT 9999 FEW010 28/24 Q1006 NOSIG=
03/04/2021 12:00:00Z	 SAID32 WIPP 031200	METAR WIPP 031200Z 36003KT 9999 SCT010 27/24 Q1006 NOSIG=
03/04/2021 12:30:00Z	 SAID32 WIPP 031230	METAR WIPP 031230Z 02002KT 9999 SCT010 27/24 Q1006 NOSIG=
03/04/2021 13:00:00Z	 SAID32 WIPP 031300	METAR WIPP 031300Z 00000KT 9999 FEW010 27/24 Q1007 NOSIG=
03/04/2021 14:00:00Z	 SAID32 WIPP 031400	METAR WIPP 031400Z 07002KT 9999 FEW010 27/24 Q1007 NOSIG=
03/04/2021 15:00:00Z	 SAID32 WIPP 031500	METAR WIPP 031500Z 02002KT 9999 FEW010 26/24 Q1008 NOSIG=
03/04/2021 16:00:00Z	 SAID32 WIPP 031600	METAR WIPP 031600Z 06003KT 9999 FEW010 26/24 Q1008 NOSIG=
03/04/2021 17:00:00Z	 SAID32 WIPP 031700	METAR WIPP 031700Z 36002KT 8000 FEW010 26/24 Q1008 NOSIG=
03/04/2021 18:00:00Z	 SAID32 WIPP 031800	METAR WIPP 031800Z 31003KT 6000 FEW010 26/24 Q1008 NOSIG=
03/04/2021 19:00:00Z	 SAID32 WIPP 031900	METAR WIPP 031900Z 31002KT 9999 FEW010 26/24 Q1007 NOSIG=
03/04/2021 20:00:00Z	 SAID32 WIPP 032000	METAR WIPP 032000Z 00000KT 6000 FEW010 25/24 Q1006 NOSIG=
03/04/2021 21:00:00Z	 SAID32 WIPP 032100	METAR WIPP 032100Z 00000KT 5000 HZ FEW010 25/24 Q1007 NOSIG=
03/04/2021 22:00:00Z	 SAID32 WIPP 032200	METAR WIPP 032200Z 00000KT 4000 HZ SCT010 25/24 Q1007=
03/04/2021 22:30:00Z	 SAID32 WIPP 032230	METAR WIPP 032230Z 00000KT 3000 HZ SCT010 25/24 Q1007=
03/04/2021 23:00:00Z	 SAID32 WIPP 032300	METAR WIPP 032300Z 24002KT 2000 HZ SCT010 25/24 Q1008=
03/04/2021 23:30:00Z	 SAID32 WIPP 032330	METAR WIPP 032330Z 24002KT 2000 HZ SCT010 25/24 Q1008=
04/04/2021 00:00:00Z	 SAID32 WIPP 040000	METAR WIPP 040000Z 27002KT 2000 HZ SCT010 25/24 Q1008=
04/04/2021 00:30:00Z	 SAID32 WIPP 040030	METAR WIPP 040030Z 30005KT 4000 HZ SCT010 26/24 Q1008=
04/04/2021 01:00:00Z	 SAID32 WIPP 040100	METAR WIPP 040100Z 30005KT 6000 SCT010 26/24 Q1009 NOSIG=
04/04/2021 01:30:00Z	 SAID32 WIPP 040130	METAR WIPP 040130Z 32005KT 8000 SCT010 27/25 Q1009 NOSIG=
04/04/2021 02:00:00Z	 SAID32 WIPP 040200	METAR WIPP 040200Z 30005KT 9999 SCT010 28/25 Q1009 NOSIG=
04/04/2021 02:30:00Z	 SAID32 WIPP 040230	METAR WIPP 040230Z 28010KT 9999 SCT010 29/25 Q1009 NOSIG=
04/04/2021 03:00:00Z	 SAID32 WIPP 040300	METAR WIPP 040300Z 30008KT 9999 SCT010 30/24 Q1009 NOSIG=
04/04/2021 03:30:00Z	 SAID32 WIPP 040330	METAR WIPP 040330Z 32012KT 9999 SCT010 31/24 Q1009 NOSIG=
04/04/2021 04:00:00Z	 SAID32 WIPP 040400	METAR WIPP 040400Z 32008KT 9999 SCT010 31/24 Q1009 NOSIG=
04/04/2021 04:30:00Z	 SAID32 WIPP 040430	METAR WIPP 040430Z 32010KT 9999 BKN010 31/24 Q1008 NOSIG=
04/04/2021 05:00:00Z	 SAID32 WIPP 040500	METAR WIPP 040500Z 33008KT 9999 BKN010 31/24 Q1008 NOSIG=
04/04/2021 05:30:00Z	 SAID32 WIPP 040530	METAR WIPP 040530Z 34008KT 9999 BKN010 31/23 Q1007 NOSIG=
04/04/2021 06:00:00Z	 SAID32 WIPP 040600	METAR WIPP 040600Z 32008KT 9999 BKN010 31/23 Q1007 NOSIG=
04/04/2021 06:30:00Z	 SAID32 WIPP 040630	METAR WIPP 040630Z 32010KT 9999 BKN010 31/23 Q1006 NOSIG=
04/04/2021 07:00:00Z	 SAID32 WIPP 040700	METAR WIPP 040700Z 32005KT 9999 BKN010 31/23 Q1006 NOSIG=
04/04/2021 07:30:00Z	 SAID32 WIPP 040730	METAR WIPP 040730Z 35008KT 9999 BKN010 31/24 Q1006 NOSIG=
04/04/2021 08:00:00Z	 SAID32 WIPP 040800	METAR WIPP 040800Z 03005KT 9999 BKN010 32/24 Q1005 NOSIG=
04/04/2021 08:30:00Z	 SAID32 WIPP 040830	METAR WIPP 040830Z 32005KT 9999 BKN010 32/24 Q1005 NOSIG=
04/04/2021 09:00:00Z	 SAID32 WIPP 040900	METAR WIPP 040900Z 34005KT 9999 SCT010 31/24 Q1005 NOSIG=
04/04/2021 09:30:00Z	 SAID32 WIPP 040930	METAR WIPP 040930Z 06005KT 9999 SCT010 31/24 Q1005 NOSIG=
04/04/2021 10:00:00Z	 SAID32 WIPP 041000	METAR WIPP 041000Z 02005KT 9999 SCT010 31/24 Q1005 NOSIG=
04/04/2021 10:30:00Z	 SAID32 WIPP 041030	METAR WIPP 041030Z 35003KT 9999 SCT010 31/24 Q1006 NOSIG=
04/04/2021 11:00:00Z	 SAID32 WIPP 041100	METAR WIPP 041100Z 32003KT 9999 SCT010 30/24 Q1006 NOSIG=
04/04/2021 11:30:00Z	 SAID32 WIPP 041130	METAR WIPP 041130Z 00000KT 8000 SCT010 30/24 Q1006 NOSIG=
04/04/2021 12:00:00Z	 SAID32 WIPP 041200	METAR WIPP 041200Z 00000KT 8000 SCT010 29/25 Q1006 NOSIG=
04/04/2021 12:30:00Z	 SAID32 WIPP 041230	METAR WIPP 041230Z 00000KT 7000 SCT010 29/25 Q1006 NOSIG=
04/04/2021 13:00:00Z	 SAID32 WIPP 041300	METAR WIPP 041300Z 03003KT 6000 SCT010 29/25 Q1007 NOSIG=
04/04/2021 13:30:00Z	 SAID32 WIPP 041330	METAR WIPP 041330Z 04003KT 6000 SCT010 29/25 Q1008 NOSIG=
04/04/2021 14:00:00Z	 SAID32 WIPP 041400	METAR WIPP 041400Z 03002KT 9999 SCT010 28/24 Q1008 NOSIG=
04/04/2021 15:00:00Z	 SAID32 WIPP 041500	METAR WIPP 041500Z 06004KT 9999 SCT010 28/25 Q1009 NOSIG=
04/04/2021 16:00:00Z	 SAID32 WIPP 041600	METAR WIPP 041600Z 05003KT 9999 SCT010 28/26 Q1009 NOSIG=
04/04/2021 17:00:00Z	 SAID32 WIPP 041700	METAR WIPP 041700Z 00000KT 9999 SCT010 27/25 Q1009 NOSIG=
04/04/2021 18:00:00Z	 SAID32 WIPP 041800	METAR WIPP 041800Z 36002KT 8000 SCT010 27/25 Q1009 NOSIG=
04/04/2021 19:00:00Z	 SAID32 WIPP 041900	METAR WIPP 041900Z 32002KT 7000 SCT010 27/25 Q1008 NOSIG=
04/04/2021 20:00:00Z	 SAID32 WIPP 042000	METAR WIPP 042000Z 25002KT 5000 SCT010 27/25 Q1008 NOSIG=
04/04/2021 21:00:00Z	 SAID32 WIPP 042100	METAR WIPP 042100Z 00000KT 2000 HZ FEW010 26/25 Q1008 NOSIG=
04/04/2021 22:00:00Z	 SAID32 WIPP 042200	METAR WIPP 042200Z 25003KT 1500 HZ FEW010 26/25 Q1008=
04/04/2021 22:30:00Z	 SAID32 WIPP 042230	METAR WIPP 042230Z 25002KT 1500 HZ SCT010 26/25 Q1008=
04/04/2021 23:00:00Z	 SAID32 WIPP 042300	METAR WIPP 042300Z 25002KT 0600 R11/0600 R29/1000 HZ SCT010 26/25 Q1009=
04/04/2021 23:30:00Z	 SAID32 WIPP 042330	METAR WIPP 042330Z 00000KT 0650 R11/0650 R29/1000 BR FEW010 26/25 Q1009=
05/04/2021 00:00:00Z	 SAID32 WIPP 050000	METAR WIPP 050000Z 26002KT 2000 BR FEW010 26/25 Q1009=
05/04/2021 00:30:00Z	 SAID32 WIPP 050030	METAR WIPP 050030Z 27003KT 2000 HZ FEW010 27/25 Q1010=
05/04/2021 01:00:00Z	 SAID32 WIPP 050100	METAR WIPP 050100Z 31004KT 5000 HZ FEW010 28/25 Q1010=
05/04/2021 01:30:00Z	 SAID32 WIPP 050130	METAR WIPP 050130Z 34005KT 8000 FEW010 29/26 Q1010 NOSIG=
05/04/2021 02:00:00Z	 SAID32 WIPP 050200	METAR WIPP 050200Z 33005KT 9999 SCT010 29/26 Q1010 NOSIG=
05/04/2021 02:30:00Z	 SAID32 WIPP 050230	METAR WIPP 050230Z 33007KT 9999 SCT010 30/26 Q1010 NOSIG=
05/04/2021 03:00:00Z	 SAID32 WIPP 050300	METAR WIPP 050300Z 32005KT 9999 BKN010 30/25 Q1011 NOSIG=
05/04/2021 03:30:00Z	 SAID32 WIPP 050330	METAR WIPP 050330Z 31008KT 9999 BKN010 31/25 Q1010 NOSIG=
05/04/2021 04:00:00Z	 SAID32 WIPP 050400	METAR WIPP 050400Z 29009KT 9999 BKN010 31/24 Q1010 NOSIG=
05/04/2021 04:30:00Z	 SAID32 WIPP 050430	METAR WIPP 050430Z 30010KT 9999 BKN010 32/24 Q1009 NOSIG=
05/04/2021 05:00:00Z	 SAID32 WIPP 050500	METAR WIPP 050500Z 29008KT 9999 BKN010 32/24 Q1009 NOSIG=
05/04/2021 05:30:00Z	 SAID32 WIPP 050530	METAR WIPP 050530Z 30005KT 9999 BKN010 33/23 Q1008 NOSIG=
05/04/2021 06:00:00Z	 SAID32 WIPP 050600	METAR WIPP 050600Z 28009KT 9999 BKN012 33/24 Q1007 NOSIG=
05/04/2021 06:30:00Z	 SAID32 WIPP 050630	METAR WIPP 050630Z 31009KT 9999 BKN012 33/23 Q1007 NOSIG=
05/04/2021 07:00:00Z	 SAID32 WIPP 050700	METAR WIPP 050700Z 30009KT 9999 SCT012 32/24 Q1006 NOSIG=
05/04/2021 07:30:00Z	 SAID32 WIPP 050730	METAR WIPP 050730Z 30007KT 9999 SCT012 32/23 Q1006 NOSIG=
05/04/2021 08:00:00Z	 SAID32 WIPP 050800	METAR WIPP 050800Z 29006KT 9999 SCT012 32/24 Q1006 NOSIG=
05/04/2021 08:30:00Z	 SAID32 WIPP 050830	METAR WIPP 050830Z 28005KT 9999 SCT012 32/24 Q1006 NOSIG=
05/04/2021 09:00:00Z	 SAID32 WIPP 050900	METAR WIPP 050900Z 28004KT 9999 SCT012 32/24 Q1006 NOSIG=
05/04/2021 09:30:00Z	 SAID32 WIPP 050930	METAR WIPP 050930Z 28004KT 9999 SCT010 FEW012CB 31/24 Q1006 RMK CB TO E=
05/04/2021 10:00:00Z	 SAID32 WIPP 051000	METAR WIPP 051000Z 29003KT 7000 FEW010 FEW012CB 31/24 Q1006 RMK CB TO E=
05/04/2021 10:30:00Z	 SAID32 WIPP 051030	METAR WIPP 051030Z 00000KT 5000 HZ FEW010 FEW012CB 31/24 Q1006 RMK CB TO E=
05/04/2021 11:00:00Z	 SAID32 WIPP 051100	METAR WIPP 051100Z 00000KT 4000 HZ FEW010 31/24 Q1006=
05/04/2021 11:30:00Z	 SAID32 WIPP 051130	METAR WIPP 051130Z 00000KT 4000 HZ FEW010 31/24 Q1007=
05/04/2021 12:00:00Z	 SAID32 WIPP 051200	METAR WIPP 051200Z 03006KT 9999 FEW010 30/26 Q1007 NOSIG=
05/04/2021 12:30:00Z	 SAID32 WIPP 051230	METAR WIPP 051230Z 04004KT 9999 FEW010 29/26 Q1008 NOSIG=
05/04/2021 13:00:00Z	 SAID32 WIPP 051300	METAR WIPP 051300Z 04003KT 9999 FEW010 29/26 Q1008 NOSIG=
05/04/2021 13:30:00Z	 SAID32 WIPP 051330	METAR WIPP 051330Z 05003KT 9999 FEW010 28/25 Q1009 NOSIG=
05/04/2021 14:00:00Z	 SAID32 WIPP 051400	METAR WIPP 051400Z 03003KT 9999 FEW010 28/25 Q1009 NOSIG=
05/04/2021 14:30:00Z	 SAID32 WIPP 051430	METAR WIPP 051430Z 05003KT 9999 FEW010 28/25 Q1009 NOSIG=
05/04/2021 15:00:00Z	 SAID32 WIPP 051500	METAR WIPP 051500Z 05003KT 8000 SCT010 28/25 Q1010 NOSIG=
05/04/2021 15:30:00Z	 SAID32 WIPP 051530	METAR WIPP 051530Z 03003KT 8000 SCT010 28/25 Q1010 NOSIG=
05/04/2021 16:00:00Z	 SAID32 WIPP 051600	METAR WIPP 051600Z 35008KT 9999 SCT010 27/25 Q1010 NOSIG=
05/04/2021 16:30:00Z	 SAID32 WIPP 051630	METAR WIPP 051630Z 32005KT 9999 SCT010 27/24 Q1010 NOSIG=
05/04/2021 17:00:00Z	 SAID32 WIPP 051700	METAR WIPP 051700Z 35005KT 8000 SCT010 26/24 Q1010 NOSIG=
05/04/2021 18:00:00Z	 SAID32 WIPP 051800	METAR WIPP 051800Z 32005KT 9999 SCT010 FEW012CB 26/24 Q1010 RMK CB TO SE=
05/04/2021 18:30:00Z	 SAID32 WIPP 051830	METAR WIPP 051830Z AUTO 31005KT 9000NDV ////// 25/25 Q1009=
05/04/2021 19:00:00Z	 SAID32 WIPP 051900	METAR WIPP 051900Z AUTO 29003KT 9999NDV ////// 25/25 Q1009=
05/04/2021 19:30:00Z	 SAID32 WIPP 051930	METAR WIPP 051930Z AUTO 28002KT 9999NDV ////// 25/25 Q1009=
05/04/2021 20:00:00Z	 SAID32 WIPP 052000	METAR WIPP 052000Z AUTO 27004KT 5000NDV ////// 25/25 Q1008=
05/04/2021 20:30:00Z	 SAID32 WIPP 052030	METAR WIPP 052030Z AUTO 27004KT 5000NDV ////// 25/25 Q1009=
05/04/2021 21:00:00Z	 SAID32 WIPP 052100	METAR WIPP 052100Z AUTO 24003KT 200V270 9999NDV ////// 25/25 Q1009=
05/04/2021 21:30:00Z	 SAID32 WIPP 052130	METAR WIPP 052130Z AUTO 22005KT 200V260 5000NDV ////// 25/25 Q1009=
05/04/2021 22:00:00Z	 SAID32 WIPP 052200	METAR WIPP 052200Z AUTO 22003KT 180V260 4500NDV BR ////// 25/25 Q1009=
05/04/2021 22:30:00Z	 SAID32 WIPP 052230	METAR WIPP 052230Z 20003KT 8000 BKN010 25/23 Q1009 NOSIG=
05/04/2021 23:00:00Z	 SAID32 WIPP 052300	METAR WIPP 052300Z 24003KT 6000 SCT010 25/23 Q1010 NOSIG=
05/04/2021 23:30:00Z	 SAID32 WIPP 052330	METAR WIPP 052330Z 32003KT 5000 HZ SCT010 25/23 Q1010=
06/04/2021 00:00:00Z	 SAID32 WIPP 060000	METAR WIPP 060000Z 32003KT 5000 HZ BKN010 25/24 Q1010=
06/04/2021 00:30:00Z	 SAID32 WIPP 060030	METAR WIPP 060030Z 31005KT 6000 BKN010 26/24 Q1010 NOSIG=
06/04/2021 01:00:00Z	 SAID32 WIPP 060100	METAR WIPP 060100Z 24003KT 8000 BKN010 26/24 Q1010 NOSIG=
06/04/2021 01:30:00Z	 SAID32 WIPP 060130	METAR WIPP 060130Z 20003KT 9999 BKN010 26/24 Q1010 NOSIG=
06/04/2021 02:00:00Z	 SAID32 WIPP 060200	METAR WIPP 060200Z 24004KT 9999 BKN010 27/24 Q1011 NOSIG=
06/04/2021 02:30:00Z	 SAID32 WIPP 060230	METAR WIPP 060230Z 29007KT 9999 BKN010 28/24 Q1011 NOSIG=
06/04/2021 03:00:00Z	 SAID32 WIPP 060300	METAR WIPP 060300Z 30007KT 9999 SCT010 29/24 Q1011 NOSIG=
06/04/2021 03:30:00Z	 SAID32 WIPP 060330	METAR WIPP 060330Z 29011KT 9999 SCT010 30/25 Q1010 NOSIG=
06/04/2021 04:00:00Z	 SAID32 WIPP 060400	METAR WIPP 060400Z 31009KT 9999 SCT010 30/24 Q1010 NOSIG=
06/04/2021 04:30:00Z	 SAID32 WIPP 060430	METAR WIPP 060430Z 31008KT 9999 BKN010 30/24 Q1010 NOSIG=
06/04/2021 05:00:00Z	 SAID32 WIPP 060500	METAR WIPP 060500Z 29009KT 9999 BKN010 30/25 Q1009 NOSIG=
06/04/2021 05:30:00Z	 SAID32 WIPP 060530	METAR WIPP 060530Z 31007KT 9999 BKN010 31/25 Q1009 NOSIG=
06/04/2021 06:00:00Z	 SAID32 WIPP 060600	METAR WIPP 060600Z 28008KT 9999 SCT010 32/24 Q1008 NOSIG=
06/04/2021 06:30:00Z	 SAID32 WIPP 060630	METAR WIPP 060630Z 31009KT 9999 SCT010 32/24 Q1008 NOSIG=
06/04/2021 07:00:00Z	 SAID32 WIPP 060700	METAR WIPP 060700Z 30009KT 9999 SCT010 32/24 Q1007 NOSIG=
06/04/2021 07:30:00Z	 SAID32 WIPP 060730	METAR WIPP 060730Z 29010KT 9999 FEW010 32/24 Q1007 NOSIG=
06/04/2021 08:00:00Z	 SAID32 WIPP 060800	METAR WIPP 060800Z 33007KT 9999 FEW010 32/24 Q1007 NOSIG=
06/04/2021 08:30:00Z	 SAID32 WIPP 060830	METAR WIPP 060830Z 36008KT 9999 FEW010 32/25 Q1007 NOSIG=
06/04/2021 09:00:00Z	 SAID32 WIPP 060900	METAR WIPP 060900Z 01009KT 9999 FEW010 31/24 Q1007 NOSIG=
06/04/2021 09:30:00Z	 SAID32 WIPP 060930	METAR WIPP 060930Z 02007KT 9999 FEW010 30/24 Q1007 NOSIG=
06/04/2021 10:00:00Z	 SAID32 WIPP 061000	METAR WIPP 061000Z 01006KT 9999 FEW010 30/25 Q1007 NOSIG=
06/04/2021 10:30:00Z	 SAID32 WIPP 061030	METAR WIPP 061030Z 36006KT 9999 FEW010 30/24 Q1007 NOSIG=
06/04/2021 11:00:00Z	 SAID32 WIPP 061100	METAR WIPP 061100Z 35005KT 9999 FEW010CB FEW010 30/24 Q1007 RMK CB TO SW=
06/04/2021 11:30:00Z	 SAID32 WIPP 061130	METAR WIPP 061130Z 35003KT 9999 FEW010CB SCT010 29/24 Q1008 TEMPO FM1200 27010G25KT 3000 -TSRA BKN010 FEW011CB RMK CB TO W, SW, AND S=
06/04/2021 12:00:00Z	 SAID32 WIPP 061200	METAR WIPP 061200Z 23009KT 9999 FEW010CB SCT010 27/22 Q1009 RMK CB TO SE=
06/04/2021 12:30:00Z	 SAID32 WIPP 061230	METAR WIPP 061230Z 20003KT 9999 SCT010 26/22 Q1010 NOSIG=
06/04/2021 13:00:00Z	 SAID32 WIPP 061300	METAR WIPP 061300Z 14004KT 2500 RA SCT010 FEW012CB 26/23 Q1010 RMK CB TO SE=
06/04/2021 13:30:00Z	 SAID32 WIPP 061330	METAR WIPP 061330Z 15004KT 9999 SCT010 FEW012CB 26/24 Q1010 RERA RMK CB TO SE=
06/04/2021 14:00:00Z	 SAID32 WIPP 061400	METAR WIPP 061400Z 36004KT 8000 SCT010 FEW012CB 26/24 Q1011 RMK CB TO NW AND SE=
06/04/2021 14:30:00Z	 SAID32 WIPP 061430	METAR WIPP 061430Z 30004KT 6000 SCT010 FEW012CB 26/24 Q1011 RMK CB TO W=
06/04/2021 15:00:00Z	 SAID32 WIPP 061500	METAR WIPP 061500Z 30012KT 8000 -RA SCT010 FEW012CB 25/24 Q1012 RMK CB TO N=
06/04/2021 15:30:00Z	 SAID32 WIPP 061530	METAR WIPP 061530Z 32003KT 8000 SCT010 FEW012CB 25/24 Q1011 RMK CB TO N=
06/04/2021 16:00:00Z	 SAID32 WIPP 061600	METAR WIPP 061600Z 32003KT 8000 SCT010 25/24 Q1011=
06/04/2021 16:30:00Z	 SAID32 WIPP 061630	METAR WIPP 061630Z 00000KT 8000 SCT010 24/23 Q1010=
06/04/2021 17:00:00Z	 SAID32 WIPP 061700	METAR WIPP 061700Z 00000KT 9999 SCT010 24/22 Q1010 NOSIG=
06/04/2021 17:30:00Z	 SAID32 WIPP 061730	METAR WIPP 061730Z 00000KT 9999 SCT010 24/22 Q1010 NOSIG=
06/04/2021 18:00:00Z	 SAID32 WIPP 061800	METAR WIPP 061800Z 00000KT 9999 SCT010 24/22 Q1010 NOSIG=
06/04/2021 18:30:00Z	 SAID32 WIPP 061830	METAR WIPP 061830Z 00000KT 8000 SCT010 24/23 Q1009 NOSIG=
06/04/2021 19:30:00Z	 SAID32 WIPP 061930	METAR WIPP 061930Z AUTO 24003KT 2100NDV BR ////// 23/23 Q1009=
06/04/2021 20:00:00Z	 SAID32 WIPP 062000	METAR WIPP 062000Z AUTO VRB02KT 1400NDV R11/P2000N R29/P2000N BR ////// 23/23 Q1009=
06/04/2021 20:30:00Z	 SAID32 WIPP 062030	METAR WIPP 062030Z AUTO 00000KT 1200NDV R11/P2000N R29/P2000N BR ////// 23/23 Q1009=
06/04/2021 21:00:00Z	 SAID32 WIPP 062100	METAR WIPP 062100Z AUTO 30002KT 2600NDV BR ////// 23/23 Q1009=
06/04/2021 22:00:00Z	 SAID32 WIPP 062200	METAR WIPP 062200Z 00000KT 2000 BR SCT010 24/23 Q1010=
06/04/2021 22:30:00Z	 SAID32 WIPP 062230	METAR WIPP 062230Z 29003KT 2000 BR SCT010 24/23 Q1010=
06/04/2021 23:00:00Z	 SAID32 WIPP 062300	METAR WIPP 062300Z 00000KT 1100 BR FEW010 24/23 Q1010=
06/04/2021 23:30:00Z	 SAID32 WIPP 062330	METAR WIPP 062330Z 00000KT 2000 BR FEW010 24/23 Q1011=
07/04/2021 00:00:00Z	 SAID32 WIPP 070000	METAR WIPP 070000Z 00000KT 2000 BR FEW010 24/23 Q1011=
07/04/2021 00:30:00Z	 SAID32 WIPP 070030	METAR WIPP 070030Z 00000KT 2500 HZ FEW010 25/24 Q1011=
07/04/2021 01:00:00Z	 SAID32 WIPP 070100	METAR WIPP 070100Z 28004KT 6000 FEW010 26/24 Q1011 NOSIG=
07/04/2021 01:30:00Z	 SAID32 WIPP 070130	METAR WIPP 070130Z 29004KT 9999 FEW010 26/24 Q1012 NOSIG=
07/04/2021 02:00:00Z	 SAID32 WIPP 070200	METAR WIPP 070200Z 33007KT 9999 FEW010 27/24 Q1012 NOSIG=
07/04/2021 02:30:00Z	 SAID32 WIPP 070230	METAR WIPP 070230Z 29006KT 9999 FEW010 28/25 Q1012 NOSIG=
07/04/2021 03:00:00Z	 SAID32 WIPP 070300	METAR WIPP 070300Z 29006KT 9999 FEW010 29/25 Q1011 NOSIG=
07/04/2021 03:30:00Z	 SAID32 WIPP 070330	METAR WIPP 070330Z 33006KT 9999 FEW010 30/25 Q1011 NOSIG=
07/04/2021 04:00:00Z	 SAID32 WIPP 070400	METAR WIPP 070400Z 35006KT 9999 SCT010 31/25 Q1010 NOSIG=
07/04/2021 04:30:00Z	 SAID32 WIPP 070430	METAR WIPP 070430Z 33007KT 9999 SCT010 30/25 Q1010 NOSIG=
07/04/2021 05:00:00Z	 SAID32 WIPP 070500	METAR WIPP 070500Z 32004KT 9999 SCT010 31/24 Q1009 NOSIG=
07/04/2021 05:30:00Z	 SAID32 WIPP 070530	METAR WIPP 070530Z 27005KT 9999 SCT010 32/24 Q1009 NOSIG=
07/04/2021 06:00:00Z	 SAID32 WIPP 070600	METAR WIPP 070600Z 33009KT 9999 SCT010 33/24 Q1008 NOSIG=
07/04/2021 06:30:00Z	 SAID32 WIPP 070630	METAR WIPP 070630Z 35007KT 9999 SCT010 33/24 Q1008 NOSIG=
07/04/2021 07:00:00Z	 SAID32 WIPP 070700	METAR WIPP 070700Z 34007KT 9999 SCT010 33/24 Q1007 NOSIG=
07/04/2021 07:30:00Z	 SAID32 WIPP 070730	METAR WIPP 070730Z 34008KT 9999 SCT010 33/24 Q1007 NOSIG=
07/04/2021 08:00:00Z	 SAID32 WIPP 070800	METAR WIPP 070800Z 33011KT 9999 SCT010 32/24 Q1007 NOSIG=
07/04/2021 08:30:00Z	 SAID32 WIPP 070830	METAR WIPP 070830Z 33011KT 9999 SCT010 32/24 Q1007 NOSIG=
07/04/2021 09:00:00Z	 SAID32 WIPP 070900	METAR WIPP 070900Z 31010KT 9999 FEW010 32/23 Q1006 NOSIG=
07/04/2021 09:30:00Z	 SAID32 WIPP 070930	METAR WIPP 070930Z 30009KT 9999 FEW010 32/24 Q1006 NOSIG=
07/04/2021 10:00:00Z	 SAID32 WIPP 071000	METAR WIPP 071000Z 30007KT 9999 FEW010 31/24 Q1007 NOSIG=
07/04/2021 10:30:00Z	 SAID32 WIPP 071030	METAR WIPP 071030Z 30005KT 9999 FEW010 31/24 Q1007 NOSIG=
07/04/2021 11:00:00Z	 SAID32 WIPP 071100	METAR WIPP 071100Z 30003KT 9999 FEW010 31/24 Q1007 NOSIG=
07/04/2021 11:30:00Z	 SAID32 WIPP 071130	METAR WIPP 071130Z 29002KT 9999 FEW010 30/24 Q1007 NOSIG=
07/04/2021 12:00:00Z	 SAID32 WIPP 071200	METAR WIPP 071200Z 04002KT 8000 FEW010 30/25 Q1008 NOSIG=
07/04/2021 12:30:00Z	 SAID32 WIPP 071230	METAR WIPP 071230Z 04006KT 9999 FEW010 29/25 Q1008 NOSIG=
07/04/2021 13:00:00Z	 SAID32 WIPP 071300	METAR WIPP 071300Z 03005KT 9999 FEW010 29/25 Q1009 NOSIG=
07/04/2021 14:00:00Z	 SAID32 WIPP 071400	METAR WIPP 071400Z 03004KT 9999 FEW010 28/25 Q1009 NOSIG=
07/04/2021 15:00:00Z	 SAID32 WIPP 071500	METAR WIPP 071500Z 03003KT 9999 FEW010 28/25 Q1010 NOSIG=
07/04/2021 16:00:00Z	 SAID32 WIPP 071600	METAR WIPP 071600Z 01002KT 9999 FEW010 28/25 Q1010 NOSIG=
07/04/2021 17:00:00Z	 SAID32 WIPP 071700	METAR WIPP 071700Z 32004KT 9999 FEW010 27/25 Q1010 NOSIG=
07/04/2021 18:00:00Z	 SAID32 WIPP 071800	METAR WIPP 071800Z 30005KT 5000 HZ FEW010 26/24 Q1009=
07/04/2021 19:00:00Z	 SAID32 WIPP 071900	METAR WIPP 071900Z 31006KT 8000 FEW010 26/24 Q1008=
07/04/2021 20:00:00Z	 SAID32 WIPP 072000	METAR WIPP 072000Z 31007KT 9999 FEW010 25/23 Q1008 BOSIG=
07/04/2021 21:00:00Z	 SAID32 WIPP 072100	METAR WIPP 072100Z 30004KT 9999 FEW010 24/22 Q1008 BOSIG=
07/04/2021 22:00:00Z	 SAID32 WIPP 072200	METAR WIPP 072200Z 31005KT 8000 FEW010 23/22 Q1009 BOSIG=
07/04/2021 22:30:00Z	 SAID32 WIPP 072230	METAR WIPP 072230Z 31005KT 9999 FEW010 23/22 Q1009 BOSIG=
07/04/2021 23:00:00Z	 SAID32 WIPP 072300	METAR WIPP 072300Z 31005KT 6000 SCT010 23/22 Q1009 BOSIG=
07/04/2021 23:30:00Z	 SAID32 WIPP 072330	METAR WIPP 072330Z 28003KT 8000 SCT010 23/22 Q1009 BOSIG=
08/04/2021 00:00:00Z	 SAID32 WIPP 080000	METAR WIPP 080000Z 33004KT 8000 SCT010 24/22 Q1010 NOSIG=
08/04/2021 00:30:00Z	 SAID32 WIPP 080030	METAR WIPP 080030Z 33006KT 9999 SCT010 24/23 Q1010 NOSIG=
08/04/2021 01:00:00Z	 SAID32 WIPP 080100	METAR WIPP 080100Z 33009KT 9999 SCT010 25/23 Q1010 NOSIG=
08/04/2021 01:30:00Z	 SAID32 WIPP 080130	METAR WIPP 080130Z 34007KT 9999 SCT010 25/23 Q1010 NOSIG=
08/04/2021 02:00:00Z	 SAID32 WIPP 080200	METAR WIPP 080200Z 31008KT 9999 FEW010 25/22 Q1010 NOSIG=
08/04/2021 02:30:00Z	 SAID32 WIPP 080230	METAR WIPP 080230Z 36005KT 9999 SCT010 25/22 Q1010 NOSIG=
08/04/2021 03:00:00Z	 SAID32 WIPP 080300	METAR WIPP 080300Z 32007KT 9999 SCT010 25/23 Q1010 NOSIG=
08/04/2021 03:30:00Z	 SAID32 WIPP 080330	METAR WIPP 080330Z 31008KT 9999 SCT010 25/23 Q1010 NOSIG=
08/04/2021 04:00:00Z	 SAID32 WIPP 080400	METAR WIPP 080400Z 32008KT 9999 SCT010 26/22 Q1009 NOSIG=
08/04/2021 04:30:00Z	 SAID32 WIPP 080430	METAR WIPP 080430Z 30007KT 9999 SCT010 26/22 Q1009 NOSIG=
08/04/2021 05:00:00Z	 SAID32 WIPP 080500	METAR WIPP 080500Z 30009KT 9999 SCT010 27/23 Q1009 NOSIG=
08/04/2021 05:30:00Z	 SAID32 WIPP 080530	METAR WIPP 080530Z 30007KT 9999 SCT010 28/23 Q1008 NOSIG=
08/04/2021 06:00:00Z	 SAID32 WIPP 080600	METAR WIPP 080600Z 30011KT 9999 SCT010 29/24 Q1008 NOSIG=
08/04/2021 06:30:00Z	 SAID32 WIPP 080630	METAR WIPP 080630Z 28014KT 9999 SCT010 29/24 Q1007 NOSIG=
08/04/2021 07:00:00Z	 SAID32 WIPP 080700	METAR WIPP 080700Z 28011KT 9999 SCT010 29/24 Q1007 NOSIG=
08/04/2021 07:30:00Z	 SAID32 WIPP 080730	METAR WIPP 080730Z 29008KT 9999 SCT010 29/24 Q1006 NOSIG=
08/04/2021 08:00:00Z	 SAID32 WIPP 080800	METAR WIPP 080800Z 27005KT 9999 SCT010 29/24 Q1006 NOSIG=
08/04/2021 08:30:00Z	 SAID32 WIPP 080830	METAR WIPP 080830Z 30006KT 9999 SCT010 30/24 Q1006 NOSIG=
08/04/2021 09:00:00Z	 SAID32 WIPP 080900	METAR WIPP 080900Z 32007KT 9999 SCT010 30/24 Q1006 NOSIG=
08/04/2021 09:30:00Z	 SAID32 WIPP 080930	METAR WIPP 080930Z 32008KT 9999 SCT010 30/24 Q1007 NOSIG=
08/04/2021 10:00:00Z	 SAID32 WIPP 081000	METAR WIPP 081000Z 32007KT 9999 SCT010 29/24 Q1007 NOSIG=
08/04/2021 10:30:00Z	 SAID32 WIPP 081030	METAR WIPP 081030Z 33005KT 9999 SCT010 29/24 Q1007 NOSIG=
08/04/2021 11:00:00Z	 SAID32 WIPP 081100	METAR WIPP 081100Z 35003KT 9999 FEW010 29/24 Q1007 NOSIG=
08/04/2021 11:30:00Z	 SAID32 WIPP 081130	METAR WIPP 081130Z 34004KT 9999 FEW010 28/24 Q1007 NOSIG=
08/04/2021 12:00:00Z	 SAID32 WIPP 081200	METAR WIPP 081200Z 01003KT 9999 FEW010 28/25 Q1008 NOSIG=
08/04/2021 12:30:00Z	 SAID32 WIPP 081230	METAR WIPP 081230Z 01003KT 9999 FEW010 27/25 Q1008 NOSIG=
08/04/2021 13:00:00Z	 SAID32 WIPP 081300	METAR WIPP 081300Z 36003KT 9999 FEW010 27/24 Q1008 NOSIG=
08/04/2021 14:00:00Z	 SAID32 WIPP 081400	METAR WIPP 081400Z 00000KT 9999 FEW010 27/24 Q1009 NOSIG=
08/04/2021 15:00:00Z	 SAID32 WIPP 081500	METAR WIPP 081500Z 00000KT 9999 FEW010 26/24 Q1009 NOSIG=
08/04/2021 16:00:00Z	 SAID32 WIPP 081600	METAR WIPP 081600Z 00000KT 8000 FEW010 26/24 Q1010 NOSIG=
08/04/2021 17:00:00Z	 SAID32 WIPP 081700	METAR WIPP 081700Z 01002KT 8000 FEW010 26/24 Q1010 NOSIG=
08/04/2021 18:00:00Z	 SAID32 WIPP 081800	METAR WIPP 081800Z 24002KT 6000 FEW010 25/24 Q1009 NOSIG=
08/04/2021 19:00:00Z	 SAID32 WIPP 081900	METAR WIPP 081900Z 32004KT 6000 FEW010 25/24 Q1008 NOSIG=
08/04/2021 20:00:00Z	 SAID32 WIPP 082000	METAR WIPP 082000Z 32004KT 6000 FEW010 25/24 Q1008 NOSIG=
08/04/2021 21:00:00Z	 SAID32 WIPP 082100	METAR WIPP 082100Z 31005KT 5000 HZ FEW010 25/24 Q1008=
08/04/2021 22:00:00Z	 SAID32 WIPP 082200	METAR WIPP 082200Z 31006KT 6000 FEW010 25/24 Q1008 NOSIG=
