Las cookies de este sitio web se usan para personalizar el contenido y
los anuncios, ofrecer funciones de redes sociales y analizar el tráfico.
Ademas, compartimos el uso que haga del sitio web con nuestros partners
de redes sociales, publicidad y análisis web, quienes pueden combinarla
con otra información que les haya proporcionado o que hayan recopilado a
partir del uso que haya hecho de sus servicios. Si continua navegando en
estas páginas consideramos que acepta su uso. Saber más
<https://www.ogimet.com/cookiespolicy.phtml>
Entendido

##########################################################
# Query made at 08/06/2020 23:54:09 UTC
##########################################################

##########################################################
# latest SYNOP reports from Indonesia before 08/06/2020 23:54:09 UTC
##########################################################
202008062100 AAXX 06214 96001 32556 60000 10260 20236 39940 40086 52030 83232
                   333 56500 57852 83820 80860=
202008062100 AAXX 06214 96009 32456 52204 10253 20241 30040 40074 57019 81521
                   333 56000 81617 84460=
202008062100 AAXX 06214 96011 32559 51705 10254 20236 30052 40076 57028 82531
                   333 56000 82620=
202008062100 AAXX 06214 96015 32456 70101 10250 20242 30078 40084 57014 84572
                   333 56000 84618=
202008062100 AAXX 06214 96033 31450 70000 10276 20252 30069 40074 57009 70522 83936
                   333 56000 57903 81920 83617 83360 80980=
202008062100 AAXX 06214 96035 32460 62105 10260 20247 30064 40072 57011 83578
                   333 56000 83618=
202008062100 AAXX 06214 96073 31550 70000 10234 20228 30070 40084 56017 70522 83522
                   333 56000 83620=
202008062100 AAXX 06214 96075 32456 60000 10238 20231 30074 40084 57016 83571
                   333 56000 83617=
202008062100 AAXX 06214 96087 32460 71404 10273 20252 30052 40097 56005 82578
                   333 56440 82614 85360=
202008062100 AAXX 06214 96091 32460 61402 10258 20242 30062 40085 55006 81151
                   333 56000 81817 85360=
202008062100 AAXX 06214 96109 32458 60000 10256 20244 30031 40067 57013 81572
                   333 56000 81613 83360=
202008062100 AAXX 06214 96145 32458 60000 10260 20229 30070 40072 56009 82131
                   333 56400 82617 85070=
202008062100 AAXX 06214 96163 32550 70502 10243 20236 30082 40090 55008 81531
                   333 56000 81620 84080=
202008062100 AAXX 06214 96171 32456 40000 10250 20243 30050 40074 56006 82522
                   333 56000 82615=
202008062100 AAXX 06214 96179 32458 71003 10267 20250 30041 40076 56008 82218
                   333 56000 57802 82817 83460 87280 80850=
202008062100 AAXX 06214 96195 31458 70000 10256 20248 30046 40076 56010 70522 82521
                   333 56000 82615 85460=
202008062100 AAXX 06214 96207 32456 40000 10172 20159 39222 40127 57015 82531
                   333 56000 82622=
202008062100 AAXX 06214 96221 32460 61705 10264 20251 30068 40082 57011 84131
                   333 56999 84810 85080=
202008062100 AAXX 06214 96237 32457 81604 10259 20242 30038 40079 56015 82178
                   333 56000 82816 83360=
202008062100 AAXX 06214 96249 32557 60000 10234 20224 30021 40084 57013 82232
                   333 56300 57832 82820 80863=
202008062100 AAXX 06214 96253 32558 60502 10248 20240 30062 40080 55008 82832
                   333 56000 57800 81820 83360=
202008062100 AAXX 06214 96295 31430 62103 10246 20234 39990 40092 56007 83521
                   333 56000 83614 83460=
202008062100 AAXX 06214 96509 32458 71003 10255 20248 30067 40076 57010 84271
                   333 56000 84815 85460=
202008062100 AAXX 06214 96525 32450 80000 10256 20249 30073 40076 56010 83571
                   333 56000 83615 85460=
202008062100 AAXX 06214 96529 32457 73403 10245 20241 30072 40088 57006 83121
                   333 56000 83817 84460=
202008062100 AAXX 06214 96559 31430 50000 10220 20220 30038 40080 55015 71020
                   333 82614 84362=
202008062100 AAXX 06214 96581 31440 50000 10239 20230 30079 40086 57006 71022 82131
                   333 56000 82812 83362=
202008062100 AAXX 06214 96615 32956 50000 10242 20232 30081 40091 55004 84031
                   333 56000 84362=
202008062100 AAXX 06214 96633 32459 72504 10258 20248 30078 40084 53000 82271
                   333 56000 82618 84360=
202008062100 AAXX 06214 96645 32456 50000 10246 20239 30051 40083 57007 83511
                   333 56000 83618=
202008062100 AAXX 06214 96655 32459 52301 10251 20243 30067 40104 58004 83531
                   333 56000 83612 84362=
202008062100 AAXX 06214 96685 32559 40405 10252 20235 30065 40086 54000 81531
                   333 56000 81620 84362=
202008062100 AAXX 06214 96737 31450 50000 10252 20238 30045 40075 56012 70522 82521
                   333 56000 82617 83460=
202008062100 AAXX 06214 96739 31507 60000 10243 20233 30041 40094 57012 71022 82512
                   333 56000 82620 83460=
202008062100 AAXX 06214 96741 32450 61404 10278 20250 30083 40087 57013 83521
                   333 56000 83619=
202008062100 AAXX 06214 96745 32556 60000 10274 20247 30083 40088 57013 82521
                   333 56000 82620 85460=
202008062100 AAXX 06214 96749 31550 51803 10251 20235 30075 40089 56009 70511 81421
                   333 56000 81622 84460=
202008062100 AAXX 06214 96751 32550 70000 10197 20187 39027 40080 56012 85511
                   333 56000 85620=
202008062100 AAXX 06214 96781 31440 40000 10210 20198 39282 40141 57009 70521 83531
                   333 56000 83618=
202008062100 AAXX 06214 96791 32560 61902 10244 20219 30041 40092 56009 83511
                   333 56000 83620 84460=
202008062100 AAXX 06214 96797 32558 42109 10246 20210 30092 40095 56007 81501
                   333 56000 81620 84080=
202008062100 AAXX 06214 96805 32556 60000 10236 20222 30105 40112 57003 86500
                   333 56200 86620=
202008062100 AAXX 06214 96837 31557 61003 10272 20229 30088 40089 55005 70522 83221
                   333 56000 57800 83820=
202008062100 AAXX 06214 96839 21456 71105 10269 20232 30087 40091 57007 70262 83272
                   333 56000 57803 69907 83814 84461 80860=
202008062100 AAXX 06214 96925 32460 50907 10269 20230 30085 40090 57003 85232
                   333 56200 57822 85818 80860=
202008062100 AAXX 06214 96933 32559 70000 10256 20219 30096 40100 57001 83231
                   333 56000 57801 83820 85360 80860=
202008062100 AAXX 06214 96935 32557 60000 10243 20210 30095 40099 55002 82472
                   333 56000 82620 84460=
202008062100 AAXX 06214 96937 32559 71802 10256 20219 30096 40099 57001 83231
                   333 56000 57801 83820 85360 80860=
202008062100 AAXX 06214 96973 32558 40903 10260 20218 30097 40100 56002 82231
                   333 56000 57803 82820 80850=
202008062100 AAXX 06214 96987 32458 42303 10236 20203 30053 40103 56002 82521
                   333 56000 82619=
202008062100 AAXX 06214 97008 21457 73104 10246 20235 30077 40090 53003 71562 84272
                   333 56000 57801 69927 83818 80860=
202008062100 AAXX 06214 97014 32560 71104 10248 20205 39993 40086 55010 82571
                   333 56000 82621 84360=
202008062100 AAXX 06214 97016 32462 70000 10260 20222 30088 40093 55005 82271
                   333 56000 57803 82819 84360 80858=
202008062100 AAXX 06214 97028 32558 80802 10236 20226 30076 40079 58004 83521
                   333 56000 83620 87460=
202008062100 AAXX 06214 97048 32458 60000 10246 20244 30052 40076 54000 84531
                   333 56000 84617=
202008062100 AAXX 06214 97072 32458 50000 10232 20216 30009 40109 50001 82571
                   333 56000 82619=
202008062100 AAXX 06214 97086 32560 52903 10266 20214 30079 40100 56012 82271
                   333 56000 57804 82820 84460 80860=
202008062100 AAXX 06214 97096 32459 50000 10236 20229 30083 40091 53002 82221
                   333 56000 57802 82817 83460 80860=
202008062100 AAXX 06214 97120 32459 60807 10260 20227 30062 40097 53001 82231
                   333 56000 57802 82818 84360 80860=
202008062100 AAXX 06214 97126 32457 70000 10252 20241 30052 40097 55003 82520
                   333 56000 82617 87460=
202008062100 AAXX 06214 97180 32558 41203 10232 20213 30077 40093 55004 81131
                   333 56000 81820 83080=
202008062100 AAXX 06214 97182 32560 31102 10254 20221 30086 40088 55005 81831
                   333 56000 57800 81820 808//=
202008062100 AAXX 06214 97192 32458 21103 10232 20214 30060 40124 51002 81501
                   333 56000 81617=
202008062100 AAXX 06214 97230 32460 61106 10254 20216 30108 40112 55000 85201
                   333 56200 57821 85817 80860=
202008062100 AAXX 06214 97240 32457 40000 10220 20211 30003 40119 52004 83131
                   333 56000 83816=
202008062100 AAXX 06214 97260 32558 11405 10210 20184 30096 40101 55003 81101
                   333 56000 81820=
202008062100 AAXX 06214 97270 32456 30000 10216 20198 30106 40109 55000 82101
                   333 56000 82815=
202008062100 AAXX 06214 97300 32458 22104 10232 20193 30083 40119 53001 82101
                   333 56000 82818=
202008062100 AAXX 06214 97310 32558 10000 10248 20172 30095 40107 53002 81101
                   333 56000 81820=
202008061800 AAXX 06184 97320 32558 32102 10240 20204 30097 40110 57011 81101
                   333 56000 81820 83080=
202008062100 AAXX 06214 97340 32550 22203 10214 20190 30105 40117 55000 81102
                   333 56000 81820=
202008062100 AAXX 06214 97372 32458 41505 10222 20196 39998 40120 58002 82131
                   333 56000 82818=
202008062100 AAXX 06214 97378 32560 31804 10214 20198 39959 40169 53003 82101
                   333 56000 82820=
202008061800 AAXX 06184 97380 32456 10000 10240 20205 30093 40111 57010 81101
                   333 56200 81815=
202008062100 AAXX 06214 97406 32458 70000 10236 20232 30051 40092 53007 81172
                   333 56000 81818 87360=
202008062100 AAXX 06214 97430 32459 62602 10256 20226 30066 40105 52008 83272
                   333 56300 57832 83818 80860=
202008062100 AAXX 06214 97460 21457 70000 10230 20220 30077 40099 54007 72162 84372
                   333 56000 57902 60017 81917 83818 80958=
202008062100 AAXX 06214 97502 21456 60602 10242 20234 30095 40095 53001 70262 84231
                   333 56000 57802 69907 84812 80856=
202008062100 AAXX 06214 97530 32460 80000 10254 20235 30092 40096 53008 84232
                   333 56000 57803 84814 83360 80833=
202008062100 AAXX 06214 97560 32460 80203 10246 20242 30082 40097 50004 81297
                   333 57800 81818 84360 88279 80859=
202008062100 AAXX 06214 97570 21458 70000 10236 20226 30081 40084 51005 70262 8397/
                   333 56000 57900 69907 81912 82813 87361 809//=
202008061800 AAXX 06184 97600 32459 62802 10254 20233 30091 40093 58014 82231
                   333 56000 57803 82819 85360 80859=
202008062100 AAXX 06214 97630 21450 80504 10235 20228 39953 40114 5//// 70262 84972
                   333 56000 57902 60041 81910 83811 83360 80974=
202008062100 AAXX 06214 97682 21456 81605 10242 20234 30095 40102 53015 72162 83822
                   333 56000 57802 69937 83816 85360 80858=
202008061800 AAXX 06184 97686 31010 82003 10157 20157 38355 40203 58025 71122 86735
                   333 56000 86701 87361=
202008062100 AAXX 06214 97690 32460 50000 10224 20203 39996 40091 52010 82732
                   333 56000 82811 83365=
202008062100 AAXX 06214 97698 32460 50000 10242 20228 30090 40094 5//// 82131
                   333 56000 82810=
202008062100 AAXX 06214 97700 32460 70000 10238 20230 30075 40097 52002 82232
                   333 56000 57803 82818 85359 80856=
202008062100 AAXX 06214 97722 21458 80000 10232 20228 30097 40107 55000 76166 8587/
                   333 56209 57821 60017 83816 88457 80858=
202008062100 AAXX 06214 97724 32457 73603 10233 20225 30085 40105 54000 84871
                   333 56200 57821 83817 80860=
202008061800 AAXX 06184 97748 31450 82806 10250 20236 30101 40103 57009 71622 8497/
                   333 57940 57840 82914 82815 84458 80950 80840=
202008062100 AAXX 06214 97760 21440 80000 10242 20239 30094 40103 52001 76162 8682/
                   333 56009 57802 60027 82815 84617 80860=
202008062100 AAXX 06214 97780 21350 81203 10156 20143 38242 40093 52005 72116 84823
                   333 56000 57802 60087 84809 83461 80863=
202008062100 AAXX 06214 97790 21457 81904 10246 20228 30084 40104 53001 70262 8217/
                   333 56309 57832 69907 82818 85458 80858=
202008062100 AAXX 06214 97796 31410 80000 10248 20247 30070 40118 53007 74022 8551/
                   333 56009 85612 86460=
202008062100 AAXX 06214 97810 21456 70000 10238 20234 30079 40111 52006 71562 84872
                   333 56200 57821 69957 82818 85458 80850=
202008062100 AAXX 06214 97876 01340 82001 10239 20231 30066 40098 58015 69921 75052 86572
                   333 56000 57901 69927 82909 84610 86457 80960=
202008062100 AAXX 06214 97900 32565 50000 10246 20214 30080 40109 53004 84210
                   333 56200 57821 84820 80850=
202008062100 AAXX 06214 97980 32459 70000 10242 20230 30096 40100 54000 86842
                   333 56000 57803 82814 84616 80857=

